<?xml version="1.0" encoding="UTF-8"?>
<gpx xmlns="http://www.topografix.com/GPX/1/1" xmlns:xsi="http://www.w3.org/2001/XMLSchema-instance" version="1.1" creator="phpGPX/1.3.0" xsi:schemaLocation="http://www.topografix.com/GPX/1/1 http://www.topografix.com/GPX/1/1/gpx.xsd">
  <metadata>
    <time>2026-05-11T18:25:00+00:00</time>
  </metadata>
  <trk>
    <name>10km Petit Balcon Sud</name>
    <trkseg>
      <trkpt lat="45.92343" lon="6.87091">
        <ele>1040</ele>
        <time>2026-05-11T18:25:01+00:00</time>
      </trkpt>
      <trkpt lat="45.92361" lon="6.87006">
        <ele>1042</ele>
        <time>2026-05-11T18:25:02+00:00</time>
      </trkpt>
      <trkpt lat="45.92383" lon="6.87015">
        <ele>1042</ele>
        <time>2026-05-11T18:25:03+00:00</time>
      </trkpt>
      <trkpt lat="45.92397" lon="6.87018">
        <ele>1043</ele>
        <time>2026-05-11T18:25:04+00:00</time>
      </trkpt>
      <trkpt lat="45.92406" lon="6.87022">
        <ele>1043</ele>
        <time>2026-05-11T18:25:05+00:00</time>
      </trkpt>
      <trkpt lat="45.92415" lon="6.8703">
        <ele>1043</ele>
        <time>2026-05-11T18:25:06+00:00</time>
      </trkpt>
      <trkpt lat="45.92433" lon="6.87041">
        <ele>1043</ele>
        <time>2026-05-11T18:25:07+00:00</time>
      </trkpt>
      <trkpt lat="45.92457" lon="6.87052">
        <ele>1042</ele>
        <time>2026-05-11T18:25:08+00:00</time>
      </trkpt>
      <trkpt lat="45.92475" lon="6.87054">
        <ele>1042</ele>
        <time>2026-05-11T18:25:09+00:00</time>
      </trkpt>
      <trkpt lat="45.92481" lon="6.87053">
        <ele>1042</ele>
        <time>2026-05-11T18:25:10+00:00</time>
      </trkpt>
      <trkpt lat="45.92492" lon="6.87048">
        <ele>1042</ele>
        <time>2026-05-11T18:25:11+00:00</time>
      </trkpt>
      <trkpt lat="45.92498" lon="6.87049">
        <ele>1042</ele>
        <time>2026-05-11T18:25:12+00:00</time>
      </trkpt>
      <trkpt lat="45.925" lon="6.87057">
        <ele>1042</ele>
        <time>2026-05-11T18:25:13+00:00</time>
      </trkpt>
      <trkpt lat="45.92502" lon="6.87087">
        <ele>1040</ele>
        <time>2026-05-11T18:25:14+00:00</time>
      </trkpt>
      <trkpt lat="45.92499" lon="6.87112">
        <ele>1039</ele>
        <time>2026-05-11T18:25:15+00:00</time>
      </trkpt>
      <trkpt lat="45.92504" lon="6.87113">
        <ele>1039</ele>
        <time>2026-05-11T18:25:16+00:00</time>
      </trkpt>
      <trkpt lat="45.92502" lon="6.87121">
        <ele>1038</ele>
        <time>2026-05-11T18:25:17+00:00</time>
      </trkpt>
      <trkpt lat="45.92517" lon="6.87126">
        <ele>1038</ele>
        <time>2026-05-11T18:25:18+00:00</time>
      </trkpt>
      <trkpt lat="45.92535" lon="6.87136">
        <ele>1039</ele>
        <time>2026-05-11T18:25:19+00:00</time>
      </trkpt>
      <trkpt lat="45.9254" lon="6.87136">
        <ele>1039</ele>
        <time>2026-05-11T18:25:20+00:00</time>
      </trkpt>
      <trkpt lat="45.92548" lon="6.87146">
        <ele>1039</ele>
        <time>2026-05-11T18:25:21+00:00</time>
      </trkpt>
      <trkpt lat="45.92554" lon="6.87149">
        <ele>1039</ele>
        <time>2026-05-11T18:25:22+00:00</time>
      </trkpt>
      <trkpt lat="45.92558" lon="6.8715">
        <ele>1039</ele>
        <time>2026-05-11T18:25:23+00:00</time>
      </trkpt>
      <trkpt lat="45.92574" lon="6.87144">
        <ele>1040</ele>
        <time>2026-05-11T18:25:24+00:00</time>
      </trkpt>
      <trkpt lat="45.92621" lon="6.87156">
        <ele>1040</ele>
        <time>2026-05-11T18:25:25+00:00</time>
      </trkpt>
      <trkpt lat="45.92773" lon="6.87201">
        <ele>1042</ele>
        <time>2026-05-11T18:25:26+00:00</time>
      </trkpt>
      <trkpt lat="45.92792" lon="6.87205">
        <ele>1043</ele>
        <time>2026-05-11T18:25:27+00:00</time>
      </trkpt>
      <trkpt lat="45.92854" lon="6.87234">
        <ele>1044</ele>
        <time>2026-05-11T18:25:28+00:00</time>
      </trkpt>
      <trkpt lat="45.92898" lon="6.87245">
        <ele>1045</ele>
        <time>2026-05-11T18:25:29+00:00</time>
      </trkpt>
      <trkpt lat="45.92907" lon="6.87252">
        <ele>1045</ele>
        <time>2026-05-11T18:25:30+00:00</time>
      </trkpt>
      <trkpt lat="45.93009" lon="6.87275">
        <ele>1043</ele>
        <time>2026-05-11T18:25:31+00:00</time>
      </trkpt>
      <trkpt lat="45.93035" lon="6.87294">
        <ele>1046</ele>
        <time>2026-05-11T18:25:32+00:00</time>
      </trkpt>
      <trkpt lat="45.93052" lon="6.87311">
        <ele>1047</ele>
        <time>2026-05-11T18:25:33+00:00</time>
      </trkpt>
      <trkpt lat="45.93065" lon="6.87327">
        <ele>1047</ele>
        <time>2026-05-11T18:25:34+00:00</time>
      </trkpt>
      <trkpt lat="45.93072" lon="6.87354">
        <ele>1047</ele>
        <time>2026-05-11T18:25:35+00:00</time>
      </trkpt>
      <trkpt lat="45.93076" lon="6.87386">
        <ele>1047</ele>
        <time>2026-05-11T18:25:36+00:00</time>
      </trkpt>
      <trkpt lat="45.93116" lon="6.87361">
        <ele>1051</ele>
        <time>2026-05-11T18:25:37+00:00</time>
      </trkpt>
      <trkpt lat="45.93137" lon="6.87355">
        <ele>1053</ele>
        <time>2026-05-11T18:25:38+00:00</time>
      </trkpt>
      <trkpt lat="45.93137" lon="6.87348">
        <ele>1053</ele>
        <time>2026-05-11T18:25:39+00:00</time>
      </trkpt>
      <trkpt lat="45.93141" lon="6.87335">
        <ele>1054</ele>
        <time>2026-05-11T18:25:40+00:00</time>
      </trkpt>
      <trkpt lat="45.93081" lon="6.87285">
        <ele>1051</ele>
        <time>2026-05-11T18:25:41+00:00</time>
      </trkpt>
      <trkpt lat="45.93073" lon="6.87273">
        <ele>1051</ele>
        <time>2026-05-11T18:25:42+00:00</time>
      </trkpt>
      <trkpt lat="45.93073" lon="6.87266">
        <ele>1052</ele>
        <time>2026-05-11T18:25:43+00:00</time>
      </trkpt>
      <trkpt lat="45.93081" lon="6.87248">
        <ele>1054</ele>
        <time>2026-05-11T18:25:44+00:00</time>
      </trkpt>
      <trkpt lat="45.93081" lon="6.87242">
        <ele>1055</ele>
        <time>2026-05-11T18:25:45+00:00</time>
      </trkpt>
      <trkpt lat="45.93075" lon="6.87232">
        <ele>1055</ele>
        <time>2026-05-11T18:25:46+00:00</time>
      </trkpt>
      <trkpt lat="45.93073" lon="6.87224">
        <ele>1056</ele>
        <time>2026-05-11T18:25:47+00:00</time>
      </trkpt>
      <trkpt lat="45.93079" lon="6.87212">
        <ele>1058</ele>
        <time>2026-05-11T18:25:48+00:00</time>
      </trkpt>
      <trkpt lat="45.9308" lon="6.87188">
        <ele>1062</ele>
        <time>2026-05-11T18:25:49+00:00</time>
      </trkpt>
      <trkpt lat="45.93082" lon="6.87181">
        <ele>1063</ele>
        <time>2026-05-11T18:25:50+00:00</time>
      </trkpt>
      <trkpt lat="45.93094" lon="6.8716">
        <ele>1068</ele>
        <time>2026-05-11T18:25:51+00:00</time>
      </trkpt>
      <trkpt lat="45.93095" lon="6.8715">
        <ele>1069</ele>
        <time>2026-05-11T18:25:52+00:00</time>
      </trkpt>
      <trkpt lat="45.93099" lon="6.87142">
        <ele>1071</ele>
        <time>2026-05-11T18:25:53+00:00</time>
      </trkpt>
      <trkpt lat="45.93102" lon="6.8714">
        <ele>1072</ele>
        <time>2026-05-11T18:25:54+00:00</time>
      </trkpt>
      <trkpt lat="45.93112" lon="6.87146">
        <ele>1072</ele>
        <time>2026-05-11T18:25:55+00:00</time>
      </trkpt>
      <trkpt lat="45.93125" lon="6.87147">
        <ele>1075</ele>
        <time>2026-05-11T18:25:56+00:00</time>
      </trkpt>
      <trkpt lat="45.93118" lon="6.87136">
        <ele>1075</ele>
        <time>2026-05-11T18:25:57+00:00</time>
      </trkpt>
      <trkpt lat="45.93117" lon="6.87118">
        <ele>1078</ele>
        <time>2026-05-11T18:25:58+00:00</time>
      </trkpt>
      <trkpt lat="45.93106" lon="6.87101">
        <ele>1078</ele>
        <time>2026-05-11T18:25:59+00:00</time>
      </trkpt>
      <trkpt lat="45.93098" lon="6.87081">
        <ele>1079</ele>
        <time>2026-05-11T18:26:00+00:00</time>
      </trkpt>
      <trkpt lat="45.93105" lon="6.87083">
        <ele>1080</ele>
        <time>2026-05-11T18:26:01+00:00</time>
      </trkpt>
      <trkpt lat="45.93114" lon="6.87091">
        <ele>1081</ele>
        <time>2026-05-11T18:26:02+00:00</time>
      </trkpt>
      <trkpt lat="45.9313" lon="6.87093">
        <ele>1084</ele>
        <time>2026-05-11T18:26:03+00:00</time>
      </trkpt>
      <trkpt lat="45.93137" lon="6.8709">
        <ele>1086</ele>
        <time>2026-05-11T18:26:04+00:00</time>
      </trkpt>
      <trkpt lat="45.93151" lon="6.87089">
        <ele>1089</ele>
        <time>2026-05-11T18:26:05+00:00</time>
      </trkpt>
      <trkpt lat="45.93169" lon="6.87084">
        <ele>1094</ele>
        <time>2026-05-11T18:26:06+00:00</time>
      </trkpt>
      <trkpt lat="45.93322" lon="6.87081">
        <ele>1116</ele>
        <time>2026-05-11T18:26:07+00:00</time>
      </trkpt>
      <trkpt lat="45.93363" lon="6.87077">
        <ele>1124</ele>
        <time>2026-05-11T18:26:08+00:00</time>
      </trkpt>
      <trkpt lat="45.9343" lon="6.87076">
        <ele>1139</ele>
        <time>2026-05-11T18:26:09+00:00</time>
      </trkpt>
      <trkpt lat="45.93474" lon="6.871">
        <ele>1139</ele>
        <time>2026-05-11T18:26:10+00:00</time>
      </trkpt>
      <trkpt lat="45.93546" lon="6.8715">
        <ele>1143</ele>
        <time>2026-05-11T18:26:11+00:00</time>
      </trkpt>
      <trkpt lat="45.93579" lon="6.87169">
        <ele>1145</ele>
        <time>2026-05-11T18:26:12+00:00</time>
      </trkpt>
      <trkpt lat="45.93615" lon="6.87218">
        <ele>1147</ele>
        <time>2026-05-11T18:26:13+00:00</time>
      </trkpt>
      <trkpt lat="45.93661" lon="6.87262">
        <ele>1151</ele>
        <time>2026-05-11T18:26:14+00:00</time>
      </trkpt>
      <trkpt lat="45.93707" lon="6.87272">
        <ele>1160</ele>
        <time>2026-05-11T18:26:15+00:00</time>
      </trkpt>
      <trkpt lat="45.93749" lon="6.87267">
        <ele>1171</ele>
        <time>2026-05-11T18:26:16+00:00</time>
      </trkpt>
      <trkpt lat="45.93753" lon="6.87263">
        <ele>1172</ele>
        <time>2026-05-11T18:26:17+00:00</time>
      </trkpt>
      <trkpt lat="45.9376" lon="6.87261">
        <ele>1174</ele>
        <time>2026-05-11T18:26:18+00:00</time>
      </trkpt>
      <trkpt lat="45.93764" lon="6.87257">
        <ele>1176</ele>
        <time>2026-05-11T18:26:19+00:00</time>
      </trkpt>
      <trkpt lat="45.93763" lon="6.87245">
        <ele>1178</ele>
        <time>2026-05-11T18:26:20+00:00</time>
      </trkpt>
      <trkpt lat="45.93754" lon="6.87206">
        <ele>1184</ele>
        <time>2026-05-11T18:26:21+00:00</time>
      </trkpt>
      <trkpt lat="45.9377" lon="6.87191">
        <ele>1193</ele>
        <time>2026-05-11T18:26:22+00:00</time>
      </trkpt>
      <trkpt lat="45.93792" lon="6.87186">
        <ele>1202</ele>
        <time>2026-05-11T18:26:23+00:00</time>
      </trkpt>
      <trkpt lat="45.93845" lon="6.87208">
        <ele>1214</ele>
        <time>2026-05-11T18:26:24+00:00</time>
      </trkpt>
      <trkpt lat="45.9387" lon="6.87239">
        <ele>1213</ele>
        <time>2026-05-11T18:26:25+00:00</time>
      </trkpt>
      <trkpt lat="45.939" lon="6.8727">
        <ele>1215</ele>
        <time>2026-05-11T18:26:26+00:00</time>
      </trkpt>
      <trkpt lat="45.93936" lon="6.87321">
        <ele>1213</ele>
        <time>2026-05-11T18:26:27+00:00</time>
      </trkpt>
      <trkpt lat="45.94003" lon="6.87407">
        <ele>1207</ele>
        <time>2026-05-11T18:26:28+00:00</time>
      </trkpt>
      <trkpt lat="45.94041" lon="6.87429">
        <ele>1214</ele>
        <time>2026-05-11T18:26:29+00:00</time>
      </trkpt>
      <trkpt lat="45.9409" lon="6.87468">
        <ele>1215</ele>
        <time>2026-05-11T18:26:30+00:00</time>
      </trkpt>
      <trkpt lat="45.9411" lon="6.87489">
        <ele>1215</ele>
        <time>2026-05-11T18:26:31+00:00</time>
      </trkpt>
      <trkpt lat="45.94129" lon="6.87505">
        <ele>1215</ele>
        <time>2026-05-11T18:26:32+00:00</time>
      </trkpt>
      <trkpt lat="45.9415" lon="6.87515">
        <ele>1220</ele>
        <time>2026-05-11T18:26:33+00:00</time>
      </trkpt>
      <trkpt lat="45.94163" lon="6.87517">
        <ele>1224</ele>
        <time>2026-05-11T18:26:34+00:00</time>
      </trkpt>
      <trkpt lat="45.94179" lon="6.87511">
        <ele>1234</ele>
        <time>2026-05-11T18:26:35+00:00</time>
      </trkpt>
      <trkpt lat="45.94201" lon="6.87494">
        <ele>1252</ele>
        <time>2026-05-11T18:26:36+00:00</time>
      </trkpt>
      <trkpt lat="45.94228" lon="6.87486">
        <ele>1267</ele>
        <time>2026-05-11T18:26:37+00:00</time>
      </trkpt>
      <trkpt lat="45.94243" lon="6.87486">
        <ele>1274</ele>
        <time>2026-05-11T18:26:38+00:00</time>
      </trkpt>
      <trkpt lat="45.94254" lon="6.87493">
        <ele>1277</ele>
        <time>2026-05-11T18:26:39+00:00</time>
      </trkpt>
      <trkpt lat="45.94262" lon="6.87506">
        <ele>1277</ele>
        <time>2026-05-11T18:26:40+00:00</time>
      </trkpt>
      <trkpt lat="45.94263" lon="6.87525">
        <ele>1271</ele>
        <time>2026-05-11T18:26:41+00:00</time>
      </trkpt>
      <trkpt lat="45.94257" lon="6.8756">
        <ele>1256</ele>
        <time>2026-05-11T18:26:42+00:00</time>
      </trkpt>
      <trkpt lat="45.9426" lon="6.87576">
        <ele>1252</ele>
        <time>2026-05-11T18:26:43+00:00</time>
      </trkpt>
      <trkpt lat="45.94265" lon="6.87584">
        <ele>1252</ele>
        <time>2026-05-11T18:26:44+00:00</time>
      </trkpt>
      <trkpt lat="45.94283" lon="6.87592">
        <ele>1259</ele>
        <time>2026-05-11T18:26:45+00:00</time>
      </trkpt>
      <trkpt lat="45.94307" lon="6.87595">
        <ele>1271</ele>
        <time>2026-05-11T18:26:46+00:00</time>
      </trkpt>
      <trkpt lat="45.9434" lon="6.87607">
        <ele>1284</ele>
        <time>2026-05-11T18:26:47+00:00</time>
      </trkpt>
      <trkpt lat="45.9438" lon="6.87644">
        <ele>1291</ele>
        <time>2026-05-11T18:26:48+00:00</time>
      </trkpt>
      <trkpt lat="45.94404" lon="6.87661">
        <ele>1297</ele>
        <time>2026-05-11T18:26:49+00:00</time>
      </trkpt>
      <trkpt lat="45.94434" lon="6.87663">
        <ele>1310</ele>
        <time>2026-05-11T18:26:50+00:00</time>
      </trkpt>
      <trkpt lat="45.94462" lon="6.87669">
        <ele>1319</ele>
        <time>2026-05-11T18:26:51+00:00</time>
      </trkpt>
      <trkpt lat="45.94475" lon="6.87677">
        <ele>1321</ele>
        <time>2026-05-11T18:26:52+00:00</time>
      </trkpt>
      <trkpt lat="45.94485" lon="6.87688">
        <ele>1319</ele>
        <time>2026-05-11T18:26:53+00:00</time>
      </trkpt>
      <trkpt lat="45.94507" lon="6.877">
        <ele>1322</ele>
        <time>2026-05-11T18:26:54+00:00</time>
      </trkpt>
      <trkpt lat="45.94516" lon="6.87691">
        <ele>1331</ele>
        <time>2026-05-11T18:26:55+00:00</time>
      </trkpt>
      <trkpt lat="45.9452" lon="6.87691">
        <ele>1333</ele>
        <time>2026-05-11T18:26:56+00:00</time>
      </trkpt>
      <trkpt lat="45.94534" lon="6.87709">
        <ele>1331</ele>
        <time>2026-05-11T18:26:57+00:00</time>
      </trkpt>
      <trkpt lat="45.94539" lon="6.87711">
        <ele>1333</ele>
        <time>2026-05-11T18:26:58+00:00</time>
      </trkpt>
      <trkpt lat="45.94573" lon="6.87706">
        <ele>1352</ele>
        <time>2026-05-11T18:26:59+00:00</time>
      </trkpt>
      <trkpt lat="45.94578" lon="6.87707">
        <ele>1354</ele>
        <time>2026-05-11T18:27:00+00:00</time>
      </trkpt>
      <trkpt lat="45.94584" lon="6.87711">
        <ele>1356</ele>
        <time>2026-05-11T18:27:01+00:00</time>
      </trkpt>
      <trkpt lat="45.94592" lon="6.87736">
        <ele>1351</ele>
        <time>2026-05-11T18:27:02+00:00</time>
      </trkpt>
      <trkpt lat="45.94595" lon="6.87779">
        <ele>1333</ele>
        <time>2026-05-11T18:27:03+00:00</time>
      </trkpt>
      <trkpt lat="45.94597" lon="6.87782">
        <ele>1333</ele>
        <time>2026-05-11T18:27:04+00:00</time>
      </trkpt>
      <trkpt lat="45.94603" lon="6.87787">
        <ele>1334</ele>
        <time>2026-05-11T18:27:05+00:00</time>
      </trkpt>
      <trkpt lat="45.94611" lon="6.87787">
        <ele>1339</ele>
        <time>2026-05-11T18:27:06+00:00</time>
      </trkpt>
      <trkpt lat="45.94615" lon="6.8779">
        <ele>1340</ele>
        <time>2026-05-11T18:27:07+00:00</time>
      </trkpt>
      <trkpt lat="45.94618" lon="6.87794">
        <ele>1340</ele>
        <time>2026-05-11T18:27:08+00:00</time>
      </trkpt>
      <trkpt lat="45.9462" lon="6.87801">
        <ele>1338</ele>
        <time>2026-05-11T18:27:09+00:00</time>
      </trkpt>
      <trkpt lat="45.94641" lon="6.87822">
        <ele>1342</ele>
        <time>2026-05-11T18:27:10+00:00</time>
      </trkpt>
      <trkpt lat="45.94656" lon="6.87828">
        <ele>1349</ele>
        <time>2026-05-11T18:27:11+00:00</time>
      </trkpt>
      <trkpt lat="45.9466" lon="6.87852">
        <ele>1341</ele>
        <time>2026-05-11T18:27:12+00:00</time>
      </trkpt>
      <trkpt lat="45.94681" lon="6.87854">
        <ele>1353</ele>
        <time>2026-05-11T18:27:13+00:00</time>
      </trkpt>
      <trkpt lat="45.9471" lon="6.87861">
        <ele>1367</ele>
        <time>2026-05-11T18:27:14+00:00</time>
      </trkpt>
      <trkpt lat="45.94714" lon="6.87882">
        <ele>1360</ele>
        <time>2026-05-11T18:27:15+00:00</time>
      </trkpt>
      <trkpt lat="45.94732" lon="6.87895">
        <ele>1364</ele>
        <time>2026-05-11T18:27:16+00:00</time>
      </trkpt>
      <trkpt lat="45.94747" lon="6.8791">
        <ele>1366</ele>
        <time>2026-05-11T18:27:17+00:00</time>
      </trkpt>
      <trkpt lat="45.94769" lon="6.87925">
        <ele>1373</ele>
        <time>2026-05-11T18:27:18+00:00</time>
      </trkpt>
      <trkpt lat="45.94778" lon="6.87937">
        <ele>1373</ele>
        <time>2026-05-11T18:27:19+00:00</time>
      </trkpt>
      <trkpt lat="45.94777" lon="6.87959">
        <ele>1363</ele>
        <time>2026-05-11T18:27:20+00:00</time>
      </trkpt>
      <trkpt lat="45.94802" lon="6.88006">
        <ele>1360</ele>
        <time>2026-05-11T18:27:21+00:00</time>
      </trkpt>
      <trkpt lat="45.94845" lon="6.88032">
        <ele>1375</ele>
        <time>2026-05-11T18:27:22+00:00</time>
      </trkpt>
      <trkpt lat="45.94857" lon="6.88054">
        <ele>1369</ele>
        <time>2026-05-11T18:27:23+00:00</time>
      </trkpt>
      <trkpt lat="45.94857" lon="6.88071">
        <ele>1360</ele>
        <time>2026-05-11T18:27:24+00:00</time>
      </trkpt>
      <trkpt lat="45.94892" lon="6.88103">
        <ele>1359</ele>
        <time>2026-05-11T18:27:25+00:00</time>
      </trkpt>
      <trkpt lat="45.94902" lon="6.8811">
        <ele>1358</ele>
        <time>2026-05-11T18:27:26+00:00</time>
      </trkpt>
      <trkpt lat="45.94908" lon="6.88112">
        <ele>1359</ele>
        <time>2026-05-11T18:27:27+00:00</time>
      </trkpt>
      <trkpt lat="45.94902" lon="6.88116">
        <ele>1354</ele>
        <time>2026-05-11T18:27:28+00:00</time>
      </trkpt>
      <trkpt lat="45.94893" lon="6.88114">
        <ele>1352</ele>
        <time>2026-05-11T18:27:29+00:00</time>
      </trkpt>
      <trkpt lat="45.94885" lon="6.8811">
        <ele>1351</ele>
        <time>2026-05-11T18:27:30+00:00</time>
      </trkpt>
      <trkpt lat="45.94877" lon="6.88115">
        <ele>1345</ele>
        <time>2026-05-11T18:27:31+00:00</time>
      </trkpt>
      <trkpt lat="45.94883" lon="6.88124">
        <ele>1342</ele>
        <time>2026-05-11T18:27:32+00:00</time>
      </trkpt>
      <trkpt lat="45.94871" lon="6.88127">
        <ele>1336</ele>
        <time>2026-05-11T18:27:33+00:00</time>
      </trkpt>
      <trkpt lat="45.9488" lon="6.88133">
        <ele>1335</ele>
        <time>2026-05-11T18:27:34+00:00</time>
      </trkpt>
      <trkpt lat="45.94865" lon="6.88136">
        <ele>1329</ele>
        <time>2026-05-11T18:27:35+00:00</time>
      </trkpt>
      <trkpt lat="45.94872" lon="6.88139">
        <ele>1329</ele>
        <time>2026-05-11T18:27:36+00:00</time>
      </trkpt>
      <trkpt lat="45.94867" lon="6.88142">
        <ele>1326</ele>
        <time>2026-05-11T18:27:37+00:00</time>
      </trkpt>
      <trkpt lat="45.94872" lon="6.88145">
        <ele>1326</ele>
        <time>2026-05-11T18:27:38+00:00</time>
      </trkpt>
      <trkpt lat="45.94865" lon="6.88152">
        <ele>1320</ele>
        <time>2026-05-11T18:27:39+00:00</time>
      </trkpt>
      <trkpt lat="45.94866" lon="6.88161">
        <ele>1315</ele>
        <time>2026-05-11T18:27:40+00:00</time>
      </trkpt>
      <trkpt lat="45.94874" lon="6.88163">
        <ele>1316</ele>
        <time>2026-05-11T18:27:41+00:00</time>
      </trkpt>
      <trkpt lat="45.94869" lon="6.88171">
        <ele>1311</ele>
        <time>2026-05-11T18:27:42+00:00</time>
      </trkpt>
      <trkpt lat="45.94876" lon="6.88175">
        <ele>1311</ele>
        <time>2026-05-11T18:27:43+00:00</time>
      </trkpt>
      <trkpt lat="45.94883" lon="6.88191">
        <ele>1305</ele>
        <time>2026-05-11T18:27:44+00:00</time>
      </trkpt>
      <trkpt lat="45.949" lon="6.88195">
        <ele>1307</ele>
        <time>2026-05-11T18:27:45+00:00</time>
      </trkpt>
      <trkpt lat="45.94928" lon="6.88196">
        <ele>1312</ele>
        <time>2026-05-11T18:27:46+00:00</time>
      </trkpt>
      <trkpt lat="45.94955" lon="6.88189">
        <ele>1320</ele>
        <time>2026-05-11T18:27:47+00:00</time>
      </trkpt>
      <trkpt lat="45.94983" lon="6.88212">
        <ele>1317</ele>
        <time>2026-05-11T18:27:48+00:00</time>
      </trkpt>
      <trkpt lat="45.94987" lon="6.88222">
        <ele>1314</ele>
        <time>2026-05-11T18:27:49+00:00</time>
      </trkpt>
      <trkpt lat="45.94988" lon="6.88231">
        <ele>1312</ele>
        <time>2026-05-11T18:27:50+00:00</time>
      </trkpt>
      <trkpt lat="45.94985" lon="6.88239">
        <ele>1308</ele>
        <time>2026-05-11T18:27:51+00:00</time>
      </trkpt>
      <trkpt lat="45.94985" lon="6.88247">
        <ele>1305</ele>
        <time>2026-05-11T18:27:52+00:00</time>
      </trkpt>
      <trkpt lat="45.94981" lon="6.88251">
        <ele>1303</ele>
        <time>2026-05-11T18:27:53+00:00</time>
      </trkpt>
      <trkpt lat="45.94976" lon="6.88244">
        <ele>1304</ele>
        <time>2026-05-11T18:27:54+00:00</time>
      </trkpt>
      <trkpt lat="45.94974" lon="6.88245">
        <ele>1303</ele>
        <time>2026-05-11T18:27:55+00:00</time>
      </trkpt>
      <trkpt lat="45.94974" lon="6.88262">
        <ele>1299</ele>
        <time>2026-05-11T18:27:56+00:00</time>
      </trkpt>
      <trkpt lat="45.94971" lon="6.88266">
        <ele>1297</ele>
        <time>2026-05-11T18:27:57+00:00</time>
      </trkpt>
      <trkpt lat="45.94967" lon="6.88267">
        <ele>1296</ele>
        <time>2026-05-11T18:27:58+00:00</time>
      </trkpt>
      <trkpt lat="45.94968" lon="6.8827">
        <ele>1296</ele>
        <time>2026-05-11T18:27:59+00:00</time>
      </trkpt>
      <trkpt lat="45.94966" lon="6.88273">
        <ele>1294</ele>
        <time>2026-05-11T18:28:00+00:00</time>
      </trkpt>
      <trkpt lat="45.94958" lon="6.88273">
        <ele>1292</ele>
        <time>2026-05-11T18:28:01+00:00</time>
      </trkpt>
      <trkpt lat="45.9496" lon="6.88282">
        <ele>1291</ele>
        <time>2026-05-11T18:28:02+00:00</time>
      </trkpt>
      <trkpt lat="45.94956" lon="6.88277">
        <ele>1290</ele>
        <time>2026-05-11T18:28:03+00:00</time>
      </trkpt>
      <trkpt lat="45.94951" lon="6.88281">
        <ele>1288</ele>
        <time>2026-05-11T18:28:04+00:00</time>
      </trkpt>
      <trkpt lat="45.94948" lon="6.88293">
        <ele>1284</ele>
        <time>2026-05-11T18:28:05+00:00</time>
      </trkpt>
      <trkpt lat="45.94945" lon="6.88295">
        <ele>1282</ele>
        <time>2026-05-11T18:28:06+00:00</time>
      </trkpt>
      <trkpt lat="45.94942" lon="6.88303">
        <ele>1279</ele>
        <time>2026-05-11T18:28:07+00:00</time>
      </trkpt>
      <trkpt lat="45.9494" lon="6.88302">
        <ele>1279</ele>
        <time>2026-05-11T18:28:08+00:00</time>
      </trkpt>
      <trkpt lat="45.94938" lon="6.88308">
        <ele>1276</ele>
        <time>2026-05-11T18:28:09+00:00</time>
      </trkpt>
      <trkpt lat="45.94935" lon="6.8831">
        <ele>1275</ele>
        <time>2026-05-11T18:28:10+00:00</time>
      </trkpt>
      <trkpt lat="45.94934" lon="6.88313">
        <ele>1273</ele>
        <time>2026-05-11T18:28:11+00:00</time>
      </trkpt>
      <trkpt lat="45.94929" lon="6.88314">
        <ele>1271</ele>
        <time>2026-05-11T18:28:12+00:00</time>
      </trkpt>
      <trkpt lat="45.94924" lon="6.88321">
        <ele>1267</ele>
        <time>2026-05-11T18:28:13+00:00</time>
      </trkpt>
      <trkpt lat="45.94921" lon="6.8833">
        <ele>1263</ele>
        <time>2026-05-11T18:28:14+00:00</time>
      </trkpt>
      <trkpt lat="45.94917" lon="6.88333">
        <ele>1260</ele>
        <time>2026-05-11T18:28:15+00:00</time>
      </trkpt>
      <trkpt lat="45.94912" lon="6.88343">
        <ele>1257</ele>
        <time>2026-05-11T18:28:16+00:00</time>
      </trkpt>
      <trkpt lat="45.94909" lon="6.88355">
        <ele>1253</ele>
        <time>2026-05-11T18:28:17+00:00</time>
      </trkpt>
      <trkpt lat="45.94893" lon="6.88374">
        <ele>1244</ele>
        <time>2026-05-11T18:28:18+00:00</time>
      </trkpt>
      <trkpt lat="45.94894" lon="6.88379">
        <ele>1243</ele>
        <time>2026-05-11T18:28:19+00:00</time>
      </trkpt>
      <trkpt lat="45.94892" lon="6.88383">
        <ele>1241</ele>
        <time>2026-05-11T18:28:20+00:00</time>
      </trkpt>
      <trkpt lat="45.94878" lon="6.88387">
        <ele>1235</ele>
        <time>2026-05-11T18:28:21+00:00</time>
      </trkpt>
      <trkpt lat="45.94875" lon="6.8839">
        <ele>1233</ele>
        <time>2026-05-11T18:28:22+00:00</time>
      </trkpt>
      <trkpt lat="45.94871" lon="6.8839">
        <ele>1232</ele>
        <time>2026-05-11T18:28:23+00:00</time>
      </trkpt>
      <trkpt lat="45.94867" lon="6.88394">
        <ele>1229</ele>
        <time>2026-05-11T18:28:24+00:00</time>
      </trkpt>
      <trkpt lat="45.94864" lon="6.88391">
        <ele>1229</ele>
        <time>2026-05-11T18:28:25+00:00</time>
      </trkpt>
      <trkpt lat="45.94861" lon="6.88392">
        <ele>1227</ele>
        <time>2026-05-11T18:28:26+00:00</time>
      </trkpt>
      <trkpt lat="45.9486" lon="6.88383">
        <ele>1229</ele>
        <time>2026-05-11T18:28:27+00:00</time>
      </trkpt>
      <trkpt lat="45.94855" lon="6.88378">
        <ele>1229</ele>
        <time>2026-05-11T18:28:28+00:00</time>
      </trkpt>
      <trkpt lat="45.94851" lon="6.88378">
        <ele>1228</ele>
        <time>2026-05-11T18:28:29+00:00</time>
      </trkpt>
      <trkpt lat="45.94848" lon="6.88384">
        <ele>1225</ele>
        <time>2026-05-11T18:28:30+00:00</time>
      </trkpt>
      <trkpt lat="45.94849" lon="6.88388">
        <ele>1224</ele>
        <time>2026-05-11T18:28:31+00:00</time>
      </trkpt>
      <trkpt lat="45.94845" lon="6.88399">
        <ele>1219</ele>
        <time>2026-05-11T18:28:32+00:00</time>
      </trkpt>
      <trkpt lat="45.94843" lon="6.88398">
        <ele>1219</ele>
        <time>2026-05-11T18:28:33+00:00</time>
      </trkpt>
      <trkpt lat="45.94839" lon="6.88388">
        <ele>1220</ele>
        <time>2026-05-11T18:28:34+00:00</time>
      </trkpt>
      <trkpt lat="45.94836" lon="6.88389">
        <ele>1219</ele>
        <time>2026-05-11T18:28:35+00:00</time>
      </trkpt>
      <trkpt lat="45.94835" lon="6.88393">
        <ele>1217</ele>
        <time>2026-05-11T18:28:36+00:00</time>
      </trkpt>
      <trkpt lat="45.94836" lon="6.88398">
        <ele>1216</ele>
        <time>2026-05-11T18:28:37+00:00</time>
      </trkpt>
      <trkpt lat="45.94838" lon="6.884">
        <ele>1216</ele>
        <time>2026-05-11T18:28:38+00:00</time>
      </trkpt>
      <trkpt lat="45.94838" lon="6.88405">
        <ele>1215</ele>
        <time>2026-05-11T18:28:39+00:00</time>
      </trkpt>
      <trkpt lat="45.94834" lon="6.88406">
        <ele>1213</ele>
        <time>2026-05-11T18:28:40+00:00</time>
      </trkpt>
      <trkpt lat="45.94831" lon="6.884">
        <ele>1213</ele>
        <time>2026-05-11T18:28:41+00:00</time>
      </trkpt>
      <trkpt lat="45.94829" lon="6.88399">
        <ele>1213</ele>
        <time>2026-05-11T18:28:42+00:00</time>
      </trkpt>
      <trkpt lat="45.94827" lon="6.88402">
        <ele>1211</ele>
        <time>2026-05-11T18:28:43+00:00</time>
      </trkpt>
      <trkpt lat="45.94829" lon="6.88408">
        <ele>1210</ele>
        <time>2026-05-11T18:28:44+00:00</time>
      </trkpt>
      <trkpt lat="45.94832" lon="6.8841">
        <ele>1211</ele>
        <time>2026-05-11T18:28:45+00:00</time>
      </trkpt>
      <trkpt lat="45.94834" lon="6.88416">
        <ele>1209</ele>
        <time>2026-05-11T18:28:46+00:00</time>
      </trkpt>
      <trkpt lat="45.94833" lon="6.8842">
        <ele>1208</ele>
        <time>2026-05-11T18:28:47+00:00</time>
      </trkpt>
      <trkpt lat="45.94831" lon="6.88421">
        <ele>1207</ele>
        <time>2026-05-11T18:28:48+00:00</time>
      </trkpt>
      <trkpt lat="45.94828" lon="6.8842">
        <ele>1206</ele>
        <time>2026-05-11T18:28:49+00:00</time>
      </trkpt>
      <trkpt lat="45.94822" lon="6.88412">
        <ele>1206</ele>
        <time>2026-05-11T18:28:50+00:00</time>
      </trkpt>
      <trkpt lat="45.9482" lon="6.88413">
        <ele>1205</ele>
        <time>2026-05-11T18:28:51+00:00</time>
      </trkpt>
      <trkpt lat="45.9482" lon="6.88422">
        <ele>1203</ele>
        <time>2026-05-11T18:28:52+00:00</time>
      </trkpt>
      <trkpt lat="45.94824" lon="6.88431">
        <ele>1203</ele>
        <time>2026-05-11T18:28:53+00:00</time>
      </trkpt>
      <trkpt lat="45.94823" lon="6.88437">
        <ele>1201</ele>
        <time>2026-05-11T18:28:54+00:00</time>
      </trkpt>
      <trkpt lat="45.94818" lon="6.88436">
        <ele>1200</ele>
        <time>2026-05-11T18:28:55+00:00</time>
      </trkpt>
      <trkpt lat="45.94815" lon="6.8842">
        <ele>1201</ele>
        <time>2026-05-11T18:28:56+00:00</time>
      </trkpt>
      <trkpt lat="45.94813" lon="6.88417">
        <ele>1201</ele>
        <time>2026-05-11T18:28:57+00:00</time>
      </trkpt>
      <trkpt lat="45.94808" lon="6.88429">
        <ele>1197</ele>
        <time>2026-05-11T18:28:58+00:00</time>
      </trkpt>
      <trkpt lat="45.94802" lon="6.88432">
        <ele>1194</ele>
        <time>2026-05-11T18:28:59+00:00</time>
      </trkpt>
      <trkpt lat="45.94801" lon="6.88439">
        <ele>1193</ele>
        <time>2026-05-11T18:29:00+00:00</time>
      </trkpt>
      <trkpt lat="45.94802" lon="6.88446">
        <ele>1192</ele>
        <time>2026-05-11T18:29:01+00:00</time>
      </trkpt>
      <trkpt lat="45.9479" lon="6.88426">
        <ele>1191</ele>
        <time>2026-05-11T18:29:02+00:00</time>
      </trkpt>
      <trkpt lat="45.94744" lon="6.88312">
        <ele>1205</ele>
        <time>2026-05-11T18:29:03+00:00</time>
      </trkpt>
      <trkpt lat="45.94702" lon="6.88226">
        <ele>1205</ele>
        <time>2026-05-11T18:29:04+00:00</time>
      </trkpt>
      <trkpt lat="45.94654" lon="6.88155">
        <ele>1201</ele>
        <time>2026-05-11T18:29:05+00:00</time>
      </trkpt>
      <trkpt lat="45.94631" lon="6.88138">
        <ele>1198</ele>
        <time>2026-05-11T18:29:06+00:00</time>
      </trkpt>
      <trkpt lat="45.94619" lon="6.88116">
        <ele>1202</ele>
        <time>2026-05-11T18:29:07+00:00</time>
      </trkpt>
      <trkpt lat="45.94574" lon="6.88073">
        <ele>1197</ele>
        <time>2026-05-11T18:29:08+00:00</time>
      </trkpt>
      <trkpt lat="45.94539" lon="6.87998">
        <ele>1206</ele>
        <time>2026-05-11T18:29:09+00:00</time>
      </trkpt>
      <trkpt lat="45.94517" lon="6.87983">
        <ele>1200</ele>
        <time>2026-05-11T18:29:10+00:00</time>
      </trkpt>
      <trkpt lat="45.94498" lon="6.8794">
        <ele>1206</ele>
        <time>2026-05-11T18:29:11+00:00</time>
      </trkpt>
      <trkpt lat="45.94464" lon="6.87918">
        <ele>1198</ele>
        <time>2026-05-11T18:29:12+00:00</time>
      </trkpt>
      <trkpt lat="45.94452" lon="6.87916">
        <ele>1193</ele>
        <time>2026-05-11T18:29:13+00:00</time>
      </trkpt>
      <trkpt lat="45.94446" lon="6.87905">
        <ele>1195</ele>
        <time>2026-05-11T18:29:14+00:00</time>
      </trkpt>
      <trkpt lat="45.94427" lon="6.87878">
        <ele>1199</ele>
        <time>2026-05-11T18:29:15+00:00</time>
      </trkpt>
      <trkpt lat="45.94398" lon="6.87854">
        <ele>1199</ele>
        <time>2026-05-11T18:29:16+00:00</time>
      </trkpt>
      <trkpt lat="45.94365" lon="6.87837">
        <ele>1194</ele>
        <time>2026-05-11T18:29:17+00:00</time>
      </trkpt>
      <trkpt lat="45.94335" lon="6.87811">
        <ele>1193</ele>
        <time>2026-05-11T18:29:18+00:00</time>
      </trkpt>
      <trkpt lat="45.94295" lon="6.87763">
        <ele>1196</ele>
        <time>2026-05-11T18:29:19+00:00</time>
      </trkpt>
      <trkpt lat="45.9426" lon="6.87699">
        <ele>1203</ele>
        <time>2026-05-11T18:29:20+00:00</time>
      </trkpt>
      <trkpt lat="45.94219" lon="6.8765">
        <ele>1202</ele>
        <time>2026-05-11T18:29:21+00:00</time>
      </trkpt>
      <trkpt lat="45.94196" lon="6.87606">
        <ele>1208</ele>
        <time>2026-05-11T18:29:22+00:00</time>
      </trkpt>
      <trkpt lat="45.94187" lon="6.87593">
        <ele>1209</ele>
        <time>2026-05-11T18:29:23+00:00</time>
      </trkpt>
      <trkpt lat="45.94154" lon="6.87557">
        <ele>1207</ele>
        <time>2026-05-11T18:29:24+00:00</time>
      </trkpt>
      <trkpt lat="45.94128" lon="6.87539">
        <ele>1203</ele>
        <time>2026-05-11T18:29:25+00:00</time>
      </trkpt>
      <trkpt lat="45.94114" lon="6.87523">
        <ele>1203</ele>
        <time>2026-05-11T18:29:26+00:00</time>
      </trkpt>
      <trkpt lat="45.9409" lon="6.87481">
        <ele>1210</ele>
        <time>2026-05-11T18:29:27+00:00</time>
      </trkpt>
      <trkpt lat="45.9409" lon="6.87468">
        <ele>1215</ele>
        <time>2026-05-11T18:29:28+00:00</time>
      </trkpt>
      <trkpt lat="45.94041" lon="6.87429">
        <ele>1214</ele>
        <time>2026-05-11T18:29:29+00:00</time>
      </trkpt>
      <trkpt lat="45.94003" lon="6.87407">
        <ele>1207</ele>
        <time>2026-05-11T18:29:30+00:00</time>
      </trkpt>
      <trkpt lat="45.93936" lon="6.87321">
        <ele>1213</ele>
        <time>2026-05-11T18:29:31+00:00</time>
      </trkpt>
      <trkpt lat="45.939" lon="6.8727">
        <ele>1215</ele>
        <time>2026-05-11T18:29:32+00:00</time>
      </trkpt>
      <trkpt lat="45.9387" lon="6.87239">
        <ele>1213</ele>
        <time>2026-05-11T18:29:33+00:00</time>
      </trkpt>
      <trkpt lat="45.93855" lon="6.87193">
        <ele>1222</ele>
        <time>2026-05-11T18:29:34+00:00</time>
      </trkpt>
      <trkpt lat="45.93825" lon="6.87178">
        <ele>1216</ele>
        <time>2026-05-11T18:29:35+00:00</time>
      </trkpt>
      <trkpt lat="45.93811" lon="6.87158">
        <ele>1217</ele>
        <time>2026-05-11T18:29:36+00:00</time>
      </trkpt>
      <trkpt lat="45.938" lon="6.87134">
        <ele>1220</ele>
        <time>2026-05-11T18:29:37+00:00</time>
      </trkpt>
      <trkpt lat="45.93778" lon="6.87118">
        <ele>1216</ele>
        <time>2026-05-11T18:29:38+00:00</time>
      </trkpt>
      <trkpt lat="45.93752" lon="6.87093">
        <ele>1214</ele>
        <time>2026-05-11T18:29:39+00:00</time>
      </trkpt>
      <trkpt lat="45.93734" lon="6.87058">
        <ele>1225</ele>
        <time>2026-05-11T18:29:40+00:00</time>
      </trkpt>
      <trkpt lat="45.93699" lon="6.87041">
        <ele>1231</ele>
        <time>2026-05-11T18:29:41+00:00</time>
      </trkpt>
      <trkpt lat="45.93679" lon="6.87057">
        <ele>1223</ele>
        <time>2026-05-11T18:29:42+00:00</time>
      </trkpt>
      <trkpt lat="45.93658" lon="6.87056">
        <ele>1222</ele>
        <time>2026-05-11T18:29:43+00:00</time>
      </trkpt>
      <trkpt lat="45.93617" lon="6.87035">
        <ele>1224</ele>
        <time>2026-05-11T18:29:44+00:00</time>
      </trkpt>
      <trkpt lat="45.93557" lon="6.86969">
        <ele>1236</ele>
        <time>2026-05-11T18:29:45+00:00</time>
      </trkpt>
      <trkpt lat="45.93525" lon="6.8695">
        <ele>1233</ele>
        <time>2026-05-11T18:29:46+00:00</time>
      </trkpt>
      <trkpt lat="45.93471" lon="6.86874">
        <ele>1243</ele>
        <time>2026-05-11T18:29:47+00:00</time>
      </trkpt>
      <trkpt lat="45.93456" lon="6.86845">
        <ele>1247</ele>
        <time>2026-05-11T18:29:48+00:00</time>
      </trkpt>
      <trkpt lat="45.93443" lon="6.86826">
        <ele>1246</ele>
        <time>2026-05-11T18:29:49+00:00</time>
      </trkpt>
      <trkpt lat="45.93423" lon="6.86788">
        <ele>1246</ele>
        <time>2026-05-11T18:29:50+00:00</time>
      </trkpt>
      <trkpt lat="45.93416" lon="6.86771">
        <ele>1246</ele>
        <time>2026-05-11T18:29:51+00:00</time>
      </trkpt>
      <trkpt lat="45.93411" lon="6.86749">
        <ele>1251</ele>
        <time>2026-05-11T18:29:52+00:00</time>
      </trkpt>
      <trkpt lat="45.93407" lon="6.86718">
        <ele>1263</ele>
        <time>2026-05-11T18:29:53+00:00</time>
      </trkpt>
      <trkpt lat="45.93413" lon="6.86701">
        <ele>1273</ele>
        <time>2026-05-11T18:29:54+00:00</time>
      </trkpt>
      <trkpt lat="45.93401" lon="6.86679">
        <ele>1279</ele>
        <time>2026-05-11T18:29:55+00:00</time>
      </trkpt>
      <trkpt lat="45.9339" lon="6.86676">
        <ele>1277</ele>
        <time>2026-05-11T18:29:56+00:00</time>
      </trkpt>
      <trkpt lat="45.9339" lon="6.8667">
        <ele>1280</ele>
        <time>2026-05-11T18:29:57+00:00</time>
      </trkpt>
      <trkpt lat="45.93373" lon="6.86658">
        <ele>1280</ele>
        <time>2026-05-11T18:29:58+00:00</time>
      </trkpt>
      <trkpt lat="45.93366" lon="6.86651">
        <ele>1282</ele>
        <time>2026-05-11T18:29:59+00:00</time>
      </trkpt>
      <trkpt lat="45.93309" lon="6.86649">
        <ele>1270</ele>
        <time>2026-05-11T18:30:00+00:00</time>
      </trkpt>
      <trkpt lat="45.93296" lon="6.86653">
        <ele>1265</ele>
        <time>2026-05-11T18:30:01+00:00</time>
      </trkpt>
      <trkpt lat="45.93265" lon="6.86613">
        <ele>1282</ele>
        <time>2026-05-11T18:30:02+00:00</time>
      </trkpt>
      <trkpt lat="45.93228" lon="6.8658">
        <ele>1288</ele>
        <time>2026-05-11T18:30:03+00:00</time>
      </trkpt>
      <trkpt lat="45.93217" lon="6.86574">
        <ele>1288</ele>
        <time>2026-05-11T18:30:04+00:00</time>
      </trkpt>
      <trkpt lat="45.93207" lon="6.86563">
        <ele>1290</ele>
        <time>2026-05-11T18:30:05+00:00</time>
      </trkpt>
      <trkpt lat="45.93187" lon="6.86547">
        <ele>1291</ele>
        <time>2026-05-11T18:30:06+00:00</time>
      </trkpt>
      <trkpt lat="45.93183" lon="6.86539">
        <ele>1294</ele>
        <time>2026-05-11T18:30:07+00:00</time>
      </trkpt>
      <trkpt lat="45.93174" lon="6.86531">
        <ele>1295</ele>
        <time>2026-05-11T18:30:08+00:00</time>
      </trkpt>
      <trkpt lat="45.93156" lon="6.86521">
        <ele>1293</ele>
        <time>2026-05-11T18:30:09+00:00</time>
      </trkpt>
      <trkpt lat="45.93135" lon="6.86496">
        <ele>1297</ele>
        <time>2026-05-11T18:30:10+00:00</time>
      </trkpt>
      <trkpt lat="45.93121" lon="6.86498">
        <ele>1289</ele>
        <time>2026-05-11T18:30:11+00:00</time>
      </trkpt>
      <trkpt lat="45.93092" lon="6.86496">
        <ele>1276</ele>
        <time>2026-05-11T18:30:12+00:00</time>
      </trkpt>
      <trkpt lat="45.93075" lon="6.86473">
        <ele>1280</ele>
        <time>2026-05-11T18:30:13+00:00</time>
      </trkpt>
      <trkpt lat="45.93065" lon="6.8647">
        <ele>1276</ele>
        <time>2026-05-11T18:30:14+00:00</time>
      </trkpt>
      <trkpt lat="45.93046" lon="6.8647">
        <ele>1266</ele>
        <time>2026-05-11T18:30:15+00:00</time>
      </trkpt>
      <trkpt lat="45.93035" lon="6.86474">
        <ele>1257</ele>
        <time>2026-05-11T18:30:16+00:00</time>
      </trkpt>
      <trkpt lat="45.93027" lon="6.86473">
        <ele>1253</ele>
        <time>2026-05-11T18:30:17+00:00</time>
      </trkpt>
      <trkpt lat="45.93019" lon="6.86477">
        <ele>1247</ele>
        <time>2026-05-11T18:30:18+00:00</time>
      </trkpt>
      <trkpt lat="45.93009" lon="6.86465">
        <ele>1248</ele>
        <time>2026-05-11T18:30:19+00:00</time>
      </trkpt>
      <trkpt lat="45.92994" lon="6.86419">
        <ele>1265</ele>
        <time>2026-05-11T18:30:20+00:00</time>
      </trkpt>
      <trkpt lat="45.92978" lon="6.86391">
        <ele>1269</ele>
        <time>2026-05-11T18:30:21+00:00</time>
      </trkpt>
      <trkpt lat="45.92961" lon="6.8638">
        <ele>1263</ele>
        <time>2026-05-11T18:30:22+00:00</time>
      </trkpt>
      <trkpt lat="45.92946" lon="6.86361">
        <ele>1261</ele>
        <time>2026-05-11T18:30:23+00:00</time>
      </trkpt>
      <trkpt lat="45.92931" lon="6.86349">
        <ele>1256</ele>
        <time>2026-05-11T18:30:24+00:00</time>
      </trkpt>
      <trkpt lat="45.92916" lon="6.86324">
        <ele>1256</ele>
        <time>2026-05-11T18:30:25+00:00</time>
      </trkpt>
      <trkpt lat="45.92905" lon="6.86296">
        <ele>1261</ele>
        <time>2026-05-11T18:30:26+00:00</time>
      </trkpt>
      <trkpt lat="45.92894" lon="6.86262">
        <ele>1269</ele>
        <time>2026-05-11T18:30:27+00:00</time>
      </trkpt>
      <trkpt lat="45.92866" lon="6.86204">
        <ele>1271</ele>
        <time>2026-05-11T18:30:28+00:00</time>
      </trkpt>
      <trkpt lat="45.92851" lon="6.8618">
        <ele>1269</ele>
        <time>2026-05-11T18:30:29+00:00</time>
      </trkpt>
      <trkpt lat="45.92822" lon="6.86154">
        <ele>1258</ele>
        <time>2026-05-11T18:30:30+00:00</time>
      </trkpt>
      <trkpt lat="45.92783" lon="6.86102">
        <ele>1251</ele>
        <time>2026-05-11T18:30:31+00:00</time>
      </trkpt>
      <trkpt lat="45.9276" lon="6.86062">
        <ele>1250</ele>
        <time>2026-05-11T18:30:32+00:00</time>
      </trkpt>
      <trkpt lat="45.92744" lon="6.86011">
        <ele>1259</ele>
        <time>2026-05-11T18:30:33+00:00</time>
      </trkpt>
      <trkpt lat="45.92739" lon="6.86002">
        <ele>1259</ele>
        <time>2026-05-11T18:30:34+00:00</time>
      </trkpt>
      <trkpt lat="45.92696" lon="6.85939">
        <ele>1253</ele>
        <time>2026-05-11T18:30:35+00:00</time>
      </trkpt>
      <trkpt lat="45.92664" lon="6.85873">
        <ele>1261</ele>
        <time>2026-05-11T18:30:36+00:00</time>
      </trkpt>
      <trkpt lat="45.92642" lon="6.85852">
        <ele>1259</ele>
        <time>2026-05-11T18:30:37+00:00</time>
      </trkpt>
      <trkpt lat="45.92667" lon="6.85866">
        <ele>1265</ele>
        <time>2026-05-11T18:30:38+00:00</time>
      </trkpt>
      <trkpt lat="45.92642" lon="6.85852">
        <ele>1259</ele>
        <time>2026-05-11T18:30:39+00:00</time>
      </trkpt>
      <trkpt lat="45.92623" lon="6.85846">
        <ele>1252</ele>
        <time>2026-05-11T18:30:40+00:00</time>
      </trkpt>
      <trkpt lat="45.92603" lon="6.85832">
        <ele>1247</ele>
        <time>2026-05-11T18:30:41+00:00</time>
      </trkpt>
      <trkpt lat="45.92598" lon="6.85815">
        <ele>1249</ele>
        <time>2026-05-11T18:30:42+00:00</time>
      </trkpt>
      <trkpt lat="45.92577" lon="6.85779">
        <ele>1248</ele>
        <time>2026-05-11T18:30:43+00:00</time>
      </trkpt>
      <trkpt lat="45.92566" lon="6.85765">
        <ele>1246</ele>
        <time>2026-05-11T18:30:44+00:00</time>
      </trkpt>
      <trkpt lat="45.92562" lon="6.85763">
        <ele>1245</ele>
        <time>2026-05-11T18:30:45+00:00</time>
      </trkpt>
      <trkpt lat="45.9256" lon="6.85771">
        <ele>1242</ele>
        <time>2026-05-11T18:30:46+00:00</time>
      </trkpt>
      <trkpt lat="45.9257" lon="6.85802">
        <ele>1239</ele>
        <time>2026-05-11T18:30:47+00:00</time>
      </trkpt>
      <trkpt lat="45.92569" lon="6.85825">
        <ele>1234</ele>
        <time>2026-05-11T18:30:48+00:00</time>
      </trkpt>
      <trkpt lat="45.92565" lon="6.85845">
        <ele>1227</ele>
        <time>2026-05-11T18:30:49+00:00</time>
      </trkpt>
      <trkpt lat="45.92559" lon="6.85859">
        <ele>1221</ele>
        <time>2026-05-11T18:30:50+00:00</time>
      </trkpt>
      <trkpt lat="45.92553" lon="6.85865">
        <ele>1217</ele>
        <time>2026-05-11T18:30:51+00:00</time>
      </trkpt>
      <trkpt lat="45.9255" lon="6.85862">
        <ele>1217</ele>
        <time>2026-05-11T18:30:52+00:00</time>
      </trkpt>
      <trkpt lat="45.92552" lon="6.85841">
        <ele>1224</ele>
        <time>2026-05-11T18:30:53+00:00</time>
      </trkpt>
      <trkpt lat="45.92547" lon="6.85832">
        <ele>1224</ele>
        <time>2026-05-11T18:30:54+00:00</time>
      </trkpt>
      <trkpt lat="45.92536" lon="6.85829">
        <ele>1221</ele>
        <time>2026-05-11T18:30:55+00:00</time>
      </trkpt>
      <trkpt lat="45.92523" lon="6.85837">
        <ele>1214</ele>
        <time>2026-05-11T18:30:56+00:00</time>
      </trkpt>
      <trkpt lat="45.92528" lon="6.85843">
        <ele>1215</ele>
        <time>2026-05-11T18:30:57+00:00</time>
      </trkpt>
      <trkpt lat="45.92532" lon="6.85862">
        <ele>1211</ele>
        <time>2026-05-11T18:30:58+00:00</time>
      </trkpt>
      <trkpt lat="45.92528" lon="6.85885">
        <ele>1204</ele>
        <time>2026-05-11T18:30:59+00:00</time>
      </trkpt>
      <trkpt lat="45.92542" lon="6.85904">
        <ele>1203</ele>
        <time>2026-05-11T18:31:00+00:00</time>
      </trkpt>
      <trkpt lat="45.9255" lon="6.85923">
        <ele>1200</ele>
        <time>2026-05-11T18:31:01+00:00</time>
      </trkpt>
      <trkpt lat="45.92586" lon="6.85945">
        <ele>1201</ele>
        <time>2026-05-11T18:31:02+00:00</time>
      </trkpt>
      <trkpt lat="45.926" lon="6.85978">
        <ele>1196</ele>
        <time>2026-05-11T18:31:03+00:00</time>
      </trkpt>
      <trkpt lat="45.92609" lon="6.86025">
        <ele>1185</ele>
        <time>2026-05-11T18:31:04+00:00</time>
      </trkpt>
      <trkpt lat="45.92606" lon="6.86028">
        <ele>1183</ele>
        <time>2026-05-11T18:31:05+00:00</time>
      </trkpt>
      <trkpt lat="45.92603" lon="6.86027">
        <ele>1182</ele>
        <time>2026-05-11T18:31:06+00:00</time>
      </trkpt>
      <trkpt lat="45.92597" lon="6.86014">
        <ele>1183</ele>
        <time>2026-05-11T18:31:07+00:00</time>
      </trkpt>
      <trkpt lat="45.92569" lon="6.85982">
        <ele>1187</ele>
        <time>2026-05-11T18:31:08+00:00</time>
      </trkpt>
      <trkpt lat="45.92564" lon="6.85983">
        <ele>1186</ele>
        <time>2026-05-11T18:31:09+00:00</time>
      </trkpt>
      <trkpt lat="45.92574" lon="6.86028">
        <ele>1174</ele>
        <time>2026-05-11T18:31:10+00:00</time>
      </trkpt>
      <trkpt lat="45.92577" lon="6.86058">
        <ele>1164</ele>
        <time>2026-05-11T18:31:11+00:00</time>
      </trkpt>
      <trkpt lat="45.92576" lon="6.86082">
        <ele>1157</ele>
        <time>2026-05-11T18:31:12+00:00</time>
      </trkpt>
      <trkpt lat="45.92582" lon="6.86114">
        <ele>1152</ele>
        <time>2026-05-11T18:31:13+00:00</time>
      </trkpt>
      <trkpt lat="45.92579" lon="6.86127">
        <ele>1150</ele>
        <time>2026-05-11T18:31:14+00:00</time>
      </trkpt>
      <trkpt lat="45.92558" lon="6.86104">
        <ele>1152</ele>
        <time>2026-05-11T18:31:15+00:00</time>
      </trkpt>
      <trkpt lat="45.92538" lon="6.86102">
        <ele>1150</ele>
        <time>2026-05-11T18:31:16+00:00</time>
      </trkpt>
      <trkpt lat="45.92519" lon="6.86118">
        <ele>1145</ele>
        <time>2026-05-11T18:31:17+00:00</time>
      </trkpt>
      <trkpt lat="45.92496" lon="6.86141">
        <ele>1137</ele>
        <time>2026-05-11T18:31:18+00:00</time>
      </trkpt>
      <trkpt lat="45.92446" lon="6.86172">
        <ele>1125</ele>
        <time>2026-05-11T18:31:19+00:00</time>
      </trkpt>
      <trkpt lat="45.92441" lon="6.8618">
        <ele>1123</ele>
        <time>2026-05-11T18:31:20+00:00</time>
      </trkpt>
      <trkpt lat="45.92425" lon="6.86237">
        <ele>1111</ele>
        <time>2026-05-11T18:31:21+00:00</time>
      </trkpt>
      <trkpt lat="45.92402" lon="6.86282">
        <ele>1101</ele>
        <time>2026-05-11T18:31:22+00:00</time>
      </trkpt>
      <trkpt lat="45.92383" lon="6.86306">
        <ele>1096</ele>
        <time>2026-05-11T18:31:23+00:00</time>
      </trkpt>
      <trkpt lat="45.92375" lon="6.86332">
        <ele>1091</ele>
        <time>2026-05-11T18:31:24+00:00</time>
      </trkpt>
      <trkpt lat="45.92375" lon="6.86354">
        <ele>1088</ele>
        <time>2026-05-11T18:31:25+00:00</time>
      </trkpt>
      <trkpt lat="45.92377" lon="6.8636">
        <ele>1088</ele>
        <time>2026-05-11T18:31:26+00:00</time>
      </trkpt>
      <trkpt lat="45.92381" lon="6.86366">
        <ele>1087</ele>
        <time>2026-05-11T18:31:27+00:00</time>
      </trkpt>
      <trkpt lat="45.92393" lon="6.86376">
        <ele>1087</ele>
        <time>2026-05-11T18:31:28+00:00</time>
      </trkpt>
      <trkpt lat="45.92381" lon="6.8645">
        <ele>1077</ele>
        <time>2026-05-11T18:31:29+00:00</time>
      </trkpt>
      <trkpt lat="45.92376" lon="6.86492">
        <ele>1071</ele>
        <time>2026-05-11T18:31:30+00:00</time>
      </trkpt>
      <trkpt lat="45.92357" lon="6.86607">
        <ele>1059</ele>
        <time>2026-05-11T18:31:31+00:00</time>
      </trkpt>
      <trkpt lat="45.9235" lon="6.867">
        <ele>1053</ele>
        <time>2026-05-11T18:31:32+00:00</time>
      </trkpt>
      <trkpt lat="45.92349" lon="6.86729">
        <ele>1050</ele>
        <time>2026-05-11T18:31:33+00:00</time>
      </trkpt>
      <trkpt lat="45.92355" lon="6.86746">
        <ele>1049</ele>
        <time>2026-05-11T18:31:34+00:00</time>
      </trkpt>
      <trkpt lat="45.9236" lon="6.86746">
        <ele>1049</ele>
        <time>2026-05-11T18:31:35+00:00</time>
      </trkpt>
      <trkpt lat="45.92366" lon="6.86753">
        <ele>1048</ele>
        <time>2026-05-11T18:31:36+00:00</time>
      </trkpt>
      <trkpt lat="45.92367" lon="6.86761">
        <ele>1048</ele>
        <time>2026-05-11T18:31:37+00:00</time>
      </trkpt>
      <trkpt lat="45.92365" lon="6.86769">
        <ele>1048</ele>
        <time>2026-05-11T18:31:38+00:00</time>
      </trkpt>
      <trkpt lat="45.92362" lon="6.86772">
        <ele>1048</ele>
        <time>2026-05-11T18:31:39+00:00</time>
      </trkpt>
      <trkpt lat="45.92371" lon="6.86794">
        <ele>1047</ele>
        <time>2026-05-11T18:31:40+00:00</time>
      </trkpt>
      <trkpt lat="45.92373" lon="6.86814">
        <ele>1047</ele>
        <time>2026-05-11T18:31:41+00:00</time>
      </trkpt>
      <trkpt lat="45.92373" lon="6.86823">
        <ele>1046</ele>
        <time>2026-05-11T18:31:42+00:00</time>
      </trkpt>
      <trkpt lat="45.92367" lon="6.86859">
        <ele>1045</ele>
        <time>2026-05-11T18:31:43+00:00</time>
      </trkpt>
      <trkpt lat="45.92367" lon="6.86868">
        <ele>1045</ele>
        <time>2026-05-11T18:31:44+00:00</time>
      </trkpt>
      <trkpt lat="45.92371" lon="6.86873">
        <ele>1045</ele>
        <time>2026-05-11T18:31:45+00:00</time>
      </trkpt>
      <trkpt lat="45.92344" lon="6.86966">
        <ele>1042</ele>
        <time>2026-05-11T18:31:46+00:00</time>
      </trkpt>
      <trkpt lat="45.92366" lon="6.86984">
        <ele>1042</ele>
        <time>2026-05-11T18:31:47+00:00</time>
      </trkpt>
      <trkpt lat="45.9236" lon="6.87011">
        <ele>1042</ele>
        <time>2026-05-11T18:31:48+00:00</time>
      </trkpt>
    </trkseg>
  </trk>
</gpx>
