<?xml version="1.0" encoding="UTF-8"?>
<gpx xmlns="http://www.topografix.com/GPX/1/1" xmlns:xsi="http://www.w3.org/2001/XMLSchema-instance" version="1.1" creator="phpGPX/1.3.0" xsi:schemaLocation="http://www.topografix.com/GPX/1/1 http://www.topografix.com/GPX/1/1/gpx.xsd">
  <metadata>
    <time>2026-05-12T18:56:10+00:00</time>
  </metadata>
  <trk>
    <name>Circuit 2 Le Seignard</name>
    <trkseg>
      <trkpt lat="46.01254" lon="4.37782">
        <ele>450</ele>
        <time>2026-05-12T18:56:11+00:00</time>
      </trkpt>
      <trkpt lat="46.01224" lon="4.3778">
        <ele>448</ele>
        <time>2026-05-12T18:56:12+00:00</time>
      </trkpt>
      <trkpt lat="46.01203" lon="4.37784">
        <ele>446</ele>
        <time>2026-05-12T18:56:13+00:00</time>
      </trkpt>
      <trkpt lat="46.0118" lon="4.37821">
        <ele>444</ele>
        <time>2026-05-12T18:56:14+00:00</time>
      </trkpt>
      <trkpt lat="46.01139" lon="4.37864">
        <ele>442</ele>
        <time>2026-05-12T18:56:15+00:00</time>
      </trkpt>
      <trkpt lat="46.01116" lon="4.37841">
        <ele>442</ele>
        <time>2026-05-12T18:56:16+00:00</time>
      </trkpt>
      <trkpt lat="46.01087" lon="4.37832">
        <ele>441</ele>
        <time>2026-05-12T18:56:17+00:00</time>
      </trkpt>
      <trkpt lat="46.01072" lon="4.37832">
        <ele>441</ele>
        <time>2026-05-12T18:56:18+00:00</time>
      </trkpt>
      <trkpt lat="46.0104" lon="4.37858">
        <ele>441</ele>
        <time>2026-05-12T18:56:19+00:00</time>
      </trkpt>
      <trkpt lat="46.01008" lon="4.37869">
        <ele>440</ele>
        <time>2026-05-12T18:56:20+00:00</time>
      </trkpt>
      <trkpt lat="46.00993" lon="4.37868">
        <ele>441</ele>
        <time>2026-05-12T18:56:21+00:00</time>
      </trkpt>
      <trkpt lat="46.00967" lon="4.37852">
        <ele>443</ele>
        <time>2026-05-12T18:56:22+00:00</time>
      </trkpt>
      <trkpt lat="46.00956" lon="4.37882">
        <ele>447</ele>
        <time>2026-05-12T18:56:23+00:00</time>
      </trkpt>
      <trkpt lat="46.00921" lon="4.37882">
        <ele>452</ele>
        <time>2026-05-12T18:56:24+00:00</time>
      </trkpt>
      <trkpt lat="46.00911" lon="4.37868">
        <ele>453</ele>
        <time>2026-05-12T18:56:25+00:00</time>
      </trkpt>
      <trkpt lat="46.0088" lon="4.37796">
        <ele>454</ele>
        <time>2026-05-12T18:56:26+00:00</time>
      </trkpt>
      <trkpt lat="46.0087" lon="4.37793">
        <ele>457</ele>
        <time>2026-05-12T18:56:27+00:00</time>
      </trkpt>
      <trkpt lat="46.00863" lon="4.37799">
        <ele>460</ele>
        <time>2026-05-12T18:56:28+00:00</time>
      </trkpt>
      <trkpt lat="46.00863" lon="4.37855">
        <ele>468</ele>
        <time>2026-05-12T18:56:29+00:00</time>
      </trkpt>
      <trkpt lat="46.00855" lon="4.37869">
        <ele>474</ele>
        <time>2026-05-12T18:56:30+00:00</time>
      </trkpt>
      <trkpt lat="46.00851" lon="4.37895">
        <ele>480</ele>
        <time>2026-05-12T18:56:31+00:00</time>
      </trkpt>
      <trkpt lat="46.00865" lon="4.37982">
        <ele>486</ele>
        <time>2026-05-12T18:56:32+00:00</time>
      </trkpt>
      <trkpt lat="46.00915" lon="4.38078">
        <ele>477</ele>
        <time>2026-05-12T18:56:33+00:00</time>
      </trkpt>
      <trkpt lat="46.00917" lon="4.381">
        <ele>478</ele>
        <time>2026-05-12T18:56:34+00:00</time>
      </trkpt>
      <trkpt lat="46.00909" lon="4.38119">
        <ele>481</ele>
        <time>2026-05-12T18:56:35+00:00</time>
      </trkpt>
      <trkpt lat="46.00882" lon="4.38131">
        <ele>489</ele>
        <time>2026-05-12T18:56:36+00:00</time>
      </trkpt>
      <trkpt lat="46.00834" lon="4.38164">
        <ele>503</ele>
        <time>2026-05-12T18:56:37+00:00</time>
      </trkpt>
      <trkpt lat="46.0079" lon="4.38217">
        <ele>506</ele>
        <time>2026-05-12T18:56:38+00:00</time>
      </trkpt>
      <trkpt lat="46.00748" lon="4.38242">
        <ele>509</ele>
        <time>2026-05-12T18:56:39+00:00</time>
      </trkpt>
      <trkpt lat="46.00678" lon="4.38254">
        <ele>517</ele>
        <time>2026-05-12T18:56:40+00:00</time>
      </trkpt>
      <trkpt lat="46.00685" lon="4.38192">
        <ele>524</ele>
        <time>2026-05-12T18:56:41+00:00</time>
      </trkpt>
      <trkpt lat="46.00676" lon="4.38202">
        <ele>524</ele>
        <time>2026-05-12T18:56:42+00:00</time>
      </trkpt>
      <trkpt lat="46.00658" lon="4.38238">
        <ele>519</ele>
        <time>2026-05-12T18:56:43+00:00</time>
      </trkpt>
      <trkpt lat="46.00676" lon="4.38315">
        <ele>517</ele>
        <time>2026-05-12T18:56:44+00:00</time>
      </trkpt>
      <trkpt lat="46.00674" lon="4.38409">
        <ele>520</ele>
        <time>2026-05-12T18:56:45+00:00</time>
      </trkpt>
      <trkpt lat="46.00665" lon="4.38487">
        <ele>525</ele>
        <time>2026-05-12T18:56:46+00:00</time>
      </trkpt>
      <trkpt lat="46.00672" lon="4.38532">
        <ele>528</ele>
        <time>2026-05-12T18:56:47+00:00</time>
      </trkpt>
      <trkpt lat="46.00667" lon="4.38556">
        <ele>529</ele>
        <time>2026-05-12T18:56:48+00:00</time>
      </trkpt>
      <trkpt lat="46.00649" lon="4.38587">
        <ele>532</ele>
        <time>2026-05-12T18:56:49+00:00</time>
      </trkpt>
      <trkpt lat="46.00606" lon="4.38622">
        <ele>537</ele>
        <time>2026-05-12T18:56:50+00:00</time>
      </trkpt>
      <trkpt lat="46.00546" lon="4.38704">
        <ele>548</ele>
        <time>2026-05-12T18:56:51+00:00</time>
      </trkpt>
      <trkpt lat="46.00521" lon="4.38758">
        <ele>551</ele>
        <time>2026-05-12T18:56:52+00:00</time>
      </trkpt>
      <trkpt lat="46.00503" lon="4.38819">
        <ele>549</ele>
        <time>2026-05-12T18:56:53+00:00</time>
      </trkpt>
      <trkpt lat="46.00529" lon="4.38829">
        <ele>551</ele>
        <time>2026-05-12T18:56:54+00:00</time>
      </trkpt>
      <trkpt lat="46.00587" lon="4.38828">
        <ele>556</ele>
        <time>2026-05-12T18:56:55+00:00</time>
      </trkpt>
      <trkpt lat="46.00601" lon="4.38831">
        <ele>556</ele>
        <time>2026-05-12T18:56:56+00:00</time>
      </trkpt>
      <trkpt lat="46.00624" lon="4.38839">
        <ele>556</ele>
        <time>2026-05-12T18:56:57+00:00</time>
      </trkpt>
      <trkpt lat="46.00645" lon="4.38856">
        <ele>556</ele>
        <time>2026-05-12T18:56:58+00:00</time>
      </trkpt>
      <trkpt lat="46.00749" lon="4.38864">
        <ele>556</ele>
        <time>2026-05-12T18:56:59+00:00</time>
      </trkpt>
      <trkpt lat="46.00804" lon="4.38878">
        <ele>555</ele>
        <time>2026-05-12T18:57:00+00:00</time>
      </trkpt>
      <trkpt lat="46.00835" lon="4.38873">
        <ele>552</ele>
        <time>2026-05-12T18:57:01+00:00</time>
      </trkpt>
      <trkpt lat="46.00854" lon="4.38876">
        <ele>551</ele>
        <time>2026-05-12T18:57:02+00:00</time>
      </trkpt>
      <trkpt lat="46.00897" lon="4.38887">
        <ele>549</ele>
        <time>2026-05-12T18:57:03+00:00</time>
      </trkpt>
      <trkpt lat="46.00947" lon="4.38912">
        <ele>549</ele>
        <time>2026-05-12T18:57:04+00:00</time>
      </trkpt>
      <trkpt lat="46.00968" lon="4.38931">
        <ele>548</ele>
        <time>2026-05-12T18:57:05+00:00</time>
      </trkpt>
      <trkpt lat="46.00992" lon="4.38963">
        <ele>546</ele>
        <time>2026-05-12T18:57:06+00:00</time>
      </trkpt>
      <trkpt lat="46.0101" lon="4.39011">
        <ele>543</ele>
        <time>2026-05-12T18:57:07+00:00</time>
      </trkpt>
      <trkpt lat="46.0102" lon="4.39057">
        <ele>542</ele>
        <time>2026-05-12T18:57:08+00:00</time>
      </trkpt>
      <trkpt lat="46.01017" lon="4.39138">
        <ele>544</ele>
        <time>2026-05-12T18:57:09+00:00</time>
      </trkpt>
      <trkpt lat="46.0102" lon="4.3916">
        <ele>543</ele>
        <time>2026-05-12T18:57:10+00:00</time>
      </trkpt>
      <trkpt lat="46.01085" lon="4.39237">
        <ele>532</ele>
        <time>2026-05-12T18:57:11+00:00</time>
      </trkpt>
      <trkpt lat="46.01099" lon="4.39237">
        <ele>534</ele>
        <time>2026-05-12T18:57:12+00:00</time>
      </trkpt>
      <trkpt lat="46.01151" lon="4.39176">
        <ele>529</ele>
        <time>2026-05-12T18:57:13+00:00</time>
      </trkpt>
      <trkpt lat="46.01181" lon="4.39152">
        <ele>526</ele>
        <time>2026-05-12T18:57:14+00:00</time>
      </trkpt>
      <trkpt lat="46.01199" lon="4.39069">
        <ele>516</ele>
        <time>2026-05-12T18:57:15+00:00</time>
      </trkpt>
      <trkpt lat="46.01181" lon="4.39073">
        <ele>515</ele>
        <time>2026-05-12T18:57:16+00:00</time>
      </trkpt>
      <trkpt lat="46.01138" lon="4.39101">
        <ele>519</ele>
        <time>2026-05-12T18:57:17+00:00</time>
      </trkpt>
      <trkpt lat="46.01132" lon="4.39098">
        <ele>519</ele>
        <time>2026-05-12T18:57:18+00:00</time>
      </trkpt>
      <trkpt lat="46.01125" lon="4.3899">
        <ele>513</ele>
        <time>2026-05-12T18:57:19+00:00</time>
      </trkpt>
      <trkpt lat="46.01105" lon="4.38898">
        <ele>510</ele>
        <time>2026-05-12T18:57:20+00:00</time>
      </trkpt>
      <trkpt lat="46.01075" lon="4.3882">
        <ele>506</ele>
        <time>2026-05-12T18:57:21+00:00</time>
      </trkpt>
      <trkpt lat="46.01046" lon="4.38775">
        <ele>506</ele>
        <time>2026-05-12T18:57:22+00:00</time>
      </trkpt>
      <trkpt lat="46.0103" lon="4.38758">
        <ele>506</ele>
        <time>2026-05-12T18:57:23+00:00</time>
      </trkpt>
      <trkpt lat="46.00974" lon="4.38734">
        <ele>508</ele>
        <time>2026-05-12T18:57:24+00:00</time>
      </trkpt>
      <trkpt lat="46.00904" lon="4.38723">
        <ele>510</ele>
        <time>2026-05-12T18:57:25+00:00</time>
      </trkpt>
      <trkpt lat="46.00856" lon="4.38708">
        <ele>511</ele>
        <time>2026-05-12T18:57:26+00:00</time>
      </trkpt>
      <trkpt lat="46.00834" lon="4.38705">
        <ele>511</ele>
        <time>2026-05-12T18:57:27+00:00</time>
      </trkpt>
      <trkpt lat="46.00803" lon="4.38707">
        <ele>517</ele>
        <time>2026-05-12T18:57:28+00:00</time>
      </trkpt>
      <trkpt lat="46.00792" lon="4.387">
        <ele>519</ele>
        <time>2026-05-12T18:57:29+00:00</time>
      </trkpt>
      <trkpt lat="46.00776" lon="4.38617">
        <ele>517</ele>
        <time>2026-05-12T18:57:30+00:00</time>
      </trkpt>
      <trkpt lat="46.00763" lon="4.38576">
        <ele>519</ele>
        <time>2026-05-12T18:57:31+00:00</time>
      </trkpt>
      <trkpt lat="46.00767" lon="4.38558">
        <ele>520</ele>
        <time>2026-05-12T18:57:32+00:00</time>
      </trkpt>
      <trkpt lat="46.00776" lon="4.38542">
        <ele>520</ele>
        <time>2026-05-12T18:57:33+00:00</time>
      </trkpt>
      <trkpt lat="46.00808" lon="4.38513">
        <ele>520</ele>
        <time>2026-05-12T18:57:34+00:00</time>
      </trkpt>
      <trkpt lat="46.00815" lon="4.38497">
        <ele>521</ele>
        <time>2026-05-12T18:57:35+00:00</time>
      </trkpt>
      <trkpt lat="46.0081" lon="4.38485">
        <ele>520</ele>
        <time>2026-05-12T18:57:36+00:00</time>
      </trkpt>
      <trkpt lat="46.00781" lon="4.38478">
        <ele>521</ele>
        <time>2026-05-12T18:57:37+00:00</time>
      </trkpt>
      <trkpt lat="46.00772" lon="4.38472">
        <ele>522</ele>
        <time>2026-05-12T18:57:38+00:00</time>
      </trkpt>
      <trkpt lat="46.00727" lon="4.38392">
        <ele>520</ele>
        <time>2026-05-12T18:57:39+00:00</time>
      </trkpt>
      <trkpt lat="46.00676" lon="4.38315">
        <ele>517</ele>
        <time>2026-05-12T18:57:40+00:00</time>
      </trkpt>
      <trkpt lat="46.00658" lon="4.38238">
        <ele>519</ele>
        <time>2026-05-12T18:57:41+00:00</time>
      </trkpt>
      <trkpt lat="46.00676" lon="4.38202">
        <ele>524</ele>
        <time>2026-05-12T18:57:42+00:00</time>
      </trkpt>
      <trkpt lat="46.00685" lon="4.38192">
        <ele>524</ele>
        <time>2026-05-12T18:57:43+00:00</time>
      </trkpt>
      <trkpt lat="46.00696" lon="4.38129">
        <ele>528</ele>
        <time>2026-05-12T18:57:44+00:00</time>
      </trkpt>
      <trkpt lat="46.00709" lon="4.38008">
        <ele>526</ele>
        <time>2026-05-12T18:57:45+00:00</time>
      </trkpt>
      <trkpt lat="46.00692" lon="4.37986">
        <ele>527</ele>
        <time>2026-05-12T18:57:46+00:00</time>
      </trkpt>
      <trkpt lat="46.00666" lon="4.37893">
        <ele>523</ele>
        <time>2026-05-12T18:57:47+00:00</time>
      </trkpt>
      <trkpt lat="46.0061" lon="4.37777">
        <ele>520</ele>
        <time>2026-05-12T18:57:48+00:00</time>
      </trkpt>
      <trkpt lat="46.00599" lon="4.37762">
        <ele>520</ele>
        <time>2026-05-12T18:57:49+00:00</time>
      </trkpt>
      <trkpt lat="46.0059" lon="4.37765">
        <ele>521</ele>
        <time>2026-05-12T18:57:50+00:00</time>
      </trkpt>
      <trkpt lat="46.00592" lon="4.37744">
        <ele>520</ele>
        <time>2026-05-12T18:57:51+00:00</time>
      </trkpt>
      <trkpt lat="46.00575" lon="4.37627">
        <ele>512</ele>
        <time>2026-05-12T18:57:52+00:00</time>
      </trkpt>
      <trkpt lat="46.00547" lon="4.37541">
        <ele>501</ele>
        <time>2026-05-12T18:57:53+00:00</time>
      </trkpt>
      <trkpt lat="46.00495" lon="4.37293">
        <ele>472</ele>
        <time>2026-05-12T18:57:54+00:00</time>
      </trkpt>
      <trkpt lat="46.00499" lon="4.37177">
        <ele>468</ele>
        <time>2026-05-12T18:57:55+00:00</time>
      </trkpt>
      <trkpt lat="46.00508" lon="4.37129">
        <ele>466</ele>
        <time>2026-05-12T18:57:56+00:00</time>
      </trkpt>
      <trkpt lat="46.00509" lon="4.371">
        <ele>466</ele>
        <time>2026-05-12T18:57:57+00:00</time>
      </trkpt>
      <trkpt lat="46.00499" lon="4.37009">
        <ele>466</ele>
        <time>2026-05-12T18:57:58+00:00</time>
      </trkpt>
      <trkpt lat="46.00499" lon="4.36917">
        <ele>459</ele>
        <time>2026-05-12T18:57:59+00:00</time>
      </trkpt>
      <trkpt lat="46.00486" lon="4.36875">
        <ele>453</ele>
        <time>2026-05-12T18:58:00+00:00</time>
      </trkpt>
      <trkpt lat="46.00465" lon="4.36844">
        <ele>448</ele>
        <time>2026-05-12T18:58:01+00:00</time>
      </trkpt>
      <trkpt lat="46.00448" lon="4.36862">
        <ele>447</ele>
        <time>2026-05-12T18:58:02+00:00</time>
      </trkpt>
      <trkpt lat="46.00444" lon="4.36874">
        <ele>447</ele>
        <time>2026-05-12T18:58:03+00:00</time>
      </trkpt>
      <trkpt lat="46.00433" lon="4.36968">
        <ele>447</ele>
        <time>2026-05-12T18:58:04+00:00</time>
      </trkpt>
      <trkpt lat="46.00422" lon="4.36994">
        <ele>444</ele>
        <time>2026-05-12T18:58:05+00:00</time>
      </trkpt>
      <trkpt lat="46.00411" lon="4.36997">
        <ele>443</ele>
        <time>2026-05-12T18:58:06+00:00</time>
      </trkpt>
      <trkpt lat="46.00396" lon="4.37008">
        <ele>445</ele>
        <time>2026-05-12T18:58:07+00:00</time>
      </trkpt>
      <trkpt lat="46.00387" lon="4.36989">
        <ele>446</ele>
        <time>2026-05-12T18:58:08+00:00</time>
      </trkpt>
      <trkpt lat="46.0038" lon="4.36891">
        <ele>447</ele>
        <time>2026-05-12T18:58:09+00:00</time>
      </trkpt>
      <trkpt lat="46.00374" lon="4.36864">
        <ele>447</ele>
        <time>2026-05-12T18:58:10+00:00</time>
      </trkpt>
      <trkpt lat="46.00426" lon="4.36749">
        <ele>444</ele>
        <time>2026-05-12T18:58:11+00:00</time>
      </trkpt>
      <trkpt lat="46.00434" lon="4.3672">
        <ele>445</ele>
        <time>2026-05-12T18:58:12+00:00</time>
      </trkpt>
      <trkpt lat="46.00465" lon="4.36681">
        <ele>444</ele>
        <time>2026-05-12T18:58:13+00:00</time>
      </trkpt>
      <trkpt lat="46.00501" lon="4.36655">
        <ele>441</ele>
        <time>2026-05-12T18:58:14+00:00</time>
      </trkpt>
      <trkpt lat="46.00502" lon="4.36644">
        <ele>441</ele>
        <time>2026-05-12T18:58:15+00:00</time>
      </trkpt>
      <trkpt lat="46.00502" lon="4.36617">
        <ele>442</ele>
        <time>2026-05-12T18:58:16+00:00</time>
      </trkpt>
      <trkpt lat="46.00489" lon="4.3659">
        <ele>443</ele>
        <time>2026-05-12T18:58:17+00:00</time>
      </trkpt>
      <trkpt lat="46.00498" lon="4.36582">
        <ele>443</ele>
        <time>2026-05-12T18:58:18+00:00</time>
      </trkpt>
      <trkpt lat="46.00483" lon="4.3657">
        <ele>443</ele>
        <time>2026-05-12T18:58:19+00:00</time>
      </trkpt>
      <trkpt lat="46.00434" lon="4.36506">
        <ele>443</ele>
        <time>2026-05-12T18:58:20+00:00</time>
      </trkpt>
      <trkpt lat="46.00397" lon="4.36486">
        <ele>444</ele>
        <time>2026-05-12T18:58:21+00:00</time>
      </trkpt>
      <trkpt lat="46.00358" lon="4.36474">
        <ele>447</ele>
        <time>2026-05-12T18:58:22+00:00</time>
      </trkpt>
      <trkpt lat="46.00349" lon="4.36434">
        <ele>443</ele>
        <time>2026-05-12T18:58:23+00:00</time>
      </trkpt>
      <trkpt lat="46.00333" lon="4.3641">
        <ele>442</ele>
        <time>2026-05-12T18:58:24+00:00</time>
      </trkpt>
      <trkpt lat="46.00394" lon="4.36115">
        <ele>439</ele>
        <time>2026-05-12T18:58:25+00:00</time>
      </trkpt>
      <trkpt lat="46.00406" lon="4.36116">
        <ele>441</ele>
        <time>2026-05-12T18:58:26+00:00</time>
      </trkpt>
      <trkpt lat="46.00421" lon="4.36135">
        <ele>442</ele>
        <time>2026-05-12T18:58:27+00:00</time>
      </trkpt>
      <trkpt lat="46.00441" lon="4.36148">
        <ele>444</ele>
        <time>2026-05-12T18:58:28+00:00</time>
      </trkpt>
      <trkpt lat="46.00447" lon="4.36147">
        <ele>444</ele>
        <time>2026-05-12T18:58:29+00:00</time>
      </trkpt>
      <trkpt lat="46.00495" lon="4.36163">
        <ele>449</ele>
        <time>2026-05-12T18:58:30+00:00</time>
      </trkpt>
      <trkpt lat="46.00508" lon="4.36163">
        <ele>449</ele>
        <time>2026-05-12T18:58:31+00:00</time>
      </trkpt>
      <trkpt lat="46.00579" lon="4.36201">
        <ele>447</ele>
        <time>2026-05-12T18:58:32+00:00</time>
      </trkpt>
      <trkpt lat="46.00678" lon="4.36243">
        <ele>448</ele>
        <time>2026-05-12T18:58:33+00:00</time>
      </trkpt>
      <trkpt lat="46.00719" lon="4.36268">
        <ele>448</ele>
        <time>2026-05-12T18:58:34+00:00</time>
      </trkpt>
      <trkpt lat="46.00744" lon="4.36307">
        <ele>448</ele>
        <time>2026-05-12T18:58:35+00:00</time>
      </trkpt>
      <trkpt lat="46.00768" lon="4.3638">
        <ele>448</ele>
        <time>2026-05-12T18:58:36+00:00</time>
      </trkpt>
      <trkpt lat="46.00792" lon="4.36533">
        <ele>452</ele>
        <time>2026-05-12T18:58:37+00:00</time>
      </trkpt>
      <trkpt lat="46.00821" lon="4.36648">
        <ele>452</ele>
        <time>2026-05-12T18:58:38+00:00</time>
      </trkpt>
      <trkpt lat="46.00833" lon="4.36712">
        <ele>452</ele>
        <time>2026-05-12T18:58:39+00:00</time>
      </trkpt>
      <trkpt lat="46.00833" lon="4.36749">
        <ele>452</ele>
        <time>2026-05-12T18:58:40+00:00</time>
      </trkpt>
      <trkpt lat="46.00818" lon="4.3677">
        <ele>450</ele>
        <time>2026-05-12T18:58:41+00:00</time>
      </trkpt>
      <trkpt lat="46.00793" lon="4.36774">
        <ele>447</ele>
        <time>2026-05-12T18:58:42+00:00</time>
      </trkpt>
      <trkpt lat="46.00775" lon="4.36797">
        <ele>445</ele>
        <time>2026-05-12T18:58:43+00:00</time>
      </trkpt>
      <trkpt lat="46.00767" lon="4.3681">
        <ele>444</ele>
        <time>2026-05-12T18:58:44+00:00</time>
      </trkpt>
      <trkpt lat="46.00756" lon="4.36856">
        <ele>443</ele>
        <time>2026-05-12T18:58:45+00:00</time>
      </trkpt>
      <trkpt lat="46.00755" lon="4.36872">
        <ele>443</ele>
        <time>2026-05-12T18:58:46+00:00</time>
      </trkpt>
      <trkpt lat="46.00759" lon="4.36884">
        <ele>443</ele>
        <time>2026-05-12T18:58:47+00:00</time>
      </trkpt>
      <trkpt lat="46.00794" lon="4.36945">
        <ele>444</ele>
        <time>2026-05-12T18:58:48+00:00</time>
      </trkpt>
      <trkpt lat="46.00826" lon="4.36976">
        <ele>445</ele>
        <time>2026-05-12T18:58:49+00:00</time>
      </trkpt>
      <trkpt lat="46.00835" lon="4.37012">
        <ele>444</ele>
        <time>2026-05-12T18:58:50+00:00</time>
      </trkpt>
      <trkpt lat="46.00837" lon="4.37027">
        <ele>444</ele>
        <time>2026-05-12T18:58:51+00:00</time>
      </trkpt>
      <trkpt lat="46.00802" lon="4.37097">
        <ele>442</ele>
        <time>2026-05-12T18:58:52+00:00</time>
      </trkpt>
      <trkpt lat="46.00796" lon="4.37117">
        <ele>442</ele>
        <time>2026-05-12T18:58:53+00:00</time>
      </trkpt>
      <trkpt lat="46.00801" lon="4.37137">
        <ele>442</ele>
        <time>2026-05-12T18:58:54+00:00</time>
      </trkpt>
      <trkpt lat="46.00823" lon="4.37183">
        <ele>443</ele>
        <time>2026-05-12T18:58:55+00:00</time>
      </trkpt>
      <trkpt lat="46.0086" lon="4.37213">
        <ele>446</ele>
        <time>2026-05-12T18:58:56+00:00</time>
      </trkpt>
      <trkpt lat="46.00883" lon="4.37252">
        <ele>447</ele>
        <time>2026-05-12T18:58:57+00:00</time>
      </trkpt>
      <trkpt lat="46.0089" lon="4.37276">
        <ele>446</ele>
        <time>2026-05-12T18:58:58+00:00</time>
      </trkpt>
      <trkpt lat="46.009" lon="4.37361">
        <ele>442</ele>
        <time>2026-05-12T18:58:59+00:00</time>
      </trkpt>
      <trkpt lat="46.00909" lon="4.37388">
        <ele>443</ele>
        <time>2026-05-12T18:59:00+00:00</time>
      </trkpt>
      <trkpt lat="46.00969" lon="4.3747">
        <ele>445</ele>
        <time>2026-05-12T18:59:01+00:00</time>
      </trkpt>
      <trkpt lat="46.01021" lon="4.3758">
        <ele>445</ele>
        <time>2026-05-12T18:59:02+00:00</time>
      </trkpt>
      <trkpt lat="46.01059" lon="4.37647">
        <ele>445</ele>
        <time>2026-05-12T18:59:03+00:00</time>
      </trkpt>
      <trkpt lat="46.01097" lon="4.37689">
        <ele>446</ele>
        <time>2026-05-12T18:59:04+00:00</time>
      </trkpt>
      <trkpt lat="46.01149" lon="4.37703">
        <ele>446</ele>
        <time>2026-05-12T18:59:05+00:00</time>
      </trkpt>
      <trkpt lat="46.01177" lon="4.37742">
        <ele>445</ele>
        <time>2026-05-12T18:59:06+00:00</time>
      </trkpt>
      <trkpt lat="46.01185" lon="4.3778">
        <ele>445</ele>
        <time>2026-05-12T18:59:07+00:00</time>
      </trkpt>
      <trkpt lat="46.01186" lon="4.3781">
        <ele>444</ele>
        <time>2026-05-12T18:59:08+00:00</time>
      </trkpt>
      <trkpt lat="46.01203" lon="4.37784">
        <ele>446</ele>
        <time>2026-05-12T18:59:09+00:00</time>
      </trkpt>
      <trkpt lat="46.01224" lon="4.3778">
        <ele>448</ele>
        <time>2026-05-12T18:59:10+00:00</time>
      </trkpt>
      <trkpt lat="46.01254" lon="4.37782">
        <ele>450</ele>
        <time>2026-05-12T18:59:11+00:00</time>
      </trkpt>
    </trkseg>
  </trk>
</gpx>
