<?xml version="1.0" encoding="UTF-8"?>
<gpx xmlns="http://www.topografix.com/GPX/1/1" xmlns:xsi="http://www.w3.org/2001/XMLSchema-instance" version="1.1" creator="phpGPX/1.3.0" xsi:schemaLocation="http://www.topografix.com/GPX/1/1 http://www.topografix.com/GPX/1/1/gpx.xsd">
  <metadata>
    <time>2026-05-11T18:24:35+00:00</time>
  </metadata>
  <trk>
    <name>KV Chamonix</name>
    <trkseg>
      <trkpt lat="45.92369" lon="6.86892">
        <ele>1044</ele>
        <time>2026-05-11T18:24:36+00:00</time>
      </trkpt>
      <trkpt lat="45.92384" lon="6.86893">
        <ele>1044</ele>
        <time>2026-05-11T18:24:37+00:00</time>
      </trkpt>
      <trkpt lat="45.92381" lon="6.86884">
        <ele>1045</ele>
        <time>2026-05-11T18:24:38+00:00</time>
      </trkpt>
      <trkpt lat="45.92399" lon="6.86882">
        <ele>1045</ele>
        <time>2026-05-11T18:24:39+00:00</time>
      </trkpt>
      <trkpt lat="45.92418" lon="6.86874">
        <ele>1046</ele>
        <time>2026-05-11T18:24:40+00:00</time>
      </trkpt>
      <trkpt lat="45.92426" lon="6.86873">
        <ele>1046</ele>
        <time>2026-05-11T18:24:41+00:00</time>
      </trkpt>
      <trkpt lat="45.92428" lon="6.8687">
        <ele>1046</ele>
        <time>2026-05-11T18:24:42+00:00</time>
      </trkpt>
      <trkpt lat="45.92439" lon="6.86837">
        <ele>1048</ele>
        <time>2026-05-11T18:24:43+00:00</time>
      </trkpt>
      <trkpt lat="45.92447" lon="6.86824">
        <ele>1048</ele>
        <time>2026-05-11T18:24:44+00:00</time>
      </trkpt>
      <trkpt lat="45.92449" lon="6.86808">
        <ele>1049</ele>
        <time>2026-05-11T18:24:45+00:00</time>
      </trkpt>
      <trkpt lat="45.9244" lon="6.86738">
        <ele>1053</ele>
        <time>2026-05-11T18:24:46+00:00</time>
      </trkpt>
      <trkpt lat="45.92441" lon="6.86728">
        <ele>1054</ele>
        <time>2026-05-11T18:24:47+00:00</time>
      </trkpt>
      <trkpt lat="45.9244" lon="6.86717">
        <ele>1054</ele>
        <time>2026-05-11T18:24:48+00:00</time>
      </trkpt>
      <trkpt lat="45.92437" lon="6.86714">
        <ele>1054</ele>
        <time>2026-05-11T18:24:49+00:00</time>
      </trkpt>
      <trkpt lat="45.92419" lon="6.86706">
        <ele>1053</ele>
        <time>2026-05-11T18:24:50+00:00</time>
      </trkpt>
      <trkpt lat="45.92415" lon="6.86693">
        <ele>1054</ele>
        <time>2026-05-11T18:24:51+00:00</time>
      </trkpt>
      <trkpt lat="45.92401" lon="6.86667">
        <ele>1057</ele>
        <time>2026-05-11T18:24:52+00:00</time>
      </trkpt>
      <trkpt lat="45.92391" lon="6.86657">
        <ele>1057</ele>
        <time>2026-05-11T18:24:53+00:00</time>
      </trkpt>
      <trkpt lat="45.92357" lon="6.86638">
        <ele>1057</ele>
        <time>2026-05-11T18:24:54+00:00</time>
      </trkpt>
      <trkpt lat="45.92353" lon="6.86627">
        <ele>1058</ele>
        <time>2026-05-11T18:24:55+00:00</time>
      </trkpt>
      <trkpt lat="45.92355" lon="6.86606">
        <ele>1059</ele>
        <time>2026-05-11T18:24:56+00:00</time>
      </trkpt>
      <trkpt lat="45.92364" lon="6.86584">
        <ele>1061</ele>
        <time>2026-05-11T18:24:57+00:00</time>
      </trkpt>
      <trkpt lat="45.9237" lon="6.8656">
        <ele>1064</ele>
        <time>2026-05-11T18:24:58+00:00</time>
      </trkpt>
      <trkpt lat="45.92373" lon="6.86531">
        <ele>1067</ele>
        <time>2026-05-11T18:24:59+00:00</time>
      </trkpt>
      <trkpt lat="45.92378" lon="6.86504">
        <ele>1069</ele>
        <time>2026-05-11T18:25:00+00:00</time>
      </trkpt>
      <trkpt lat="45.92381" lon="6.86498">
        <ele>1070</ele>
        <time>2026-05-11T18:25:01+00:00</time>
      </trkpt>
      <trkpt lat="45.92384" lon="6.86471">
        <ele>1074</ele>
        <time>2026-05-11T18:25:02+00:00</time>
      </trkpt>
      <trkpt lat="45.92383" lon="6.8646">
        <ele>1076</ele>
        <time>2026-05-11T18:25:03+00:00</time>
      </trkpt>
      <trkpt lat="45.92393" lon="6.86396">
        <ele>1085</ele>
        <time>2026-05-11T18:25:04+00:00</time>
      </trkpt>
      <trkpt lat="45.92393" lon="6.86381">
        <ele>1087</ele>
        <time>2026-05-11T18:25:05+00:00</time>
      </trkpt>
      <trkpt lat="45.92379" lon="6.86362">
        <ele>1088</ele>
        <time>2026-05-11T18:25:06+00:00</time>
      </trkpt>
      <trkpt lat="45.92377" lon="6.86354">
        <ele>1088</ele>
        <time>2026-05-11T18:25:07+00:00</time>
      </trkpt>
      <trkpt lat="45.92376" lon="6.86348">
        <ele>1089</ele>
        <time>2026-05-11T18:25:08+00:00</time>
      </trkpt>
      <trkpt lat="45.92377" lon="6.86338">
        <ele>1090</ele>
        <time>2026-05-11T18:25:09+00:00</time>
      </trkpt>
      <trkpt lat="45.92388" lon="6.86304">
        <ele>1096</ele>
        <time>2026-05-11T18:25:10+00:00</time>
      </trkpt>
      <trkpt lat="45.92393" lon="6.86299">
        <ele>1097</ele>
        <time>2026-05-11T18:25:11+00:00</time>
      </trkpt>
      <trkpt lat="45.92405" lon="6.86278">
        <ele>1102</ele>
        <time>2026-05-11T18:25:12+00:00</time>
      </trkpt>
      <trkpt lat="45.92411" lon="6.8627">
        <ele>1104</ele>
        <time>2026-05-11T18:25:13+00:00</time>
      </trkpt>
      <trkpt lat="45.92419" lon="6.86255">
        <ele>1107</ele>
        <time>2026-05-11T18:25:14+00:00</time>
      </trkpt>
      <trkpt lat="45.9243" lon="6.86228">
        <ele>1113</ele>
        <time>2026-05-11T18:25:15+00:00</time>
      </trkpt>
      <trkpt lat="45.92433" lon="6.86212">
        <ele>1116</ele>
        <time>2026-05-11T18:25:16+00:00</time>
      </trkpt>
      <trkpt lat="45.92441" lon="6.86189">
        <ele>1121</ele>
        <time>2026-05-11T18:25:17+00:00</time>
      </trkpt>
      <trkpt lat="45.92451" lon="6.86169">
        <ele>1126</ele>
        <time>2026-05-11T18:25:18+00:00</time>
      </trkpt>
      <trkpt lat="45.92456" lon="6.86166">
        <ele>1127</ele>
        <time>2026-05-11T18:25:19+00:00</time>
      </trkpt>
      <trkpt lat="45.92466" lon="6.86162">
        <ele>1129</ele>
        <time>2026-05-11T18:25:20+00:00</time>
      </trkpt>
      <trkpt lat="45.92471" lon="6.86156">
        <ele>1131</ele>
        <time>2026-05-11T18:25:21+00:00</time>
      </trkpt>
      <trkpt lat="45.92477" lon="6.86155">
        <ele>1131</ele>
        <time>2026-05-11T18:25:22+00:00</time>
      </trkpt>
      <trkpt lat="45.92481" lon="6.86153">
        <ele>1132</ele>
        <time>2026-05-11T18:25:23+00:00</time>
      </trkpt>
      <trkpt lat="45.92486" lon="6.86148">
        <ele>1134</ele>
        <time>2026-05-11T18:25:24+00:00</time>
      </trkpt>
      <trkpt lat="45.92494" lon="6.86143">
        <ele>1136</ele>
        <time>2026-05-11T18:25:25+00:00</time>
      </trkpt>
      <trkpt lat="45.92514" lon="6.86124">
        <ele>1143</ele>
        <time>2026-05-11T18:25:26+00:00</time>
      </trkpt>
      <trkpt lat="45.92515" lon="6.86125">
        <ele>1143</ele>
        <time>2026-05-11T18:25:27+00:00</time>
      </trkpt>
      <trkpt lat="45.92524" lon="6.86118">
        <ele>1145</ele>
        <time>2026-05-11T18:25:28+00:00</time>
      </trkpt>
      <trkpt lat="45.9253" lon="6.86115">
        <ele>1147</ele>
        <time>2026-05-11T18:25:29+00:00</time>
      </trkpt>
      <trkpt lat="45.92536" lon="6.86108">
        <ele>1149</ele>
        <time>2026-05-11T18:25:30+00:00</time>
      </trkpt>
      <trkpt lat="45.92546" lon="6.86106">
        <ele>1150</ele>
        <time>2026-05-11T18:25:31+00:00</time>
      </trkpt>
      <trkpt lat="45.9255" lon="6.86104">
        <ele>1151</ele>
        <time>2026-05-11T18:25:32+00:00</time>
      </trkpt>
      <trkpt lat="45.92557" lon="6.86105">
        <ele>1151</ele>
        <time>2026-05-11T18:25:33+00:00</time>
      </trkpt>
      <trkpt lat="45.92572" lon="6.86117">
        <ele>1151</ele>
        <time>2026-05-11T18:25:34+00:00</time>
      </trkpt>
      <trkpt lat="45.92606" lon="6.8615">
        <ele>1156</ele>
        <time>2026-05-11T18:25:35+00:00</time>
      </trkpt>
      <trkpt lat="45.92608" lon="6.86147">
        <ele>1157</ele>
        <time>2026-05-11T18:25:36+00:00</time>
      </trkpt>
      <trkpt lat="45.92605" lon="6.86135">
        <ele>1157</ele>
        <time>2026-05-11T18:25:37+00:00</time>
      </trkpt>
      <trkpt lat="45.92604" lon="6.86129">
        <ele>1158</ele>
        <time>2026-05-11T18:25:38+00:00</time>
      </trkpt>
      <trkpt lat="45.92606" lon="6.86128">
        <ele>1159</ele>
        <time>2026-05-11T18:25:39+00:00</time>
      </trkpt>
      <trkpt lat="45.92616" lon="6.86137">
        <ele>1161</ele>
        <time>2026-05-11T18:25:40+00:00</time>
      </trkpt>
      <trkpt lat="45.92615" lon="6.86122">
        <ele>1163</ele>
        <time>2026-05-11T18:25:41+00:00</time>
      </trkpt>
      <trkpt lat="45.92616" lon="6.86119">
        <ele>1164</ele>
        <time>2026-05-11T18:25:42+00:00</time>
      </trkpt>
      <trkpt lat="45.9263" lon="6.86132">
        <ele>1167</ele>
        <time>2026-05-11T18:25:43+00:00</time>
      </trkpt>
      <trkpt lat="45.92627" lon="6.86099">
        <ele>1172</ele>
        <time>2026-05-11T18:25:44+00:00</time>
      </trkpt>
      <trkpt lat="45.9263" lon="6.861">
        <ele>1173</ele>
        <time>2026-05-11T18:25:45+00:00</time>
      </trkpt>
      <trkpt lat="45.92643" lon="6.86112">
        <ele>1176</ele>
        <time>2026-05-11T18:25:46+00:00</time>
      </trkpt>
      <trkpt lat="45.92643" lon="6.86094">
        <ele>1179</ele>
        <time>2026-05-11T18:25:47+00:00</time>
      </trkpt>
      <trkpt lat="45.92657" lon="6.86102">
        <ele>1183</ele>
        <time>2026-05-11T18:25:48+00:00</time>
      </trkpt>
      <trkpt lat="45.92659" lon="6.861">
        <ele>1184</ele>
        <time>2026-05-11T18:25:49+00:00</time>
      </trkpt>
      <trkpt lat="45.92658" lon="6.86086">
        <ele>1186</ele>
        <time>2026-05-11T18:25:50+00:00</time>
      </trkpt>
      <trkpt lat="45.92668" lon="6.86093">
        <ele>1189</ele>
        <time>2026-05-11T18:25:51+00:00</time>
      </trkpt>
      <trkpt lat="45.92666" lon="6.86074">
        <ele>1192</ele>
        <time>2026-05-11T18:25:52+00:00</time>
      </trkpt>
      <trkpt lat="45.92667" lon="6.86072">
        <ele>1193</ele>
        <time>2026-05-11T18:25:53+00:00</time>
      </trkpt>
      <trkpt lat="45.92669" lon="6.86074">
        <ele>1194</ele>
        <time>2026-05-11T18:25:54+00:00</time>
      </trkpt>
      <trkpt lat="45.92679" lon="6.86075">
        <ele>1199</ele>
        <time>2026-05-11T18:25:55+00:00</time>
      </trkpt>
      <trkpt lat="45.92681" lon="6.86078">
        <ele>1199</ele>
        <time>2026-05-11T18:25:56+00:00</time>
      </trkpt>
      <trkpt lat="45.92683" lon="6.86077">
        <ele>1201</ele>
        <time>2026-05-11T18:25:57+00:00</time>
      </trkpt>
      <trkpt lat="45.92681" lon="6.86068">
        <ele>1202</ele>
        <time>2026-05-11T18:25:58+00:00</time>
      </trkpt>
      <trkpt lat="45.92684" lon="6.86066">
        <ele>1205</ele>
        <time>2026-05-11T18:25:59+00:00</time>
      </trkpt>
      <trkpt lat="45.92694" lon="6.86074">
        <ele>1208</ele>
        <time>2026-05-11T18:26:00+00:00</time>
      </trkpt>
      <trkpt lat="45.9269" lon="6.86059">
        <ele>1210</ele>
        <time>2026-05-11T18:26:01+00:00</time>
      </trkpt>
      <trkpt lat="45.9269" lon="6.86056">
        <ele>1211</ele>
        <time>2026-05-11T18:26:02+00:00</time>
      </trkpt>
      <trkpt lat="45.92694" lon="6.86058">
        <ele>1213</ele>
        <time>2026-05-11T18:26:03+00:00</time>
      </trkpt>
      <trkpt lat="45.927" lon="6.86066">
        <ele>1214</ele>
        <time>2026-05-11T18:26:04+00:00</time>
      </trkpt>
      <trkpt lat="45.92697" lon="6.8605">
        <ele>1217</ele>
        <time>2026-05-11T18:26:05+00:00</time>
      </trkpt>
      <trkpt lat="45.92699" lon="6.86049">
        <ele>1218</ele>
        <time>2026-05-11T18:26:06+00:00</time>
      </trkpt>
      <trkpt lat="45.92709" lon="6.86059">
        <ele>1221</ele>
        <time>2026-05-11T18:26:07+00:00</time>
      </trkpt>
      <trkpt lat="45.92706" lon="6.86045">
        <ele>1224</ele>
        <time>2026-05-11T18:26:08+00:00</time>
      </trkpt>
      <trkpt lat="45.92707" lon="6.8604">
        <ele>1226</ele>
        <time>2026-05-11T18:26:09+00:00</time>
      </trkpt>
      <trkpt lat="45.92715" lon="6.86046">
        <ele>1229</ele>
        <time>2026-05-11T18:26:10+00:00</time>
      </trkpt>
      <trkpt lat="45.92715" lon="6.86049">
        <ele>1228</ele>
        <time>2026-05-11T18:26:11+00:00</time>
      </trkpt>
      <trkpt lat="45.92716" lon="6.86039">
        <ele>1232</ele>
        <time>2026-05-11T18:26:12+00:00</time>
      </trkpt>
      <trkpt lat="45.92719" lon="6.8604">
        <ele>1233</ele>
        <time>2026-05-11T18:26:13+00:00</time>
      </trkpt>
      <trkpt lat="45.92722" lon="6.86046">
        <ele>1233</ele>
        <time>2026-05-11T18:26:14+00:00</time>
      </trkpt>
      <trkpt lat="45.92723" lon="6.86028">
        <ele>1240</ele>
        <time>2026-05-11T18:26:15+00:00</time>
      </trkpt>
      <trkpt lat="45.9273" lon="6.86031">
        <ele>1243</ele>
        <time>2026-05-11T18:26:16+00:00</time>
      </trkpt>
      <trkpt lat="45.92734" lon="6.86038">
        <ele>1243</ele>
        <time>2026-05-11T18:26:17+00:00</time>
      </trkpt>
      <trkpt lat="45.92733" lon="6.86022">
        <ele>1248</ele>
        <time>2026-05-11T18:26:18+00:00</time>
      </trkpt>
      <trkpt lat="45.92738" lon="6.86025">
        <ele>1250</ele>
        <time>2026-05-11T18:26:19+00:00</time>
      </trkpt>
      <trkpt lat="45.92744" lon="6.86032">
        <ele>1251</ele>
        <time>2026-05-11T18:26:20+00:00</time>
      </trkpt>
      <trkpt lat="45.92741" lon="6.86006">
        <ele>1259</ele>
        <time>2026-05-11T18:26:21+00:00</time>
      </trkpt>
      <trkpt lat="45.92741" lon="6.86002">
        <ele>1260</ele>
        <time>2026-05-11T18:26:22+00:00</time>
      </trkpt>
      <trkpt lat="45.92749" lon="6.86007">
        <ele>1264</ele>
        <time>2026-05-11T18:26:23+00:00</time>
      </trkpt>
      <trkpt lat="45.92756" lon="6.86018">
        <ele>1264</ele>
        <time>2026-05-11T18:26:24+00:00</time>
      </trkpt>
      <trkpt lat="45.92757" lon="6.86015">
        <ele>1266</ele>
        <time>2026-05-11T18:26:25+00:00</time>
      </trkpt>
      <trkpt lat="45.92755" lon="6.86003">
        <ele>1269</ele>
        <time>2026-05-11T18:26:26+00:00</time>
      </trkpt>
      <trkpt lat="45.92754" lon="6.85985">
        <ele>1274</ele>
        <time>2026-05-11T18:26:27+00:00</time>
      </trkpt>
      <trkpt lat="45.92769" lon="6.86004">
        <ele>1277</ele>
        <time>2026-05-11T18:26:28+00:00</time>
      </trkpt>
      <trkpt lat="45.92772" lon="6.86003">
        <ele>1279</ele>
        <time>2026-05-11T18:26:29+00:00</time>
      </trkpt>
      <trkpt lat="45.92769" lon="6.85977">
        <ele>1285</ele>
        <time>2026-05-11T18:26:30+00:00</time>
      </trkpt>
      <trkpt lat="45.92772" lon="6.85976">
        <ele>1287</ele>
        <time>2026-05-11T18:26:31+00:00</time>
      </trkpt>
      <trkpt lat="45.92782" lon="6.85993">
        <ele>1288</ele>
        <time>2026-05-11T18:26:32+00:00</time>
      </trkpt>
      <trkpt lat="45.92781" lon="6.85972">
        <ele>1293</ele>
        <time>2026-05-11T18:26:33+00:00</time>
      </trkpt>
      <trkpt lat="45.92784" lon="6.85969">
        <ele>1296</ele>
        <time>2026-05-11T18:26:34+00:00</time>
      </trkpt>
      <trkpt lat="45.92792" lon="6.85981">
        <ele>1297</ele>
        <time>2026-05-11T18:26:35+00:00</time>
      </trkpt>
      <trkpt lat="45.9279" lon="6.85967">
        <ele>1300</ele>
        <time>2026-05-11T18:26:36+00:00</time>
      </trkpt>
      <trkpt lat="45.92791" lon="6.85956">
        <ele>1304</ele>
        <time>2026-05-11T18:26:37+00:00</time>
      </trkpt>
      <trkpt lat="45.92794" lon="6.85957">
        <ele>1305</ele>
        <time>2026-05-11T18:26:38+00:00</time>
      </trkpt>
      <trkpt lat="45.92804" lon="6.85968">
        <ele>1308</ele>
        <time>2026-05-11T18:26:39+00:00</time>
      </trkpt>
      <trkpt lat="45.92802" lon="6.85967">
        <ele>1307</ele>
        <time>2026-05-11T18:26:40+00:00</time>
      </trkpt>
      <trkpt lat="45.92802" lon="6.85956">
        <ele>1310</ele>
        <time>2026-05-11T18:26:41+00:00</time>
      </trkpt>
      <trkpt lat="45.92803" lon="6.85947">
        <ele>1313</ele>
        <time>2026-05-11T18:26:42+00:00</time>
      </trkpt>
      <trkpt lat="45.92805" lon="6.85944">
        <ele>1315</ele>
        <time>2026-05-11T18:26:43+00:00</time>
      </trkpt>
      <trkpt lat="45.92809" lon="6.85948">
        <ele>1316</ele>
        <time>2026-05-11T18:26:44+00:00</time>
      </trkpt>
      <trkpt lat="45.92812" lon="6.85957">
        <ele>1316</ele>
        <time>2026-05-11T18:26:45+00:00</time>
      </trkpt>
      <trkpt lat="45.92817" lon="6.85961">
        <ele>1318</ele>
        <time>2026-05-11T18:26:46+00:00</time>
      </trkpt>
      <trkpt lat="45.92815" lon="6.85951">
        <ele>1319</ele>
        <time>2026-05-11T18:26:47+00:00</time>
      </trkpt>
      <trkpt lat="45.92817" lon="6.85949">
        <ele>1321</ele>
        <time>2026-05-11T18:26:48+00:00</time>
      </trkpt>
      <trkpt lat="45.92827" lon="6.85955">
        <ele>1325</ele>
        <time>2026-05-11T18:26:49+00:00</time>
      </trkpt>
      <trkpt lat="45.92828" lon="6.85919">
        <ele>1335</ele>
        <time>2026-05-11T18:26:50+00:00</time>
      </trkpt>
      <trkpt lat="45.92831" lon="6.85917">
        <ele>1338</ele>
        <time>2026-05-11T18:26:51+00:00</time>
      </trkpt>
      <trkpt lat="45.9284" lon="6.85928">
        <ele>1340</ele>
        <time>2026-05-11T18:26:52+00:00</time>
      </trkpt>
      <trkpt lat="45.92848" lon="6.85932">
        <ele>1343</ele>
        <time>2026-05-11T18:26:53+00:00</time>
      </trkpt>
      <trkpt lat="45.92844" lon="6.85922">
        <ele>1344</ele>
        <time>2026-05-11T18:26:54+00:00</time>
      </trkpt>
      <trkpt lat="45.92843" lon="6.85907">
        <ele>1348</ele>
        <time>2026-05-11T18:26:55+00:00</time>
      </trkpt>
      <trkpt lat="45.92844" lon="6.85903">
        <ele>1350</ele>
        <time>2026-05-11T18:26:56+00:00</time>
      </trkpt>
      <trkpt lat="45.92847" lon="6.85909">
        <ele>1349</ele>
        <time>2026-05-11T18:26:57+00:00</time>
      </trkpt>
      <trkpt lat="45.92853" lon="6.85913">
        <ele>1352</ele>
        <time>2026-05-11T18:26:58+00:00</time>
      </trkpt>
      <trkpt lat="45.92863" lon="6.85915">
        <ele>1357</ele>
        <time>2026-05-11T18:26:59+00:00</time>
      </trkpt>
      <trkpt lat="45.92865" lon="6.85913">
        <ele>1359</ele>
        <time>2026-05-11T18:27:00+00:00</time>
      </trkpt>
      <trkpt lat="45.92859" lon="6.85905">
        <ele>1358</ele>
        <time>2026-05-11T18:27:01+00:00</time>
      </trkpt>
      <trkpt lat="45.92856" lon="6.85894">
        <ele>1360</ele>
        <time>2026-05-11T18:27:02+00:00</time>
      </trkpt>
      <trkpt lat="45.92858" lon="6.8589">
        <ele>1362</ele>
        <time>2026-05-11T18:27:03+00:00</time>
      </trkpt>
      <trkpt lat="45.92864" lon="6.85898">
        <ele>1363</ele>
        <time>2026-05-11T18:27:04+00:00</time>
      </trkpt>
      <trkpt lat="45.92878" lon="6.85903">
        <ele>1370</ele>
        <time>2026-05-11T18:27:05+00:00</time>
      </trkpt>
      <trkpt lat="45.92879" lon="6.85902">
        <ele>1371</ele>
        <time>2026-05-11T18:27:06+00:00</time>
      </trkpt>
      <trkpt lat="45.92875" lon="6.85894">
        <ele>1371</ele>
        <time>2026-05-11T18:27:07+00:00</time>
      </trkpt>
      <trkpt lat="45.92871" lon="6.8588">
        <ele>1374</ele>
        <time>2026-05-11T18:27:08+00:00</time>
      </trkpt>
      <trkpt lat="45.92873" lon="6.85885">
        <ele>1373</ele>
        <time>2026-05-11T18:27:09+00:00</time>
      </trkpt>
      <trkpt lat="45.92881" lon="6.85892">
        <ele>1375</ele>
        <time>2026-05-11T18:27:10+00:00</time>
      </trkpt>
      <trkpt lat="45.92892" lon="6.85891">
        <ele>1382</ele>
        <time>2026-05-11T18:27:11+00:00</time>
      </trkpt>
      <trkpt lat="45.92895" lon="6.85892">
        <ele>1383</ele>
        <time>2026-05-11T18:27:12+00:00</time>
      </trkpt>
      <trkpt lat="45.92889" lon="6.85881">
        <ele>1384</ele>
        <time>2026-05-11T18:27:13+00:00</time>
      </trkpt>
      <trkpt lat="45.92886" lon="6.85862">
        <ele>1389</ele>
        <time>2026-05-11T18:27:14+00:00</time>
      </trkpt>
      <trkpt lat="45.92889" lon="6.85863">
        <ele>1390</ele>
        <time>2026-05-11T18:27:15+00:00</time>
      </trkpt>
      <trkpt lat="45.92896" lon="6.85872">
        <ele>1391</ele>
        <time>2026-05-11T18:27:16+00:00</time>
      </trkpt>
      <trkpt lat="45.9291" lon="6.85878">
        <ele>1397</ele>
        <time>2026-05-11T18:27:17+00:00</time>
      </trkpt>
      <trkpt lat="45.92911" lon="6.85875">
        <ele>1399</ele>
        <time>2026-05-11T18:27:18+00:00</time>
      </trkpt>
      <trkpt lat="45.92906" lon="6.85871">
        <ele>1398</ele>
        <time>2026-05-11T18:27:19+00:00</time>
      </trkpt>
      <trkpt lat="45.92901" lon="6.85859">
        <ele>1399</ele>
        <time>2026-05-11T18:27:20+00:00</time>
      </trkpt>
      <trkpt lat="45.92898" lon="6.85845">
        <ele>1402</ele>
        <time>2026-05-11T18:27:21+00:00</time>
      </trkpt>
      <trkpt lat="45.92911" lon="6.85855">
        <ele>1407</ele>
        <time>2026-05-11T18:27:22+00:00</time>
      </trkpt>
      <trkpt lat="45.92922" lon="6.85857">
        <ele>1413</ele>
        <time>2026-05-11T18:27:23+00:00</time>
      </trkpt>
      <trkpt lat="45.92921" lon="6.85849">
        <ele>1415</ele>
        <time>2026-05-11T18:27:24+00:00</time>
      </trkpt>
      <trkpt lat="45.92931" lon="6.85852">
        <ele>1420</ele>
        <time>2026-05-11T18:27:25+00:00</time>
      </trkpt>
      <trkpt lat="45.92936" lon="6.85856">
        <ele>1422</ele>
        <time>2026-05-11T18:27:26+00:00</time>
      </trkpt>
      <trkpt lat="45.92937" lon="6.85856">
        <ele>1423</ele>
        <time>2026-05-11T18:27:27+00:00</time>
      </trkpt>
      <trkpt lat="45.92925" lon="6.85825">
        <ele>1426</ele>
        <time>2026-05-11T18:27:28+00:00</time>
      </trkpt>
      <trkpt lat="45.92925" lon="6.85822">
        <ele>1428</ele>
        <time>2026-05-11T18:27:29+00:00</time>
      </trkpt>
      <trkpt lat="45.92935" lon="6.85826">
        <ele>1432</ele>
        <time>2026-05-11T18:27:30+00:00</time>
      </trkpt>
      <trkpt lat="45.92949" lon="6.85836">
        <ele>1437</ele>
        <time>2026-05-11T18:27:31+00:00</time>
      </trkpt>
      <trkpt lat="45.92952" lon="6.85833">
        <ele>1439</ele>
        <time>2026-05-11T18:27:32+00:00</time>
      </trkpt>
      <trkpt lat="45.92958" lon="6.85836">
        <ele>1442</ele>
        <time>2026-05-11T18:27:33+00:00</time>
      </trkpt>
      <trkpt lat="45.92951" lon="6.8582">
        <ele>1444</ele>
        <time>2026-05-11T18:27:34+00:00</time>
      </trkpt>
      <trkpt lat="45.92955" lon="6.85823">
        <ele>1445</ele>
        <time>2026-05-11T18:27:35+00:00</time>
      </trkpt>
      <trkpt lat="45.92961" lon="6.85823">
        <ele>1449</ele>
        <time>2026-05-11T18:27:36+00:00</time>
      </trkpt>
      <trkpt lat="45.9297" lon="6.8583">
        <ele>1451</ele>
        <time>2026-05-11T18:27:37+00:00</time>
      </trkpt>
      <trkpt lat="45.9296" lon="6.85806">
        <ele>1455</ele>
        <time>2026-05-11T18:27:38+00:00</time>
      </trkpt>
      <trkpt lat="45.92962" lon="6.85804">
        <ele>1457</ele>
        <time>2026-05-11T18:27:39+00:00</time>
      </trkpt>
      <trkpt lat="45.92966" lon="6.85805">
        <ele>1459</ele>
        <time>2026-05-11T18:27:40+00:00</time>
      </trkpt>
      <trkpt lat="45.92971" lon="6.85803">
        <ele>1463</ele>
        <time>2026-05-11T18:27:41+00:00</time>
      </trkpt>
      <trkpt lat="45.92989" lon="6.85808">
        <ele>1472</ele>
        <time>2026-05-11T18:27:42+00:00</time>
      </trkpt>
      <trkpt lat="45.92978" lon="6.85797">
        <ele>1470</ele>
        <time>2026-05-11T18:27:43+00:00</time>
      </trkpt>
      <trkpt lat="45.92975" lon="6.85796">
        <ele>1468</ele>
        <time>2026-05-11T18:27:44+00:00</time>
      </trkpt>
      <trkpt lat="45.92972" lon="6.8579">
        <ele>1469</ele>
        <time>2026-05-11T18:27:45+00:00</time>
      </trkpt>
      <trkpt lat="45.92984" lon="6.85799">
        <ele>1472</ele>
        <time>2026-05-11T18:27:46+00:00</time>
      </trkpt>
      <trkpt lat="45.92997" lon="6.858">
        <ele>1480</ele>
        <time>2026-05-11T18:27:47+00:00</time>
      </trkpt>
      <trkpt lat="45.92993" lon="6.85791">
        <ele>1481</ele>
        <time>2026-05-11T18:27:48+00:00</time>
      </trkpt>
      <trkpt lat="45.92986" lon="6.85783">
        <ele>1480</ele>
        <time>2026-05-11T18:27:49+00:00</time>
      </trkpt>
      <trkpt lat="45.93003" lon="6.85791">
        <ele>1487</ele>
        <time>2026-05-11T18:27:50+00:00</time>
      </trkpt>
      <trkpt lat="45.92995" lon="6.85778">
        <ele>1488</ele>
        <time>2026-05-11T18:27:51+00:00</time>
      </trkpt>
      <trkpt lat="45.92996" lon="6.85773">
        <ele>1490</ele>
        <time>2026-05-11T18:27:52+00:00</time>
      </trkpt>
      <trkpt lat="45.92998" lon="6.85772">
        <ele>1492</ele>
        <time>2026-05-11T18:27:53+00:00</time>
      </trkpt>
      <trkpt lat="45.93011" lon="6.85781">
        <ele>1496</ele>
        <time>2026-05-11T18:27:54+00:00</time>
      </trkpt>
      <trkpt lat="45.9302" lon="6.85783">
        <ele>1501</ele>
        <time>2026-05-11T18:27:55+00:00</time>
      </trkpt>
      <trkpt lat="45.93017" lon="6.85768">
        <ele>1505</ele>
        <time>2026-05-11T18:27:56+00:00</time>
      </trkpt>
      <trkpt lat="45.93022" lon="6.85771">
        <ele>1507</ele>
        <time>2026-05-11T18:27:57+00:00</time>
      </trkpt>
      <trkpt lat="45.93025" lon="6.85768">
        <ele>1510</ele>
        <time>2026-05-11T18:27:58+00:00</time>
      </trkpt>
      <trkpt lat="45.93022" lon="6.85763">
        <ele>1510</ele>
        <time>2026-05-11T18:27:59+00:00</time>
      </trkpt>
      <trkpt lat="45.93013" lon="6.8576">
        <ele>1506</ele>
        <time>2026-05-11T18:28:00+00:00</time>
      </trkpt>
      <trkpt lat="45.93012" lon="6.85758">
        <ele>1506</ele>
        <time>2026-05-11T18:28:01+00:00</time>
      </trkpt>
      <trkpt lat="45.93019" lon="6.85757">
        <ele>1511</ele>
        <time>2026-05-11T18:28:02+00:00</time>
      </trkpt>
      <trkpt lat="45.93018" lon="6.85755">
        <ele>1511</ele>
        <time>2026-05-11T18:28:03+00:00</time>
      </trkpt>
      <trkpt lat="45.93023" lon="6.85756">
        <ele>1514</ele>
        <time>2026-05-11T18:28:04+00:00</time>
      </trkpt>
      <trkpt lat="45.9303" lon="6.85761">
        <ele>1516</ele>
        <time>2026-05-11T18:28:05+00:00</time>
      </trkpt>
      <trkpt lat="45.93032" lon="6.85759">
        <ele>1518</ele>
        <time>2026-05-11T18:28:06+00:00</time>
      </trkpt>
      <trkpt lat="45.93024" lon="6.85747">
        <ele>1518</ele>
        <time>2026-05-11T18:28:07+00:00</time>
      </trkpt>
      <trkpt lat="45.93025" lon="6.85744">
        <ele>1520</ele>
        <time>2026-05-11T18:28:08+00:00</time>
      </trkpt>
      <trkpt lat="45.93031" lon="6.85749">
        <ele>1521</ele>
        <time>2026-05-11T18:28:09+00:00</time>
      </trkpt>
      <trkpt lat="45.93039" lon="6.85752">
        <ele>1525</ele>
        <time>2026-05-11T18:28:10+00:00</time>
      </trkpt>
      <trkpt lat="45.93051" lon="6.8575">
        <ele>1533</ele>
        <time>2026-05-11T18:28:11+00:00</time>
      </trkpt>
      <trkpt lat="45.93053" lon="6.85747">
        <ele>1536</ele>
        <time>2026-05-11T18:28:12+00:00</time>
      </trkpt>
      <trkpt lat="45.93058" lon="6.85745">
        <ele>1540</ele>
        <time>2026-05-11T18:28:13+00:00</time>
      </trkpt>
      <trkpt lat="45.93057" lon="6.85738">
        <ele>1542</ele>
        <time>2026-05-11T18:28:14+00:00</time>
      </trkpt>
      <trkpt lat="45.93048" lon="6.8573">
        <ele>1540</ele>
        <time>2026-05-11T18:28:15+00:00</time>
      </trkpt>
      <trkpt lat="45.93056" lon="6.85734">
        <ele>1543</ele>
        <time>2026-05-11T18:28:16+00:00</time>
      </trkpt>
      <trkpt lat="45.93062" lon="6.85739">
        <ele>1545</ele>
        <time>2026-05-11T18:28:17+00:00</time>
      </trkpt>
      <trkpt lat="45.93069" lon="6.85739">
        <ele>1549</ele>
        <time>2026-05-11T18:28:18+00:00</time>
      </trkpt>
      <trkpt lat="45.93062" lon="6.85727">
        <ele>1550</ele>
        <time>2026-05-11T18:28:19+00:00</time>
      </trkpt>
      <trkpt lat="45.93065" lon="6.85724">
        <ele>1553</ele>
        <time>2026-05-11T18:28:20+00:00</time>
      </trkpt>
      <trkpt lat="45.93073" lon="6.85723">
        <ele>1559</ele>
        <time>2026-05-11T18:28:21+00:00</time>
      </trkpt>
      <trkpt lat="45.93071" lon="6.85717">
        <ele>1560</ele>
        <time>2026-05-11T18:28:22+00:00</time>
      </trkpt>
      <trkpt lat="45.93076" lon="6.85719">
        <ele>1562</ele>
        <time>2026-05-11T18:28:23+00:00</time>
      </trkpt>
      <trkpt lat="45.93077" lon="6.85718">
        <ele>1564</ele>
        <time>2026-05-11T18:28:24+00:00</time>
      </trkpt>
      <trkpt lat="45.93071" lon="6.85715">
        <ele>1561</ele>
        <time>2026-05-11T18:28:25+00:00</time>
      </trkpt>
      <trkpt lat="45.9307" lon="6.85712">
        <ele>1562</ele>
        <time>2026-05-11T18:28:26+00:00</time>
      </trkpt>
      <trkpt lat="45.93072" lon="6.8571">
        <ele>1564</ele>
        <time>2026-05-11T18:28:27+00:00</time>
      </trkpt>
      <trkpt lat="45.93081" lon="6.85709">
        <ele>1570</ele>
        <time>2026-05-11T18:28:28+00:00</time>
      </trkpt>
      <trkpt lat="45.93087" lon="6.85711">
        <ele>1573</ele>
        <time>2026-05-11T18:28:29+00:00</time>
      </trkpt>
      <trkpt lat="45.93083" lon="6.85701">
        <ele>1575</ele>
        <time>2026-05-11T18:28:30+00:00</time>
      </trkpt>
      <trkpt lat="45.9308" lon="6.85697">
        <ele>1575</ele>
        <time>2026-05-11T18:28:31+00:00</time>
      </trkpt>
      <trkpt lat="45.93084" lon="6.85693">
        <ele>1579</ele>
        <time>2026-05-11T18:28:32+00:00</time>
      </trkpt>
      <trkpt lat="45.93093" lon="6.85696">
        <ele>1583</ele>
        <time>2026-05-11T18:28:33+00:00</time>
      </trkpt>
      <trkpt lat="45.93099" lon="6.85695">
        <ele>1587</ele>
        <time>2026-05-11T18:28:34+00:00</time>
      </trkpt>
      <trkpt lat="45.93108" lon="6.85706">
        <ele>1588</ele>
        <time>2026-05-11T18:28:35+00:00</time>
      </trkpt>
      <trkpt lat="45.93104" lon="6.85691">
        <ele>1592</ele>
        <time>2026-05-11T18:28:36+00:00</time>
      </trkpt>
      <trkpt lat="45.93106" lon="6.85686">
        <ele>1595</ele>
        <time>2026-05-11T18:28:37+00:00</time>
      </trkpt>
      <trkpt lat="45.93113" lon="6.85685">
        <ele>1600</ele>
        <time>2026-05-11T18:28:38+00:00</time>
      </trkpt>
      <trkpt lat="45.93118" lon="6.85693">
        <ele>1599</ele>
        <time>2026-05-11T18:28:39+00:00</time>
      </trkpt>
      <trkpt lat="45.93116" lon="6.85682">
        <ele>1603</ele>
        <time>2026-05-11T18:28:40+00:00</time>
      </trkpt>
      <trkpt lat="45.93117" lon="6.85682">
        <ele>1604</ele>
        <time>2026-05-11T18:28:41+00:00</time>
      </trkpt>
      <trkpt lat="45.93127" lon="6.85694">
        <ele>1604</ele>
        <time>2026-05-11T18:28:42+00:00</time>
      </trkpt>
      <trkpt lat="45.93127" lon="6.85692">
        <ele>1605</ele>
        <time>2026-05-11T18:28:43+00:00</time>
      </trkpt>
      <trkpt lat="45.93121" lon="6.85675">
        <ele>1609</ele>
        <time>2026-05-11T18:28:44+00:00</time>
      </trkpt>
      <trkpt lat="45.93121" lon="6.85671">
        <ele>1611</ele>
        <time>2026-05-11T18:28:45+00:00</time>
      </trkpt>
      <trkpt lat="45.93123" lon="6.85669">
        <ele>1613</ele>
        <time>2026-05-11T18:28:46+00:00</time>
      </trkpt>
      <trkpt lat="45.93127" lon="6.8567">
        <ele>1615</ele>
        <time>2026-05-11T18:28:47+00:00</time>
      </trkpt>
      <trkpt lat="45.93133" lon="6.85676">
        <ele>1616</ele>
        <time>2026-05-11T18:28:48+00:00</time>
      </trkpt>
      <trkpt lat="45.93133" lon="6.85672">
        <ele>1617</ele>
        <time>2026-05-11T18:28:49+00:00</time>
      </trkpt>
      <trkpt lat="45.9314" lon="6.85674">
        <ele>1621</ele>
        <time>2026-05-11T18:28:50+00:00</time>
      </trkpt>
      <trkpt lat="45.93141" lon="6.85673">
        <ele>1622</ele>
        <time>2026-05-11T18:28:51+00:00</time>
      </trkpt>
      <trkpt lat="45.93133" lon="6.85652">
        <ele>1625</ele>
        <time>2026-05-11T18:28:52+00:00</time>
      </trkpt>
      <trkpt lat="45.93133" lon="6.85647">
        <ele>1627</ele>
        <time>2026-05-11T18:28:53+00:00</time>
      </trkpt>
      <trkpt lat="45.93136" lon="6.85647">
        <ele>1629</ele>
        <time>2026-05-11T18:28:54+00:00</time>
      </trkpt>
      <trkpt lat="45.9315" lon="6.85658">
        <ele>1633</ele>
        <time>2026-05-11T18:28:55+00:00</time>
      </trkpt>
      <trkpt lat="45.93163" lon="6.85665">
        <ele>1638</ele>
        <time>2026-05-11T18:28:56+00:00</time>
      </trkpt>
      <trkpt lat="45.93169" lon="6.85664">
        <ele>1642</ele>
        <time>2026-05-11T18:28:57+00:00</time>
      </trkpt>
      <trkpt lat="45.93179" lon="6.85668">
        <ele>1646</ele>
        <time>2026-05-11T18:28:58+00:00</time>
      </trkpt>
      <trkpt lat="45.93182" lon="6.85666">
        <ele>1649</ele>
        <time>2026-05-11T18:28:59+00:00</time>
      </trkpt>
      <trkpt lat="45.93173" lon="6.85654">
        <ele>1649</ele>
        <time>2026-05-11T18:29:00+00:00</time>
      </trkpt>
      <trkpt lat="45.9318" lon="6.85656">
        <ele>1652</ele>
        <time>2026-05-11T18:29:01+00:00</time>
      </trkpt>
      <trkpt lat="45.93182" lon="6.85654">
        <ele>1654</ele>
        <time>2026-05-11T18:29:02+00:00</time>
      </trkpt>
      <trkpt lat="45.93181" lon="6.8565">
        <ele>1655</ele>
        <time>2026-05-11T18:29:03+00:00</time>
      </trkpt>
      <trkpt lat="45.93179" lon="6.85648">
        <ele>1655</ele>
        <time>2026-05-11T18:29:04+00:00</time>
      </trkpt>
      <trkpt lat="45.93183" lon="6.85645">
        <ele>1659</ele>
        <time>2026-05-11T18:29:05+00:00</time>
      </trkpt>
      <trkpt lat="45.93188" lon="6.85649">
        <ele>1660</ele>
        <time>2026-05-11T18:29:06+00:00</time>
      </trkpt>
      <trkpt lat="45.93188" lon="6.85646">
        <ele>1662</ele>
        <time>2026-05-11T18:29:07+00:00</time>
      </trkpt>
      <trkpt lat="45.93184" lon="6.85641">
        <ele>1661</ele>
        <time>2026-05-11T18:29:08+00:00</time>
      </trkpt>
      <trkpt lat="45.93186" lon="6.85638">
        <ele>1664</ele>
        <time>2026-05-11T18:29:09+00:00</time>
      </trkpt>
      <trkpt lat="45.93189" lon="6.85638">
        <ele>1666</ele>
        <time>2026-05-11T18:29:10+00:00</time>
      </trkpt>
      <trkpt lat="45.93191" lon="6.85639">
        <ele>1667</ele>
        <time>2026-05-11T18:29:11+00:00</time>
      </trkpt>
      <trkpt lat="45.93197" lon="6.85646">
        <ele>1667</ele>
        <time>2026-05-11T18:29:12+00:00</time>
      </trkpt>
      <trkpt lat="45.93193" lon="6.85628">
        <ele>1673</ele>
        <time>2026-05-11T18:29:13+00:00</time>
      </trkpt>
      <trkpt lat="45.932" lon="6.85631">
        <ele>1676</ele>
        <time>2026-05-11T18:29:14+00:00</time>
      </trkpt>
      <trkpt lat="45.93217" lon="6.85633">
        <ele>1685</ele>
        <time>2026-05-11T18:29:15+00:00</time>
      </trkpt>
      <trkpt lat="45.93212" lon="6.85627">
        <ele>1685</ele>
        <time>2026-05-11T18:29:16+00:00</time>
      </trkpt>
      <trkpt lat="45.93205" lon="6.85612">
        <ele>1687</ele>
        <time>2026-05-11T18:29:17+00:00</time>
      </trkpt>
      <trkpt lat="45.93206" lon="6.85609">
        <ele>1689</ele>
        <time>2026-05-11T18:29:18+00:00</time>
      </trkpt>
      <trkpt lat="45.93222" lon="6.85612">
        <ele>1697</ele>
        <time>2026-05-11T18:29:19+00:00</time>
      </trkpt>
      <trkpt lat="45.93222" lon="6.85614">
        <ele>1696</ele>
        <time>2026-05-11T18:29:20+00:00</time>
      </trkpt>
      <trkpt lat="45.93228" lon="6.85611">
        <ele>1701</ele>
        <time>2026-05-11T18:29:21+00:00</time>
      </trkpt>
      <trkpt lat="45.93237" lon="6.85611">
        <ele>1707</ele>
        <time>2026-05-11T18:29:22+00:00</time>
      </trkpt>
      <trkpt lat="45.93247" lon="6.85614">
        <ele>1711</ele>
        <time>2026-05-11T18:29:23+00:00</time>
      </trkpt>
      <trkpt lat="45.9325" lon="6.85617">
        <ele>1712</ele>
        <time>2026-05-11T18:29:24+00:00</time>
      </trkpt>
      <trkpt lat="45.93258" lon="6.85615">
        <ele>1719</ele>
        <time>2026-05-11T18:29:25+00:00</time>
      </trkpt>
      <trkpt lat="45.93252" lon="6.85594">
        <ele>1723</ele>
        <time>2026-05-11T18:29:26+00:00</time>
      </trkpt>
      <trkpt lat="45.93246" lon="6.85592">
        <ele>1720</ele>
        <time>2026-05-11T18:29:27+00:00</time>
      </trkpt>
      <trkpt lat="45.93252" lon="6.85593">
        <ele>1723</ele>
        <time>2026-05-11T18:29:28+00:00</time>
      </trkpt>
      <trkpt lat="45.93252" lon="6.85587">
        <ele>1726</ele>
        <time>2026-05-11T18:29:29+00:00</time>
      </trkpt>
      <trkpt lat="45.93242" lon="6.8558">
        <ele>1722</ele>
        <time>2026-05-11T18:29:30+00:00</time>
      </trkpt>
      <trkpt lat="45.93242" lon="6.85578">
        <ele>1723</ele>
        <time>2026-05-11T18:29:31+00:00</time>
      </trkpt>
      <trkpt lat="45.93248" lon="6.85577">
        <ele>1726</ele>
        <time>2026-05-11T18:29:32+00:00</time>
      </trkpt>
      <trkpt lat="45.93249" lon="6.85574">
        <ele>1728</ele>
        <time>2026-05-11T18:29:33+00:00</time>
      </trkpt>
      <trkpt lat="45.93242" lon="6.8557">
        <ele>1725</ele>
        <time>2026-05-11T18:29:34+00:00</time>
      </trkpt>
      <trkpt lat="45.93245" lon="6.85568">
        <ele>1727</ele>
        <time>2026-05-11T18:29:35+00:00</time>
      </trkpt>
      <trkpt lat="45.9325" lon="6.85566">
        <ele>1731</ele>
        <time>2026-05-11T18:29:36+00:00</time>
      </trkpt>
      <trkpt lat="45.93257" lon="6.85568">
        <ele>1735</ele>
        <time>2026-05-11T18:29:37+00:00</time>
      </trkpt>
      <trkpt lat="45.9326" lon="6.85567">
        <ele>1738</ele>
        <time>2026-05-11T18:29:38+00:00</time>
      </trkpt>
      <trkpt lat="45.93259" lon="6.85559">
        <ele>1739</ele>
        <time>2026-05-11T18:29:39+00:00</time>
      </trkpt>
      <trkpt lat="45.93252" lon="6.85553">
        <ele>1736</ele>
        <time>2026-05-11T18:29:40+00:00</time>
      </trkpt>
      <trkpt lat="45.93253" lon="6.85551">
        <ele>1737</ele>
        <time>2026-05-11T18:29:41+00:00</time>
      </trkpt>
      <trkpt lat="45.93258" lon="6.85553">
        <ele>1740</ele>
        <time>2026-05-11T18:29:42+00:00</time>
      </trkpt>
      <trkpt lat="45.93266" lon="6.85552">
        <ele>1747</ele>
        <time>2026-05-11T18:29:43+00:00</time>
      </trkpt>
      <trkpt lat="45.9327" lon="6.85549">
        <ele>1750</ele>
        <time>2026-05-11T18:29:44+00:00</time>
      </trkpt>
      <trkpt lat="45.93274" lon="6.85548">
        <ele>1754</ele>
        <time>2026-05-11T18:29:45+00:00</time>
      </trkpt>
      <trkpt lat="45.93277" lon="6.85545">
        <ele>1757</ele>
        <time>2026-05-11T18:29:46+00:00</time>
      </trkpt>
      <trkpt lat="45.93269" lon="6.85539">
        <ele>1752</ele>
        <time>2026-05-11T18:29:47+00:00</time>
      </trkpt>
      <trkpt lat="45.93267" lon="6.85537">
        <ele>1751</ele>
        <time>2026-05-11T18:29:48+00:00</time>
      </trkpt>
      <trkpt lat="45.93271" lon="6.85534">
        <ele>1755</ele>
        <time>2026-05-11T18:29:49+00:00</time>
      </trkpt>
      <trkpt lat="45.93276" lon="6.85535">
        <ele>1759</ele>
        <time>2026-05-11T18:29:50+00:00</time>
      </trkpt>
      <trkpt lat="45.9328" lon="6.85538">
        <ele>1761</ele>
        <time>2026-05-11T18:29:51+00:00</time>
      </trkpt>
      <trkpt lat="45.93286" lon="6.85537">
        <ele>1766</ele>
        <time>2026-05-11T18:29:52+00:00</time>
      </trkpt>
      <trkpt lat="45.93296" lon="6.8554">
        <ele>1773</ele>
        <time>2026-05-11T18:29:53+00:00</time>
      </trkpt>
      <trkpt lat="45.933" lon="6.85542">
        <ele>1775</ele>
        <time>2026-05-11T18:29:54+00:00</time>
      </trkpt>
      <trkpt lat="45.93307" lon="6.85552">
        <ele>1778</ele>
        <time>2026-05-11T18:29:55+00:00</time>
      </trkpt>
      <trkpt lat="45.9331" lon="6.85552">
        <ele>1780</ele>
        <time>2026-05-11T18:29:56+00:00</time>
      </trkpt>
      <trkpt lat="45.93309" lon="6.8555">
        <ele>1780</ele>
        <time>2026-05-11T18:29:57+00:00</time>
      </trkpt>
      <trkpt lat="45.93311" lon="6.8555">
        <ele>1782</ele>
        <time>2026-05-11T18:29:58+00:00</time>
      </trkpt>
      <trkpt lat="45.93314" lon="6.85545">
        <ele>1785</ele>
        <time>2026-05-11T18:29:59+00:00</time>
      </trkpt>
      <trkpt lat="45.93318" lon="6.85544">
        <ele>1789</ele>
        <time>2026-05-11T18:30:00+00:00</time>
      </trkpt>
      <trkpt lat="45.93318" lon="6.85533">
        <ele>1792</ele>
        <time>2026-05-11T18:30:01+00:00</time>
      </trkpt>
      <trkpt lat="45.93319" lon="6.85532">
        <ele>1793</ele>
        <time>2026-05-11T18:30:02+00:00</time>
      </trkpt>
      <trkpt lat="45.93321" lon="6.85532">
        <ele>1794</ele>
        <time>2026-05-11T18:30:03+00:00</time>
      </trkpt>
      <trkpt lat="45.93326" lon="6.85528">
        <ele>1799</ele>
        <time>2026-05-11T18:30:04+00:00</time>
      </trkpt>
      <trkpt lat="45.9332" lon="6.8552">
        <ele>1796</ele>
        <time>2026-05-11T18:30:05+00:00</time>
      </trkpt>
      <trkpt lat="45.93319" lon="6.85516">
        <ele>1797</ele>
        <time>2026-05-11T18:30:06+00:00</time>
      </trkpt>
      <trkpt lat="45.93323" lon="6.85516">
        <ele>1800</ele>
        <time>2026-05-11T18:30:07+00:00</time>
      </trkpt>
      <trkpt lat="45.93322" lon="6.85514">
        <ele>1800</ele>
        <time>2026-05-11T18:30:08+00:00</time>
      </trkpt>
      <trkpt lat="45.93322" lon="6.8551">
        <ele>1801</ele>
        <time>2026-05-11T18:30:09+00:00</time>
      </trkpt>
      <trkpt lat="45.93325" lon="6.85512">
        <ele>1802</ele>
        <time>2026-05-11T18:30:10+00:00</time>
      </trkpt>
      <trkpt lat="45.93324" lon="6.8551">
        <ele>1802</ele>
        <time>2026-05-11T18:30:11+00:00</time>
      </trkpt>
      <trkpt lat="45.93325" lon="6.8551">
        <ele>1803</ele>
        <time>2026-05-11T18:30:12+00:00</time>
      </trkpt>
      <trkpt lat="45.93331" lon="6.85514">
        <ele>1807</ele>
        <time>2026-05-11T18:30:13+00:00</time>
      </trkpt>
      <trkpt lat="45.93337" lon="6.85512">
        <ele>1812</ele>
        <time>2026-05-11T18:30:14+00:00</time>
      </trkpt>
      <trkpt lat="45.9334" lon="6.85512">
        <ele>1814</ele>
        <time>2026-05-11T18:30:15+00:00</time>
      </trkpt>
      <trkpt lat="45.93342" lon="6.85511">
        <ele>1816</ele>
        <time>2026-05-11T18:30:16+00:00</time>
      </trkpt>
      <trkpt lat="45.93346" lon="6.85503">
        <ele>1822</ele>
        <time>2026-05-11T18:30:17+00:00</time>
      </trkpt>
      <trkpt lat="45.93361" lon="6.85507">
        <ele>1833</ele>
        <time>2026-05-11T18:30:18+00:00</time>
      </trkpt>
      <trkpt lat="45.9336" lon="6.85499">
        <ele>1834</ele>
        <time>2026-05-11T18:30:19+00:00</time>
      </trkpt>
      <trkpt lat="45.93355" lon="6.85499">
        <ele>1830</ele>
        <time>2026-05-11T18:30:20+00:00</time>
      </trkpt>
      <trkpt lat="45.93351" lon="6.85495">
        <ele>1827</ele>
        <time>2026-05-11T18:30:21+00:00</time>
      </trkpt>
      <trkpt lat="45.93349" lon="6.85498">
        <ele>1825</ele>
        <time>2026-05-11T18:30:22+00:00</time>
      </trkpt>
      <trkpt lat="45.9335" lon="6.8549">
        <ele>1827</ele>
        <time>2026-05-11T18:30:23+00:00</time>
      </trkpt>
      <trkpt lat="45.93348" lon="6.85489">
        <ele>1826</ele>
        <time>2026-05-11T18:30:24+00:00</time>
      </trkpt>
      <trkpt lat="45.93346" lon="6.85485">
        <ele>1825</ele>
        <time>2026-05-11T18:30:25+00:00</time>
      </trkpt>
      <trkpt lat="45.93348" lon="6.85482">
        <ele>1827</ele>
        <time>2026-05-11T18:30:26+00:00</time>
      </trkpt>
      <trkpt lat="45.93349" lon="6.85481">
        <ele>1828</ele>
        <time>2026-05-11T18:30:27+00:00</time>
      </trkpt>
      <trkpt lat="45.93343" lon="6.85472">
        <ele>1825</ele>
        <time>2026-05-11T18:30:28+00:00</time>
      </trkpt>
      <trkpt lat="45.93356" lon="6.85459">
        <ele>1838</ele>
        <time>2026-05-11T18:30:29+00:00</time>
      </trkpt>
      <trkpt lat="45.93358" lon="6.85454">
        <ele>1841</ele>
        <time>2026-05-11T18:30:30+00:00</time>
      </trkpt>
      <trkpt lat="45.93359" lon="6.85456">
        <ele>1841</ele>
        <time>2026-05-11T18:30:31+00:00</time>
      </trkpt>
      <trkpt lat="45.93362" lon="6.85453">
        <ele>1844</ele>
        <time>2026-05-11T18:30:32+00:00</time>
      </trkpt>
      <trkpt lat="45.93364" lon="6.85455">
        <ele>1845</ele>
        <time>2026-05-11T18:30:33+00:00</time>
      </trkpt>
      <trkpt lat="45.93364" lon="6.85459">
        <ele>1845</ele>
        <time>2026-05-11T18:30:34+00:00</time>
      </trkpt>
      <trkpt lat="45.93367" lon="6.85459">
        <ele>1847</ele>
        <time>2026-05-11T18:30:35+00:00</time>
      </trkpt>
      <trkpt lat="45.93371" lon="6.85455">
        <ele>1851</ele>
        <time>2026-05-11T18:30:36+00:00</time>
      </trkpt>
      <trkpt lat="45.93381" lon="6.85454">
        <ele>1859</ele>
        <time>2026-05-11T18:30:37+00:00</time>
      </trkpt>
      <trkpt lat="45.93381" lon="6.85449">
        <ele>1860</ele>
        <time>2026-05-11T18:30:38+00:00</time>
      </trkpt>
      <trkpt lat="45.93404" lon="6.85447">
        <ele>1879</ele>
        <time>2026-05-11T18:30:39+00:00</time>
      </trkpt>
      <trkpt lat="45.93409" lon="6.85444">
        <ele>1883</ele>
        <time>2026-05-11T18:30:40+00:00</time>
      </trkpt>
      <trkpt lat="45.93411" lon="6.85446">
        <ele>1885</ele>
        <time>2026-05-11T18:30:41+00:00</time>
      </trkpt>
      <trkpt lat="45.93411" lon="6.85445">
        <ele>1885</ele>
        <time>2026-05-11T18:30:42+00:00</time>
      </trkpt>
      <trkpt lat="45.93419" lon="6.85447">
        <ele>1890</ele>
        <time>2026-05-11T18:30:43+00:00</time>
      </trkpt>
      <trkpt lat="45.93419" lon="6.85445">
        <ele>1891</ele>
        <time>2026-05-11T18:30:44+00:00</time>
      </trkpt>
      <trkpt lat="45.93423" lon="6.85443">
        <ele>1893</ele>
        <time>2026-05-11T18:30:45+00:00</time>
      </trkpt>
      <trkpt lat="45.93425" lon="6.85436">
        <ele>1896</ele>
        <time>2026-05-11T18:30:46+00:00</time>
      </trkpt>
      <trkpt lat="45.93433" lon="6.85432">
        <ele>1901</ele>
        <time>2026-05-11T18:30:47+00:00</time>
      </trkpt>
      <trkpt lat="45.93442" lon="6.85424">
        <ele>1908</ele>
        <time>2026-05-11T18:30:48+00:00</time>
      </trkpt>
      <trkpt lat="45.93443" lon="6.85426">
        <ele>1909</ele>
        <time>2026-05-11T18:30:49+00:00</time>
      </trkpt>
      <trkpt lat="45.93438" lon="6.85439">
        <ele>1903</ele>
        <time>2026-05-11T18:30:50+00:00</time>
      </trkpt>
      <trkpt lat="45.93444" lon="6.85447">
        <ele>1905</ele>
        <time>2026-05-11T18:30:51+00:00</time>
      </trkpt>
      <trkpt lat="45.93447" lon="6.85445">
        <ele>1907</ele>
        <time>2026-05-11T18:30:52+00:00</time>
      </trkpt>
      <trkpt lat="45.93452" lon="6.85453">
        <ele>1908</ele>
        <time>2026-05-11T18:30:53+00:00</time>
      </trkpt>
      <trkpt lat="45.93455" lon="6.85453">
        <ele>1910</ele>
        <time>2026-05-11T18:30:54+00:00</time>
      </trkpt>
      <trkpt lat="45.93464" lon="6.85467">
        <ele>1912</ele>
        <time>2026-05-11T18:30:55+00:00</time>
      </trkpt>
      <trkpt lat="45.93471" lon="6.85467">
        <ele>1916</ele>
        <time>2026-05-11T18:30:56+00:00</time>
      </trkpt>
      <trkpt lat="45.93472" lon="6.85461">
        <ele>1918</ele>
        <time>2026-05-11T18:30:57+00:00</time>
      </trkpt>
      <trkpt lat="45.93469" lon="6.85454">
        <ele>1918</ele>
        <time>2026-05-11T18:30:58+00:00</time>
      </trkpt>
      <trkpt lat="45.93469" lon="6.85449">
        <ele>1919</ele>
        <time>2026-05-11T18:30:59+00:00</time>
      </trkpt>
      <trkpt lat="45.93471" lon="6.85447">
        <ele>1920</ele>
        <time>2026-05-11T18:31:00+00:00</time>
      </trkpt>
      <trkpt lat="45.93482" lon="6.85447">
        <ele>1927</ele>
        <time>2026-05-11T18:31:01+00:00</time>
      </trkpt>
      <trkpt lat="45.93487" lon="6.85454">
        <ele>1928</ele>
        <time>2026-05-11T18:31:02+00:00</time>
      </trkpt>
      <trkpt lat="45.93489" lon="6.8545">
        <ele>1930</ele>
        <time>2026-05-11T18:31:03+00:00</time>
      </trkpt>
      <trkpt lat="45.93499" lon="6.85442">
        <ele>1938</ele>
        <time>2026-05-11T18:31:04+00:00</time>
      </trkpt>
      <trkpt lat="45.93513" lon="6.85423">
        <ele>1949</ele>
        <time>2026-05-11T18:31:05+00:00</time>
      </trkpt>
      <trkpt lat="45.93515" lon="6.854">
        <ele>1954</ele>
        <time>2026-05-11T18:31:06+00:00</time>
      </trkpt>
      <trkpt lat="45.93514" lon="6.85392">
        <ele>1954</ele>
        <time>2026-05-11T18:31:07+00:00</time>
      </trkpt>
      <trkpt lat="45.93515" lon="6.85389">
        <ele>1955</ele>
        <time>2026-05-11T18:31:08+00:00</time>
      </trkpt>
      <trkpt lat="45.93516" lon="6.85392">
        <ele>1955</ele>
        <time>2026-05-11T18:31:09+00:00</time>
      </trkpt>
      <trkpt lat="45.93517" lon="6.85389">
        <ele>1956</ele>
        <time>2026-05-11T18:31:10+00:00</time>
      </trkpt>
      <trkpt lat="45.93524" lon="6.85391">
        <ele>1959</ele>
        <time>2026-05-11T18:31:11+00:00</time>
      </trkpt>
      <trkpt lat="45.93523" lon="6.85387">
        <ele>1959</ele>
        <time>2026-05-11T18:31:12+00:00</time>
      </trkpt>
      <trkpt lat="45.93528" lon="6.85385">
        <ele>1961</ele>
        <time>2026-05-11T18:31:13+00:00</time>
      </trkpt>
      <trkpt lat="45.93532" lon="6.8538">
        <ele>1964</ele>
        <time>2026-05-11T18:31:14+00:00</time>
      </trkpt>
      <trkpt lat="45.93536" lon="6.85365">
        <ele>1969</ele>
        <time>2026-05-11T18:31:15+00:00</time>
      </trkpt>
      <trkpt lat="45.93538" lon="6.85364">
        <ele>1970</ele>
        <time>2026-05-11T18:31:16+00:00</time>
      </trkpt>
      <trkpt lat="45.93542" lon="6.85367">
        <ele>1971</ele>
        <time>2026-05-11T18:31:17+00:00</time>
      </trkpt>
      <trkpt lat="45.93542" lon="6.85343">
        <ele>1976</ele>
        <time>2026-05-11T18:31:18+00:00</time>
      </trkpt>
      <trkpt lat="45.93546" lon="6.85344">
        <ele>1978</ele>
        <time>2026-05-11T18:31:19+00:00</time>
      </trkpt>
      <trkpt lat="45.9355" lon="6.85349">
        <ele>1979</ele>
        <time>2026-05-11T18:31:20+00:00</time>
      </trkpt>
      <trkpt lat="45.93553" lon="6.85362">
        <ele>1978</ele>
        <time>2026-05-11T18:31:21+00:00</time>
      </trkpt>
      <trkpt lat="45.93558" lon="6.85361">
        <ele>1981</ele>
        <time>2026-05-11T18:31:22+00:00</time>
      </trkpt>
      <trkpt lat="45.93561" lon="6.85358">
        <ele>1983</ele>
        <time>2026-05-11T18:31:23+00:00</time>
      </trkpt>
      <trkpt lat="45.93564" lon="6.85351">
        <ele>1987</ele>
        <time>2026-05-11T18:31:24+00:00</time>
      </trkpt>
      <trkpt lat="45.93564" lon="6.85339">
        <ele>1990</ele>
        <time>2026-05-11T18:31:25+00:00</time>
      </trkpt>
      <trkpt lat="45.93569" lon="6.85319">
        <ele>1995</ele>
        <time>2026-05-11T18:31:26+00:00</time>
      </trkpt>
      <trkpt lat="45.93568" lon="6.85278">
        <ele>1995</ele>
        <time>2026-05-11T18:31:27+00:00</time>
      </trkpt>
      <trkpt lat="45.93569" lon="6.85256">
        <ele>1996</ele>
        <time>2026-05-11T18:31:28+00:00</time>
      </trkpt>
      <trkpt lat="45.93571" lon="6.85247">
        <ele>1997</ele>
        <time>2026-05-11T18:31:29+00:00</time>
      </trkpt>
      <trkpt lat="45.9358" lon="6.85237">
        <ele>2002</ele>
        <time>2026-05-11T18:31:30+00:00</time>
      </trkpt>
      <trkpt lat="45.93598" lon="6.85229">
        <ele>2010</ele>
        <time>2026-05-11T18:31:31+00:00</time>
      </trkpt>
      <trkpt lat="45.93605" lon="6.85222">
        <ele>2012</ele>
        <time>2026-05-11T18:31:32+00:00</time>
      </trkpt>
      <trkpt lat="45.93609" lon="6.85201">
        <ele>2012</ele>
        <time>2026-05-11T18:31:33+00:00</time>
      </trkpt>
      <trkpt lat="45.93619" lon="6.85184">
        <ele>2016</ele>
        <time>2026-05-11T18:31:34+00:00</time>
      </trkpt>
      <trkpt lat="45.9363" lon="6.85167">
        <ele>2020</ele>
        <time>2026-05-11T18:31:35+00:00</time>
      </trkpt>
      <trkpt lat="45.93642" lon="6.85154">
        <ele>2024</ele>
        <time>2026-05-11T18:31:36+00:00</time>
      </trkpt>
      <trkpt lat="45.9367" lon="6.85142">
        <ele>2035</ele>
        <time>2026-05-11T18:31:37+00:00</time>
      </trkpt>
      <trkpt lat="45.93682" lon="6.85138">
        <ele>2036</ele>
        <time>2026-05-11T18:31:38+00:00</time>
      </trkpt>
      <trkpt lat="45.93697" lon="6.85135">
        <ele>2038</ele>
        <time>2026-05-11T18:31:39+00:00</time>
      </trkpt>
      <trkpt lat="45.93705" lon="6.85139">
        <ele>2039</ele>
        <time>2026-05-11T18:31:40+00:00</time>
      </trkpt>
      <trkpt lat="45.93709" lon="6.85149">
        <ele>2040</ele>
        <time>2026-05-11T18:31:41+00:00</time>
      </trkpt>
      <trkpt lat="45.9371" lon="6.8516">
        <ele>2041</ele>
        <time>2026-05-11T18:31:42+00:00</time>
      </trkpt>
      <trkpt lat="45.93708" lon="6.85174">
        <ele>2041</ele>
        <time>2026-05-11T18:31:43+00:00</time>
      </trkpt>
      <trkpt lat="45.93682" lon="6.85218">
        <ele>2040</ele>
        <time>2026-05-11T18:31:44+00:00</time>
      </trkpt>
      <trkpt lat="45.93681" lon="6.85223">
        <ele>2040</ele>
        <time>2026-05-11T18:31:45+00:00</time>
      </trkpt>
      <trkpt lat="45.93687" lon="6.85226">
        <ele>2040</ele>
        <time>2026-05-11T18:31:46+00:00</time>
      </trkpt>
    </trkseg>
  </trk>
</gpx>
