<?xml version="1.0" encoding="UTF-8"?>
<gpx xmlns="http://www.topografix.com/GPX/1/1" xmlns:xsi="http://www.w3.org/2001/XMLSchema-instance" version="1.1" creator="phpGPX/1.3.0" xsi:schemaLocation="http://www.topografix.com/GPX/1/1 http://www.topografix.com/GPX/1/1/gpx.xsd">
  <metadata>
    <time>2026-05-11T18:27:56+00:00</time>
  </metadata>
  <trk>
    <name>Laval, Cœur de Trail !</name>
    <trkseg>
      <trkpt lat="48.0756" lon="-0.77118">
        <ele>50</ele>
        <time>2026-05-11T18:27:57+00:00</time>
      </trkpt>
      <trkpt lat="48.07636" lon="-0.77092">
        <ele>51</ele>
        <time>2026-05-11T18:27:58+00:00</time>
      </trkpt>
      <trkpt lat="48.07676" lon="-0.77083">
        <ele>51</ele>
        <time>2026-05-11T18:27:59+00:00</time>
      </trkpt>
      <trkpt lat="48.07676" lon="-0.77077">
        <ele>51</ele>
        <time>2026-05-11T18:28:00+00:00</time>
      </trkpt>
      <trkpt lat="48.07674" lon="-0.76968">
        <ele>50</ele>
        <time>2026-05-11T18:28:01+00:00</time>
      </trkpt>
      <trkpt lat="48.07677" lon="-0.76968">
        <ele>50</ele>
        <time>2026-05-11T18:28:02+00:00</time>
      </trkpt>
      <trkpt lat="48.07757" lon="-0.76967">
        <ele>49</ele>
        <time>2026-05-11T18:28:03+00:00</time>
      </trkpt>
      <trkpt lat="48.0778" lon="-0.7697">
        <ele>49</ele>
        <time>2026-05-11T18:28:04+00:00</time>
      </trkpt>
      <trkpt lat="48.07807" lon="-0.76974">
        <ele>50</ele>
        <time>2026-05-11T18:28:05+00:00</time>
      </trkpt>
      <trkpt lat="48.07838" lon="-0.76985">
        <ele>50</ele>
        <time>2026-05-11T18:28:06+00:00</time>
      </trkpt>
      <trkpt lat="48.0784" lon="-0.76986">
        <ele>50</ele>
        <time>2026-05-11T18:28:07+00:00</time>
      </trkpt>
      <trkpt lat="48.07863" lon="-0.76994">
        <ele>51</ele>
        <time>2026-05-11T18:28:08+00:00</time>
      </trkpt>
      <trkpt lat="48.07947" lon="-0.77026">
        <ele>53</ele>
        <time>2026-05-11T18:28:09+00:00</time>
      </trkpt>
      <trkpt lat="48.0798" lon="-0.77032">
        <ele>54</ele>
        <time>2026-05-11T18:28:10+00:00</time>
      </trkpt>
      <trkpt lat="48.07982" lon="-0.77032">
        <ele>54</ele>
        <time>2026-05-11T18:28:11+00:00</time>
      </trkpt>
      <trkpt lat="48.07985" lon="-0.77033">
        <ele>54</ele>
        <time>2026-05-11T18:28:12+00:00</time>
      </trkpt>
      <trkpt lat="48.07985" lon="-0.77033">
        <ele>54</ele>
        <time>2026-05-11T18:28:13+00:00</time>
      </trkpt>
      <trkpt lat="48.08022" lon="-0.77042">
        <ele>53</ele>
        <time>2026-05-11T18:28:14+00:00</time>
      </trkpt>
      <trkpt lat="48.08025" lon="-0.77043">
        <ele>53</ele>
        <time>2026-05-11T18:28:15+00:00</time>
      </trkpt>
      <trkpt lat="48.08046" lon="-0.77048">
        <ele>52</ele>
        <time>2026-05-11T18:28:16+00:00</time>
      </trkpt>
      <trkpt lat="48.08057" lon="-0.77052">
        <ele>52</ele>
        <time>2026-05-11T18:28:17+00:00</time>
      </trkpt>
      <trkpt lat="48.08063" lon="-0.77054">
        <ele>52</ele>
        <time>2026-05-11T18:28:18+00:00</time>
      </trkpt>
      <trkpt lat="48.08123" lon="-0.77067">
        <ele>50</ele>
        <time>2026-05-11T18:28:19+00:00</time>
      </trkpt>
      <trkpt lat="48.08131" lon="-0.77069">
        <ele>50</ele>
        <time>2026-05-11T18:28:20+00:00</time>
      </trkpt>
      <trkpt lat="48.08133" lon="-0.7707">
        <ele>50</ele>
        <time>2026-05-11T18:28:21+00:00</time>
      </trkpt>
      <trkpt lat="48.08218" lon="-0.77088">
        <ele>50</ele>
        <time>2026-05-11T18:28:22+00:00</time>
      </trkpt>
      <trkpt lat="48.08219" lon="-0.77085">
        <ele>50</ele>
        <time>2026-05-11T18:28:23+00:00</time>
      </trkpt>
      <trkpt lat="48.08229" lon="-0.77034">
        <ele>53</ele>
        <time>2026-05-11T18:28:24+00:00</time>
      </trkpt>
      <trkpt lat="48.0823" lon="-0.77025">
        <ele>53</ele>
        <time>2026-05-11T18:28:25+00:00</time>
      </trkpt>
      <trkpt lat="48.08229" lon="-0.77015">
        <ele>54</ele>
        <time>2026-05-11T18:28:26+00:00</time>
      </trkpt>
      <trkpt lat="48.08229" lon="-0.77007">
        <ele>54</ele>
        <time>2026-05-11T18:28:27+00:00</time>
      </trkpt>
      <trkpt lat="48.08216" lon="-0.77001">
        <ele>54</ele>
        <time>2026-05-11T18:28:28+00:00</time>
      </trkpt>
      <trkpt lat="48.08177" lon="-0.76982">
        <ele>55</ele>
        <time>2026-05-11T18:28:29+00:00</time>
      </trkpt>
      <trkpt lat="48.0818" lon="-0.76961">
        <ele>56</ele>
        <time>2026-05-11T18:28:30+00:00</time>
      </trkpt>
      <trkpt lat="48.08178" lon="-0.76955">
        <ele>56</ele>
        <time>2026-05-11T18:28:31+00:00</time>
      </trkpt>
      <trkpt lat="48.08175" lon="-0.76951">
        <ele>56</ele>
        <time>2026-05-11T18:28:32+00:00</time>
      </trkpt>
      <trkpt lat="48.08171" lon="-0.76949">
        <ele>57</ele>
        <time>2026-05-11T18:28:33+00:00</time>
      </trkpt>
      <trkpt lat="48.08164" lon="-0.76949">
        <ele>57</ele>
        <time>2026-05-11T18:28:34+00:00</time>
      </trkpt>
      <trkpt lat="48.08159" lon="-0.76948">
        <ele>57</ele>
        <time>2026-05-11T18:28:35+00:00</time>
      </trkpt>
      <trkpt lat="48.08153" lon="-0.76946">
        <ele>57</ele>
        <time>2026-05-11T18:28:36+00:00</time>
      </trkpt>
      <trkpt lat="48.08145" lon="-0.7694">
        <ele>57</ele>
        <time>2026-05-11T18:28:37+00:00</time>
      </trkpt>
      <trkpt lat="48.08141" lon="-0.76932">
        <ele>57</ele>
        <time>2026-05-11T18:28:38+00:00</time>
      </trkpt>
      <trkpt lat="48.08139" lon="-0.7692">
        <ele>58</ele>
        <time>2026-05-11T18:28:39+00:00</time>
      </trkpt>
      <trkpt lat="48.0814" lon="-0.76907">
        <ele>58</ele>
        <time>2026-05-11T18:28:40+00:00</time>
      </trkpt>
      <trkpt lat="48.08174" lon="-0.76806">
        <ele>63</ele>
        <time>2026-05-11T18:28:41+00:00</time>
      </trkpt>
      <trkpt lat="48.0818" lon="-0.76788">
        <ele>63</ele>
        <time>2026-05-11T18:28:42+00:00</time>
      </trkpt>
      <trkpt lat="48.08202" lon="-0.76721">
        <ele>64</ele>
        <time>2026-05-11T18:28:43+00:00</time>
      </trkpt>
      <trkpt lat="48.08207" lon="-0.76715">
        <ele>65</ele>
        <time>2026-05-11T18:28:44+00:00</time>
      </trkpt>
      <trkpt lat="48.08213" lon="-0.76695">
        <ele>65</ele>
        <time>2026-05-11T18:28:45+00:00</time>
      </trkpt>
      <trkpt lat="48.08215" lon="-0.76671">
        <ele>66</ele>
        <time>2026-05-11T18:28:46+00:00</time>
      </trkpt>
      <trkpt lat="48.08215" lon="-0.76654">
        <ele>67</ele>
        <time>2026-05-11T18:28:47+00:00</time>
      </trkpt>
      <trkpt lat="48.08219" lon="-0.76652">
        <ele>67</ele>
        <time>2026-05-11T18:28:48+00:00</time>
      </trkpt>
      <trkpt lat="48.08222" lon="-0.76646">
        <ele>67</ele>
        <time>2026-05-11T18:28:49+00:00</time>
      </trkpt>
      <trkpt lat="48.08278" lon="-0.76501">
        <ele>71</ele>
        <time>2026-05-11T18:28:50+00:00</time>
      </trkpt>
      <trkpt lat="48.08279" lon="-0.76491">
        <ele>72</ele>
        <time>2026-05-11T18:28:51+00:00</time>
      </trkpt>
      <trkpt lat="48.08277" lon="-0.76474">
        <ele>73</ele>
        <time>2026-05-11T18:28:52+00:00</time>
      </trkpt>
      <trkpt lat="48.08292" lon="-0.7648">
        <ele>71</ele>
        <time>2026-05-11T18:28:53+00:00</time>
      </trkpt>
      <trkpt lat="48.08307" lon="-0.76484">
        <ele>69</ele>
        <time>2026-05-11T18:28:54+00:00</time>
      </trkpt>
      <trkpt lat="48.0832" lon="-0.76482">
        <ele>68</ele>
        <time>2026-05-11T18:28:55+00:00</time>
      </trkpt>
      <trkpt lat="48.08332" lon="-0.76475">
        <ele>67</ele>
        <time>2026-05-11T18:28:56+00:00</time>
      </trkpt>
      <trkpt lat="48.08336" lon="-0.76471">
        <ele>67</ele>
        <time>2026-05-11T18:28:57+00:00</time>
      </trkpt>
      <trkpt lat="48.08336" lon="-0.76409">
        <ele>72</ele>
        <time>2026-05-11T18:28:58+00:00</time>
      </trkpt>
      <trkpt lat="48.08333" lon="-0.76389">
        <ele>72</ele>
        <time>2026-05-11T18:28:59+00:00</time>
      </trkpt>
      <trkpt lat="48.08335" lon="-0.76327">
        <ele>73</ele>
        <time>2026-05-11T18:29:00+00:00</time>
      </trkpt>
      <trkpt lat="48.08337" lon="-0.76234">
        <ele>72</ele>
        <time>2026-05-11T18:29:01+00:00</time>
      </trkpt>
      <trkpt lat="48.08341" lon="-0.76152">
        <ele>76</ele>
        <time>2026-05-11T18:29:02+00:00</time>
      </trkpt>
      <trkpt lat="48.08338" lon="-0.76108">
        <ele>80</ele>
        <time>2026-05-11T18:29:03+00:00</time>
      </trkpt>
      <trkpt lat="48.08342" lon="-0.761">
        <ele>80</ele>
        <time>2026-05-11T18:29:04+00:00</time>
      </trkpt>
      <trkpt lat="48.08313" lon="-0.76068">
        <ele>81</ele>
        <time>2026-05-11T18:29:05+00:00</time>
      </trkpt>
      <trkpt lat="48.08284" lon="-0.76009">
        <ele>80</ele>
        <time>2026-05-11T18:29:06+00:00</time>
      </trkpt>
      <trkpt lat="48.08263" lon="-0.75794">
        <ele>83</ele>
        <time>2026-05-11T18:29:07+00:00</time>
      </trkpt>
      <trkpt lat="48.08272" lon="-0.75781">
        <ele>83</ele>
        <time>2026-05-11T18:29:08+00:00</time>
      </trkpt>
      <trkpt lat="48.08298" lon="-0.75779">
        <ele>85</ele>
        <time>2026-05-11T18:29:09+00:00</time>
      </trkpt>
      <trkpt lat="48.08318" lon="-0.75781">
        <ele>86</ele>
        <time>2026-05-11T18:29:10+00:00</time>
      </trkpt>
      <trkpt lat="48.08275" lon="-0.75655">
        <ele>86</ele>
        <time>2026-05-11T18:29:11+00:00</time>
      </trkpt>
      <trkpt lat="48.08263" lon="-0.75663">
        <ele>86</ele>
        <time>2026-05-11T18:29:12+00:00</time>
      </trkpt>
      <trkpt lat="48.08217" lon="-0.75692">
        <ele>84</ele>
        <time>2026-05-11T18:29:13+00:00</time>
      </trkpt>
      <trkpt lat="48.08189" lon="-0.75708">
        <ele>83</ele>
        <time>2026-05-11T18:29:14+00:00</time>
      </trkpt>
      <trkpt lat="48.08148" lon="-0.75734">
        <ele>83</ele>
        <time>2026-05-11T18:29:15+00:00</time>
      </trkpt>
      <trkpt lat="48.08124" lon="-0.75661">
        <ele>81</ele>
        <time>2026-05-11T18:29:16+00:00</time>
      </trkpt>
      <trkpt lat="48.08123" lon="-0.75655">
        <ele>81</ele>
        <time>2026-05-11T18:29:17+00:00</time>
      </trkpt>
      <trkpt lat="48.08107" lon="-0.75607">
        <ele>80</ele>
        <time>2026-05-11T18:29:18+00:00</time>
      </trkpt>
      <trkpt lat="48.0809" lon="-0.75553">
        <ele>78</ele>
        <time>2026-05-11T18:29:19+00:00</time>
      </trkpt>
      <trkpt lat="48.08083" lon="-0.7553">
        <ele>77</ele>
        <time>2026-05-11T18:29:20+00:00</time>
      </trkpt>
      <trkpt lat="48.08077" lon="-0.75513">
        <ele>77</ele>
        <time>2026-05-11T18:29:21+00:00</time>
      </trkpt>
      <trkpt lat="48.08073" lon="-0.75498">
        <ele>77</ele>
        <time>2026-05-11T18:29:22+00:00</time>
      </trkpt>
      <trkpt lat="48.08062" lon="-0.75465">
        <ele>77</ele>
        <time>2026-05-11T18:29:23+00:00</time>
      </trkpt>
      <trkpt lat="48.08061" lon="-0.7546">
        <ele>77</ele>
        <time>2026-05-11T18:29:24+00:00</time>
      </trkpt>
      <trkpt lat="48.08056" lon="-0.75462">
        <ele>77</ele>
        <time>2026-05-11T18:29:25+00:00</time>
      </trkpt>
      <trkpt lat="48.08026" lon="-0.75369">
        <ele>76</ele>
        <time>2026-05-11T18:29:26+00:00</time>
      </trkpt>
      <trkpt lat="48.08023" lon="-0.75365">
        <ele>76</ele>
        <time>2026-05-11T18:29:27+00:00</time>
      </trkpt>
      <trkpt lat="48.08019" lon="-0.75363">
        <ele>76</ele>
        <time>2026-05-11T18:29:28+00:00</time>
      </trkpt>
      <trkpt lat="48.08006" lon="-0.75364">
        <ele>76</ele>
        <time>2026-05-11T18:29:29+00:00</time>
      </trkpt>
      <trkpt lat="48.07998" lon="-0.75366">
        <ele>76</ele>
        <time>2026-05-11T18:29:30+00:00</time>
      </trkpt>
      <trkpt lat="48.07998" lon="-0.75358">
        <ele>76</ele>
        <time>2026-05-11T18:29:31+00:00</time>
      </trkpt>
      <trkpt lat="48.08" lon="-0.75317">
        <ele>76</ele>
        <time>2026-05-11T18:29:32+00:00</time>
      </trkpt>
      <trkpt lat="48.08002" lon="-0.75288">
        <ele>76</ele>
        <time>2026-05-11T18:29:33+00:00</time>
      </trkpt>
      <trkpt lat="48.08003" lon="-0.75276">
        <ele>76</ele>
        <time>2026-05-11T18:29:34+00:00</time>
      </trkpt>
      <trkpt lat="48.07996" lon="-0.75267">
        <ele>76</ele>
        <time>2026-05-11T18:29:35+00:00</time>
      </trkpt>
      <trkpt lat="48.07967" lon="-0.75269">
        <ele>76</ele>
        <time>2026-05-11T18:29:36+00:00</time>
      </trkpt>
      <trkpt lat="48.07966" lon="-0.7524">
        <ele>76</ele>
        <time>2026-05-11T18:29:37+00:00</time>
      </trkpt>
      <trkpt lat="48.07918" lon="-0.75242">
        <ele>77</ele>
        <time>2026-05-11T18:29:38+00:00</time>
      </trkpt>
      <trkpt lat="48.07915" lon="-0.75242">
        <ele>77</ele>
        <time>2026-05-11T18:29:39+00:00</time>
      </trkpt>
      <trkpt lat="48.07873" lon="-0.75245">
        <ele>76</ele>
        <time>2026-05-11T18:29:40+00:00</time>
      </trkpt>
      <trkpt lat="48.07871" lon="-0.75241">
        <ele>76</ele>
        <time>2026-05-11T18:29:41+00:00</time>
      </trkpt>
      <trkpt lat="48.07865" lon="-0.75213">
        <ele>75</ele>
        <time>2026-05-11T18:29:42+00:00</time>
      </trkpt>
      <trkpt lat="48.07854" lon="-0.75216">
        <ele>75</ele>
        <time>2026-05-11T18:29:43+00:00</time>
      </trkpt>
      <trkpt lat="48.07849" lon="-0.75194">
        <ele>75</ele>
        <time>2026-05-11T18:29:44+00:00</time>
      </trkpt>
      <trkpt lat="48.07845" lon="-0.75118">
        <ele>74</ele>
        <time>2026-05-11T18:29:45+00:00</time>
      </trkpt>
      <trkpt lat="48.07845" lon="-0.75084">
        <ele>74</ele>
        <time>2026-05-11T18:29:46+00:00</time>
      </trkpt>
      <trkpt lat="48.07841" lon="-0.75082">
        <ele>74</ele>
        <time>2026-05-11T18:29:47+00:00</time>
      </trkpt>
      <trkpt lat="48.07838" lon="-0.75076">
        <ele>74</ele>
        <time>2026-05-11T18:29:48+00:00</time>
      </trkpt>
      <trkpt lat="48.07839" lon="-0.75069">
        <ele>74</ele>
        <time>2026-05-11T18:29:49+00:00</time>
      </trkpt>
      <trkpt lat="48.0784" lon="-0.75067">
        <ele>74</ele>
        <time>2026-05-11T18:29:50+00:00</time>
      </trkpt>
      <trkpt lat="48.07823" lon="-0.75043">
        <ele>74</ele>
        <time>2026-05-11T18:29:51+00:00</time>
      </trkpt>
      <trkpt lat="48.07769" lon="-0.74948">
        <ele>75</ele>
        <time>2026-05-11T18:29:52+00:00</time>
      </trkpt>
      <trkpt lat="48.07758" lon="-0.74928">
        <ele>76</ele>
        <time>2026-05-11T18:29:53+00:00</time>
      </trkpt>
      <trkpt lat="48.07755" lon="-0.74916">
        <ele>76</ele>
        <time>2026-05-11T18:29:54+00:00</time>
      </trkpt>
      <trkpt lat="48.07753" lon="-0.74904">
        <ele>76</ele>
        <time>2026-05-11T18:29:55+00:00</time>
      </trkpt>
      <trkpt lat="48.07745" lon="-0.74904">
        <ele>77</ele>
        <time>2026-05-11T18:29:56+00:00</time>
      </trkpt>
      <trkpt lat="48.0773" lon="-0.74928">
        <ele>76</ele>
        <time>2026-05-11T18:29:57+00:00</time>
      </trkpt>
      <trkpt lat="48.07681" lon="-0.74989">
        <ele>77</ele>
        <time>2026-05-11T18:29:58+00:00</time>
      </trkpt>
      <trkpt lat="48.07679" lon="-0.74992">
        <ele>77</ele>
        <time>2026-05-11T18:29:59+00:00</time>
      </trkpt>
      <trkpt lat="48.07635" lon="-0.75049">
        <ele>77</ele>
        <time>2026-05-11T18:30:00+00:00</time>
      </trkpt>
      <trkpt lat="48.07631" lon="-0.75067">
        <ele>77</ele>
        <time>2026-05-11T18:30:01+00:00</time>
      </trkpt>
      <trkpt lat="48.07629" lon="-0.75084">
        <ele>77</ele>
        <time>2026-05-11T18:30:02+00:00</time>
      </trkpt>
      <trkpt lat="48.07629" lon="-0.75124">
        <ele>77</ele>
        <time>2026-05-11T18:30:03+00:00</time>
      </trkpt>
      <trkpt lat="48.07629" lon="-0.75153">
        <ele>76</ele>
        <time>2026-05-11T18:30:04+00:00</time>
      </trkpt>
      <trkpt lat="48.07631" lon="-0.75198">
        <ele>76</ele>
        <time>2026-05-11T18:30:05+00:00</time>
      </trkpt>
      <trkpt lat="48.07636" lon="-0.7525">
        <ele>75</ele>
        <time>2026-05-11T18:30:06+00:00</time>
      </trkpt>
      <trkpt lat="48.07639" lon="-0.75265">
        <ele>74</ele>
        <time>2026-05-11T18:30:07+00:00</time>
      </trkpt>
      <trkpt lat="48.07642" lon="-0.75274">
        <ele>74</ele>
        <time>2026-05-11T18:30:08+00:00</time>
      </trkpt>
      <trkpt lat="48.07647" lon="-0.75282">
        <ele>74</ele>
        <time>2026-05-11T18:30:09+00:00</time>
      </trkpt>
      <trkpt lat="48.07644" lon="-0.75287">
        <ele>74</ele>
        <time>2026-05-11T18:30:10+00:00</time>
      </trkpt>
      <trkpt lat="48.07643" lon="-0.75291">
        <ele>73</ele>
        <time>2026-05-11T18:30:11+00:00</time>
      </trkpt>
      <trkpt lat="48.07629" lon="-0.75291">
        <ele>73</ele>
        <time>2026-05-11T18:30:12+00:00</time>
      </trkpt>
      <trkpt lat="48.07606" lon="-0.75292">
        <ele>73</ele>
        <time>2026-05-11T18:30:13+00:00</time>
      </trkpt>
      <trkpt lat="48.07595" lon="-0.75293">
        <ele>73</ele>
        <time>2026-05-11T18:30:14+00:00</time>
      </trkpt>
      <trkpt lat="48.07583" lon="-0.75292">
        <ele>73</ele>
        <time>2026-05-11T18:30:15+00:00</time>
      </trkpt>
      <trkpt lat="48.07582" lon="-0.75265">
        <ele>74</ele>
        <time>2026-05-11T18:30:16+00:00</time>
      </trkpt>
      <trkpt lat="48.07579" lon="-0.75202">
        <ele>77</ele>
        <time>2026-05-11T18:30:17+00:00</time>
      </trkpt>
      <trkpt lat="48.07581" lon="-0.75165">
        <ele>78</ele>
        <time>2026-05-11T18:30:18+00:00</time>
      </trkpt>
      <trkpt lat="48.07583" lon="-0.751">
        <ele>79</ele>
        <time>2026-05-11T18:30:19+00:00</time>
      </trkpt>
      <trkpt lat="48.07584" lon="-0.75068">
        <ele>79</ele>
        <time>2026-05-11T18:30:20+00:00</time>
      </trkpt>
      <trkpt lat="48.07585" lon="-0.75044">
        <ele>79</ele>
        <time>2026-05-11T18:30:21+00:00</time>
      </trkpt>
      <trkpt lat="48.07575" lon="-0.75021">
        <ele>80</ele>
        <time>2026-05-11T18:30:22+00:00</time>
      </trkpt>
      <trkpt lat="48.0754" lon="-0.75016">
        <ele>83</ele>
        <time>2026-05-11T18:30:23+00:00</time>
      </trkpt>
      <trkpt lat="48.07505" lon="-0.75008">
        <ele>86</ele>
        <time>2026-05-11T18:30:24+00:00</time>
      </trkpt>
      <trkpt lat="48.07466" lon="-0.7503">
        <ele>86</ele>
        <time>2026-05-11T18:30:25+00:00</time>
      </trkpt>
      <trkpt lat="48.07453" lon="-0.75034">
        <ele>87</ele>
        <time>2026-05-11T18:30:26+00:00</time>
      </trkpt>
      <trkpt lat="48.07408" lon="-0.7506">
        <ele>87</ele>
        <time>2026-05-11T18:30:27+00:00</time>
      </trkpt>
      <trkpt lat="48.07349" lon="-0.75086">
        <ele>88</ele>
        <time>2026-05-11T18:30:28+00:00</time>
      </trkpt>
      <trkpt lat="48.0727" lon="-0.75119">
        <ele>84</ele>
        <time>2026-05-11T18:30:29+00:00</time>
      </trkpt>
      <trkpt lat="48.07241" lon="-0.75138">
        <ele>83</ele>
        <time>2026-05-11T18:30:30+00:00</time>
      </trkpt>
      <trkpt lat="48.07207" lon="-0.75154">
        <ele>82</ele>
        <time>2026-05-11T18:30:31+00:00</time>
      </trkpt>
      <trkpt lat="48.07173" lon="-0.75172">
        <ele>82</ele>
        <time>2026-05-11T18:30:32+00:00</time>
      </trkpt>
      <trkpt lat="48.0715" lon="-0.75148">
        <ele>81</ele>
        <time>2026-05-11T18:30:33+00:00</time>
      </trkpt>
      <trkpt lat="48.07094" lon="-0.75089">
        <ele>77</ele>
        <time>2026-05-11T18:30:34+00:00</time>
      </trkpt>
      <trkpt lat="48.07079" lon="-0.75073">
        <ele>76</ele>
        <time>2026-05-11T18:30:35+00:00</time>
      </trkpt>
      <trkpt lat="48.07071" lon="-0.75084">
        <ele>76</ele>
        <time>2026-05-11T18:30:36+00:00</time>
      </trkpt>
      <trkpt lat="48.07065" lon="-0.75083">
        <ele>76</ele>
        <time>2026-05-11T18:30:37+00:00</time>
      </trkpt>
      <trkpt lat="48.07053" lon="-0.75076">
        <ele>75</ele>
        <time>2026-05-11T18:30:38+00:00</time>
      </trkpt>
      <trkpt lat="48.0704" lon="-0.75074">
        <ele>75</ele>
        <time>2026-05-11T18:30:39+00:00</time>
      </trkpt>
      <trkpt lat="48.07037" lon="-0.75077">
        <ele>75</ele>
        <time>2026-05-11T18:30:40+00:00</time>
      </trkpt>
      <trkpt lat="48.07019" lon="-0.75081">
        <ele>74</ele>
        <time>2026-05-11T18:30:41+00:00</time>
      </trkpt>
      <trkpt lat="48.07006" lon="-0.75086">
        <ele>74</ele>
        <time>2026-05-11T18:30:42+00:00</time>
      </trkpt>
      <trkpt lat="48.06992" lon="-0.75099">
        <ele>74</ele>
        <time>2026-05-11T18:30:43+00:00</time>
      </trkpt>
      <trkpt lat="48.06985" lon="-0.75105">
        <ele>73</ele>
        <time>2026-05-11T18:30:44+00:00</time>
      </trkpt>
      <trkpt lat="48.06973" lon="-0.75108">
        <ele>72</ele>
        <time>2026-05-11T18:30:45+00:00</time>
      </trkpt>
      <trkpt lat="48.06967" lon="-0.75106">
        <ele>72</ele>
        <time>2026-05-11T18:30:46+00:00</time>
      </trkpt>
      <trkpt lat="48.06965" lon="-0.75105">
        <ele>72</ele>
        <time>2026-05-11T18:30:47+00:00</time>
      </trkpt>
      <trkpt lat="48.06978" lon="-0.75061">
        <ele>72</ele>
        <time>2026-05-11T18:30:48+00:00</time>
      </trkpt>
      <trkpt lat="48.06945" lon="-0.75042">
        <ele>70</ele>
        <time>2026-05-11T18:30:49+00:00</time>
      </trkpt>
      <trkpt lat="48.06883" lon="-0.75194">
        <ele>67</ele>
        <time>2026-05-11T18:30:50+00:00</time>
      </trkpt>
      <trkpt lat="48.06878" lon="-0.7519">
        <ele>67</ele>
        <time>2026-05-11T18:30:51+00:00</time>
      </trkpt>
      <trkpt lat="48.06873" lon="-0.75191">
        <ele>67</ele>
        <time>2026-05-11T18:30:52+00:00</time>
      </trkpt>
      <trkpt lat="48.06868" lon="-0.75195">
        <ele>66</ele>
        <time>2026-05-11T18:30:53+00:00</time>
      </trkpt>
      <trkpt lat="48.06853" lon="-0.75247">
        <ele>66</ele>
        <time>2026-05-11T18:30:54+00:00</time>
      </trkpt>
      <trkpt lat="48.0685" lon="-0.7525">
        <ele>66</ele>
        <time>2026-05-11T18:30:55+00:00</time>
      </trkpt>
      <trkpt lat="48.06846" lon="-0.75248">
        <ele>66</ele>
        <time>2026-05-11T18:30:56+00:00</time>
      </trkpt>
      <trkpt lat="48.06823" lon="-0.75233">
        <ele>64</ele>
        <time>2026-05-11T18:30:57+00:00</time>
      </trkpt>
      <trkpt lat="48.06811" lon="-0.75228">
        <ele>64</ele>
        <time>2026-05-11T18:30:58+00:00</time>
      </trkpt>
      <trkpt lat="48.06805" lon="-0.75301">
        <ele>63</ele>
        <time>2026-05-11T18:30:59+00:00</time>
      </trkpt>
      <trkpt lat="48.06804" lon="-0.7535">
        <ele>64</ele>
        <time>2026-05-11T18:31:00+00:00</time>
      </trkpt>
      <trkpt lat="48.06801" lon="-0.75435">
        <ele>65</ele>
        <time>2026-05-11T18:31:01+00:00</time>
      </trkpt>
      <trkpt lat="48.06799" lon="-0.75461">
        <ele>65</ele>
        <time>2026-05-11T18:31:02+00:00</time>
      </trkpt>
      <trkpt lat="48.06797" lon="-0.75469">
        <ele>64</ele>
        <time>2026-05-11T18:31:03+00:00</time>
      </trkpt>
      <trkpt lat="48.06794" lon="-0.75474">
        <ele>64</ele>
        <time>2026-05-11T18:31:04+00:00</time>
      </trkpt>
      <trkpt lat="48.0677" lon="-0.75455">
        <ele>63</ele>
        <time>2026-05-11T18:31:05+00:00</time>
      </trkpt>
      <trkpt lat="48.06748" lon="-0.75443">
        <ele>62</ele>
        <time>2026-05-11T18:31:06+00:00</time>
      </trkpt>
      <trkpt lat="48.0674" lon="-0.75441">
        <ele>62</ele>
        <time>2026-05-11T18:31:07+00:00</time>
      </trkpt>
      <trkpt lat="48.06736" lon="-0.7544">
        <ele>61</ele>
        <time>2026-05-11T18:31:08+00:00</time>
      </trkpt>
      <trkpt lat="48.0674" lon="-0.75441">
        <ele>62</ele>
        <time>2026-05-11T18:31:09+00:00</time>
      </trkpt>
      <trkpt lat="48.06728" lon="-0.75516">
        <ele>60</ele>
        <time>2026-05-11T18:31:10+00:00</time>
      </trkpt>
      <trkpt lat="48.06719" lon="-0.75556">
        <ele>60</ele>
        <time>2026-05-11T18:31:11+00:00</time>
      </trkpt>
      <trkpt lat="48.06713" lon="-0.75574">
        <ele>60</ele>
        <time>2026-05-11T18:31:12+00:00</time>
      </trkpt>
      <trkpt lat="48.06705" lon="-0.75587">
        <ele>60</ele>
        <time>2026-05-11T18:31:13+00:00</time>
      </trkpt>
      <trkpt lat="48.06693" lon="-0.75595">
        <ele>59</ele>
        <time>2026-05-11T18:31:14+00:00</time>
      </trkpt>
      <trkpt lat="48.06681" lon="-0.756">
        <ele>59</ele>
        <time>2026-05-11T18:31:15+00:00</time>
      </trkpt>
      <trkpt lat="48.06686" lon="-0.75623">
        <ele>60</ele>
        <time>2026-05-11T18:31:16+00:00</time>
      </trkpt>
      <trkpt lat="48.0664" lon="-0.75642">
        <ele>58</ele>
        <time>2026-05-11T18:31:17+00:00</time>
      </trkpt>
      <trkpt lat="48.06618" lon="-0.75654">
        <ele>57</ele>
        <time>2026-05-11T18:31:18+00:00</time>
      </trkpt>
      <trkpt lat="48.06612" lon="-0.75657">
        <ele>57</ele>
        <time>2026-05-11T18:31:19+00:00</time>
      </trkpt>
      <trkpt lat="48.066" lon="-0.75627">
        <ele>57</ele>
        <time>2026-05-11T18:31:20+00:00</time>
      </trkpt>
      <trkpt lat="48.06592" lon="-0.75632">
        <ele>56</ele>
        <time>2026-05-11T18:31:21+00:00</time>
      </trkpt>
      <trkpt lat="48.06588" lon="-0.75631">
        <ele>56</ele>
        <time>2026-05-11T18:31:22+00:00</time>
      </trkpt>
      <trkpt lat="48.06586" lon="-0.7563">
        <ele>56</ele>
        <time>2026-05-11T18:31:23+00:00</time>
      </trkpt>
      <trkpt lat="48.06579" lon="-0.75612">
        <ele>56</ele>
        <time>2026-05-11T18:31:24+00:00</time>
      </trkpt>
      <trkpt lat="48.06564" lon="-0.75575">
        <ele>55</ele>
        <time>2026-05-11T18:31:25+00:00</time>
      </trkpt>
      <trkpt lat="48.06561" lon="-0.75592">
        <ele>55</ele>
        <time>2026-05-11T18:31:26+00:00</time>
      </trkpt>
      <trkpt lat="48.0656" lon="-0.75594">
        <ele>55</ele>
        <time>2026-05-11T18:31:27+00:00</time>
      </trkpt>
      <trkpt lat="48.06559" lon="-0.75607">
        <ele>55</ele>
        <time>2026-05-11T18:31:28+00:00</time>
      </trkpt>
      <trkpt lat="48.06557" lon="-0.75611">
        <ele>55</ele>
        <time>2026-05-11T18:31:29+00:00</time>
      </trkpt>
      <trkpt lat="48.06554" lon="-0.75612">
        <ele>55</ele>
        <time>2026-05-11T18:31:30+00:00</time>
      </trkpt>
      <trkpt lat="48.06552" lon="-0.75611">
        <ele>55</ele>
        <time>2026-05-11T18:31:31+00:00</time>
      </trkpt>
      <trkpt lat="48.06549" lon="-0.75612">
        <ele>55</ele>
        <time>2026-05-11T18:31:32+00:00</time>
      </trkpt>
      <trkpt lat="48.06547" lon="-0.75615">
        <ele>55</ele>
        <time>2026-05-11T18:31:33+00:00</time>
      </trkpt>
      <trkpt lat="48.06547" lon="-0.75621">
        <ele>55</ele>
        <time>2026-05-11T18:31:34+00:00</time>
      </trkpt>
      <trkpt lat="48.06547" lon="-0.75628">
        <ele>55</ele>
        <time>2026-05-11T18:31:35+00:00</time>
      </trkpt>
      <trkpt lat="48.06525" lon="-0.75632">
        <ele>54</ele>
        <time>2026-05-11T18:31:36+00:00</time>
      </trkpt>
      <trkpt lat="48.06522" lon="-0.75609">
        <ele>54</ele>
        <time>2026-05-11T18:31:37+00:00</time>
      </trkpt>
      <trkpt lat="48.06515" lon="-0.75617">
        <ele>53</ele>
        <time>2026-05-11T18:31:38+00:00</time>
      </trkpt>
      <trkpt lat="48.06515" lon="-0.75617">
        <ele>53</ele>
        <time>2026-05-11T18:31:39+00:00</time>
      </trkpt>
      <trkpt lat="48.06515" lon="-0.75618">
        <ele>53</ele>
        <time>2026-05-11T18:31:40+00:00</time>
      </trkpt>
      <trkpt lat="48.06515" lon="-0.75618">
        <ele>53</ele>
        <time>2026-05-11T18:31:41+00:00</time>
      </trkpt>
      <trkpt lat="48.06507" lon="-0.75625">
        <ele>53</ele>
        <time>2026-05-11T18:31:42+00:00</time>
      </trkpt>
      <trkpt lat="48.06493" lon="-0.75638">
        <ele>53</ele>
        <time>2026-05-11T18:31:43+00:00</time>
      </trkpt>
      <trkpt lat="48.06487" lon="-0.75645">
        <ele>53</ele>
        <time>2026-05-11T18:31:44+00:00</time>
      </trkpt>
      <trkpt lat="48.0648" lon="-0.75653">
        <ele>53</ele>
        <time>2026-05-11T18:31:45+00:00</time>
      </trkpt>
      <trkpt lat="48.06476" lon="-0.75657">
        <ele>53</ele>
        <time>2026-05-11T18:31:46+00:00</time>
      </trkpt>
      <trkpt lat="48.06471" lon="-0.75664">
        <ele>53</ele>
        <time>2026-05-11T18:31:47+00:00</time>
      </trkpt>
      <trkpt lat="48.06462" lon="-0.75682">
        <ele>53</ele>
        <time>2026-05-11T18:31:48+00:00</time>
      </trkpt>
      <trkpt lat="48.06454" lon="-0.75715">
        <ele>53</ele>
        <time>2026-05-11T18:31:49+00:00</time>
      </trkpt>
      <trkpt lat="48.0644" lon="-0.75735">
        <ele>53</ele>
        <time>2026-05-11T18:31:50+00:00</time>
      </trkpt>
      <trkpt lat="48.06426" lon="-0.75751">
        <ele>53</ele>
        <time>2026-05-11T18:31:51+00:00</time>
      </trkpt>
      <trkpt lat="48.0622" lon="-0.75847">
        <ele>51</ele>
        <time>2026-05-11T18:31:52+00:00</time>
      </trkpt>
      <trkpt lat="48.06152" lon="-0.75897">
        <ele>53</ele>
        <time>2026-05-11T18:31:53+00:00</time>
      </trkpt>
      <trkpt lat="48.06124" lon="-0.75925">
        <ele>53</ele>
        <time>2026-05-11T18:31:54+00:00</time>
      </trkpt>
      <trkpt lat="48.06122" lon="-0.75923">
        <ele>53</ele>
        <time>2026-05-11T18:31:55+00:00</time>
      </trkpt>
      <trkpt lat="48.0612" lon="-0.75922">
        <ele>53</ele>
        <time>2026-05-11T18:31:56+00:00</time>
      </trkpt>
      <trkpt lat="48.06113" lon="-0.75935">
        <ele>52</ele>
        <time>2026-05-11T18:31:57+00:00</time>
      </trkpt>
      <trkpt lat="48.06084" lon="-0.75962">
        <ele>51</ele>
        <time>2026-05-11T18:31:58+00:00</time>
      </trkpt>
      <trkpt lat="48.0605" lon="-0.76017">
        <ele>49</ele>
        <time>2026-05-11T18:31:59+00:00</time>
      </trkpt>
      <trkpt lat="48.06048" lon="-0.76021">
        <ele>49</ele>
        <time>2026-05-11T18:32:00+00:00</time>
      </trkpt>
      <trkpt lat="48.06047" lon="-0.76022">
        <ele>49</ele>
        <time>2026-05-11T18:32:01+00:00</time>
      </trkpt>
      <trkpt lat="48.06026" lon="-0.76066">
        <ele>47</ele>
        <time>2026-05-11T18:32:02+00:00</time>
      </trkpt>
      <trkpt lat="48.05917" lon="-0.76264">
        <ele>50</ele>
        <time>2026-05-11T18:32:03+00:00</time>
      </trkpt>
      <trkpt lat="48.05909" lon="-0.76279">
        <ele>51</ele>
        <time>2026-05-11T18:32:04+00:00</time>
      </trkpt>
      <trkpt lat="48.05891" lon="-0.76312">
        <ele>51</ele>
        <time>2026-05-11T18:32:05+00:00</time>
      </trkpt>
      <trkpt lat="48.05875" lon="-0.76347">
        <ele>52</ele>
        <time>2026-05-11T18:32:06+00:00</time>
      </trkpt>
      <trkpt lat="48.05873" lon="-0.76353">
        <ele>51</ele>
        <time>2026-05-11T18:32:07+00:00</time>
      </trkpt>
      <trkpt lat="48.05861" lon="-0.76354">
        <ele>51</ele>
        <time>2026-05-11T18:32:08+00:00</time>
      </trkpt>
      <trkpt lat="48.05856" lon="-0.76363">
        <ele>51</ele>
        <time>2026-05-11T18:32:09+00:00</time>
      </trkpt>
      <trkpt lat="48.05841" lon="-0.76418">
        <ele>51</ele>
        <time>2026-05-11T18:32:10+00:00</time>
      </trkpt>
      <trkpt lat="48.05838" lon="-0.76435">
        <ele>51</ele>
        <time>2026-05-11T18:32:11+00:00</time>
      </trkpt>
      <trkpt lat="48.05834" lon="-0.76435">
        <ele>51</ele>
        <time>2026-05-11T18:32:12+00:00</time>
      </trkpt>
      <trkpt lat="48.0582" lon="-0.76435">
        <ele>51</ele>
        <time>2026-05-11T18:32:13+00:00</time>
      </trkpt>
      <trkpt lat="48.05808" lon="-0.76436">
        <ele>51</ele>
        <time>2026-05-11T18:32:14+00:00</time>
      </trkpt>
      <trkpt lat="48.05806" lon="-0.76433">
        <ele>51</ele>
        <time>2026-05-11T18:32:15+00:00</time>
      </trkpt>
      <trkpt lat="48.05807" lon="-0.76417">
        <ele>51</ele>
        <time>2026-05-11T18:32:16+00:00</time>
      </trkpt>
      <trkpt lat="48.05805" lon="-0.76411">
        <ele>51</ele>
        <time>2026-05-11T18:32:17+00:00</time>
      </trkpt>
      <trkpt lat="48.05787" lon="-0.76408">
        <ele>52</ele>
        <time>2026-05-11T18:32:18+00:00</time>
      </trkpt>
      <trkpt lat="48.05764" lon="-0.76407">
        <ele>52</ele>
        <time>2026-05-11T18:32:19+00:00</time>
      </trkpt>
      <trkpt lat="48.05749" lon="-0.76402">
        <ele>52</ele>
        <time>2026-05-11T18:32:20+00:00</time>
      </trkpt>
      <trkpt lat="48.05696" lon="-0.76407">
        <ele>53</ele>
        <time>2026-05-11T18:32:21+00:00</time>
      </trkpt>
      <trkpt lat="48.05697" lon="-0.76485">
        <ele>53</ele>
        <time>2026-05-11T18:32:22+00:00</time>
      </trkpt>
      <trkpt lat="48.05617" lon="-0.76494">
        <ele>53</ele>
        <time>2026-05-11T18:32:23+00:00</time>
      </trkpt>
      <trkpt lat="48.05617" lon="-0.765">
        <ele>53</ele>
        <time>2026-05-11T18:32:24+00:00</time>
      </trkpt>
      <trkpt lat="48.05587" lon="-0.76502">
        <ele>53</ele>
        <time>2026-05-11T18:32:25+00:00</time>
      </trkpt>
      <trkpt lat="48.05546" lon="-0.76505">
        <ele>53</ele>
        <time>2026-05-11T18:32:26+00:00</time>
      </trkpt>
      <trkpt lat="48.05547" lon="-0.76567">
        <ele>54</ele>
        <time>2026-05-11T18:32:27+00:00</time>
      </trkpt>
      <trkpt lat="48.05549" lon="-0.76571">
        <ele>54</ele>
        <time>2026-05-11T18:32:28+00:00</time>
      </trkpt>
      <trkpt lat="48.05551" lon="-0.76573">
        <ele>54</ele>
        <time>2026-05-11T18:32:29+00:00</time>
      </trkpt>
      <trkpt lat="48.05619" lon="-0.76571">
        <ele>53</ele>
        <time>2026-05-11T18:32:30+00:00</time>
      </trkpt>
      <trkpt lat="48.05622" lon="-0.76645">
        <ele>54</ele>
        <time>2026-05-11T18:32:31+00:00</time>
      </trkpt>
      <trkpt lat="48.05628" lon="-0.76645">
        <ele>54</ele>
        <time>2026-05-11T18:32:32+00:00</time>
      </trkpt>
      <trkpt lat="48.0566" lon="-0.76643">
        <ele>53</ele>
        <time>2026-05-11T18:32:33+00:00</time>
      </trkpt>
      <trkpt lat="48.05677" lon="-0.76645">
        <ele>53</ele>
        <time>2026-05-11T18:32:34+00:00</time>
      </trkpt>
      <trkpt lat="48.05705" lon="-0.76644">
        <ele>54</ele>
        <time>2026-05-11T18:32:35+00:00</time>
      </trkpt>
      <trkpt lat="48.05729" lon="-0.76642">
        <ele>55</ele>
        <time>2026-05-11T18:32:36+00:00</time>
      </trkpt>
      <trkpt lat="48.05805" lon="-0.76635">
        <ele>54</ele>
        <time>2026-05-11T18:32:37+00:00</time>
      </trkpt>
      <trkpt lat="48.05803" lon="-0.76642">
        <ele>55</ele>
        <time>2026-05-11T18:32:38+00:00</time>
      </trkpt>
      <trkpt lat="48.05804" lon="-0.76643">
        <ele>55</ele>
        <time>2026-05-11T18:32:39+00:00</time>
      </trkpt>
      <trkpt lat="48.05811" lon="-0.76652">
        <ele>55</ele>
        <time>2026-05-11T18:32:40+00:00</time>
      </trkpt>
      <trkpt lat="48.05814" lon="-0.76667">
        <ele>55</ele>
        <time>2026-05-11T18:32:41+00:00</time>
      </trkpt>
      <trkpt lat="48.05815" lon="-0.76692">
        <ele>56</ele>
        <time>2026-05-11T18:32:42+00:00</time>
      </trkpt>
      <trkpt lat="48.05843" lon="-0.7669">
        <ele>56</ele>
        <time>2026-05-11T18:32:43+00:00</time>
      </trkpt>
      <trkpt lat="48.05843" lon="-0.76691">
        <ele>56</ele>
        <time>2026-05-11T18:32:44+00:00</time>
      </trkpt>
      <trkpt lat="48.05856" lon="-0.76722">
        <ele>57</ele>
        <time>2026-05-11T18:32:45+00:00</time>
      </trkpt>
      <trkpt lat="48.05871" lon="-0.76733">
        <ele>58</ele>
        <time>2026-05-11T18:32:46+00:00</time>
      </trkpt>
      <trkpt lat="48.05881" lon="-0.76762">
        <ele>59</ele>
        <time>2026-05-11T18:32:47+00:00</time>
      </trkpt>
      <trkpt lat="48.05892" lon="-0.7683">
        <ele>60</ele>
        <time>2026-05-11T18:32:48+00:00</time>
      </trkpt>
      <trkpt lat="48.05897" lon="-0.76829">
        <ele>59</ele>
        <time>2026-05-11T18:32:49+00:00</time>
      </trkpt>
      <trkpt lat="48.05918" lon="-0.76821">
        <ele>59</ele>
        <time>2026-05-11T18:32:50+00:00</time>
      </trkpt>
      <trkpt lat="48.05917" lon="-0.76846">
        <ele>59</ele>
        <time>2026-05-11T18:32:51+00:00</time>
      </trkpt>
      <trkpt lat="48.05922" lon="-0.76873">
        <ele>60</ele>
        <time>2026-05-11T18:32:52+00:00</time>
      </trkpt>
      <trkpt lat="48.05976" lon="-0.76914">
        <ele>63</ele>
        <time>2026-05-11T18:32:53+00:00</time>
      </trkpt>
      <trkpt lat="48.05977" lon="-0.76918">
        <ele>64</ele>
        <time>2026-05-11T18:32:54+00:00</time>
      </trkpt>
      <trkpt lat="48.05982" lon="-0.76936">
        <ele>64</ele>
        <time>2026-05-11T18:32:55+00:00</time>
      </trkpt>
      <trkpt lat="48.05993" lon="-0.76956">
        <ele>66</ele>
        <time>2026-05-11T18:32:56+00:00</time>
      </trkpt>
      <trkpt lat="48.06016" lon="-0.76989">
        <ele>66</ele>
        <time>2026-05-11T18:32:57+00:00</time>
      </trkpt>
      <trkpt lat="48.06021" lon="-0.77003">
        <ele>67</ele>
        <time>2026-05-11T18:32:58+00:00</time>
      </trkpt>
      <trkpt lat="48.06024" lon="-0.77016">
        <ele>67</ele>
        <time>2026-05-11T18:32:59+00:00</time>
      </trkpt>
      <trkpt lat="48.06027" lon="-0.7703">
        <ele>68</ele>
        <time>2026-05-11T18:33:00+00:00</time>
      </trkpt>
      <trkpt lat="48.06027" lon="-0.77042">
        <ele>69</ele>
        <time>2026-05-11T18:33:01+00:00</time>
      </trkpt>
      <trkpt lat="48.06033" lon="-0.77045">
        <ele>69</ele>
        <time>2026-05-11T18:33:02+00:00</time>
      </trkpt>
      <trkpt lat="48.06086" lon="-0.77119">
        <ele>71</ele>
        <time>2026-05-11T18:33:03+00:00</time>
      </trkpt>
      <trkpt lat="48.06111" lon="-0.77163">
        <ele>73</ele>
        <time>2026-05-11T18:33:04+00:00</time>
      </trkpt>
      <trkpt lat="48.06125" lon="-0.77198">
        <ele>74</ele>
        <time>2026-05-11T18:33:05+00:00</time>
      </trkpt>
      <trkpt lat="48.06133" lon="-0.77222">
        <ele>75</ele>
        <time>2026-05-11T18:33:06+00:00</time>
      </trkpt>
      <trkpt lat="48.06135" lon="-0.77234">
        <ele>76</ele>
        <time>2026-05-11T18:33:07+00:00</time>
      </trkpt>
      <trkpt lat="48.06164" lon="-0.77355">
        <ele>76</ele>
        <time>2026-05-11T18:33:08+00:00</time>
      </trkpt>
      <trkpt lat="48.06174" lon="-0.7749">
        <ele>77</ele>
        <time>2026-05-11T18:33:09+00:00</time>
      </trkpt>
      <trkpt lat="48.06174" lon="-0.77495">
        <ele>77</ele>
        <time>2026-05-11T18:33:10+00:00</time>
      </trkpt>
      <trkpt lat="48.06199" lon="-0.77499">
        <ele>75</ele>
        <time>2026-05-11T18:33:11+00:00</time>
      </trkpt>
      <trkpt lat="48.06201" lon="-0.77501">
        <ele>75</ele>
        <time>2026-05-11T18:33:12+00:00</time>
      </trkpt>
      <trkpt lat="48.062" lon="-0.77519">
        <ele>75</ele>
        <time>2026-05-11T18:33:13+00:00</time>
      </trkpt>
      <trkpt lat="48.06199" lon="-0.77522">
        <ele>76</ele>
        <time>2026-05-11T18:33:14+00:00</time>
      </trkpt>
      <trkpt lat="48.06202" lon="-0.77531">
        <ele>75</ele>
        <time>2026-05-11T18:33:15+00:00</time>
      </trkpt>
      <trkpt lat="48.06209" lon="-0.77539">
        <ele>75</ele>
        <time>2026-05-11T18:33:16+00:00</time>
      </trkpt>
      <trkpt lat="48.06211" lon="-0.77558">
        <ele>75</ele>
        <time>2026-05-11T18:33:17+00:00</time>
      </trkpt>
      <trkpt lat="48.06215" lon="-0.77557">
        <ele>74</ele>
        <time>2026-05-11T18:33:18+00:00</time>
      </trkpt>
      <trkpt lat="48.06223" lon="-0.77555">
        <ele>73</ele>
        <time>2026-05-11T18:33:19+00:00</time>
      </trkpt>
      <trkpt lat="48.06236" lon="-0.77548">
        <ele>72</ele>
        <time>2026-05-11T18:33:20+00:00</time>
      </trkpt>
      <trkpt lat="48.06266" lon="-0.77517">
        <ele>71</ele>
        <time>2026-05-11T18:33:21+00:00</time>
      </trkpt>
      <trkpt lat="48.06271" lon="-0.77515">
        <ele>71</ele>
        <time>2026-05-11T18:33:22+00:00</time>
      </trkpt>
      <trkpt lat="48.06269" lon="-0.77527">
        <ele>71</ele>
        <time>2026-05-11T18:33:23+00:00</time>
      </trkpt>
      <trkpt lat="48.0626" lon="-0.77594">
        <ele>70</ele>
        <time>2026-05-11T18:33:24+00:00</time>
      </trkpt>
      <trkpt lat="48.06256" lon="-0.77625">
        <ele>70</ele>
        <time>2026-05-11T18:33:25+00:00</time>
      </trkpt>
      <trkpt lat="48.06254" lon="-0.7764">
        <ele>70</ele>
        <time>2026-05-11T18:33:26+00:00</time>
      </trkpt>
      <trkpt lat="48.06247" lon="-0.77671">
        <ele>70</ele>
        <time>2026-05-11T18:33:27+00:00</time>
      </trkpt>
      <trkpt lat="48.06243" lon="-0.77693">
        <ele>70</ele>
        <time>2026-05-11T18:33:28+00:00</time>
      </trkpt>
      <trkpt lat="48.0623" lon="-0.77775">
        <ele>71</ele>
        <time>2026-05-11T18:33:29+00:00</time>
      </trkpt>
      <trkpt lat="48.06222" lon="-0.77825">
        <ele>72</ele>
        <time>2026-05-11T18:33:30+00:00</time>
      </trkpt>
      <trkpt lat="48.06226" lon="-0.77826">
        <ele>72</ele>
        <time>2026-05-11T18:33:31+00:00</time>
      </trkpt>
      <trkpt lat="48.0631" lon="-0.77824">
        <ele>74</ele>
        <time>2026-05-11T18:33:32+00:00</time>
      </trkpt>
      <trkpt lat="48.0631" lon="-0.77807">
        <ele>73</ele>
        <time>2026-05-11T18:33:33+00:00</time>
      </trkpt>
      <trkpt lat="48.06357" lon="-0.77806">
        <ele>76</ele>
        <time>2026-05-11T18:33:34+00:00</time>
      </trkpt>
      <trkpt lat="48.06406" lon="-0.77798">
        <ele>79</ele>
        <time>2026-05-11T18:33:35+00:00</time>
      </trkpt>
      <trkpt lat="48.06409" lon="-0.77799">
        <ele>80</ele>
        <time>2026-05-11T18:33:36+00:00</time>
      </trkpt>
      <trkpt lat="48.06416" lon="-0.77856">
        <ele>80</ele>
        <time>2026-05-11T18:33:37+00:00</time>
      </trkpt>
      <trkpt lat="48.06422" lon="-0.77935">
        <ele>80</ele>
        <time>2026-05-11T18:33:38+00:00</time>
      </trkpt>
      <trkpt lat="48.06424" lon="-0.7794">
        <ele>80</ele>
        <time>2026-05-11T18:33:39+00:00</time>
      </trkpt>
      <trkpt lat="48.06425" lon="-0.77942">
        <ele>80</ele>
        <time>2026-05-11T18:33:40+00:00</time>
      </trkpt>
      <trkpt lat="48.06428" lon="-0.77944">
        <ele>80</ele>
        <time>2026-05-11T18:33:41+00:00</time>
      </trkpt>
      <trkpt lat="48.06432" lon="-0.77943">
        <ele>81</ele>
        <time>2026-05-11T18:33:42+00:00</time>
      </trkpt>
      <trkpt lat="48.0644" lon="-0.77948">
        <ele>81</ele>
        <time>2026-05-11T18:33:43+00:00</time>
      </trkpt>
      <trkpt lat="48.06439" lon="-0.77954">
        <ele>81</ele>
        <time>2026-05-11T18:33:44+00:00</time>
      </trkpt>
      <trkpt lat="48.06438" lon="-0.7796">
        <ele>81</ele>
        <time>2026-05-11T18:33:45+00:00</time>
      </trkpt>
      <trkpt lat="48.06439" lon="-0.77966">
        <ele>81</ele>
        <time>2026-05-11T18:33:46+00:00</time>
      </trkpt>
      <trkpt lat="48.0644" lon="-0.77971">
        <ele>81</ele>
        <time>2026-05-11T18:33:47+00:00</time>
      </trkpt>
      <trkpt lat="48.06443" lon="-0.77975">
        <ele>81</ele>
        <time>2026-05-11T18:33:48+00:00</time>
      </trkpt>
      <trkpt lat="48.06441" lon="-0.77978">
        <ele>81</ele>
        <time>2026-05-11T18:33:49+00:00</time>
      </trkpt>
      <trkpt lat="48.06443" lon="-0.77975">
        <ele>81</ele>
        <time>2026-05-11T18:33:50+00:00</time>
      </trkpt>
      <trkpt lat="48.06447" lon="-0.77978">
        <ele>82</ele>
        <time>2026-05-11T18:33:51+00:00</time>
      </trkpt>
      <trkpt lat="48.06451" lon="-0.7798">
        <ele>82</ele>
        <time>2026-05-11T18:33:52+00:00</time>
      </trkpt>
      <trkpt lat="48.06455" lon="-0.77979">
        <ele>82</ele>
        <time>2026-05-11T18:33:53+00:00</time>
      </trkpt>
      <trkpt lat="48.06459" lon="-0.77976">
        <ele>82</ele>
        <time>2026-05-11T18:33:54+00:00</time>
      </trkpt>
      <trkpt lat="48.06462" lon="-0.77972">
        <ele>82</ele>
        <time>2026-05-11T18:33:55+00:00</time>
      </trkpt>
      <trkpt lat="48.06492" lon="-0.77986">
        <ele>84</ele>
        <time>2026-05-11T18:33:56+00:00</time>
      </trkpt>
      <trkpt lat="48.06524" lon="-0.77994">
        <ele>85</ele>
        <time>2026-05-11T18:33:57+00:00</time>
      </trkpt>
      <trkpt lat="48.06584" lon="-0.78009">
        <ele>84</ele>
        <time>2026-05-11T18:33:58+00:00</time>
      </trkpt>
      <trkpt lat="48.06566" lon="-0.78214">
        <ele>88</ele>
        <time>2026-05-11T18:33:59+00:00</time>
      </trkpt>
      <trkpt lat="48.06571" lon="-0.78238">
        <ele>88</ele>
        <time>2026-05-11T18:34:00+00:00</time>
      </trkpt>
      <trkpt lat="48.06574" lon="-0.7824">
        <ele>88</ele>
        <time>2026-05-11T18:34:01+00:00</time>
      </trkpt>
      <trkpt lat="48.06577" lon="-0.78243">
        <ele>88</ele>
        <time>2026-05-11T18:34:02+00:00</time>
      </trkpt>
      <trkpt lat="48.06579" lon="-0.78247">
        <ele>88</ele>
        <time>2026-05-11T18:34:03+00:00</time>
      </trkpt>
      <trkpt lat="48.0658" lon="-0.78251">
        <ele>88</ele>
        <time>2026-05-11T18:34:04+00:00</time>
      </trkpt>
      <trkpt lat="48.0658" lon="-0.7826">
        <ele>88</ele>
        <time>2026-05-11T18:34:05+00:00</time>
      </trkpt>
      <trkpt lat="48.06589" lon="-0.78272">
        <ele>89</ele>
        <time>2026-05-11T18:34:06+00:00</time>
      </trkpt>
      <trkpt lat="48.06619" lon="-0.78352">
        <ele>90</ele>
        <time>2026-05-11T18:34:07+00:00</time>
      </trkpt>
      <trkpt lat="48.06647" lon="-0.78427">
        <ele>89</ele>
        <time>2026-05-11T18:34:08+00:00</time>
      </trkpt>
      <trkpt lat="48.06652" lon="-0.7844">
        <ele>90</ele>
        <time>2026-05-11T18:34:09+00:00</time>
      </trkpt>
      <trkpt lat="48.06682" lon="-0.78519">
        <ele>91</ele>
        <time>2026-05-11T18:34:10+00:00</time>
      </trkpt>
      <trkpt lat="48.067" lon="-0.78567">
        <ele>91</ele>
        <time>2026-05-11T18:34:11+00:00</time>
      </trkpt>
      <trkpt lat="48.06704" lon="-0.78578">
        <ele>91</ele>
        <time>2026-05-11T18:34:12+00:00</time>
      </trkpt>
      <trkpt lat="48.06706" lon="-0.78583">
        <ele>91</ele>
        <time>2026-05-11T18:34:13+00:00</time>
      </trkpt>
      <trkpt lat="48.06709" lon="-0.78582">
        <ele>90</ele>
        <time>2026-05-11T18:34:14+00:00</time>
      </trkpt>
      <trkpt lat="48.06706" lon="-0.78583">
        <ele>91</ele>
        <time>2026-05-11T18:34:15+00:00</time>
      </trkpt>
      <trkpt lat="48.06722" lon="-0.78625">
        <ele>91</ele>
        <time>2026-05-11T18:34:16+00:00</time>
      </trkpt>
      <trkpt lat="48.06733" lon="-0.7866">
        <ele>91</ele>
        <time>2026-05-11T18:34:17+00:00</time>
      </trkpt>
      <trkpt lat="48.0675" lon="-0.78712">
        <ele>93</ele>
        <time>2026-05-11T18:34:18+00:00</time>
      </trkpt>
      <trkpt lat="48.06757" lon="-0.78729">
        <ele>93</ele>
        <time>2026-05-11T18:34:19+00:00</time>
      </trkpt>
      <trkpt lat="48.06768" lon="-0.78765">
        <ele>93</ele>
        <time>2026-05-11T18:34:20+00:00</time>
      </trkpt>
      <trkpt lat="48.06814" lon="-0.7875">
        <ele>90</ele>
        <time>2026-05-11T18:34:21+00:00</time>
      </trkpt>
      <trkpt lat="48.06866" lon="-0.78734">
        <ele>87</ele>
        <time>2026-05-11T18:34:22+00:00</time>
      </trkpt>
      <trkpt lat="48.06897" lon="-0.78725">
        <ele>86</ele>
        <time>2026-05-11T18:34:23+00:00</time>
      </trkpt>
      <trkpt lat="48.069" lon="-0.78736">
        <ele>86</ele>
        <time>2026-05-11T18:34:24+00:00</time>
      </trkpt>
      <trkpt lat="48.06908" lon="-0.78757">
        <ele>86</ele>
        <time>2026-05-11T18:34:25+00:00</time>
      </trkpt>
      <trkpt lat="48.06922" lon="-0.7879">
        <ele>86</ele>
        <time>2026-05-11T18:34:26+00:00</time>
      </trkpt>
      <trkpt lat="48.06929" lon="-0.78806">
        <ele>86</ele>
        <time>2026-05-11T18:34:27+00:00</time>
      </trkpt>
      <trkpt lat="48.06939" lon="-0.7882">
        <ele>86</ele>
        <time>2026-05-11T18:34:28+00:00</time>
      </trkpt>
      <trkpt lat="48.06945" lon="-0.78826">
        <ele>86</ele>
        <time>2026-05-11T18:34:29+00:00</time>
      </trkpt>
      <trkpt lat="48.06946" lon="-0.78827">
        <ele>86</ele>
        <time>2026-05-11T18:34:30+00:00</time>
      </trkpt>
      <trkpt lat="48.06996" lon="-0.78854">
        <ele>87</ele>
        <time>2026-05-11T18:34:31+00:00</time>
      </trkpt>
      <trkpt lat="48.07021" lon="-0.78866">
        <ele>88</ele>
        <time>2026-05-11T18:34:32+00:00</time>
      </trkpt>
      <trkpt lat="48.0702" lon="-0.78872">
        <ele>89</ele>
        <time>2026-05-11T18:34:33+00:00</time>
      </trkpt>
      <trkpt lat="48.07018" lon="-0.78927">
        <ele>90</ele>
        <time>2026-05-11T18:34:34+00:00</time>
      </trkpt>
      <trkpt lat="48.07017" lon="-0.78961">
        <ele>90</ele>
        <time>2026-05-11T18:34:35+00:00</time>
      </trkpt>
      <trkpt lat="48.07019" lon="-0.78974">
        <ele>91</ele>
        <time>2026-05-11T18:34:36+00:00</time>
      </trkpt>
      <trkpt lat="48.07024" lon="-0.78973">
        <ele>91</ele>
        <time>2026-05-11T18:34:37+00:00</time>
      </trkpt>
      <trkpt lat="48.07028" lon="-0.78977">
        <ele>91</ele>
        <time>2026-05-11T18:34:38+00:00</time>
      </trkpt>
      <trkpt lat="48.0703" lon="-0.78981">
        <ele>91</ele>
        <time>2026-05-11T18:34:39+00:00</time>
      </trkpt>
      <trkpt lat="48.0703" lon="-0.78987">
        <ele>91</ele>
        <time>2026-05-11T18:34:40+00:00</time>
      </trkpt>
      <trkpt lat="48.07029" lon="-0.78994">
        <ele>91</ele>
        <time>2026-05-11T18:34:41+00:00</time>
      </trkpt>
      <trkpt lat="48.07026" lon="-0.79017">
        <ele>92</ele>
        <time>2026-05-11T18:34:42+00:00</time>
      </trkpt>
      <trkpt lat="48.07101" lon="-0.79048">
        <ele>92</ele>
        <time>2026-05-11T18:34:43+00:00</time>
      </trkpt>
      <trkpt lat="48.07111" lon="-0.79051">
        <ele>92</ele>
        <time>2026-05-11T18:34:44+00:00</time>
      </trkpt>
      <trkpt lat="48.07139" lon="-0.79055">
        <ele>91</ele>
        <time>2026-05-11T18:34:45+00:00</time>
      </trkpt>
      <trkpt lat="48.07181" lon="-0.79051">
        <ele>90</ele>
        <time>2026-05-11T18:34:46+00:00</time>
      </trkpt>
      <trkpt lat="48.07219" lon="-0.79048">
        <ele>88</ele>
        <time>2026-05-11T18:34:47+00:00</time>
      </trkpt>
      <trkpt lat="48.07224" lon="-0.79049">
        <ele>88</ele>
        <time>2026-05-11T18:34:48+00:00</time>
      </trkpt>
      <trkpt lat="48.07227" lon="-0.79111">
        <ele>88</ele>
        <time>2026-05-11T18:34:49+00:00</time>
      </trkpt>
      <trkpt lat="48.07312" lon="-0.79093">
        <ele>86</ele>
        <time>2026-05-11T18:34:50+00:00</time>
      </trkpt>
      <trkpt lat="48.07343" lon="-0.79081">
        <ele>84</ele>
        <time>2026-05-11T18:34:51+00:00</time>
      </trkpt>
      <trkpt lat="48.0737" lon="-0.79069">
        <ele>83</ele>
        <time>2026-05-11T18:34:52+00:00</time>
      </trkpt>
      <trkpt lat="48.07379" lon="-0.7907">
        <ele>82</ele>
        <time>2026-05-11T18:34:53+00:00</time>
      </trkpt>
      <trkpt lat="48.07382" lon="-0.79072">
        <ele>82</ele>
        <time>2026-05-11T18:34:54+00:00</time>
      </trkpt>
      <trkpt lat="48.07389" lon="-0.79061">
        <ele>81</ele>
        <time>2026-05-11T18:34:55+00:00</time>
      </trkpt>
      <trkpt lat="48.07452" lon="-0.79029">
        <ele>79</ele>
        <time>2026-05-11T18:34:56+00:00</time>
      </trkpt>
      <trkpt lat="48.07472" lon="-0.79134">
        <ele>79</ele>
        <time>2026-05-11T18:34:57+00:00</time>
      </trkpt>
      <trkpt lat="48.07474" lon="-0.79161">
        <ele>79</ele>
        <time>2026-05-11T18:34:58+00:00</time>
      </trkpt>
      <trkpt lat="48.07483" lon="-0.79174">
        <ele>78</ele>
        <time>2026-05-11T18:34:59+00:00</time>
      </trkpt>
      <trkpt lat="48.07486" lon="-0.79182">
        <ele>78</ele>
        <time>2026-05-11T18:35:00+00:00</time>
      </trkpt>
      <trkpt lat="48.07495" lon="-0.79186">
        <ele>78</ele>
        <time>2026-05-11T18:35:01+00:00</time>
      </trkpt>
      <trkpt lat="48.07533" lon="-0.79191">
        <ele>80</ele>
        <time>2026-05-11T18:35:02+00:00</time>
      </trkpt>
      <trkpt lat="48.07535" lon="-0.79132">
        <ele>81</ele>
        <time>2026-05-11T18:35:03+00:00</time>
      </trkpt>
      <trkpt lat="48.07547" lon="-0.79114">
        <ele>83</ele>
        <time>2026-05-11T18:35:04+00:00</time>
      </trkpt>
      <trkpt lat="48.07573" lon="-0.79087">
        <ele>86</ele>
        <time>2026-05-11T18:35:05+00:00</time>
      </trkpt>
      <trkpt lat="48.07586" lon="-0.79073">
        <ele>87</ele>
        <time>2026-05-11T18:35:06+00:00</time>
      </trkpt>
      <trkpt lat="48.07592" lon="-0.79091">
        <ele>87</ele>
        <time>2026-05-11T18:35:07+00:00</time>
      </trkpt>
      <trkpt lat="48.07629" lon="-0.79085">
        <ele>87</ele>
        <time>2026-05-11T18:35:08+00:00</time>
      </trkpt>
      <trkpt lat="48.07656" lon="-0.79084">
        <ele>87</ele>
        <time>2026-05-11T18:35:09+00:00</time>
      </trkpt>
      <trkpt lat="48.07669" lon="-0.79086">
        <ele>87</ele>
        <time>2026-05-11T18:35:10+00:00</time>
      </trkpt>
      <trkpt lat="48.07687" lon="-0.7907">
        <ele>87</ele>
        <time>2026-05-11T18:35:11+00:00</time>
      </trkpt>
      <trkpt lat="48.0773" lon="-0.7903">
        <ele>86</ele>
        <time>2026-05-11T18:35:12+00:00</time>
      </trkpt>
      <trkpt lat="48.07755" lon="-0.79007">
        <ele>86</ele>
        <time>2026-05-11T18:35:13+00:00</time>
      </trkpt>
      <trkpt lat="48.07784" lon="-0.78977">
        <ele>87</ele>
        <time>2026-05-11T18:35:14+00:00</time>
      </trkpt>
      <trkpt lat="48.07797" lon="-0.78953">
        <ele>87</ele>
        <time>2026-05-11T18:35:15+00:00</time>
      </trkpt>
      <trkpt lat="48.07817" lon="-0.78931">
        <ele>87</ele>
        <time>2026-05-11T18:35:16+00:00</time>
      </trkpt>
      <trkpt lat="48.07853" lon="-0.78996">
        <ele>89</ele>
        <time>2026-05-11T18:35:17+00:00</time>
      </trkpt>
      <trkpt lat="48.07891" lon="-0.78975">
        <ele>89</ele>
        <time>2026-05-11T18:35:18+00:00</time>
      </trkpt>
      <trkpt lat="48.07925" lon="-0.78957">
        <ele>89</ele>
        <time>2026-05-11T18:35:19+00:00</time>
      </trkpt>
      <trkpt lat="48.07934" lon="-0.78952">
        <ele>89</ele>
        <time>2026-05-11T18:35:20+00:00</time>
      </trkpt>
      <trkpt lat="48.07942" lon="-0.78948">
        <ele>89</ele>
        <time>2026-05-11T18:35:21+00:00</time>
      </trkpt>
      <trkpt lat="48.07951" lon="-0.78943">
        <ele>90</ele>
        <time>2026-05-11T18:35:22+00:00</time>
      </trkpt>
      <trkpt lat="48.07957" lon="-0.7894">
        <ele>90</ele>
        <time>2026-05-11T18:35:23+00:00</time>
      </trkpt>
      <trkpt lat="48.07986" lon="-0.78925">
        <ele>91</ele>
        <time>2026-05-11T18:35:24+00:00</time>
      </trkpt>
      <trkpt lat="48.08012" lon="-0.78911">
        <ele>92</ele>
        <time>2026-05-11T18:35:25+00:00</time>
      </trkpt>
      <trkpt lat="48.0805" lon="-0.7889">
        <ele>93</ele>
        <time>2026-05-11T18:35:26+00:00</time>
      </trkpt>
      <trkpt lat="48.0806" lon="-0.78899">
        <ele>93</ele>
        <time>2026-05-11T18:35:27+00:00</time>
      </trkpt>
      <trkpt lat="48.08074" lon="-0.78897">
        <ele>93</ele>
        <time>2026-05-11T18:35:28+00:00</time>
      </trkpt>
      <trkpt lat="48.08089" lon="-0.7889">
        <ele>93</ele>
        <time>2026-05-11T18:35:29+00:00</time>
      </trkpt>
      <trkpt lat="48.08095" lon="-0.78878">
        <ele>93</ele>
        <time>2026-05-11T18:35:30+00:00</time>
      </trkpt>
      <trkpt lat="48.0811" lon="-0.78873">
        <ele>92</ele>
        <time>2026-05-11T18:35:31+00:00</time>
      </trkpt>
      <trkpt lat="48.08124" lon="-0.7887">
        <ele>92</ele>
        <time>2026-05-11T18:35:32+00:00</time>
      </trkpt>
      <trkpt lat="48.08137" lon="-0.78874">
        <ele>92</ele>
        <time>2026-05-11T18:35:33+00:00</time>
      </trkpt>
      <trkpt lat="48.08142" lon="-0.78815">
        <ele>91</ele>
        <time>2026-05-11T18:35:34+00:00</time>
      </trkpt>
      <trkpt lat="48.08142" lon="-0.78786">
        <ele>91</ele>
        <time>2026-05-11T18:35:35+00:00</time>
      </trkpt>
      <trkpt lat="48.0814" lon="-0.78755">
        <ele>91</ele>
        <time>2026-05-11T18:35:36+00:00</time>
      </trkpt>
      <trkpt lat="48.0814" lon="-0.78748">
        <ele>91</ele>
        <time>2026-05-11T18:35:37+00:00</time>
      </trkpt>
      <trkpt lat="48.08139" lon="-0.78729">
        <ele>91</ele>
        <time>2026-05-11T18:35:38+00:00</time>
      </trkpt>
      <trkpt lat="48.08139" lon="-0.78723">
        <ele>91</ele>
        <time>2026-05-11T18:35:39+00:00</time>
      </trkpt>
      <trkpt lat="48.08137" lon="-0.78692">
        <ele>90</ele>
        <time>2026-05-11T18:35:40+00:00</time>
      </trkpt>
      <trkpt lat="48.08136" lon="-0.78676">
        <ele>90</ele>
        <time>2026-05-11T18:35:41+00:00</time>
      </trkpt>
      <trkpt lat="48.08136" lon="-0.78667">
        <ele>90</ele>
        <time>2026-05-11T18:35:42+00:00</time>
      </trkpt>
      <trkpt lat="48.08135" lon="-0.78652">
        <ele>90</ele>
        <time>2026-05-11T18:35:43+00:00</time>
      </trkpt>
      <trkpt lat="48.08132" lon="-0.78589">
        <ele>91</ele>
        <time>2026-05-11T18:35:44+00:00</time>
      </trkpt>
      <trkpt lat="48.08124" lon="-0.78413">
        <ele>93</ele>
        <time>2026-05-11T18:35:45+00:00</time>
      </trkpt>
      <trkpt lat="48.08124" lon="-0.78389">
        <ele>93</ele>
        <time>2026-05-11T18:35:46+00:00</time>
      </trkpt>
      <trkpt lat="48.08127" lon="-0.7837">
        <ele>93</ele>
        <time>2026-05-11T18:35:47+00:00</time>
      </trkpt>
      <trkpt lat="48.08133" lon="-0.78335">
        <ele>93</ele>
        <time>2026-05-11T18:35:48+00:00</time>
      </trkpt>
      <trkpt lat="48.08134" lon="-0.78327">
        <ele>93</ele>
        <time>2026-05-11T18:35:49+00:00</time>
      </trkpt>
      <trkpt lat="48.08147" lon="-0.78295">
        <ele>93</ele>
        <time>2026-05-11T18:35:50+00:00</time>
      </trkpt>
      <trkpt lat="48.08153" lon="-0.78188">
        <ele>92</ele>
        <time>2026-05-11T18:35:51+00:00</time>
      </trkpt>
      <trkpt lat="48.08163" lon="-0.78176">
        <ele>92</ele>
        <time>2026-05-11T18:35:52+00:00</time>
      </trkpt>
      <trkpt lat="48.08164" lon="-0.78166">
        <ele>92</ele>
        <time>2026-05-11T18:35:53+00:00</time>
      </trkpt>
      <trkpt lat="48.08165" lon="-0.78158">
        <ele>92</ele>
        <time>2026-05-11T18:35:54+00:00</time>
      </trkpt>
      <trkpt lat="48.08177" lon="-0.78159">
        <ele>92</ele>
        <time>2026-05-11T18:35:55+00:00</time>
      </trkpt>
      <trkpt lat="48.0818" lon="-0.78158">
        <ele>92</ele>
        <time>2026-05-11T18:35:56+00:00</time>
      </trkpt>
      <trkpt lat="48.08182" lon="-0.78156">
        <ele>92</ele>
        <time>2026-05-11T18:35:57+00:00</time>
      </trkpt>
      <trkpt lat="48.08182" lon="-0.78151">
        <ele>92</ele>
        <time>2026-05-11T18:35:58+00:00</time>
      </trkpt>
      <trkpt lat="48.08179" lon="-0.78089">
        <ele>93</ele>
        <time>2026-05-11T18:35:59+00:00</time>
      </trkpt>
      <trkpt lat="48.08189" lon="-0.7809">
        <ele>93</ele>
        <time>2026-05-11T18:36:00+00:00</time>
      </trkpt>
      <trkpt lat="48.08201" lon="-0.78089">
        <ele>93</ele>
        <time>2026-05-11T18:36:01+00:00</time>
      </trkpt>
      <trkpt lat="48.08226" lon="-0.78082">
        <ele>93</ele>
        <time>2026-05-11T18:36:02+00:00</time>
      </trkpt>
      <trkpt lat="48.08233" lon="-0.78063">
        <ele>93</ele>
        <time>2026-05-11T18:36:03+00:00</time>
      </trkpt>
      <trkpt lat="48.08255" lon="-0.78002">
        <ele>93</ele>
        <time>2026-05-11T18:36:04+00:00</time>
      </trkpt>
      <trkpt lat="48.08268" lon="-0.77976">
        <ele>93</ele>
        <time>2026-05-11T18:36:05+00:00</time>
      </trkpt>
      <trkpt lat="48.08289" lon="-0.77948">
        <ele>92</ele>
        <time>2026-05-11T18:36:06+00:00</time>
      </trkpt>
      <trkpt lat="48.083" lon="-0.77937">
        <ele>93</ele>
        <time>2026-05-11T18:36:07+00:00</time>
      </trkpt>
      <trkpt lat="48.08317" lon="-0.77913">
        <ele>93</ele>
        <time>2026-05-11T18:36:08+00:00</time>
      </trkpt>
      <trkpt lat="48.08328" lon="-0.7789">
        <ele>93</ele>
        <time>2026-05-11T18:36:09+00:00</time>
      </trkpt>
      <trkpt lat="48.08345" lon="-0.77849">
        <ele>94</ele>
        <time>2026-05-11T18:36:10+00:00</time>
      </trkpt>
      <trkpt lat="48.08344" lon="-0.7784">
        <ele>94</ele>
        <time>2026-05-11T18:36:11+00:00</time>
      </trkpt>
      <trkpt lat="48.08334" lon="-0.77772">
        <ele>93</ele>
        <time>2026-05-11T18:36:12+00:00</time>
      </trkpt>
      <trkpt lat="48.08332" lon="-0.77762">
        <ele>93</ele>
        <time>2026-05-11T18:36:13+00:00</time>
      </trkpt>
      <trkpt lat="48.08327" lon="-0.77764">
        <ele>93</ele>
        <time>2026-05-11T18:36:14+00:00</time>
      </trkpt>
      <trkpt lat="48.08318" lon="-0.77752">
        <ele>93</ele>
        <time>2026-05-11T18:36:15+00:00</time>
      </trkpt>
      <trkpt lat="48.08312" lon="-0.7774">
        <ele>93</ele>
        <time>2026-05-11T18:36:16+00:00</time>
      </trkpt>
      <trkpt lat="48.08304" lon="-0.77684">
        <ele>92</ele>
        <time>2026-05-11T18:36:17+00:00</time>
      </trkpt>
      <trkpt lat="48.083" lon="-0.77651">
        <ele>92</ele>
        <time>2026-05-11T18:36:18+00:00</time>
      </trkpt>
      <trkpt lat="48.08283" lon="-0.77537">
        <ele>88</ele>
        <time>2026-05-11T18:36:19+00:00</time>
      </trkpt>
      <trkpt lat="48.08284" lon="-0.77504">
        <ele>86</ele>
        <time>2026-05-11T18:36:20+00:00</time>
      </trkpt>
      <trkpt lat="48.08286" lon="-0.77468">
        <ele>84</ele>
        <time>2026-05-11T18:36:21+00:00</time>
      </trkpt>
      <trkpt lat="48.08285" lon="-0.7746">
        <ele>83</ele>
        <time>2026-05-11T18:36:22+00:00</time>
      </trkpt>
      <trkpt lat="48.08282" lon="-0.77453">
        <ele>83</ele>
        <time>2026-05-11T18:36:23+00:00</time>
      </trkpt>
      <trkpt lat="48.08277" lon="-0.77447">
        <ele>83</ele>
        <time>2026-05-11T18:36:24+00:00</time>
      </trkpt>
      <trkpt lat="48.08283" lon="-0.7743">
        <ele>82</ele>
        <time>2026-05-11T18:36:25+00:00</time>
      </trkpt>
      <trkpt lat="48.08285" lon="-0.77413">
        <ele>80</ele>
        <time>2026-05-11T18:36:26+00:00</time>
      </trkpt>
      <trkpt lat="48.08283" lon="-0.77404">
        <ele>79</ele>
        <time>2026-05-11T18:36:27+00:00</time>
      </trkpt>
      <trkpt lat="48.08278" lon="-0.77389">
        <ele>78</ele>
        <time>2026-05-11T18:36:28+00:00</time>
      </trkpt>
      <trkpt lat="48.08269" lon="-0.77374">
        <ele>76</ele>
        <time>2026-05-11T18:36:29+00:00</time>
      </trkpt>
      <trkpt lat="48.0826" lon="-0.77362">
        <ele>76</ele>
        <time>2026-05-11T18:36:30+00:00</time>
      </trkpt>
      <trkpt lat="48.08231" lon="-0.77349">
        <ele>75</ele>
        <time>2026-05-11T18:36:31+00:00</time>
      </trkpt>
      <trkpt lat="48.082" lon="-0.77332">
        <ele>73</ele>
        <time>2026-05-11T18:36:32+00:00</time>
      </trkpt>
      <trkpt lat="48.0818" lon="-0.77314">
        <ele>70</ele>
        <time>2026-05-11T18:36:33+00:00</time>
      </trkpt>
      <trkpt lat="48.08159" lon="-0.77299">
        <ele>68</ele>
        <time>2026-05-11T18:36:34+00:00</time>
      </trkpt>
      <trkpt lat="48.08153" lon="-0.77293">
        <ele>67</ele>
        <time>2026-05-11T18:36:35+00:00</time>
      </trkpt>
      <trkpt lat="48.08132" lon="-0.77264">
        <ele>62</ele>
        <time>2026-05-11T18:36:36+00:00</time>
      </trkpt>
      <trkpt lat="48.08124" lon="-0.77251">
        <ele>59</ele>
        <time>2026-05-11T18:36:37+00:00</time>
      </trkpt>
      <trkpt lat="48.0812" lon="-0.77239">
        <ele>58</ele>
        <time>2026-05-11T18:36:38+00:00</time>
      </trkpt>
      <trkpt lat="48.08085" lon="-0.77234">
        <ele>57</ele>
        <time>2026-05-11T18:36:39+00:00</time>
      </trkpt>
      <trkpt lat="48.08062" lon="-0.77229">
        <ele>58</ele>
        <time>2026-05-11T18:36:40+00:00</time>
      </trkpt>
      <trkpt lat="48.08041" lon="-0.77218">
        <ele>58</ele>
        <time>2026-05-11T18:36:41+00:00</time>
      </trkpt>
      <trkpt lat="48.07965" lon="-0.77172">
        <ele>56</ele>
        <time>2026-05-11T18:36:42+00:00</time>
      </trkpt>
      <trkpt lat="48.07966" lon="-0.77166">
        <ele>55</ele>
        <time>2026-05-11T18:36:43+00:00</time>
      </trkpt>
      <trkpt lat="48.07967" lon="-0.77161">
        <ele>55</ele>
        <time>2026-05-11T18:36:44+00:00</time>
      </trkpt>
      <trkpt lat="48.07963" lon="-0.77157">
        <ele>55</ele>
        <time>2026-05-11T18:36:45+00:00</time>
      </trkpt>
      <trkpt lat="48.07936" lon="-0.77141">
        <ele>56</ele>
        <time>2026-05-11T18:36:46+00:00</time>
      </trkpt>
      <trkpt lat="48.07907" lon="-0.77122">
        <ele>55</ele>
        <time>2026-05-11T18:36:47+00:00</time>
      </trkpt>
      <trkpt lat="48.07855" lon="-0.77096">
        <ele>53</ele>
        <time>2026-05-11T18:36:48+00:00</time>
      </trkpt>
      <trkpt lat="48.07808" lon="-0.77081">
        <ele>51</ele>
        <time>2026-05-11T18:36:49+00:00</time>
      </trkpt>
      <trkpt lat="48.07785" lon="-0.77075">
        <ele>51</ele>
        <time>2026-05-11T18:36:50+00:00</time>
      </trkpt>
      <trkpt lat="48.07747" lon="-0.77073">
        <ele>50</ele>
        <time>2026-05-11T18:36:51+00:00</time>
      </trkpt>
      <trkpt lat="48.07733" lon="-0.77073">
        <ele>50</ele>
        <time>2026-05-11T18:36:52+00:00</time>
      </trkpt>
      <trkpt lat="48.07729" lon="-0.77076">
        <ele>50</ele>
        <time>2026-05-11T18:36:53+00:00</time>
      </trkpt>
      <trkpt lat="48.07676" lon="-0.77083">
        <ele>51</ele>
        <time>2026-05-11T18:36:54+00:00</time>
      </trkpt>
      <trkpt lat="48.07636" lon="-0.77092">
        <ele>51</ele>
        <time>2026-05-11T18:36:55+00:00</time>
      </trkpt>
      <trkpt lat="48.0756" lon="-0.77118">
        <ele>50</ele>
        <time>2026-05-11T18:36:56+00:00</time>
      </trkpt>
    </trkseg>
  </trk>
</gpx>
