<?xml version="1.0" encoding="UTF-8"?>
<gpx xmlns="http://www.topografix.com/GPX/1/1" xmlns:xsi="http://www.w3.org/2001/XMLSchema-instance" version="1.1" creator="phpGPX/1.3.0" xsi:schemaLocation="http://www.topografix.com/GPX/1/1 http://www.topografix.com/GPX/1/1/gpx.xsd">
  <metadata>
    <time>2026-05-11T18:20:59+00:00</time>
  </metadata>
  <trk>
    <name>Trail circuit 48 rouge - Boucle des deux lacs</name>
    <trkseg>
      <trkpt lat="46.250168046" lon="6.721690857">
        <ele>1139</ele>
        <time>2026-05-11T18:21:00+00:00</time>
      </trkpt>
      <trkpt lat="46.249872766" lon="6.721798044">
        <ele>1144</ele>
        <time>2026-05-11T18:21:01+00:00</time>
      </trkpt>
      <trkpt lat="46.249312715" lon="6.721888331">
        <ele>1154</ele>
        <time>2026-05-11T18:21:02+00:00</time>
      </trkpt>
      <trkpt lat="46.249079938" lon="6.722027709">
        <ele>1157</ele>
        <time>2026-05-11T18:21:03+00:00</time>
      </trkpt>
      <trkpt lat="46.248949207" lon="6.722207954">
        <ele>1159</ele>
        <time>2026-05-11T18:21:04+00:00</time>
      </trkpt>
      <trkpt lat="46.248701354" lon="6.722269237">
        <ele>1163</ele>
        <time>2026-05-11T18:21:05+00:00</time>
      </trkpt>
      <trkpt lat="46.248568948" lon="6.722269164">
        <ele>1166</ele>
        <time>2026-05-11T18:21:06+00:00</time>
      </trkpt>
      <trkpt lat="46.248408364" lon="6.722212096">
        <ele>1169</ele>
        <time>2026-05-11T18:21:07+00:00</time>
      </trkpt>
      <trkpt lat="46.248230404" lon="6.72206835">
        <ele>1174</ele>
        <time>2026-05-11T18:21:08+00:00</time>
      </trkpt>
      <trkpt lat="46.247993012" lon="6.721757737">
        <ele>1182</ele>
        <time>2026-05-11T18:21:09+00:00</time>
      </trkpt>
      <trkpt lat="46.247835277" lon="6.721289716">
        <ele>1186</ele>
        <time>2026-05-11T18:21:10+00:00</time>
      </trkpt>
      <trkpt lat="46.24781247" lon="6.721031803">
        <ele>1186</ele>
        <time>2026-05-11T18:21:11+00:00</time>
      </trkpt>
      <trkpt lat="46.247865748" lon="6.7208726">
        <ele>1185</ele>
        <time>2026-05-11T18:21:12+00:00</time>
      </trkpt>
      <trkpt lat="46.24810264" lon="6.71928816">
        <ele>1194</ele>
        <time>2026-05-11T18:21:13+00:00</time>
      </trkpt>
      <trkpt lat="46.248082542" lon="6.718947285">
        <ele>1197</ele>
        <time>2026-05-11T18:21:14+00:00</time>
      </trkpt>
      <trkpt lat="46.247926024" lon="6.718554719">
        <ele>1203</ele>
        <time>2026-05-11T18:21:15+00:00</time>
      </trkpt>
      <trkpt lat="46.247952255" lon="6.71830099">
        <ele>1206</ele>
        <time>2026-05-11T18:21:16+00:00</time>
      </trkpt>
      <trkpt lat="46.247880512" lon="6.718216438">
        <ele>1208</ele>
        <time>2026-05-11T18:21:17+00:00</time>
      </trkpt>
      <trkpt lat="46.247695743" lon="6.718207352">
        <ele>1209</ele>
        <time>2026-05-11T18:21:18+00:00</time>
      </trkpt>
      <trkpt lat="46.247268924" lon="6.717662177">
        <ele>1225</ele>
        <time>2026-05-11T18:21:19+00:00</time>
      </trkpt>
      <trkpt lat="46.246812585" lon="6.717284757">
        <ele>1238</ele>
        <time>2026-05-11T18:21:20+00:00</time>
      </trkpt>
      <trkpt lat="46.246319994" lon="6.716720869">
        <ele>1259</ele>
        <time>2026-05-11T18:21:21+00:00</time>
      </trkpt>
      <trkpt lat="46.246210288" lon="6.716375814">
        <ele>1269</ele>
        <time>2026-05-11T18:21:22+00:00</time>
      </trkpt>
      <trkpt lat="46.246108055" lon="6.716284471">
        <ele>1272</ele>
        <time>2026-05-11T18:21:23+00:00</time>
      </trkpt>
      <trkpt lat="46.245984375" lon="6.716377125">
        <ele>1270</ele>
        <time>2026-05-11T18:21:24+00:00</time>
      </trkpt>
      <trkpt lat="46.245833815" lon="6.716300483">
        <ele>1273</ele>
        <time>2026-05-11T18:21:25+00:00</time>
      </trkpt>
      <trkpt lat="46.245745664" lon="6.716013735">
        <ele>1284</ele>
        <time>2026-05-11T18:21:26+00:00</time>
      </trkpt>
      <trkpt lat="46.245810954" lon="6.715928096">
        <ele>1283</ele>
        <time>2026-05-11T18:21:27+00:00</time>
      </trkpt>
      <trkpt lat="46.245744681" lon="6.715845948">
        <ele>1288</ele>
        <time>2026-05-11T18:21:28+00:00</time>
      </trkpt>
      <trkpt lat="46.24567343" lon="6.715586425">
        <ele>1296</ele>
        <time>2026-05-11T18:21:29+00:00</time>
      </trkpt>
      <trkpt lat="46.245551154" lon="6.715503585">
        <ele>1303</ele>
        <time>2026-05-11T18:21:30+00:00</time>
      </trkpt>
      <trkpt lat="46.245470717" lon="6.715327301">
        <ele>1310</ele>
        <time>2026-05-11T18:21:31+00:00</time>
      </trkpt>
      <trkpt lat="46.245361341" lon="6.715245336">
        <ele>1316</ele>
        <time>2026-05-11T18:21:32+00:00</time>
      </trkpt>
      <trkpt lat="46.245406348" lon="6.714857046">
        <ele>1323</ele>
        <time>2026-05-11T18:21:33+00:00</time>
      </trkpt>
      <trkpt lat="46.245050162" lon="6.714876359">
        <ele>1339</ele>
        <time>2026-05-11T18:21:34+00:00</time>
      </trkpt>
      <trkpt lat="46.24461" lon="6.715388463">
        <ele>1359</ele>
        <time>2026-05-11T18:21:35+00:00</time>
      </trkpt>
      <trkpt lat="46.244374584" lon="6.715569706">
        <ele>1373</ele>
        <time>2026-05-11T18:21:36+00:00</time>
      </trkpt>
      <trkpt lat="46.244246039" lon="6.715843613">
        <ele>1379</ele>
        <time>2026-05-11T18:21:37+00:00</time>
      </trkpt>
      <trkpt lat="46.24416425" lon="6.716170387">
        <ele>1382</ele>
        <time>2026-05-11T18:21:38+00:00</time>
      </trkpt>
      <trkpt lat="46.244053921" lon="6.716282472">
        <ele>1389</ele>
        <time>2026-05-11T18:21:39+00:00</time>
      </trkpt>
      <trkpt lat="46.243931403" lon="6.71623999">
        <ele>1399</ele>
        <time>2026-05-11T18:21:40+00:00</time>
      </trkpt>
      <trkpt lat="46.243675704" lon="6.716250587">
        <ele>1417</ele>
        <time>2026-05-11T18:21:41+00:00</time>
      </trkpt>
      <trkpt lat="46.243609381" lon="6.716169992">
        <ele>1424</ele>
        <time>2026-05-11T18:21:42+00:00</time>
      </trkpt>
      <trkpt lat="46.243486319" lon="6.716177167">
        <ele>1433</ele>
        <time>2026-05-11T18:21:43+00:00</time>
      </trkpt>
      <trkpt lat="46.243447239" lon="6.716120162">
        <ele>1437</ele>
        <time>2026-05-11T18:21:44+00:00</time>
      </trkpt>
      <trkpt lat="46.243205202" lon="6.716053656">
        <ele>1459</ele>
        <time>2026-05-11T18:21:45+00:00</time>
      </trkpt>
      <trkpt lat="46.243082971" lon="6.716441544">
        <ele>1463</ele>
        <time>2026-05-11T18:21:46+00:00</time>
      </trkpt>
      <trkpt lat="46.242930705" lon="6.716655681">
        <ele>1474</ele>
        <time>2026-05-11T18:21:47+00:00</time>
      </trkpt>
      <trkpt lat="46.242945233" lon="6.716914319">
        <ele>1471</ele>
        <time>2026-05-11T18:21:48+00:00</time>
      </trkpt>
      <trkpt lat="46.242874329" lon="6.717097242">
        <ele>1477</ele>
        <time>2026-05-11T18:21:49+00:00</time>
      </trkpt>
      <trkpt lat="46.242902038" lon="6.71724606">
        <ele>1474</ele>
        <time>2026-05-11T18:21:50+00:00</time>
      </trkpt>
      <trkpt lat="46.242807469" lon="6.717548827">
        <ele>1482</ele>
        <time>2026-05-11T18:21:51+00:00</time>
      </trkpt>
      <trkpt lat="46.242738617" lon="6.717601087">
        <ele>1489</ele>
        <time>2026-05-11T18:21:52+00:00</time>
      </trkpt>
      <trkpt lat="46.242667606" lon="6.717413475">
        <ele>1496</ele>
        <time>2026-05-11T18:21:53+00:00</time>
      </trkpt>
      <trkpt lat="46.242578729" lon="6.717639439">
        <ele>1505</ele>
        <time>2026-05-11T18:21:54+00:00</time>
      </trkpt>
      <trkpt lat="46.242550651" lon="6.717615433">
        <ele>1508</ele>
        <time>2026-05-11T18:21:55+00:00</time>
      </trkpt>
      <trkpt lat="46.242420962" lon="6.717391858">
        <ele>1520</ele>
        <time>2026-05-11T18:21:56+00:00</time>
      </trkpt>
      <trkpt lat="46.2421597" lon="6.717112584">
        <ele>1552</ele>
        <time>2026-05-11T18:21:57+00:00</time>
      </trkpt>
      <trkpt lat="46.242074815" lon="6.716841827">
        <ele>1568</ele>
        <time>2026-05-11T18:21:58+00:00</time>
      </trkpt>
      <trkpt lat="46.242018402" lon="6.716839728">
        <ele>1575</ele>
        <time>2026-05-11T18:21:59+00:00</time>
      </trkpt>
      <trkpt lat="46.241984346" lon="6.716925749">
        <ele>1577</ele>
        <time>2026-05-11T18:22:00+00:00</time>
      </trkpt>
      <trkpt lat="46.241953913" lon="6.717147701">
        <ele>1574</ele>
        <time>2026-05-11T18:22:01+00:00</time>
      </trkpt>
      <trkpt lat="46.24184919" lon="6.71690618">
        <ele>1593</ele>
        <time>2026-05-11T18:22:02+00:00</time>
      </trkpt>
      <trkpt lat="46.241797259" lon="6.716987522">
        <ele>1597</ele>
        <time>2026-05-11T18:22:03+00:00</time>
      </trkpt>
      <trkpt lat="46.24177303" lon="6.717250871">
        <ele>1591</ele>
        <time>2026-05-11T18:22:04+00:00</time>
      </trkpt>
      <trkpt lat="46.241793849" lon="6.718010894">
        <ele>1573</ele>
        <time>2026-05-11T18:22:05+00:00</time>
      </trkpt>
      <trkpt lat="46.241651122" lon="6.717892087">
        <ele>1587</ele>
        <time>2026-05-11T18:22:06+00:00</time>
      </trkpt>
      <trkpt lat="46.24159486" lon="6.717995648">
        <ele>1589</ele>
        <time>2026-05-11T18:22:07+00:00</time>
      </trkpt>
      <trkpt lat="46.24151348" lon="6.717948553">
        <ele>1596</ele>
        <time>2026-05-11T18:22:08+00:00</time>
      </trkpt>
      <trkpt lat="46.241463246" lon="6.717978051">
        <ele>1600</ele>
        <time>2026-05-11T18:22:09+00:00</time>
      </trkpt>
      <trkpt lat="46.241434568" lon="6.717936267">
        <ele>1603</ele>
        <time>2026-05-11T18:22:10+00:00</time>
      </trkpt>
      <trkpt lat="46.241260019" lon="6.718092415">
        <ele>1613</ele>
        <time>2026-05-11T18:22:11+00:00</time>
      </trkpt>
      <trkpt lat="46.241135768" lon="6.718070121">
        <ele>1623</ele>
        <time>2026-05-11T18:22:12+00:00</time>
      </trkpt>
      <trkpt lat="46.241066396" lon="6.718243802">
        <ele>1625</ele>
        <time>2026-05-11T18:22:13+00:00</time>
      </trkpt>
      <trkpt lat="46.240952642" lon="6.718194509">
        <ele>1634</ele>
        <time>2026-05-11T18:22:14+00:00</time>
      </trkpt>
      <trkpt lat="46.240830237" lon="6.718226032">
        <ele>1643</ele>
        <time>2026-05-11T18:22:15+00:00</time>
      </trkpt>
      <trkpt lat="46.240730481" lon="6.7183734">
        <ele>1646</ele>
        <time>2026-05-11T18:22:16+00:00</time>
      </trkpt>
      <trkpt lat="46.240703919" lon="6.718340422">
        <ele>1648</ele>
        <time>2026-05-11T18:22:17+00:00</time>
      </trkpt>
      <trkpt lat="46.240704333" lon="6.718584393">
        <ele>1649</ele>
        <time>2026-05-11T18:22:18+00:00</time>
      </trkpt>
      <trkpt lat="46.240619422" lon="6.718674233">
        <ele>1653</ele>
        <time>2026-05-11T18:22:19+00:00</time>
      </trkpt>
      <trkpt lat="46.240615971" lon="6.718788219">
        <ele>1654</ele>
        <time>2026-05-11T18:22:20+00:00</time>
      </trkpt>
      <trkpt lat="46.240544617" lon="6.718838794">
        <ele>1658</ele>
        <time>2026-05-11T18:22:21+00:00</time>
      </trkpt>
      <trkpt lat="46.240414777" lon="6.718840366">
        <ele>1664</ele>
        <time>2026-05-11T18:22:22+00:00</time>
      </trkpt>
      <trkpt lat="46.240244434" lon="6.718941372">
        <ele>1673</ele>
        <time>2026-05-11T18:22:23+00:00</time>
      </trkpt>
      <trkpt lat="46.23996581" lon="6.718972672">
        <ele>1685</ele>
        <time>2026-05-11T18:22:24+00:00</time>
      </trkpt>
      <trkpt lat="46.239766364" lon="6.718787663">
        <ele>1690</ele>
        <time>2026-05-11T18:22:25+00:00</time>
      </trkpt>
      <trkpt lat="46.239471142" lon="6.718701798">
        <ele>1694</ele>
        <time>2026-05-11T18:22:26+00:00</time>
      </trkpt>
      <trkpt lat="46.239349829" lon="6.718589644">
        <ele>1696</ele>
        <time>2026-05-11T18:22:27+00:00</time>
      </trkpt>
      <trkpt lat="46.23927658" lon="6.718440921">
        <ele>1697</ele>
        <time>2026-05-11T18:22:28+00:00</time>
      </trkpt>
      <trkpt lat="46.238969737" lon="6.718269406">
        <ele>1702</ele>
        <time>2026-05-11T18:22:29+00:00</time>
      </trkpt>
      <trkpt lat="46.238575533" lon="6.718417554">
        <ele>1706</ele>
        <time>2026-05-11T18:22:30+00:00</time>
      </trkpt>
      <trkpt lat="46.238432339" lon="6.718606996">
        <ele>1709</ele>
        <time>2026-05-11T18:22:31+00:00</time>
      </trkpt>
      <trkpt lat="46.238100962" lon="6.718818292">
        <ele>1721</ele>
        <time>2026-05-11T18:22:32+00:00</time>
      </trkpt>
      <trkpt lat="46.237906951" lon="6.718834555">
        <ele>1729</ele>
        <time>2026-05-11T18:22:33+00:00</time>
      </trkpt>
      <trkpt lat="46.237676905" lon="6.718666526">
        <ele>1738</ele>
        <time>2026-05-11T18:22:34+00:00</time>
      </trkpt>
      <trkpt lat="46.237568489" lon="6.718527542">
        <ele>1741</ele>
        <time>2026-05-11T18:22:35+00:00</time>
      </trkpt>
      <trkpt lat="46.237471966" lon="6.718612776">
        <ele>1747</ele>
        <time>2026-05-11T18:22:36+00:00</time>
      </trkpt>
      <trkpt lat="46.237256594" lon="6.718991822">
        <ele>1766</ele>
        <time>2026-05-11T18:22:37+00:00</time>
      </trkpt>
      <trkpt lat="46.23719355" lon="6.719262358">
        <ele>1771</ele>
        <time>2026-05-11T18:22:38+00:00</time>
      </trkpt>
      <trkpt lat="46.236929144" lon="6.719814171">
        <ele>1787</ele>
        <time>2026-05-11T18:22:39+00:00</time>
      </trkpt>
      <trkpt lat="46.236952584" lon="6.719964177">
        <ele>1786</ele>
        <time>2026-05-11T18:22:40+00:00</time>
      </trkpt>
      <trkpt lat="46.236910724" lon="6.72003622">
        <ele>1789</ele>
        <time>2026-05-11T18:22:41+00:00</time>
      </trkpt>
      <trkpt lat="46.23667867" lon="6.720197206">
        <ele>1802</ele>
        <time>2026-05-11T18:22:42+00:00</time>
      </trkpt>
      <trkpt lat="46.236623456" lon="6.720195186">
        <ele>1802</ele>
        <time>2026-05-11T18:22:43+00:00</time>
      </trkpt>
      <trkpt lat="46.23661367" lon="6.720126981">
        <ele>1802</ele>
        <time>2026-05-11T18:22:44+00:00</time>
      </trkpt>
      <trkpt lat="46.236531411" lon="6.720180272">
        <ele>1803</ele>
        <time>2026-05-11T18:22:45+00:00</time>
      </trkpt>
      <trkpt lat="46.236251692" lon="6.720196806">
        <ele>1805</ele>
        <time>2026-05-11T18:22:46+00:00</time>
      </trkpt>
      <trkpt lat="46.236204505" lon="6.720520632">
        <ele>1808</ele>
        <time>2026-05-11T18:22:47+00:00</time>
      </trkpt>
      <trkpt lat="46.236070093" lon="6.720800088">
        <ele>1811</ele>
        <time>2026-05-11T18:22:48+00:00</time>
      </trkpt>
      <trkpt lat="46.235983311" lon="6.721175189">
        <ele>1819</ele>
        <time>2026-05-11T18:22:49+00:00</time>
      </trkpt>
      <trkpt lat="46.236042994" lon="6.721407844">
        <ele>1824</ele>
        <time>2026-05-11T18:22:50+00:00</time>
      </trkpt>
      <trkpt lat="46.236163851" lon="6.721533821">
        <ele>1827</ele>
        <time>2026-05-11T18:22:51+00:00</time>
      </trkpt>
      <trkpt lat="46.236207653" lon="6.721737689">
        <ele>1833</ele>
        <time>2026-05-11T18:22:52+00:00</time>
      </trkpt>
      <trkpt lat="46.236315274" lon="6.721900868">
        <ele>1840</ele>
        <time>2026-05-11T18:22:53+00:00</time>
      </trkpt>
      <trkpt lat="46.235875836" lon="6.722586232">
        <ele>1864</ele>
        <time>2026-05-11T18:22:54+00:00</time>
      </trkpt>
      <trkpt lat="46.235731857" lon="6.722652641">
        <ele>1867</ele>
        <time>2026-05-11T18:22:55+00:00</time>
      </trkpt>
      <trkpt lat="46.235675524" lon="6.722721547">
        <ele>1871</ele>
        <time>2026-05-11T18:22:56+00:00</time>
      </trkpt>
      <trkpt lat="46.235785734" lon="6.722952443">
        <ele>1879</ele>
        <time>2026-05-11T18:22:57+00:00</time>
      </trkpt>
      <trkpt lat="46.236106506" lon="6.723138775">
        <ele>1888</ele>
        <time>2026-05-11T18:22:58+00:00</time>
      </trkpt>
      <trkpt lat="46.236372416" lon="6.723165517">
        <ele>1890</ele>
        <time>2026-05-11T18:22:59+00:00</time>
      </trkpt>
      <trkpt lat="46.236627388" lon="6.723085873">
        <ele>1889</ele>
        <time>2026-05-11T18:23:00+00:00</time>
      </trkpt>
      <trkpt lat="46.236742332" lon="6.72324677">
        <ele>1895</ele>
        <time>2026-05-11T18:23:01+00:00</time>
      </trkpt>
      <trkpt lat="46.236831747" lon="6.723304126">
        <ele>1897</ele>
        <time>2026-05-11T18:23:02+00:00</time>
      </trkpt>
      <trkpt lat="46.236871179" lon="6.723421108">
        <ele>1896</ele>
        <time>2026-05-11T18:23:03+00:00</time>
      </trkpt>
      <trkpt lat="46.236774615" lon="6.723764372">
        <ele>1892</ele>
        <time>2026-05-11T18:23:04+00:00</time>
      </trkpt>
      <trkpt lat="46.236475285" lon="6.724117583">
        <ele>1893</ele>
        <time>2026-05-11T18:23:05+00:00</time>
      </trkpt>
      <trkpt lat="46.236428736" lon="6.724292439">
        <ele>1890</ele>
        <time>2026-05-11T18:23:06+00:00</time>
      </trkpt>
      <trkpt lat="46.236231104" lon="6.724544825">
        <ele>1890</ele>
        <time>2026-05-11T18:23:07+00:00</time>
      </trkpt>
      <trkpt lat="46.236095986" lon="6.724854288">
        <ele>1888</ele>
        <time>2026-05-11T18:23:08+00:00</time>
      </trkpt>
      <trkpt lat="46.236054602" lon="6.725090463">
        <ele>1885</ele>
        <time>2026-05-11T18:23:09+00:00</time>
      </trkpt>
      <trkpt lat="46.235870501" lon="6.725427762">
        <ele>1885</ele>
        <time>2026-05-11T18:23:10+00:00</time>
      </trkpt>
      <trkpt lat="46.235838233" lon="6.725605674">
        <ele>1881</ele>
        <time>2026-05-11T18:23:11+00:00</time>
      </trkpt>
      <trkpt lat="46.235929862" lon="6.726183405">
        <ele>1873</ele>
        <time>2026-05-11T18:23:12+00:00</time>
      </trkpt>
      <trkpt lat="46.235898953" lon="6.726319848">
        <ele>1875</ele>
        <time>2026-05-11T18:23:13+00:00</time>
      </trkpt>
      <trkpt lat="46.235909949" lon="6.726864384">
        <ele>1877</ele>
        <time>2026-05-11T18:23:14+00:00</time>
      </trkpt>
      <trkpt lat="46.235845069" lon="6.727230575">
        <ele>1882</ele>
        <time>2026-05-11T18:23:15+00:00</time>
      </trkpt>
      <trkpt lat="46.235871544" lon="6.727596057">
        <ele>1882</ele>
        <time>2026-05-11T18:23:16+00:00</time>
      </trkpt>
      <trkpt lat="46.236076049" lon="6.728872475">
        <ele>1890</ele>
        <time>2026-05-11T18:23:17+00:00</time>
      </trkpt>
      <trkpt lat="46.236369431" lon="6.729637141">
        <ele>1888</ele>
        <time>2026-05-11T18:23:18+00:00</time>
      </trkpt>
      <trkpt lat="46.236551816" lon="6.729938781">
        <ele>1889</ele>
        <time>2026-05-11T18:23:19+00:00</time>
      </trkpt>
      <trkpt lat="46.236974919" lon="6.730229114">
        <ele>1879</ele>
        <time>2026-05-11T18:23:20+00:00</time>
      </trkpt>
      <trkpt lat="46.237182133" lon="6.730506473">
        <ele>1880</ele>
        <time>2026-05-11T18:23:21+00:00</time>
      </trkpt>
      <trkpt lat="46.237311885" lon="6.730617493">
        <ele>1880</ele>
        <time>2026-05-11T18:23:22+00:00</time>
      </trkpt>
      <trkpt lat="46.23734153" lon="6.730666273">
        <ele>1880</ele>
        <time>2026-05-11T18:23:23+00:00</time>
      </trkpt>
      <trkpt lat="46.237302029" lon="6.730823621">
        <ele>1885</ele>
        <time>2026-05-11T18:23:24+00:00</time>
      </trkpt>
      <trkpt lat="46.237748656" lon="6.731260337">
        <ele>1876</ele>
        <time>2026-05-11T18:23:25+00:00</time>
      </trkpt>
      <trkpt lat="46.237946502" lon="6.731530138">
        <ele>1875</ele>
        <time>2026-05-11T18:23:26+00:00</time>
      </trkpt>
      <trkpt lat="46.238013456" lon="6.731687106">
        <ele>1875</ele>
        <time>2026-05-11T18:23:27+00:00</time>
      </trkpt>
      <trkpt lat="46.238041115" lon="6.731796369">
        <ele>1873</ele>
        <time>2026-05-11T18:23:28+00:00</time>
      </trkpt>
      <trkpt lat="46.237897455" lon="6.731779648">
        <ele>1873</ele>
        <time>2026-05-11T18:23:29+00:00</time>
      </trkpt>
      <trkpt lat="46.237536862" lon="6.731928258">
        <ele>1867</ele>
        <time>2026-05-11T18:23:30+00:00</time>
      </trkpt>
      <trkpt lat="46.237307112" lon="6.731971481">
        <ele>1862</ele>
        <time>2026-05-11T18:23:31+00:00</time>
      </trkpt>
      <trkpt lat="46.237252977" lon="6.731936617">
        <ele>1863</ele>
        <time>2026-05-11T18:23:32+00:00</time>
      </trkpt>
      <trkpt lat="46.237058064" lon="6.732016852">
        <ele>1857</ele>
        <time>2026-05-11T18:23:33+00:00</time>
      </trkpt>
      <trkpt lat="46.23695723" lon="6.732013443">
        <ele>1855</ele>
        <time>2026-05-11T18:23:34+00:00</time>
      </trkpt>
      <trkpt lat="46.236758445" lon="6.73213844">
        <ele>1846</ele>
        <time>2026-05-11T18:23:35+00:00</time>
      </trkpt>
      <trkpt lat="46.236708441" lon="6.732197378">
        <ele>1843</ele>
        <time>2026-05-11T18:23:36+00:00</time>
      </trkpt>
      <trkpt lat="46.236703321" lon="6.732280157">
        <ele>1839</ele>
        <time>2026-05-11T18:23:37+00:00</time>
      </trkpt>
      <trkpt lat="46.237060363" lon="6.732605839">
        <ele>1833</ele>
        <time>2026-05-11T18:23:38+00:00</time>
      </trkpt>
      <trkpt lat="46.237230109" lon="6.732852943">
        <ele>1827</ele>
        <time>2026-05-11T18:23:39+00:00</time>
      </trkpt>
      <trkpt lat="46.23747282" lon="6.733073852">
        <ele>1823</ele>
        <time>2026-05-11T18:23:40+00:00</time>
      </trkpt>
      <trkpt lat="46.237589972" lon="6.733019492">
        <ele>1828</ele>
        <time>2026-05-11T18:23:41+00:00</time>
      </trkpt>
      <trkpt lat="46.237721997" lon="6.733097768">
        <ele>1830</ele>
        <time>2026-05-11T18:23:42+00:00</time>
      </trkpt>
      <trkpt lat="46.237933532" lon="6.733316554">
        <ele>1830</ele>
        <time>2026-05-11T18:23:43+00:00</time>
      </trkpt>
      <trkpt lat="46.23797287" lon="6.733582482">
        <ele>1827</ele>
        <time>2026-05-11T18:23:44+00:00</time>
      </trkpt>
      <trkpt lat="46.237945219" lon="6.734058595">
        <ele>1819</ele>
        <time>2026-05-11T18:23:45+00:00</time>
      </trkpt>
      <trkpt lat="46.237836781" lon="6.734286734">
        <ele>1816</ele>
        <time>2026-05-11T18:23:46+00:00</time>
      </trkpt>
      <trkpt lat="46.237262172" lon="6.73495068">
        <ele>1808</ele>
        <time>2026-05-11T18:23:47+00:00</time>
      </trkpt>
      <trkpt lat="46.237083605" lon="6.735118612">
        <ele>1805</ele>
        <time>2026-05-11T18:23:48+00:00</time>
      </trkpt>
      <trkpt lat="46.236901106" lon="6.735219307">
        <ele>1800</ele>
        <time>2026-05-11T18:23:49+00:00</time>
      </trkpt>
      <trkpt lat="46.236654039" lon="6.735467106">
        <ele>1797</ele>
        <time>2026-05-11T18:23:50+00:00</time>
      </trkpt>
      <trkpt lat="46.236614467" lon="6.735571523">
        <ele>1798</ele>
        <time>2026-05-11T18:23:51+00:00</time>
      </trkpt>
      <trkpt lat="46.236185524" lon="6.73592852">
        <ele>1790</ele>
        <time>2026-05-11T18:23:52+00:00</time>
      </trkpt>
      <trkpt lat="46.236155261" lon="6.736014714">
        <ele>1790</ele>
        <time>2026-05-11T18:23:53+00:00</time>
      </trkpt>
      <trkpt lat="46.235764754" lon="6.736228781">
        <ele>1781</ele>
        <time>2026-05-11T18:23:54+00:00</time>
      </trkpt>
      <trkpt lat="46.234734338" lon="6.737272014">
        <ele>1770</ele>
        <time>2026-05-11T18:23:55+00:00</time>
      </trkpt>
      <trkpt lat="46.234637303" lon="6.737445496">
        <ele>1771</ele>
        <time>2026-05-11T18:23:56+00:00</time>
      </trkpt>
      <trkpt lat="46.234576101" lon="6.737479417">
        <ele>1771</ele>
        <time>2026-05-11T18:23:57+00:00</time>
      </trkpt>
      <trkpt lat="46.234430497" lon="6.737448698">
        <ele>1767</ele>
        <time>2026-05-11T18:23:58+00:00</time>
      </trkpt>
      <trkpt lat="46.23430832" lon="6.737509629">
        <ele>1766</ele>
        <time>2026-05-11T18:23:59+00:00</time>
      </trkpt>
      <trkpt lat="46.234144729" lon="6.737806717">
        <ele>1757</ele>
        <time>2026-05-11T18:24:00+00:00</time>
      </trkpt>
      <trkpt lat="46.233616562" lon="6.738373312">
        <ele>1746</ele>
        <time>2026-05-11T18:24:01+00:00</time>
      </trkpt>
      <trkpt lat="46.232947799" lon="6.738829853">
        <ele>1728</ele>
        <time>2026-05-11T18:24:02+00:00</time>
      </trkpt>
      <trkpt lat="46.232759775" lon="6.738810088">
        <ele>1725</ele>
        <time>2026-05-11T18:24:03+00:00</time>
      </trkpt>
      <trkpt lat="46.232700913" lon="6.738845899">
        <ele>1724</ele>
        <time>2026-05-11T18:24:04+00:00</time>
      </trkpt>
      <trkpt lat="46.232514084" lon="6.739155241">
        <ele>1723</ele>
        <time>2026-05-11T18:24:05+00:00</time>
      </trkpt>
      <trkpt lat="46.232455955" lon="6.739132223">
        <ele>1721</ele>
        <time>2026-05-11T18:24:06+00:00</time>
      </trkpt>
      <trkpt lat="46.232438642" lon="6.738761404">
        <ele>1719</ele>
        <time>2026-05-11T18:24:07+00:00</time>
      </trkpt>
      <trkpt lat="46.232485379" lon="6.738200837">
        <ele>1718</ele>
        <time>2026-05-11T18:24:08+00:00</time>
      </trkpt>
      <trkpt lat="46.232435776" lon="6.737955011">
        <ele>1716</ele>
        <time>2026-05-11T18:24:09+00:00</time>
      </trkpt>
      <trkpt lat="46.232371881" lon="6.737968162">
        <ele>1714</ele>
        <time>2026-05-11T18:24:10+00:00</time>
      </trkpt>
      <trkpt lat="46.232337503" lon="6.73823923">
        <ele>1713</ele>
        <time>2026-05-11T18:24:11+00:00</time>
      </trkpt>
      <trkpt lat="46.232243046" lon="6.73836019">
        <ele>1710</ele>
        <time>2026-05-11T18:24:12+00:00</time>
      </trkpt>
      <trkpt lat="46.232196709" lon="6.738281569">
        <ele>1708</ele>
        <time>2026-05-11T18:24:13+00:00</time>
      </trkpt>
      <trkpt lat="46.23212618" lon="6.737868073">
        <ele>1708</ele>
        <time>2026-05-11T18:24:14+00:00</time>
      </trkpt>
      <trkpt lat="46.232059259" lon="6.737873719">
        <ele>1707</ele>
        <time>2026-05-11T18:24:15+00:00</time>
      </trkpt>
      <trkpt lat="46.231370081" lon="6.739153316">
        <ele>1679</ele>
        <time>2026-05-11T18:24:16+00:00</time>
      </trkpt>
      <trkpt lat="46.231207784" lon="6.739703295">
        <ele>1671</ele>
        <time>2026-05-11T18:24:17+00:00</time>
      </trkpt>
      <trkpt lat="46.230974845" lon="6.740822586">
        <ele>1646</ele>
        <time>2026-05-11T18:24:18+00:00</time>
      </trkpt>
      <trkpt lat="46.23096592" lon="6.741133634">
        <ele>1640</ele>
        <time>2026-05-11T18:24:19+00:00</time>
      </trkpt>
      <trkpt lat="46.231149151" lon="6.741704569">
        <ele>1629</ele>
        <time>2026-05-11T18:24:20+00:00</time>
      </trkpt>
      <trkpt lat="46.231138545" lon="6.741807744">
        <ele>1627</ele>
        <time>2026-05-11T18:24:21+00:00</time>
      </trkpt>
      <trkpt lat="46.231042526" lon="6.741950108">
        <ele>1626</ele>
        <time>2026-05-11T18:24:22+00:00</time>
      </trkpt>
      <trkpt lat="46.231087115" lon="6.742347976">
        <ele>1618</ele>
        <time>2026-05-11T18:24:23+00:00</time>
      </trkpt>
      <trkpt lat="46.230948972" lon="6.742601748">
        <ele>1620</ele>
        <time>2026-05-11T18:24:24+00:00</time>
      </trkpt>
      <trkpt lat="46.230910175" lon="6.74283114">
        <ele>1620</ele>
        <time>2026-05-11T18:24:25+00:00</time>
      </trkpt>
      <trkpt lat="46.231054361" lon="6.742941433">
        <ele>1613</ele>
        <time>2026-05-11T18:24:26+00:00</time>
      </trkpt>
      <trkpt lat="46.231180065" lon="6.743211508">
        <ele>1604</ele>
        <time>2026-05-11T18:24:27+00:00</time>
      </trkpt>
      <trkpt lat="46.231284119" lon="6.742934626">
        <ele>1603</ele>
        <time>2026-05-11T18:24:28+00:00</time>
      </trkpt>
      <trkpt lat="46.231321972" lon="6.742916434">
        <ele>1601</ele>
        <time>2026-05-11T18:24:29+00:00</time>
      </trkpt>
      <trkpt lat="46.23150465" lon="6.743573107">
        <ele>1584</ele>
        <time>2026-05-11T18:24:30+00:00</time>
      </trkpt>
      <trkpt lat="46.231633149" lon="6.743831258">
        <ele>1575</ele>
        <time>2026-05-11T18:24:31+00:00</time>
      </trkpt>
      <trkpt lat="46.23177563" lon="6.74334776">
        <ele>1570</ele>
        <time>2026-05-11T18:24:32+00:00</time>
      </trkpt>
      <trkpt lat="46.231857032" lon="6.743382469">
        <ele>1567</ele>
        <time>2026-05-11T18:24:33+00:00</time>
      </trkpt>
      <trkpt lat="46.231937481" lon="6.743858992">
        <ele>1558</ele>
        <time>2026-05-11T18:24:34+00:00</time>
      </trkpt>
      <trkpt lat="46.232021328" lon="6.743672863">
        <ele>1556</ele>
        <time>2026-05-11T18:24:35+00:00</time>
      </trkpt>
      <trkpt lat="46.232296004" lon="6.744430727">
        <ele>1531</ele>
        <time>2026-05-11T18:24:36+00:00</time>
      </trkpt>
      <trkpt lat="46.232344931" lon="6.74467361">
        <ele>1526</ele>
        <time>2026-05-11T18:24:37+00:00</time>
      </trkpt>
      <trkpt lat="46.232607912" lon="6.745205754">
        <ele>1506</ele>
        <time>2026-05-11T18:24:38+00:00</time>
      </trkpt>
      <trkpt lat="46.232748786" lon="6.745397961">
        <ele>1499</ele>
        <time>2026-05-11T18:24:39+00:00</time>
      </trkpt>
      <trkpt lat="46.232937867" lon="6.745955403">
        <ele>1495</ele>
        <time>2026-05-11T18:24:40+00:00</time>
      </trkpt>
      <trkpt lat="46.23301498" lon="6.74500461">
        <ele>1489</ele>
        <time>2026-05-11T18:24:41+00:00</time>
      </trkpt>
      <trkpt lat="46.233124667" lon="6.744520298">
        <ele>1490</ele>
        <time>2026-05-11T18:24:42+00:00</time>
      </trkpt>
      <trkpt lat="46.233168402" lon="6.744505972">
        <ele>1488</ele>
        <time>2026-05-11T18:24:43+00:00</time>
      </trkpt>
      <trkpt lat="46.233505589" lon="6.745556769">
        <ele>1466</ele>
        <time>2026-05-11T18:24:44+00:00</time>
      </trkpt>
      <trkpt lat="46.23361279" lon="6.745057396">
        <ele>1463</ele>
        <time>2026-05-11T18:24:45+00:00</time>
      </trkpt>
      <trkpt lat="46.233756994" lon="6.744805987">
        <ele>1458</ele>
        <time>2026-05-11T18:24:46+00:00</time>
      </trkpt>
      <trkpt lat="46.233891769" lon="6.745332937">
        <ele>1450</ele>
        <time>2026-05-11T18:24:47+00:00</time>
      </trkpt>
      <trkpt lat="46.234010466" lon="6.745502176">
        <ele>1445</ele>
        <time>2026-05-11T18:24:48+00:00</time>
      </trkpt>
      <trkpt lat="46.234078296" lon="6.745486034">
        <ele>1442</ele>
        <time>2026-05-11T18:24:49+00:00</time>
      </trkpt>
      <trkpt lat="46.234328105" lon="6.744932035">
        <ele>1432</ele>
        <time>2026-05-11T18:24:50+00:00</time>
      </trkpt>
      <trkpt lat="46.234374296" lon="6.745018787">
        <ele>1430</ele>
        <time>2026-05-11T18:24:51+00:00</time>
      </trkpt>
      <trkpt lat="46.234435902" lon="6.744902789">
        <ele>1428</ele>
        <time>2026-05-11T18:24:52+00:00</time>
      </trkpt>
      <trkpt lat="46.234479857" lon="6.744915173">
        <ele>1427</ele>
        <time>2026-05-11T18:24:53+00:00</time>
      </trkpt>
      <trkpt lat="46.234576647" lon="6.745004918">
        <ele>1422</ele>
        <time>2026-05-11T18:24:54+00:00</time>
      </trkpt>
      <trkpt lat="46.234903647" lon="6.745584922">
        <ele>1408</ele>
        <time>2026-05-11T18:24:55+00:00</time>
      </trkpt>
      <trkpt lat="46.235217722" lon="6.745900823">
        <ele>1397</ele>
        <time>2026-05-11T18:24:56+00:00</time>
      </trkpt>
      <trkpt lat="46.235446779" lon="6.745805649">
        <ele>1390</ele>
        <time>2026-05-11T18:24:57+00:00</time>
      </trkpt>
      <trkpt lat="46.236094173" lon="6.746071616">
        <ele>1370</ele>
        <time>2026-05-11T18:24:58+00:00</time>
      </trkpt>
      <trkpt lat="46.23640962" lon="6.746491522">
        <ele>1359</ele>
        <time>2026-05-11T18:24:59+00:00</time>
      </trkpt>
      <trkpt lat="46.236474181" lon="6.746939295">
        <ele>1357</ele>
        <time>2026-05-11T18:25:00+00:00</time>
      </trkpt>
      <trkpt lat="46.236592043" lon="6.747082445">
        <ele>1354</ele>
        <time>2026-05-11T18:25:01+00:00</time>
      </trkpt>
      <trkpt lat="46.236655343" lon="6.747495494">
        <ele>1352</ele>
        <time>2026-05-11T18:25:02+00:00</time>
      </trkpt>
      <trkpt lat="46.236825784" lon="6.747865496">
        <ele>1352</ele>
        <time>2026-05-11T18:25:03+00:00</time>
      </trkpt>
      <trkpt lat="46.236994489" lon="6.747996699">
        <ele>1349</ele>
        <time>2026-05-11T18:25:04+00:00</time>
      </trkpt>
      <trkpt lat="46.237226588" lon="6.74802991">
        <ele>1345</ele>
        <time>2026-05-11T18:25:05+00:00</time>
      </trkpt>
      <trkpt lat="46.237297854" lon="6.748128308">
        <ele>1344</ele>
        <time>2026-05-11T18:25:06+00:00</time>
      </trkpt>
      <trkpt lat="46.237371181" lon="6.74830998">
        <ele>1344</ele>
        <time>2026-05-11T18:25:07+00:00</time>
      </trkpt>
      <trkpt lat="46.237379075" lon="6.748507956">
        <ele>1343</ele>
        <time>2026-05-11T18:25:08+00:00</time>
      </trkpt>
      <trkpt lat="46.237277087" lon="6.748679754">
        <ele>1346</ele>
        <time>2026-05-11T18:25:09+00:00</time>
      </trkpt>
      <trkpt lat="46.23731678" lon="6.748818378">
        <ele>1345</ele>
        <time>2026-05-11T18:25:10+00:00</time>
      </trkpt>
      <trkpt lat="46.237486958" lon="6.749049342">
        <ele>1340</ele>
        <time>2026-05-11T18:25:11+00:00</time>
      </trkpt>
      <trkpt lat="46.237553987" lon="6.749067051">
        <ele>1339</ele>
        <time>2026-05-11T18:25:12+00:00</time>
      </trkpt>
      <trkpt lat="46.237897076" lon="6.748688899">
        <ele>1329</ele>
        <time>2026-05-11T18:25:13+00:00</time>
      </trkpt>
      <trkpt lat="46.238326313" lon="6.748427328">
        <ele>1316</ele>
        <time>2026-05-11T18:25:14+00:00</time>
      </trkpt>
      <trkpt lat="46.238709433" lon="6.748398137">
        <ele>1306</ele>
        <time>2026-05-11T18:25:15+00:00</time>
      </trkpt>
      <trkpt lat="46.238912019" lon="6.748450109">
        <ele>1301</ele>
        <time>2026-05-11T18:25:16+00:00</time>
      </trkpt>
      <trkpt lat="46.239166814" lon="6.748813941">
        <ele>1293</ele>
        <time>2026-05-11T18:25:17+00:00</time>
      </trkpt>
      <trkpt lat="46.239438819" lon="6.748728649">
        <ele>1292</ele>
        <time>2026-05-11T18:25:18+00:00</time>
      </trkpt>
      <trkpt lat="46.239574826" lon="6.748758745">
        <ele>1291</ele>
        <time>2026-05-11T18:25:19+00:00</time>
      </trkpt>
      <trkpt lat="46.239728212" lon="6.74906368">
        <ele>1286</ele>
        <time>2026-05-11T18:25:20+00:00</time>
      </trkpt>
      <trkpt lat="46.239875299" lon="6.749122246">
        <ele>1284</ele>
        <time>2026-05-11T18:25:21+00:00</time>
      </trkpt>
      <trkpt lat="46.24011328" lon="6.749121224">
        <ele>1283</ele>
        <time>2026-05-11T18:25:22+00:00</time>
      </trkpt>
      <trkpt lat="46.240744559" lon="6.749292621">
        <ele>1282</ele>
        <time>2026-05-11T18:25:23+00:00</time>
      </trkpt>
      <trkpt lat="46.240936521" lon="6.749302303">
        <ele>1287</ele>
        <time>2026-05-11T18:25:24+00:00</time>
      </trkpt>
      <trkpt lat="46.241030849" lon="6.749357259">
        <ele>1291</ele>
        <time>2026-05-11T18:25:25+00:00</time>
      </trkpt>
      <trkpt lat="46.241165727" lon="6.749567408">
        <ele>1293</ele>
        <time>2026-05-11T18:25:26+00:00</time>
      </trkpt>
      <trkpt lat="46.241684623" lon="6.751397317">
        <ele>1274</ele>
        <time>2026-05-11T18:25:27+00:00</time>
      </trkpt>
      <trkpt lat="46.241922051" lon="6.751777311">
        <ele>1271</ele>
        <time>2026-05-11T18:25:28+00:00</time>
      </trkpt>
      <trkpt lat="46.242100195" lon="6.752426564">
        <ele>1274</ele>
        <time>2026-05-11T18:25:29+00:00</time>
      </trkpt>
      <trkpt lat="46.242345899" lon="6.75277521">
        <ele>1275</ele>
        <time>2026-05-11T18:25:30+00:00</time>
      </trkpt>
      <trkpt lat="46.242486285" lon="6.752753188">
        <ele>1271</ele>
        <time>2026-05-11T18:25:31+00:00</time>
      </trkpt>
      <trkpt lat="46.24261756" lon="6.752786679">
        <ele>1265</ele>
        <time>2026-05-11T18:25:32+00:00</time>
      </trkpt>
      <trkpt lat="46.242748363" lon="6.752726031">
        <ele>1259</ele>
        <time>2026-05-11T18:25:33+00:00</time>
      </trkpt>
      <trkpt lat="46.24279617" lon="6.752659695">
        <ele>1255</ele>
        <time>2026-05-11T18:25:34+00:00</time>
      </trkpt>
      <trkpt lat="46.242817516" lon="6.752473588">
        <ele>1252</ele>
        <time>2026-05-11T18:25:35+00:00</time>
      </trkpt>
      <trkpt lat="46.242749534" lon="6.751851535">
        <ele>1253</ele>
        <time>2026-05-11T18:25:36+00:00</time>
      </trkpt>
      <trkpt lat="46.242934516" lon="6.750896417">
        <ele>1260</ele>
        <time>2026-05-11T18:25:37+00:00</time>
      </trkpt>
      <trkpt lat="46.243506787" lon="6.750540282">
        <ele>1247</ele>
        <time>2026-05-11T18:25:38+00:00</time>
      </trkpt>
      <trkpt lat="46.24389432" lon="6.750547326">
        <ele>1225</ele>
        <time>2026-05-11T18:25:39+00:00</time>
      </trkpt>
      <trkpt lat="46.244256801" lon="6.750307106">
        <ele>1215</ele>
        <time>2026-05-11T18:25:40+00:00</time>
      </trkpt>
      <trkpt lat="46.244737486" lon="6.750074728">
        <ele>1207</ele>
        <time>2026-05-11T18:25:41+00:00</time>
      </trkpt>
      <trkpt lat="46.245184508" lon="6.749777687">
        <ele>1207</ele>
        <time>2026-05-11T18:25:42+00:00</time>
      </trkpt>
      <trkpt lat="46.245862658" lon="6.749557792">
        <ele>1207</ele>
        <time>2026-05-11T18:25:43+00:00</time>
      </trkpt>
      <trkpt lat="46.246563182" lon="6.749648309">
        <ele>1200</ele>
        <time>2026-05-11T18:25:44+00:00</time>
      </trkpt>
      <trkpt lat="46.247006425" lon="6.74979173">
        <ele>1193</ele>
        <time>2026-05-11T18:25:45+00:00</time>
      </trkpt>
      <trkpt lat="46.247138755" lon="6.750339593">
        <ele>1184</ele>
        <time>2026-05-11T18:25:46+00:00</time>
      </trkpt>
      <trkpt lat="46.247209613" lon="6.750242555">
        <ele>1184</ele>
        <time>2026-05-11T18:25:47+00:00</time>
      </trkpt>
      <trkpt lat="46.247264556" lon="6.749753408">
        <ele>1192</ele>
        <time>2026-05-11T18:25:48+00:00</time>
      </trkpt>
      <trkpt lat="46.247338076" lon="6.749527041">
        <ele>1197</ele>
        <time>2026-05-11T18:25:49+00:00</time>
      </trkpt>
      <trkpt lat="46.247690317" lon="6.749226969">
        <ele>1199</ele>
        <time>2026-05-11T18:25:50+00:00</time>
      </trkpt>
      <trkpt lat="46.248196852" lon="6.748872239">
        <ele>1199</ele>
        <time>2026-05-11T18:25:51+00:00</time>
      </trkpt>
      <trkpt lat="46.248299759" lon="6.748716391">
        <ele>1202</ele>
        <time>2026-05-11T18:25:52+00:00</time>
      </trkpt>
      <trkpt lat="46.248520542" lon="6.748507858">
        <ele>1205</ele>
        <time>2026-05-11T18:25:53+00:00</time>
      </trkpt>
      <trkpt lat="46.250060453" lon="6.747144339">
        <ele>1225</ele>
        <time>2026-05-11T18:25:54+00:00</time>
      </trkpt>
      <trkpt lat="46.250575214" lon="6.746840048">
        <ele>1227</ele>
        <time>2026-05-11T18:25:55+00:00</time>
      </trkpt>
      <trkpt lat="46.250902467" lon="6.746536776">
        <ele>1232</ele>
        <time>2026-05-11T18:25:56+00:00</time>
      </trkpt>
      <trkpt lat="46.251254142" lon="6.746075798">
        <ele>1239</ele>
        <time>2026-05-11T18:25:57+00:00</time>
      </trkpt>
      <trkpt lat="46.251523141" lon="6.745643804">
        <ele>1244</ele>
        <time>2026-05-11T18:25:58+00:00</time>
      </trkpt>
      <trkpt lat="46.25186751" lon="6.745258538">
        <ele>1249</ele>
        <time>2026-05-11T18:25:59+00:00</time>
      </trkpt>
      <trkpt lat="46.252496469" lon="6.744832065">
        <ele>1251</ele>
        <time>2026-05-11T18:26:00+00:00</time>
      </trkpt>
      <trkpt lat="46.25279035" lon="6.744531725">
        <ele>1257</ele>
        <time>2026-05-11T18:26:01+00:00</time>
      </trkpt>
      <trkpt lat="46.253127855" lon="6.744062822">
        <ele>1267</ele>
        <time>2026-05-11T18:26:02+00:00</time>
      </trkpt>
      <trkpt lat="46.253256863" lon="6.743794465">
        <ele>1275</ele>
        <time>2026-05-11T18:26:03+00:00</time>
      </trkpt>
      <trkpt lat="46.253354345" lon="6.743461587">
        <ele>1286</ele>
        <time>2026-05-11T18:26:04+00:00</time>
      </trkpt>
      <trkpt lat="46.25370669" lon="6.742979826">
        <ele>1288</ele>
        <time>2026-05-11T18:26:05+00:00</time>
      </trkpt>
      <trkpt lat="46.2537516" lon="6.742345378">
        <ele>1303</ele>
        <time>2026-05-11T18:26:06+00:00</time>
      </trkpt>
      <trkpt lat="46.253821457" lon="6.742121479">
        <ele>1306</ele>
        <time>2026-05-11T18:26:07+00:00</time>
      </trkpt>
      <trkpt lat="46.254007086" lon="6.741739184">
        <ele>1308</ele>
        <time>2026-05-11T18:26:08+00:00</time>
      </trkpt>
      <trkpt lat="46.254163046" lon="6.741528097">
        <ele>1305</ele>
        <time>2026-05-11T18:26:09+00:00</time>
      </trkpt>
      <trkpt lat="46.25428655" lon="6.741134622">
        <ele>1308</ele>
        <time>2026-05-11T18:26:10+00:00</time>
      </trkpt>
      <trkpt lat="46.254326697" lon="6.740790884">
        <ele>1314</ele>
        <time>2026-05-11T18:26:11+00:00</time>
      </trkpt>
      <trkpt lat="46.254296858" lon="6.739797909">
        <ele>1331</ele>
        <time>2026-05-11T18:26:12+00:00</time>
      </trkpt>
      <trkpt lat="46.254465112" lon="6.73935898">
        <ele>1333</ele>
        <time>2026-05-11T18:26:13+00:00</time>
      </trkpt>
      <trkpt lat="46.255293128" lon="6.738013299">
        <ele>1333</ele>
        <time>2026-05-11T18:26:14+00:00</time>
      </trkpt>
      <trkpt lat="46.2555442" lon="6.73767947">
        <ele>1330</ele>
        <time>2026-05-11T18:26:15+00:00</time>
      </trkpt>
      <trkpt lat="46.255727289" lon="6.737227677">
        <ele>1331</ele>
        <time>2026-05-11T18:26:16+00:00</time>
      </trkpt>
      <trkpt lat="46.255899114" lon="6.736387043">
        <ele>1335</ele>
        <time>2026-05-11T18:26:17+00:00</time>
      </trkpt>
      <trkpt lat="46.255970268" lon="6.735830585">
        <ele>1335</ele>
        <time>2026-05-11T18:26:18+00:00</time>
      </trkpt>
      <trkpt lat="46.255966945" lon="6.735030128">
        <ele>1334</ele>
        <time>2026-05-11T18:26:19+00:00</time>
      </trkpt>
      <trkpt lat="46.255870018" lon="6.7336494">
        <ele>1337</ele>
        <time>2026-05-11T18:26:20+00:00</time>
      </trkpt>
      <trkpt lat="46.255933154" lon="6.733054458">
        <ele>1336</ele>
        <time>2026-05-11T18:26:21+00:00</time>
      </trkpt>
      <trkpt lat="46.255597553" lon="6.732731755">
        <ele>1350</ele>
        <time>2026-05-11T18:26:22+00:00</time>
      </trkpt>
      <trkpt lat="46.255471576" lon="6.732397873">
        <ele>1357</ele>
        <time>2026-05-11T18:26:23+00:00</time>
      </trkpt>
      <trkpt lat="46.255253983" lon="6.732138337">
        <ele>1369</ele>
        <time>2026-05-11T18:26:24+00:00</time>
      </trkpt>
      <trkpt lat="46.254835458" lon="6.732065951">
        <ele>1388</ele>
        <time>2026-05-11T18:26:25+00:00</time>
      </trkpt>
      <trkpt lat="46.254749358" lon="6.731803423">
        <ele>1396</ele>
        <time>2026-05-11T18:26:26+00:00</time>
      </trkpt>
      <trkpt lat="46.254961703" lon="6.731559876">
        <ele>1389</ele>
        <time>2026-05-11T18:26:27+00:00</time>
      </trkpt>
      <trkpt lat="46.255163153" lon="6.731472037">
        <ele>1380</ele>
        <time>2026-05-11T18:26:28+00:00</time>
      </trkpt>
      <trkpt lat="46.255369183" lon="6.731278982">
        <ele>1368</ele>
        <time>2026-05-11T18:26:29+00:00</time>
      </trkpt>
      <trkpt lat="46.255369317" lon="6.731128385">
        <ele>1368</ele>
        <time>2026-05-11T18:26:30+00:00</time>
      </trkpt>
      <trkpt lat="46.255264824" lon="6.730833115">
        <ele>1373</ele>
        <time>2026-05-11T18:26:31+00:00</time>
      </trkpt>
      <trkpt lat="46.25471483" lon="6.730145787">
        <ele>1384</ele>
        <time>2026-05-11T18:26:32+00:00</time>
      </trkpt>
      <trkpt lat="46.254401849" lon="6.729594306">
        <ele>1381</ele>
        <time>2026-05-11T18:26:33+00:00</time>
      </trkpt>
      <trkpt lat="46.253732539" lon="6.729064363">
        <ele>1386</ele>
        <time>2026-05-11T18:26:34+00:00</time>
      </trkpt>
      <trkpt lat="46.253600362" lon="6.728748621">
        <ele>1379</ele>
        <time>2026-05-11T18:26:35+00:00</time>
      </trkpt>
      <trkpt lat="46.253730509" lon="6.728649272">
        <ele>1375</ele>
        <time>2026-05-11T18:26:36+00:00</time>
      </trkpt>
      <trkpt lat="46.253667091" lon="6.728446745">
        <ele>1370</ele>
        <time>2026-05-11T18:26:37+00:00</time>
      </trkpt>
      <trkpt lat="46.253696347" lon="6.728351195">
        <ele>1367</ele>
        <time>2026-05-11T18:26:38+00:00</time>
      </trkpt>
      <trkpt lat="46.253650557" lon="6.728122991">
        <ele>1359</ele>
        <time>2026-05-11T18:26:39+00:00</time>
      </trkpt>
      <trkpt lat="46.253668658" lon="6.727989352">
        <ele>1354</ele>
        <time>2026-05-11T18:26:40+00:00</time>
      </trkpt>
      <trkpt lat="46.253625193" lon="6.727907607">
        <ele>1350</ele>
        <time>2026-05-11T18:26:41+00:00</time>
      </trkpt>
      <trkpt lat="46.25364637" lon="6.727823562">
        <ele>1347</ele>
        <time>2026-05-11T18:26:42+00:00</time>
      </trkpt>
      <trkpt lat="46.25358381" lon="6.727658321">
        <ele>1340</ele>
        <time>2026-05-11T18:26:43+00:00</time>
      </trkpt>
      <trkpt lat="46.253643813" lon="6.727466445">
        <ele>1333</ele>
        <time>2026-05-11T18:26:44+00:00</time>
      </trkpt>
      <trkpt lat="46.253924794" lon="6.727246032">
        <ele>1328</ele>
        <time>2026-05-11T18:26:45+00:00</time>
      </trkpt>
      <trkpt lat="46.254025487" lon="6.727266209">
        <ele>1330</ele>
        <time>2026-05-11T18:26:46+00:00</time>
      </trkpt>
      <trkpt lat="46.254157922" lon="6.727368934">
        <ele>1335</ele>
        <time>2026-05-11T18:26:47+00:00</time>
      </trkpt>
      <trkpt lat="46.254440202" lon="6.727366929">
        <ele>1322</ele>
        <time>2026-05-11T18:26:48+00:00</time>
      </trkpt>
      <trkpt lat="46.254474487" lon="6.727149483">
        <ele>1313</ele>
        <time>2026-05-11T18:26:49+00:00</time>
      </trkpt>
      <trkpt lat="46.254541986" lon="6.727033428">
        <ele>1305</ele>
        <time>2026-05-11T18:26:50+00:00</time>
      </trkpt>
      <trkpt lat="46.25453933" lon="6.726885711">
        <ele>1299</ele>
        <time>2026-05-11T18:26:51+00:00</time>
      </trkpt>
      <trkpt lat="46.254486983" lon="6.726778447">
        <ele>1298</ele>
        <time>2026-05-11T18:26:52+00:00</time>
      </trkpt>
      <trkpt lat="46.254295807" lon="6.726667942">
        <ele>1305</ele>
        <time>2026-05-11T18:26:53+00:00</time>
      </trkpt>
      <trkpt lat="46.254281914" lon="6.726522418">
        <ele>1298</ele>
        <time>2026-05-11T18:26:54+00:00</time>
      </trkpt>
      <trkpt lat="46.254140546" lon="6.726378698">
        <ele>1297</ele>
        <time>2026-05-11T18:26:55+00:00</time>
      </trkpt>
      <trkpt lat="46.253719587" lon="6.726186896">
        <ele>1283</ele>
        <time>2026-05-11T18:26:56+00:00</time>
      </trkpt>
      <trkpt lat="46.253394663" lon="6.72629324">
        <ele>1283</ele>
        <time>2026-05-11T18:26:57+00:00</time>
      </trkpt>
      <trkpt lat="46.253243584" lon="6.726430254">
        <ele>1286</ele>
        <time>2026-05-11T18:26:58+00:00</time>
      </trkpt>
      <trkpt lat="46.25281064" lon="6.726538544">
        <ele>1278</ele>
        <time>2026-05-11T18:26:59+00:00</time>
      </trkpt>
      <trkpt lat="46.252582765" lon="6.726439737">
        <ele>1268</ele>
        <time>2026-05-11T18:27:00+00:00</time>
      </trkpt>
      <trkpt lat="46.252359599" lon="6.726527838">
        <ele>1267</ele>
        <time>2026-05-11T18:27:01+00:00</time>
      </trkpt>
      <trkpt lat="46.251914939" lon="6.726798321">
        <ele>1275</ele>
        <time>2026-05-11T18:27:02+00:00</time>
      </trkpt>
      <trkpt lat="46.251762808" lon="6.7267228">
        <ele>1270</ele>
        <time>2026-05-11T18:27:03+00:00</time>
      </trkpt>
      <trkpt lat="46.251640767" lon="6.726766555">
        <ele>1271</ele>
        <time>2026-05-11T18:27:04+00:00</time>
      </trkpt>
      <trkpt lat="46.251382915" lon="6.72645277">
        <ele>1251</ele>
        <time>2026-05-11T18:27:05+00:00</time>
      </trkpt>
      <trkpt lat="46.250873662" lon="6.726242944">
        <ele>1232</ele>
        <time>2026-05-11T18:27:06+00:00</time>
      </trkpt>
      <trkpt lat="46.250568562" lon="6.726255958">
        <ele>1230</ele>
        <time>2026-05-11T18:27:07+00:00</time>
      </trkpt>
      <trkpt lat="46.249735944" lon="6.726478258">
        <ele>1234</ele>
        <time>2026-05-11T18:27:08+00:00</time>
      </trkpt>
      <trkpt lat="46.249667967" lon="6.726551407">
        <ele>1236</ele>
        <time>2026-05-11T18:27:09+00:00</time>
      </trkpt>
      <trkpt lat="46.249570438" lon="6.726560108">
        <ele>1237</ele>
        <time>2026-05-11T18:27:10+00:00</time>
      </trkpt>
      <trkpt lat="46.249482511" lon="6.726556421">
        <ele>1237</ele>
        <time>2026-05-11T18:27:11+00:00</time>
      </trkpt>
      <trkpt lat="46.249262737" lon="6.726241512">
        <ele>1229</ele>
        <time>2026-05-11T18:27:12+00:00</time>
      </trkpt>
      <trkpt lat="46.249358709" lon="6.726149143">
        <ele>1226</ele>
        <time>2026-05-11T18:27:13+00:00</time>
      </trkpt>
      <trkpt lat="46.249634726" lon="6.725582528">
        <ele>1210</ele>
        <time>2026-05-11T18:27:14+00:00</time>
      </trkpt>
      <trkpt lat="46.249632379" lon="6.725076763">
        <ele>1196</ele>
        <time>2026-05-11T18:27:15+00:00</time>
      </trkpt>
      <trkpt lat="46.249553422" lon="6.724929829">
        <ele>1193</ele>
        <time>2026-05-11T18:27:16+00:00</time>
      </trkpt>
      <trkpt lat="46.249659034" lon="6.724553647">
        <ele>1184</ele>
        <time>2026-05-11T18:27:17+00:00</time>
      </trkpt>
      <trkpt lat="46.249698261" lon="6.724000275">
        <ele>1172</ele>
        <time>2026-05-11T18:27:18+00:00</time>
      </trkpt>
      <trkpt lat="46.249808985" lon="6.723827021">
        <ele>1168</ele>
        <time>2026-05-11T18:27:19+00:00</time>
      </trkpt>
      <trkpt lat="46.249800855" lon="6.723706824">
        <ele>1166</ele>
        <time>2026-05-11T18:27:20+00:00</time>
      </trkpt>
      <trkpt lat="46.249911748" lon="6.723326538">
        <ele>1159</ele>
        <time>2026-05-11T18:27:21+00:00</time>
      </trkpt>
      <trkpt lat="46.24982508" lon="6.723196284">
        <ele>1158</ele>
        <time>2026-05-11T18:27:22+00:00</time>
      </trkpt>
      <trkpt lat="46.249774704" lon="6.722946922">
        <ele>1154</ele>
        <time>2026-05-11T18:27:23+00:00</time>
      </trkpt>
      <trkpt lat="46.250111223" lon="6.722258073">
        <ele>1143</ele>
        <time>2026-05-11T18:27:24+00:00</time>
      </trkpt>
      <trkpt lat="46.250168046" lon="6.721690857">
        <ele>1139</ele>
        <time>2026-05-11T18:27:25+00:00</time>
      </trkpt>
    </trkseg>
  </trk>
</gpx>
