<?xml version="1.0" encoding="UTF-8" ?>
<gpx version="1.1" xmlns:xsi="http://www.w3.org/2001/XMLSchema-instance"
    xmlns="http://www.topografix.com/GPX/1/1"
    xsi:schemaLocation="http://www.topografix.com/GPX/1/1 http://www.topografix.com/GPX/1/1/gpx.xsd"
    creator="Openrunner - https://www.openrunner.com" >
                <wpt lat="47.167380" lon="-1.479936">
                        <ele>0</ele>
                        <name><![CDATA[Point rencontre 10H30]]></name>
                        <desc><![CDATA[]]></desc>
                    <sym>41</sym>
                </wpt>
            	<trk>
	                   <name>04 suite - Nantes/VignobleNantais - 20 avril-18560586</name>
						<trkseg>
					<trkpt lat="47.216380" lon="-1.547260">
						<ele>11</ele>
						<time>2026-05-01T08:37:39Z</time>
					</trkpt>
					<trkpt lat="47.216330" lon="-1.547390">
						<ele>11</ele>
						<time>2026-05-01T08:37:41Z</time>
					</trkpt>
					<trkpt lat="47.216250" lon="-1.547480">
						<ele>10</ele>
						<time>2026-05-01T08:37:43Z</time>
					</trkpt>
					<trkpt lat="47.216080" lon="-1.547890">
						<ele>9</ele>
						<time>2026-05-01T08:37:48Z</time>
					</trkpt>
					<trkpt lat="47.215630" lon="-1.548730">
						<ele>8</ele>
						<time>2026-05-01T08:38:01Z</time>
					</trkpt>
					<trkpt lat="47.215380" lon="-1.549390">
						<ele>9</ele>
						<time>2026-05-01T08:38:10Z</time>
					</trkpt>
					<trkpt lat="47.215210" lon="-1.549990">
						<ele>10</ele>
						<time>2026-05-01T08:38:18Z</time>
					</trkpt>
					<trkpt lat="47.215250" lon="-1.550300">
						<ele>11</ele>
						<time>2026-05-01T08:38:22Z</time>
					</trkpt>
					<trkpt lat="47.215170" lon="-1.550530">
						<ele>12</ele>
						<time>2026-05-01T08:38:25Z</time>
					</trkpt>
					<trkpt lat="47.214760" lon="-1.550240">
						<ele>10</ele>
						<time>2026-05-01T08:38:33Z</time>
					</trkpt>
					<trkpt lat="47.214530" lon="-1.550240">
						<ele>10</ele>
						<time>2026-05-01T08:38:37Z</time>
					</trkpt>
					<trkpt lat="47.214460" lon="-1.550290">
						<ele>10</ele>
						<time>2026-05-01T08:38:39Z</time>
					</trkpt>
					<trkpt lat="47.214360" lon="-1.550240">
						<ele>10</ele>
						<time>2026-05-01T08:38:41Z</time>
					</trkpt>
					<trkpt lat="47.214270" lon="-1.550280">
						<ele>10</ele>
						<time>2026-05-01T08:38:42Z</time>
					</trkpt>
					<trkpt lat="47.214100" lon="-1.550040">
						<ele>9</ele>
						<time>2026-05-01T08:38:47Z</time>
					</trkpt>
					<trkpt lat="47.213270" lon="-1.552110">
						<ele>11</ele>
						<time>2026-05-01T08:39:16Z</time>
					</trkpt>
					<trkpt lat="47.213350" lon="-1.552200">
						<ele>11</ele>
						<time>2026-05-01T08:39:17Z</time>
					</trkpt>
					<trkpt lat="47.213370" lon="-1.552410">
						<ele>12</ele>
						<time>2026-05-01T08:39:20Z</time>
					</trkpt>
					<trkpt lat="47.213350" lon="-1.552490">
						<ele>12</ele>
						<time>2026-05-01T08:39:21Z</time>
					</trkpt>
					<trkpt lat="47.213150" lon="-1.552710">
						<ele>12</ele>
						<time>2026-05-01T08:39:25Z</time>
					</trkpt>
					<trkpt lat="47.212920" lon="-1.553310">
						<ele>11</ele>
						<time>2026-05-01T08:39:34Z</time>
					</trkpt>
					<trkpt lat="47.212850" lon="-1.553610">
						<ele>11</ele>
						<time>2026-05-01T08:39:38Z</time>
					</trkpt>
					<trkpt lat="47.212850" lon="-1.553720">
						<ele>11</ele>
						<time>2026-05-01T08:39:39Z</time>
					</trkpt>
					<trkpt lat="47.212780" lon="-1.553800">
						<ele>11</ele>
						<time>2026-05-01T08:39:41Z</time>
					</trkpt>
					<trkpt lat="47.212750" lon="-1.553800">
						<ele>10</ele>
						<time>2026-05-01T08:39:41Z</time>
					</trkpt>
					<trkpt lat="47.212680" lon="-1.553720">
						<ele>10</ele>
						<time>2026-05-01T08:39:43Z</time>
					</trkpt>
					<trkpt lat="47.212670" lon="-1.553670">
						<ele>10</ele>
						<time>2026-05-01T08:39:43Z</time>
					</trkpt>
					<trkpt lat="47.212590" lon="-1.553570">
						<ele>10</ele>
						<time>2026-05-01T08:39:45Z</time>
					</trkpt>
					<trkpt lat="47.212460" lon="-1.553330">
						<ele>10</ele>
						<time>2026-05-01T08:39:49Z</time>
					</trkpt>
					<trkpt lat="47.212350" lon="-1.552920">
						<ele>10</ele>
						<time>2026-05-01T08:39:54Z</time>
					</trkpt>
					<trkpt lat="47.212350" lon="-1.552740">
						<ele>11</ele>
						<time>2026-05-01T08:39:56Z</time>
					</trkpt>
					<trkpt lat="47.212180" lon="-1.552550">
						<ele>11</ele>
						<time>2026-05-01T08:40:00Z</time>
					</trkpt>
					<trkpt lat="47.210940" lon="-1.551600">
						<ele>11</ele>
						<time>2026-05-01T08:40:25Z</time>
					</trkpt>
					<trkpt lat="47.209510" lon="-1.550450">
						<ele>7</ele>
						<time>2026-05-01T08:40:54Z</time>
					</trkpt>
					<trkpt lat="47.209480" lon="-1.550530">
						<ele>7</ele>
						<time>2026-05-01T08:40:55Z</time>
					</trkpt>
					<trkpt lat="47.209440" lon="-1.550460">
						<ele>7</ele>
						<time>2026-05-01T08:40:56Z</time>
					</trkpt>
					<trkpt lat="47.208740" lon="-1.549720">
						<ele>3</ele>
						<time>2026-05-01T08:41:12Z</time>
					</trkpt>
					<trkpt lat="47.208690" lon="-1.549630">
						<ele>3</ele>
						<time>2026-05-01T08:41:13Z</time>
					</trkpt>
					<trkpt lat="47.207110" lon="-1.548600">
						<ele>6</ele>
						<time>2026-05-01T08:41:44Z</time>
					</trkpt>
					<trkpt lat="47.207030" lon="-1.548880">
						<ele>7</ele>
						<time>2026-05-01T08:41:47Z</time>
					</trkpt>
					<trkpt lat="47.206850" lon="-1.548770">
						<ele>9</ele>
						<time>2026-05-01T08:41:51Z</time>
					</trkpt>
					<trkpt lat="47.206870" lon="-1.548730">
						<ele>9</ele>
						<time>2026-05-01T08:41:51Z</time>
					</trkpt>
					<trkpt lat="47.205860" lon="-1.547840">
						<ele>10</ele>
						<time>2026-05-01T08:42:12Z</time>
					</trkpt>
					<trkpt lat="47.205280" lon="-1.547440">
						<ele>11</ele>
						<time>2026-05-01T08:42:24Z</time>
					</trkpt>
					<trkpt lat="47.205040" lon="-1.547320">
						<ele>11</ele>
						<time>2026-05-01T08:42:28Z</time>
					</trkpt>
					<trkpt lat="47.204160" lon="-1.546720">
						<ele>8</ele>
						<time>2026-05-01T08:42:46Z</time>
					</trkpt>
					<trkpt lat="47.201490" lon="-1.545030">
						<ele>12</ele>
						<time>2026-05-01T08:43:37Z</time>
					</trkpt>
					<trkpt lat="47.201570" lon="-1.544760">
						<ele>12</ele>
						<time>2026-05-01T08:43:41Z</time>
					</trkpt>
					<trkpt lat="47.201130" lon="-1.544470">
						<ele>12</ele>
						<time>2026-05-01T08:43:49Z</time>
					</trkpt>
					<trkpt lat="47.201090" lon="-1.544380">
						<ele>12</ele>
						<time>2026-05-01T08:43:51Z</time>
					</trkpt>
					<trkpt lat="47.201100" lon="-1.544240">
						<ele>11</ele>
						<time>2026-05-01T08:43:52Z</time>
					</trkpt>
					<trkpt lat="47.201010" lon="-1.544170">
						<ele>11</ele>
						<time>2026-05-01T08:43:54Z</time>
					</trkpt>
					<trkpt lat="47.200930" lon="-1.544220">
						<ele>11</ele>
						<time>2026-05-01T08:43:56Z</time>
					</trkpt>
					<trkpt lat="47.198170" lon="-1.542350">
						<ele>5</ele>
						<time>2026-05-01T08:44:50Z</time>
					</trkpt>
					<trkpt lat="47.198100" lon="-1.542280">
						<ele>5</ele>
						<time>2026-05-01T08:44:51Z</time>
					</trkpt>
					<trkpt lat="47.198100" lon="-1.542250">
						<ele>5</ele>
						<time>2026-05-01T08:44:52Z</time>
					</trkpt>
					<trkpt lat="47.197720" lon="-1.542010">
						<ele>8</ele>
						<time>2026-05-01T08:44:59Z</time>
					</trkpt>
					<trkpt lat="47.197680" lon="-1.542110">
						<ele>8</ele>
						<time>2026-05-01T08:45:00Z</time>
					</trkpt>
					<trkpt lat="47.197290" lon="-1.542470">
						<ele>9</ele>
						<time>2026-05-01T08:45:09Z</time>
					</trkpt>
					<trkpt lat="47.196690" lon="-1.542900">
						<ele>8</ele>
						<time>2026-05-01T08:45:21Z</time>
					</trkpt>
					<trkpt lat="47.196420" lon="-1.543140">
						<ele>8</ele>
						<time>2026-05-01T08:45:26Z</time>
					</trkpt>
					<trkpt lat="47.196070" lon="-1.543620">
						<ele>7</ele>
						<time>2026-05-01T08:45:35Z</time>
					</trkpt>
					<trkpt lat="47.195880" lon="-1.543800">
						<ele>7</ele>
						<time>2026-05-01T08:45:39Z</time>
					</trkpt>
					<trkpt lat="47.195590" lon="-1.544020">
						<ele>6</ele>
						<time>2026-05-01T08:45:44Z</time>
					</trkpt>
					<trkpt lat="47.195510" lon="-1.543980">
						<ele>6</ele>
						<time>2026-05-01T08:45:46Z</time>
					</trkpt>
					<trkpt lat="47.194750" lon="-1.544570">
						<ele>6</ele>
						<time>2026-05-01T08:46:01Z</time>
					</trkpt>
					<trkpt lat="47.194110" lon="-1.544900">
						<ele>8</ele>
						<time>2026-05-01T08:46:13Z</time>
					</trkpt>
					<trkpt lat="47.194470" lon="-1.544580">
						<ele>7</ele>
						<time>2026-05-01T08:46:21Z</time>
					</trkpt>
					<trkpt lat="47.194440" lon="-1.544310">
						<ele>6</ele>
						<time>2026-05-01T08:46:24Z</time>
					</trkpt>
					<trkpt lat="47.193920" lon="-1.543480">
						<ele>6</ele>
						<time>2026-05-01T08:46:38Z</time>
					</trkpt>
					<trkpt lat="47.193540" lon="-1.543040">
						<ele>7</ele>
						<time>2026-05-01T08:46:46Z</time>
					</trkpt>
					<trkpt lat="47.192710" lon="-1.541620">
						<ele>7</ele>
						<time>2026-05-01T08:47:09Z</time>
					</trkpt>
					<trkpt lat="47.192100" lon="-1.540300">
						<ele>5</ele>
						<time>2026-05-01T08:47:28Z</time>
					</trkpt>
					<trkpt lat="47.191810" lon="-1.539820">
						<ele>6</ele>
						<time>2026-05-01T08:47:36Z</time>
					</trkpt>
					<trkpt lat="47.191630" lon="-1.539470">
						<ele>7</ele>
						<time>2026-05-01T08:47:41Z</time>
					</trkpt>
					<trkpt lat="47.191110" lon="-1.538710">
						<ele>6</ele>
						<time>2026-05-01T08:47:54Z</time>
					</trkpt>
					<trkpt lat="47.190470" lon="-1.537990">
						<ele>6</ele>
						<time>2026-05-01T08:48:09Z</time>
					</trkpt>
					<trkpt lat="47.190340" lon="-1.537760">
						<ele>6</ele>
						<time>2026-05-01T08:48:12Z</time>
					</trkpt>
					<trkpt lat="47.190080" lon="-1.537430">
						<ele>6</ele>
						<time>2026-05-01T08:48:18Z</time>
					</trkpt>
					<trkpt lat="47.189800" lon="-1.537150">
						<ele>6</ele>
						<time>2026-05-01T08:48:25Z</time>
					</trkpt>
					<trkpt lat="47.189080" lon="-1.536570">
						<ele>4</ele>
						<time>2026-05-01T08:48:39Z</time>
					</trkpt>
					<trkpt lat="47.188340" lon="-1.536160">
						<ele>6</ele>
						<time>2026-05-01T08:48:53Z</time>
					</trkpt>
					<trkpt lat="47.186840" lon="-1.535720">
						<ele>10</ele>
						<time>2026-05-01T08:49:20Z</time>
					</trkpt>
					<trkpt lat="47.186390" lon="-1.535520">
						<ele>11</ele>
						<time>2026-05-01T08:49:29Z</time>
					</trkpt>
					<trkpt lat="47.186020" lon="-1.535320">
						<ele>12</ele>
						<time>2026-05-01T08:49:36Z</time>
					</trkpt>
					<trkpt lat="47.185790" lon="-1.535140">
						<ele>11</ele>
						<time>2026-05-01T08:49:40Z</time>
					</trkpt>
					<trkpt lat="47.185670" lon="-1.534980">
						<ele>10</ele>
						<time>2026-05-01T08:49:43Z</time>
					</trkpt>
					<trkpt lat="47.185280" lon="-1.534650">
						<ele>11</ele>
						<time>2026-05-01T08:49:51Z</time>
					</trkpt>
					<trkpt lat="47.185040" lon="-1.534400">
						<ele>12</ele>
						<time>2026-05-01T08:49:57Z</time>
					</trkpt>
					<trkpt lat="47.184910" lon="-1.534200">
						<ele>12</ele>
						<time>2026-05-01T08:50:00Z</time>
					</trkpt>
					<trkpt lat="47.183620" lon="-1.532790">
						<ele>8</ele>
						<time>2026-05-01T08:50:28Z</time>
					</trkpt>
					<trkpt lat="47.183220" lon="-1.532230">
						<ele>7</ele>
						<time>2026-05-01T08:50:38Z</time>
					</trkpt>
					<trkpt lat="47.183080" lon="-1.531990">
						<ele>7</ele>
						<time>2026-05-01T08:50:42Z</time>
					</trkpt>
					<trkpt lat="47.182880" lon="-1.531830">
						<ele>7</ele>
						<time>2026-05-01T08:50:46Z</time>
					</trkpt>
					<trkpt lat="47.182540" lon="-1.532140">
						<ele>9</ele>
						<time>2026-05-01T08:50:53Z</time>
					</trkpt>
					<trkpt lat="47.182360" lon="-1.532510">
						<ele>10</ele>
						<time>2026-05-01T08:50:59Z</time>
					</trkpt>
					<trkpt lat="47.182230" lon="-1.532440">
						<ele>10</ele>
						<time>2026-05-01T08:51:01Z</time>
					</trkpt>
					<trkpt lat="47.182430" lon="-1.531800">
						<ele>9</ele>
						<time>2026-05-01T08:51:10Z</time>
					</trkpt>
					<trkpt lat="47.182650" lon="-1.531550">
						<ele>7</ele>
						<time>2026-05-01T08:51:15Z</time>
					</trkpt>
					<trkpt lat="47.183280" lon="-1.530980">
						<ele>4</ele>
						<time>2026-05-01T08:51:28Z</time>
					</trkpt>
					<trkpt lat="47.183610" lon="-1.530630">
						<ele>4</ele>
						<time>2026-05-01T08:51:35Z</time>
					</trkpt>
					<trkpt lat="47.183310" lon="-1.530280">
						<ele>4</ele>
						<time>2026-05-01T08:51:42Z</time>
					</trkpt>
					<trkpt lat="47.183090" lon="-1.529870">
						<ele>4</ele>
						<time>2026-05-01T08:51:48Z</time>
					</trkpt>
					<trkpt lat="47.183000" lon="-1.529490">
						<ele>4</ele>
						<time>2026-05-01T08:51:53Z</time>
					</trkpt>
					<trkpt lat="47.182720" lon="-1.528970">
						<ele>5</ele>
						<time>2026-05-01T08:52:01Z</time>
					</trkpt>
					<trkpt lat="47.182670" lon="-1.528740">
						<ele>5</ele>
						<time>2026-05-01T08:52:04Z</time>
					</trkpt>
					<trkpt lat="47.182620" lon="-1.528250">
						<ele>5</ele>
						<time>2026-05-01T08:52:10Z</time>
					</trkpt>
					<trkpt lat="47.182380" lon="-1.527560">
						<ele>5</ele>
						<time>2026-05-01T08:52:19Z</time>
					</trkpt>
					<trkpt lat="47.182330" lon="-1.527160">
						<ele>6</ele>
						<time>2026-05-01T08:52:24Z</time>
					</trkpt>
					<trkpt lat="47.182420" lon="-1.526700">
						<ele>7</ele>
						<time>2026-05-01T08:52:30Z</time>
					</trkpt>
					<trkpt lat="47.182430" lon="-1.526270">
						<ele>7</ele>
						<time>2026-05-01T08:52:35Z</time>
					</trkpt>
					<trkpt lat="47.182350" lon="-1.526060">
						<ele>6</ele>
						<time>2026-05-01T08:52:38Z</time>
					</trkpt>
					<trkpt lat="47.182230" lon="-1.525940">
						<ele>6</ele>
						<time>2026-05-01T08:52:41Z</time>
					</trkpt>
					<trkpt lat="47.182160" lon="-1.525810">
						<ele>6</ele>
						<time>2026-05-01T08:52:43Z</time>
					</trkpt>
					<trkpt lat="47.182110" lon="-1.525540">
						<ele>5</ele>
						<time>2026-05-01T08:52:46Z</time>
					</trkpt>
					<trkpt lat="47.182000" lon="-1.525350">
						<ele>5</ele>
						<time>2026-05-01T08:52:49Z</time>
					</trkpt>
					<trkpt lat="47.181960" lon="-1.525150">
						<ele>5</ele>
						<time>2026-05-01T08:52:52Z</time>
					</trkpt>
					<trkpt lat="47.181960" lon="-1.524840">
						<ele>5</ele>
						<time>2026-05-01T08:52:55Z</time>
					</trkpt>
					<trkpt lat="47.182020" lon="-1.524460">
						<ele>4</ele>
						<time>2026-05-01T08:53:00Z</time>
					</trkpt>
					<trkpt lat="47.181980" lon="-1.524300">
						<ele>4</ele>
						<time>2026-05-01T08:53:02Z</time>
					</trkpt>
					<trkpt lat="47.181910" lon="-1.524240">
						<ele>4</ele>
						<time>2026-05-01T08:53:04Z</time>
					</trkpt>
					<trkpt lat="47.181870" lon="-1.524150">
						<ele>4</ele>
						<time>2026-05-01T08:53:05Z</time>
					</trkpt>
					<trkpt lat="47.181810" lon="-1.523820">
						<ele>3</ele>
						<time>2026-05-01T08:53:09Z</time>
					</trkpt>
					<trkpt lat="47.181820" lon="-1.523380">
						<ele>2</ele>
						<time>2026-05-01T08:53:14Z</time>
					</trkpt>
					<trkpt lat="47.181890" lon="-1.522940">
						<ele>3</ele>
						<time>2026-05-01T08:53:20Z</time>
					</trkpt>
					<trkpt lat="47.181870" lon="-1.522490">
						<ele>5</ele>
						<time>2026-05-01T08:53:25Z</time>
					</trkpt>
					<trkpt lat="47.181720" lon="-1.522150">
						<ele>5</ele>
						<time>2026-05-01T08:53:30Z</time>
					</trkpt>
					<trkpt lat="47.181550" lon="-1.521500">
						<ele>6</ele>
						<time>2026-05-01T08:53:39Z</time>
					</trkpt>
					<trkpt lat="47.181370" lon="-1.521150">
						<ele>5</ele>
						<time>2026-05-01T08:53:44Z</time>
					</trkpt>
					<trkpt lat="47.181300" lon="-1.520920">
						<ele>5</ele>
						<time>2026-05-01T08:53:47Z</time>
					</trkpt>
					<trkpt lat="47.181190" lon="-1.520160">
						<ele>5</ele>
						<time>2026-05-01T08:53:56Z</time>
					</trkpt>
					<trkpt lat="47.181110" lon="-1.519070">
						<ele>7</ele>
						<time>2026-05-01T08:54:10Z</time>
					</trkpt>
					<trkpt lat="47.181060" lon="-1.518890">
						<ele>7</ele>
						<time>2026-05-01T08:54:12Z</time>
					</trkpt>
					<trkpt lat="47.180990" lon="-1.518420">
						<ele>5</ele>
						<time>2026-05-01T08:54:18Z</time>
					</trkpt>
					<trkpt lat="47.181060" lon="-1.518230">
						<ele>5</ele>
						<time>2026-05-01T08:54:21Z</time>
					</trkpt>
					<trkpt lat="47.181140" lon="-1.518150">
						<ele>6</ele>
						<time>2026-05-01T08:54:22Z</time>
					</trkpt>
					<trkpt lat="47.181430" lon="-1.517680">
						<ele>7</ele>
						<time>2026-05-01T08:54:30Z</time>
					</trkpt>
					<trkpt lat="47.181490" lon="-1.517480">
						<ele>7</ele>
						<time>2026-05-01T08:54:33Z</time>
					</trkpt>
					<trkpt lat="47.181500" lon="-1.517160">
						<ele>7</ele>
						<time>2026-05-01T08:54:36Z</time>
					</trkpt>
					<trkpt lat="47.181380" lon="-1.515840">
						<ele>7</ele>
						<time>2026-05-01T08:54:53Z</time>
					</trkpt>
					<trkpt lat="47.181340" lon="-1.515470">
						<ele>7</ele>
						<time>2026-05-01T08:54:57Z</time>
					</trkpt>
					<trkpt lat="47.180980" lon="-1.514120">
						<ele>8</ele>
						<time>2026-05-01T08:55:15Z</time>
					</trkpt>
					<trkpt lat="47.180710" lon="-1.513400">
						<ele>9</ele>
						<time>2026-05-01T08:55:25Z</time>
					</trkpt>
					<trkpt lat="47.180600" lon="-1.512790">
						<ele>9</ele>
						<time>2026-05-01T08:55:32Z</time>
					</trkpt>
					<trkpt lat="47.180540" lon="-1.511920">
						<ele>10</ele>
						<time>2026-05-01T08:55:43Z</time>
					</trkpt>
					<trkpt lat="47.180560" lon="-1.511660">
						<ele>10</ele>
						<time>2026-05-01T08:55:46Z</time>
					</trkpt>
					<trkpt lat="47.180600" lon="-1.511550">
						<ele>10</ele>
						<time>2026-05-01T08:55:47Z</time>
					</trkpt>
					<trkpt lat="47.180150" lon="-1.511500">
						<ele>8</ele>
						<time>2026-05-01T08:55:55Z</time>
					</trkpt>
					<trkpt lat="47.179920" lon="-1.511380">
						<ele>7</ele>
						<time>2026-05-01T08:56:00Z</time>
					</trkpt>
					<trkpt lat="47.179630" lon="-1.511170">
						<ele>7</ele>
						<time>2026-05-01T08:56:06Z</time>
					</trkpt>
					<trkpt lat="47.179420" lon="-1.510930">
						<ele>7</ele>
						<time>2026-05-01T08:56:10Z</time>
					</trkpt>
					<trkpt lat="47.178850" lon="-1.510070">
						<ele>8</ele>
						<time>2026-05-01T08:56:25Z</time>
					</trkpt>
					<trkpt lat="47.178360" lon="-1.509400">
						<ele>7</ele>
						<time>2026-05-01T08:56:37Z</time>
					</trkpt>
					<trkpt lat="47.177400" lon="-1.508380">
						<ele>7</ele>
						<time>2026-05-01T08:56:58Z</time>
					</trkpt>
					<trkpt lat="47.176960" lon="-1.507860">
						<ele>9</ele>
						<time>2026-05-01T08:57:08Z</time>
					</trkpt>
					<trkpt lat="47.176770" lon="-1.508160">
						<ele>8</ele>
						<time>2026-05-01T08:57:13Z</time>
					</trkpt>
					<trkpt lat="47.176680" lon="-1.508210">
						<ele>8</ele>
						<time>2026-05-01T08:57:14Z</time>
					</trkpt>
					<trkpt lat="47.176500" lon="-1.508120">
						<ele>8</ele>
						<time>2026-05-01T08:57:18Z</time>
					</trkpt>
					<trkpt lat="47.176360" lon="-1.507950">
						<ele>8</ele>
						<time>2026-05-01T08:57:21Z</time>
					</trkpt>
					<trkpt lat="47.176290" lon="-1.507800">
						<ele>8</ele>
						<time>2026-05-01T08:57:23Z</time>
					</trkpt>
					<trkpt lat="47.176310" lon="-1.507630">
						<ele>8</ele>
						<time>2026-05-01T08:57:25Z</time>
					</trkpt>
					<trkpt lat="47.176530" lon="-1.507210">
						<ele>10</ele>
						<time>2026-05-01T08:57:32Z</time>
					</trkpt>
					<trkpt lat="47.176250" lon="-1.506750">
						<ele>10</ele>
						<time>2026-05-01T08:57:39Z</time>
					</trkpt>
					<trkpt lat="47.176080" lon="-1.506540">
						<ele>10</ele>
						<time>2026-05-01T08:57:43Z</time>
					</trkpt>
					<trkpt lat="47.175390" lon="-1.505510">
						<ele>10</ele>
						<time>2026-05-01T08:58:01Z</time>
					</trkpt>
					<trkpt lat="47.174330" lon="-1.503500">
						<ele>7</ele>
						<time>2026-05-01T08:58:31Z</time>
					</trkpt>
					<trkpt lat="47.172950" lon="-1.500380">
						<ele>6</ele>
						<time>2026-05-01T08:59:17Z</time>
					</trkpt>
					<trkpt lat="47.172790" lon="-1.500220">
						<ele>6</ele>
						<time>2026-05-01T08:59:20Z</time>
					</trkpt>
					<trkpt lat="47.171820" lon="-1.497550">
						<ele>7</ele>
						<time>2026-05-01T08:59:57Z</time>
					</trkpt>
					<trkpt lat="47.171230" lon="-1.495180">
						<ele>8</ele>
						<time>2026-05-01T09:00:27Z</time>
					</trkpt>
					<trkpt lat="47.171180" lon="-1.494810">
						<ele>8</ele>
						<time>2026-05-01T09:00:32Z</time>
					</trkpt>
					<trkpt lat="47.170900" lon="-1.493980">
						<ele>7</ele>
						<time>2026-05-01T09:00:43Z</time>
					</trkpt>
					<trkpt lat="47.170810" lon="-1.493840">
						<ele>7</ele>
						<time>2026-05-01T09:00:45Z</time>
					</trkpt>
					<trkpt lat="47.170060" lon="-1.491240">
						<ele>13</ele>
						<time>2026-05-01T09:01:19Z</time>
					</trkpt>
					<trkpt lat="47.169400" lon="-1.488750">
						<ele>14</ele>
						<time>2026-05-01T09:01:52Z</time>
					</trkpt>
					<trkpt lat="47.168800" lon="-1.486120">
						<ele>13</ele>
						<time>2026-05-01T09:02:25Z</time>
					</trkpt>
					<trkpt lat="47.168790" lon="-1.485610">
						<ele>12</ele>
						<time>2026-05-01T09:02:31Z</time>
					</trkpt>
					<trkpt lat="47.168850" lon="-1.485110">
						<ele>11</ele>
						<time>2026-05-01T09:02:38Z</time>
					</trkpt>
					<trkpt lat="47.169340" lon="-1.483260">
						<ele>12</ele>
						<time>2026-05-01T09:03:02Z</time>
					</trkpt>
					<trkpt lat="47.169380" lon="-1.482750">
						<ele>11</ele>
						<time>2026-05-01T09:03:08Z</time>
					</trkpt>
					<trkpt lat="47.169350" lon="-1.482510">
						<ele>11</ele>
						<time>2026-05-01T09:03:11Z</time>
					</trkpt>
					<trkpt lat="47.169230" lon="-1.482120">
						<ele>11</ele>
						<time>2026-05-01T09:03:16Z</time>
					</trkpt>
					<trkpt lat="47.169050" lon="-1.481810">
						<ele>10</ele>
						<time>2026-05-01T09:03:21Z</time>
					</trkpt>
					<trkpt lat="47.168560" lon="-1.480840">
						<ele>7</ele>
						<time>2026-05-01T09:03:35Z</time>
					</trkpt>
					<trkpt lat="47.168470" lon="-1.480880">
						<ele>6</ele>
						<time>2026-05-01T09:03:37Z</time>
					</trkpt>
					<trkpt lat="47.168260" lon="-1.480560">
						<ele>6</ele>
						<time>2026-05-01T09:03:43Z</time>
					</trkpt>
					<trkpt lat="47.168050" lon="-1.480080">
						<ele>9</ele>
						<time>2026-05-01T09:03:49Z</time>
					</trkpt>
					<trkpt lat="47.167790" lon="-1.480060">
						<ele>8</ele>
						<time>2026-05-01T09:03:54Z</time>
					</trkpt>
					<trkpt lat="47.167700" lon="-1.480020">
						<ele>8</ele>
						<time>2026-05-01T09:03:56Z</time>
					</trkpt>
					<trkpt lat="47.167400" lon="-1.480020">
						<ele>7</ele>
						<time>2026-05-01T09:04:01Z</time>
					</trkpt>
					<trkpt lat="47.166630" lon="-1.479850">
						<ele>9</ele>
						<time>2026-05-01T09:04:15Z</time>
					</trkpt>
					<trkpt lat="47.165740" lon="-1.479900">
						<ele>5</ele>
						<time>2026-05-01T09:04:31Z</time>
					</trkpt>
					<trkpt lat="47.165450" lon="-1.479940">
						<ele>5</ele>
						<time>2026-05-01T09:04:36Z</time>
					</trkpt>
					<trkpt lat="47.165210" lon="-1.479770">
						<ele>6</ele>
						<time>2026-05-01T09:04:41Z</time>
					</trkpt>
					<trkpt lat="47.165160" lon="-1.479600">
						<ele>6</ele>
						<time>2026-05-01T09:04:43Z</time>
					</trkpt>
					<trkpt lat="47.164800" lon="-1.479700">
						<ele>6</ele>
						<time>2026-05-01T09:04:49Z</time>
					</trkpt>
					<trkpt lat="47.164600" lon="-1.479820">
						<ele>6</ele>
						<time>2026-05-01T09:04:53Z</time>
					</trkpt>
					<trkpt lat="47.164880" lon="-1.481140">
						<ele>5</ele>
						<time>2026-05-01T09:05:10Z</time>
					</trkpt>
					<trkpt lat="47.165200" lon="-1.482400">
						<ele>8</ele>
						<time>2026-05-01T09:05:26Z</time>
					</trkpt>
					<trkpt lat="47.165200" lon="-1.482600">
						<ele>10</ele>
						<time>2026-05-01T09:05:29Z</time>
					</trkpt>
					<trkpt lat="47.165110" lon="-1.483170">
						<ele>12</ele>
						<time>2026-05-01T09:05:36Z</time>
					</trkpt>
					<trkpt lat="47.165080" lon="-1.483530">
						<ele>13</ele>
						<time>2026-05-01T09:05:40Z</time>
					</trkpt>
					<trkpt lat="47.165120" lon="-1.483850">
						<ele>14</ele>
						<time>2026-05-01T09:05:44Z</time>
					</trkpt>
					<trkpt lat="47.165050" lon="-1.483870">
						<ele>14</ele>
						<time>2026-05-01T09:05:45Z</time>
					</trkpt>
					<trkpt lat="47.164790" lon="-1.483830">
						<ele>14</ele>
						<time>2026-05-01T09:05:50Z</time>
					</trkpt>
					<trkpt lat="47.163950" lon="-1.483500">
						<ele>15</ele>
						<time>2026-05-01T09:06:06Z</time>
					</trkpt>
					<trkpt lat="47.163450" lon="-1.483270">
						<ele>15</ele>
						<time>2026-05-01T09:06:15Z</time>
					</trkpt>
					<trkpt lat="47.162280" lon="-1.482920">
						<ele>16</ele>
						<time>2026-05-01T09:06:36Z</time>
					</trkpt>
					<trkpt lat="47.161840" lon="-1.483890">
						<ele>19</ele>
						<time>2026-05-01T09:06:50Z</time>
					</trkpt>
					<trkpt lat="47.160820" lon="-1.485900">
						<ele>22</ele>
						<time>2026-05-01T09:07:21Z</time>
					</trkpt>
					<trkpt lat="47.160700" lon="-1.486050">
						<ele>22</ele>
						<time>2026-05-01T09:07:23Z</time>
					</trkpt>
					<trkpt lat="47.159880" lon="-1.486730">
						<ele>20</ele>
						<time>2026-05-01T09:07:40Z</time>
					</trkpt>
					<trkpt lat="47.159690" lon="-1.486950">
						<ele>20</ele>
						<time>2026-05-01T09:07:44Z</time>
					</trkpt>
					<trkpt lat="47.159490" lon="-1.487260">
						<ele>21</ele>
						<time>2026-05-01T09:07:50Z</time>
					</trkpt>
					<trkpt lat="47.159200" lon="-1.487930">
						<ele>20</ele>
						<time>2026-05-01T09:07:59Z</time>
					</trkpt>
					<trkpt lat="47.158850" lon="-1.488450">
						<ele>19</ele>
						<time>2026-05-01T09:08:08Z</time>
					</trkpt>
					<trkpt lat="47.158610" lon="-1.488710">
						<ele>18</ele>
						<time>2026-05-01T09:08:13Z</time>
					</trkpt>
					<trkpt lat="47.158290" lon="-1.488910">
						<ele>17</ele>
						<time>2026-05-01T09:08:19Z</time>
					</trkpt>
					<trkpt lat="47.157930" lon="-1.489060">
						<ele>19</ele>
						<time>2026-05-01T09:08:26Z</time>
					</trkpt>
					<trkpt lat="47.157590" lon="-1.489070">
						<ele>21</ele>
						<time>2026-05-01T09:08:32Z</time>
					</trkpt>
					<trkpt lat="47.156510" lon="-1.488950">
						<ele>24</ele>
						<time>2026-05-01T09:08:51Z</time>
					</trkpt>
					<trkpt lat="47.156250" lon="-1.488880">
						<ele>25</ele>
						<time>2026-05-01T09:08:56Z</time>
					</trkpt>
					<trkpt lat="47.155750" lon="-1.488530">
						<ele>25</ele>
						<time>2026-05-01T09:09:06Z</time>
					</trkpt>
					<trkpt lat="47.155660" lon="-1.488500">
						<ele>26</ele>
						<time>2026-05-01T09:09:08Z</time>
					</trkpt>
					<trkpt lat="47.155570" lon="-1.488510">
						<ele>26</ele>
						<time>2026-05-01T09:09:09Z</time>
					</trkpt>
					<trkpt lat="47.154950" lon="-1.489040">
						<ele>28</ele>
						<time>2026-05-01T09:09:22Z</time>
					</trkpt>
					<trkpt lat="47.154360" lon="-1.489490">
						<ele>26</ele>
						<time>2026-05-01T09:09:34Z</time>
					</trkpt>
					<trkpt lat="47.154000" lon="-1.489700">
						<ele>25</ele>
						<time>2026-05-01T09:09:41Z</time>
					</trkpt>
					<trkpt lat="47.152670" lon="-1.490290">
						<ele>26</ele>
						<time>2026-05-01T09:10:05Z</time>
					</trkpt>
					<trkpt lat="47.152350" lon="-1.490340">
						<ele>26</ele>
						<time>2026-05-01T09:10:11Z</time>
					</trkpt>
					<trkpt lat="47.150390" lon="-1.490370">
						<ele>32</ele>
						<time>2026-05-01T09:10:46Z</time>
					</trkpt>
					<trkpt lat="47.148860" lon="-1.490030">
						<ele>33</ele>
						<time>2026-05-01T09:11:14Z</time>
					</trkpt>
					<trkpt lat="47.148760" lon="-1.490070">
						<ele>33</ele>
						<time>2026-05-01T09:11:15Z</time>
					</trkpt>
					<trkpt lat="47.148530" lon="-1.490260">
						<ele>32</ele>
						<time>2026-05-01T09:11:20Z</time>
					</trkpt>
					<trkpt lat="47.148390" lon="-1.490340">
						<ele>32</ele>
						<time>2026-05-01T09:11:23Z</time>
					</trkpt>
					<trkpt lat="47.146760" lon="-1.489950">
						<ele>36</ele>
						<time>2026-05-01T09:11:52Z</time>
					</trkpt>
					<trkpt lat="47.146320" lon="-1.489710">
						<ele>36</ele>
						<time>2026-05-01T09:12:01Z</time>
					</trkpt>
					<trkpt lat="47.146180" lon="-1.489660">
						<ele>36</ele>
						<time>2026-05-01T09:12:03Z</time>
					</trkpt>
					<trkpt lat="47.145640" lon="-1.489650">
						<ele>36</ele>
						<time>2026-05-01T09:12:13Z</time>
					</trkpt>
					<trkpt lat="47.145630" lon="-1.488500">
						<ele>38</ele>
						<time>2026-05-01T09:12:27Z</time>
					</trkpt>
					<trkpt lat="47.145590" lon="-1.488240">
						<ele>38</ele>
						<time>2026-05-01T09:12:30Z</time>
					</trkpt>
					<trkpt lat="47.145390" lon="-1.487420">
						<ele>38</ele>
						<time>2026-05-01T09:12:40Z</time>
					</trkpt>
					<trkpt lat="47.145350" lon="-1.486910">
						<ele>38</ele>
						<time>2026-05-01T09:12:47Z</time>
					</trkpt>
					<trkpt lat="47.145270" lon="-1.486490">
						<ele>37</ele>
						<time>2026-05-01T09:12:52Z</time>
					</trkpt>
					<trkpt lat="47.144920" lon="-1.485300">
						<ele>37</ele>
						<time>2026-05-01T09:13:08Z</time>
					</trkpt>
					<trkpt lat="47.144750" lon="-1.484600">
						<ele>37</ele>
						<time>2026-05-01T09:13:17Z</time>
					</trkpt>
					<trkpt lat="47.144630" lon="-1.483760">
						<ele>35</ele>
						<time>2026-05-01T09:13:27Z</time>
					</trkpt>
					<trkpt lat="47.144480" lon="-1.481810">
						<ele>33</ele>
						<time>2026-05-01T09:13:51Z</time>
					</trkpt>
					<trkpt lat="47.144250" lon="-1.481070">
						<ele>34</ele>
						<time>2026-05-01T09:14:01Z</time>
					</trkpt>
					<trkpt lat="47.144060" lon="-1.480780">
						<ele>35</ele>
						<time>2026-05-01T09:14:05Z</time>
					</trkpt>
					<trkpt lat="47.143660" lon="-1.480520">
						<ele>36</ele>
						<time>2026-05-01T09:14:13Z</time>
					</trkpt>
					<trkpt lat="47.143360" lon="-1.480370">
						<ele>36</ele>
						<time>2026-05-01T09:14:19Z</time>
					</trkpt>
					<trkpt lat="47.143190" lon="-1.480360">
						<ele>36</ele>
						<time>2026-05-01T09:14:22Z</time>
					</trkpt>
					<trkpt lat="47.142220" lon="-1.480580">
						<ele>39</ele>
						<time>2026-05-01T09:14:39Z</time>
					</trkpt>
					<trkpt lat="47.142070" lon="-1.480240">
						<ele>41</ele>
						<time>2026-05-01T09:14:44Z</time>
					</trkpt>
					<trkpt lat="47.141660" lon="-1.479440">
						<ele>44</ele>
						<time>2026-05-01T09:14:56Z</time>
					</trkpt>
					<trkpt lat="47.141520" lon="-1.479300">
						<ele>44</ele>
						<time>2026-05-01T09:14:59Z</time>
					</trkpt>
					<trkpt lat="47.141340" lon="-1.478730">
						<ele>45</ele>
						<time>2026-05-01T09:15:07Z</time>
					</trkpt>
					<trkpt lat="47.141100" lon="-1.478230">
						<ele>45</ele>
						<time>2026-05-01T09:15:14Z</time>
					</trkpt>
					<trkpt lat="47.140990" lon="-1.478090">
						<ele>46</ele>
						<time>2026-05-01T09:15:17Z</time>
					</trkpt>
					<trkpt lat="47.140740" lon="-1.477940">
						<ele>47</ele>
						<time>2026-05-01T09:15:22Z</time>
					</trkpt>
					<trkpt lat="47.140470" lon="-1.477840">
						<ele>47</ele>
						<time>2026-05-01T09:15:27Z</time>
					</trkpt>
					<trkpt lat="47.140030" lon="-1.477740">
						<ele>48</ele>
						<time>2026-05-01T09:15:35Z</time>
					</trkpt>
					<trkpt lat="47.139390" lon="-1.477650">
						<ele>47</ele>
						<time>2026-05-01T09:15:46Z</time>
					</trkpt>
					<trkpt lat="47.139250" lon="-1.477650">
						<ele>47</ele>
						<time>2026-05-01T09:15:49Z</time>
					</trkpt>
					<trkpt lat="47.137850" lon="-1.472480">
						<ele>47</ele>
						<time>2026-05-01T09:16:56Z</time>
					</trkpt>
					<trkpt lat="47.137780" lon="-1.472060">
						<ele>47</ele>
						<time>2026-05-01T09:17:01Z</time>
					</trkpt>
					<trkpt lat="47.137760" lon="-1.471510">
						<ele>47</ele>
						<time>2026-05-01T09:17:08Z</time>
					</trkpt>
					<trkpt lat="47.137820" lon="-1.470530">
						<ele>48</ele>
						<time>2026-05-01T09:17:20Z</time>
					</trkpt>
					<trkpt lat="47.137810" lon="-1.470120">
						<ele>49</ele>
						<time>2026-05-01T09:17:25Z</time>
					</trkpt>
					<trkpt lat="47.137720" lon="-1.469000">
						<ele>49</ele>
						<time>2026-05-01T09:17:38Z</time>
					</trkpt>
					<trkpt lat="47.137230" lon="-1.466320">
						<ele>53</ele>
						<time>2026-05-01T09:18:12Z</time>
					</trkpt>
					<trkpt lat="47.137050" lon="-1.465650">
						<ele>54</ele>
						<time>2026-05-01T09:18:21Z</time>
					</trkpt>
					<trkpt lat="47.136670" lon="-1.464550">
						<ele>55</ele>
						<time>2026-05-01T09:18:36Z</time>
					</trkpt>
					<trkpt lat="47.136720" lon="-1.463500">
						<ele>54</ele>
						<time>2026-05-01T09:18:48Z</time>
					</trkpt>
					<trkpt lat="47.136620" lon="-1.463110">
						<ele>54</ele>
						<time>2026-05-01T09:18:53Z</time>
					</trkpt>
					<trkpt lat="47.136390" lon="-1.463130">
						<ele>54</ele>
						<time>2026-05-01T09:18:57Z</time>
					</trkpt>
					<trkpt lat="47.135920" lon="-1.463580">
						<ele>54</ele>
						<time>2026-05-01T09:19:07Z</time>
					</trkpt>
					<trkpt lat="47.135350" lon="-1.463970">
						<ele>53</ele>
						<time>2026-05-01T09:19:19Z</time>
					</trkpt>
					<trkpt lat="47.135060" lon="-1.464140">
						<ele>53</ele>
						<time>2026-05-01T09:19:24Z</time>
					</trkpt>
					<trkpt lat="47.134770" lon="-1.464380">
						<ele>52</ele>
						<time>2026-05-01T09:19:30Z</time>
					</trkpt>
					<trkpt lat="47.134360" lon="-1.464420">
						<ele>51</ele>
						<time>2026-05-01T09:19:37Z</time>
					</trkpt>
					<trkpt lat="47.133960" lon="-1.464230">
						<ele>51</ele>
						<time>2026-05-01T09:19:45Z</time>
					</trkpt>
					<trkpt lat="47.133480" lon="-1.464090">
						<ele>52</ele>
						<time>2026-05-01T09:19:54Z</time>
					</trkpt>
					<trkpt lat="47.132530" lon="-1.463890">
						<ele>52</ele>
						<time>2026-05-01T09:20:11Z</time>
					</trkpt>
					<trkpt lat="47.132040" lon="-1.463860">
						<ele>52</ele>
						<time>2026-05-01T09:20:19Z</time>
					</trkpt>
					<trkpt lat="47.131180" lon="-1.463920">
						<ele>52</ele>
						<time>2026-05-01T09:20:35Z</time>
					</trkpt>
					<trkpt lat="47.130580" lon="-1.464050">
						<ele>53</ele>
						<time>2026-05-01T09:20:46Z</time>
					</trkpt>
					<trkpt lat="47.129450" lon="-1.464460">
						<ele>54</ele>
						<time>2026-05-01T09:21:06Z</time>
					</trkpt>
					<trkpt lat="47.128870" lon="-1.464790">
						<ele>54</ele>
						<time>2026-05-01T09:21:17Z</time>
					</trkpt>
					<trkpt lat="47.128080" lon="-1.464490">
						<ele>55</ele>
						<time>2026-05-01T09:21:32Z</time>
					</trkpt>
					<trkpt lat="47.127470" lon="-1.464610">
						<ele>53</ele>
						<time>2026-05-01T09:21:43Z</time>
					</trkpt>
					<trkpt lat="47.127030" lon="-1.465150">
						<ele>52</ele>
						<time>2026-05-01T09:21:53Z</time>
					</trkpt>
					<trkpt lat="47.126150" lon="-1.465430">
						<ele>50</ele>
						<time>2026-05-01T09:22:09Z</time>
					</trkpt>
					<trkpt lat="47.125880" lon="-1.464210">
						<ele>48</ele>
						<time>2026-05-01T09:22:25Z</time>
					</trkpt>
					<trkpt lat="47.126090" lon="-1.461420">
						<ele>51</ele>
						<time>2026-05-01T09:22:59Z</time>
					</trkpt>
					<trkpt lat="47.125890" lon="-1.458610">
						<ele>52</ele>
						<time>2026-05-01T09:23:33Z</time>
					</trkpt>
					<trkpt lat="47.125420" lon="-1.457530">
						<ele>52</ele>
						<time>2026-05-01T09:23:48Z</time>
					</trkpt>
					<trkpt lat="47.125130" lon="-1.455520">
						<ele>54</ele>
						<time>2026-05-01T09:24:13Z</time>
					</trkpt>
					<trkpt lat="47.125010" lon="-1.455020">
						<ele>54</ele>
						<time>2026-05-01T09:24:20Z</time>
					</trkpt>
					<trkpt lat="47.124780" lon="-1.454380">
						<ele>53</ele>
						<time>2026-05-01T09:24:28Z</time>
					</trkpt>
					<trkpt lat="47.124630" lon="-1.452830">
						<ele>51</ele>
						<time>2026-05-01T09:24:47Z</time>
					</trkpt>
					<trkpt lat="47.125960" lon="-1.452150">
						<ele>51</ele>
						<time>2026-05-01T09:25:12Z</time>
					</trkpt>
					<trkpt lat="47.126420" lon="-1.451780">
						<ele>51</ele>
						<time>2026-05-01T09:25:22Z</time>
					</trkpt>
					<trkpt lat="47.126820" lon="-1.450410">
						<ele>50</ele>
						<time>2026-05-01T09:25:40Z</time>
					</trkpt>
					<trkpt lat="47.127890" lon="-1.446350">
						<ele>49</ele>
						<time>2026-05-01T09:26:32Z</time>
					</trkpt>
					<trkpt lat="47.129210" lon="-1.444140">
						<ele>53</ele>
						<time>2026-05-01T09:27:08Z</time>
					</trkpt>
					<trkpt lat="47.129850" lon="-1.443740">
						<ele>51</ele>
						<time>2026-05-01T09:27:20Z</time>
					</trkpt>
					<trkpt lat="47.130210" lon="-1.443460">
						<ele>50</ele>
						<time>2026-05-01T09:27:28Z</time>
					</trkpt>
					<trkpt lat="47.130340" lon="-1.443230">
						<ele>50</ele>
						<time>2026-05-01T09:27:31Z</time>
					</trkpt>
					<trkpt lat="47.130400" lon="-1.443030">
						<ele>50</ele>
						<time>2026-05-01T09:27:34Z</time>
					</trkpt>
					<trkpt lat="47.130730" lon="-1.441450">
						<ele>51</ele>
						<time>2026-05-01T09:27:54Z</time>
					</trkpt>
					<trkpt lat="47.131200" lon="-1.439540">
						<ele>51</ele>
						<time>2026-05-01T09:28:18Z</time>
					</trkpt>
					<trkpt lat="47.132020" lon="-1.438000">
						<ele>50</ele>
						<time>2026-05-01T09:28:42Z</time>
					</trkpt>
					<trkpt lat="47.132760" lon="-1.437180">
						<ele>50</ele>
						<time>2026-05-01T09:28:59Z</time>
					</trkpt>
					<trkpt lat="47.133310" lon="-1.436750">
						<ele>50</ele>
						<time>2026-05-01T09:29:10Z</time>
					</trkpt>
					<trkpt lat="47.134140" lon="-1.437630">
						<ele>50</ele>
						<time>2026-05-01T09:29:28Z</time>
					</trkpt>
					<trkpt lat="47.134690" lon="-1.437250">
						<ele>49</ele>
						<time>2026-05-01T09:29:39Z</time>
					</trkpt>
					<trkpt lat="47.134880" lon="-1.437050">
						<ele>49</ele>
						<time>2026-05-01T09:29:43Z</time>
					</trkpt>
					<trkpt lat="47.135270" lon="-1.436310">
						<ele>49</ele>
						<time>2026-05-01T09:29:54Z</time>
					</trkpt>
					<trkpt lat="47.136080" lon="-1.435840">
						<ele>46</ele>
						<time>2026-05-01T09:30:10Z</time>
					</trkpt>
					<trkpt lat="47.136320" lon="-1.435580">
						<ele>44</ele>
						<time>2026-05-01T09:30:15Z</time>
					</trkpt>
					<trkpt lat="47.136060" lon="-1.435200">
						<ele>45</ele>
						<time>2026-05-01T09:30:22Z</time>
					</trkpt>
					<trkpt lat="47.135630" lon="-1.434650">
						<ele>45</ele>
						<time>2026-05-01T09:30:32Z</time>
					</trkpt>
					<trkpt lat="47.134970" lon="-1.432940">
						<ele>44</ele>
						<time>2026-05-01T09:30:55Z</time>
					</trkpt>
					<trkpt lat="47.135790" lon="-1.431980">
						<ele>43</ele>
						<time>2026-05-01T09:31:14Z</time>
					</trkpt>
					<trkpt lat="47.136620" lon="-1.431140">
						<ele>42</ele>
						<time>2026-05-01T09:31:32Z</time>
					</trkpt>
					<trkpt lat="47.136970" lon="-1.430710">
						<ele>41</ele>
						<time>2026-05-01T09:31:40Z</time>
					</trkpt>
					<trkpt lat="47.137340" lon="-1.429980">
						<ele>41</ele>
						<time>2026-05-01T09:31:51Z</time>
					</trkpt>
					<trkpt lat="47.137470" lon="-1.429660">
						<ele>41</ele>
						<time>2026-05-01T09:31:56Z</time>
					</trkpt>
					<trkpt lat="47.137560" lon="-1.429270">
						<ele>40</ele>
						<time>2026-05-01T09:32:01Z</time>
					</trkpt>
					<trkpt lat="47.137890" lon="-1.428440">
						<ele>38</ele>
						<time>2026-05-01T09:32:12Z</time>
					</trkpt>
					<trkpt lat="47.138080" lon="-1.427750">
						<ele>36</ele>
						<time>2026-05-01T09:32:21Z</time>
					</trkpt>
					<trkpt lat="47.138230" lon="-1.426960">
						<ele>33</ele>
						<time>2026-05-01T09:32:31Z</time>
					</trkpt>
					<trkpt lat="47.138420" lon="-1.426380">
						<ele>31</ele>
						<time>2026-05-01T09:32:39Z</time>
					</trkpt>
					<trkpt lat="47.138510" lon="-1.425990">
						<ele>29</ele>
						<time>2026-05-01T09:32:44Z</time>
					</trkpt>
					<trkpt lat="47.138600" lon="-1.425760">
						<ele>28</ele>
						<time>2026-05-01T09:32:47Z</time>
					</trkpt>
					<trkpt lat="47.138740" lon="-1.424920">
						<ele>24</ele>
						<time>2026-05-01T09:32:58Z</time>
					</trkpt>
					<trkpt lat="47.138670" lon="-1.424230">
						<ele>23</ele>
						<time>2026-05-01T09:33:06Z</time>
					</trkpt>
					<trkpt lat="47.138430" lon="-1.422560">
						<ele>18</ele>
						<time>2026-05-01T09:33:27Z</time>
					</trkpt>
					<trkpt lat="47.138050" lon="-1.420460">
						<ele>9</ele>
						<time>2026-05-01T09:33:53Z</time>
					</trkpt>
					<trkpt lat="47.139420" lon="-1.418070">
						<ele>10</ele>
						<time>2026-05-01T09:34:31Z</time>
					</trkpt>
					<trkpt lat="47.138770" lon="-1.417000">
						<ele>16</ele>
						<time>2026-05-01T09:34:48Z</time>
					</trkpt>
					<trkpt lat="47.138450" lon="-1.416290">
						<ele>22</ele>
						<time>2026-05-01T09:34:59Z</time>
					</trkpt>
					<trkpt lat="47.138520" lon="-1.415110">
						<ele>24</ele>
						<time>2026-05-01T09:35:13Z</time>
					</trkpt>
					<trkpt lat="47.138100" lon="-1.413910">
						<ele>26</ele>
						<time>2026-05-01T09:35:29Z</time>
					</trkpt>
					<trkpt lat="47.135530" lon="-1.412540">
						<ele>38</ele>
						<time>2026-05-01T09:36:18Z</time>
					</trkpt>
					<trkpt lat="47.133900" lon="-1.411400">
						<ele>40</ele>
						<time>2026-05-01T09:36:50Z</time>
					</trkpt>
					<trkpt lat="47.132560" lon="-1.410160">
						<ele>37</ele>
						<time>2026-05-01T09:37:18Z</time>
					</trkpt>
					<trkpt lat="47.132230" lon="-1.410110">
						<ele>37</ele>
						<time>2026-05-01T09:37:24Z</time>
					</trkpt>
					<trkpt lat="47.131860" lon="-1.409980">
						<ele>37</ele>
						<time>2026-05-01T09:37:31Z</time>
					</trkpt>
					<trkpt lat="47.132010" lon="-1.408100">
						<ele>40</ele>
						<time>2026-05-01T09:37:54Z</time>
					</trkpt>
					<trkpt lat="47.131760" lon="-1.407170">
						<ele>39</ele>
						<time>2026-05-01T09:38:06Z</time>
					</trkpt>
					<trkpt lat="47.132460" lon="-1.405460">
						<ele>42</ele>
						<time>2026-05-01T09:38:30Z</time>
					</trkpt>
					<trkpt lat="47.132300" lon="-1.404020">
						<ele>43</ele>
						<time>2026-05-01T09:38:48Z</time>
					</trkpt>
					<trkpt lat="47.132020" lon="-1.402600">
						<ele>41</ele>
						<time>2026-05-01T09:39:06Z</time>
					</trkpt>
					<trkpt lat="47.131380" lon="-1.400220">
						<ele>42</ele>
						<time>2026-05-01T09:39:37Z</time>
					</trkpt>
					<trkpt lat="47.133720" lon="-1.401850">
						<ele>43</ele>
						<time>2026-05-01T09:40:23Z</time>
					</trkpt>
					<trkpt lat="47.134330" lon="-1.401830">
						<ele>43</ele>
						<time>2026-05-01T09:40:34Z</time>
					</trkpt>
					<trkpt lat="47.136450" lon="-1.402840">
						<ele>43</ele>
						<time>2026-05-01T09:41:13Z</time>
					</trkpt>
					<trkpt lat="47.139030" lon="-1.402490">
						<ele>41</ele>
						<time>2026-05-01T09:41:59Z</time>
					</trkpt>
					<trkpt lat="47.139610" lon="-1.402580">
						<ele>42</ele>
						<time>2026-05-01T09:42:10Z</time>
					</trkpt>
					<trkpt lat="47.140260" lon="-1.403180">
						<ele>42</ele>
						<time>2026-05-01T09:42:23Z</time>
					</trkpt>
					<trkpt lat="47.140700" lon="-1.404530">
						<ele>41</ele>
						<time>2026-05-01T09:42:41Z</time>
					</trkpt>
					<trkpt lat="47.141850" lon="-1.404120">
						<ele>42</ele>
						<time>2026-05-01T09:43:03Z</time>
					</trkpt>
					<trkpt lat="47.142120" lon="-1.404090">
						<ele>42</ele>
						<time>2026-05-01T09:43:07Z</time>
					</trkpt>
					<trkpt lat="47.142860" lon="-1.404100">
						<ele>42</ele>
						<time>2026-05-01T09:43:20Z</time>
					</trkpt>
					<trkpt lat="47.142970" lon="-1.404080">
						<ele>42</ele>
						<time>2026-05-01T09:43:22Z</time>
					</trkpt>
					<trkpt lat="47.144340" lon="-1.403370">
						<ele>38</ele>
						<time>2026-05-01T09:43:48Z</time>
					</trkpt>
					<trkpt lat="47.144570" lon="-1.403210">
						<ele>37</ele>
						<time>2026-05-01T09:43:53Z</time>
					</trkpt>
					<trkpt lat="47.145900" lon="-1.401920">
						<ele>35</ele>
						<time>2026-05-01T09:44:21Z</time>
					</trkpt>
					<trkpt lat="47.146130" lon="-1.401790">
						<ele>34</ele>
						<time>2026-05-01T09:44:26Z</time>
					</trkpt>
					<trkpt lat="47.146550" lon="-1.401620">
						<ele>31</ele>
						<time>2026-05-01T09:44:33Z</time>
					</trkpt>
					<trkpt lat="47.146920" lon="-1.401380">
						<ele>27</ele>
						<time>2026-05-01T09:44:41Z</time>
					</trkpt>
					<trkpt lat="47.147680" lon="-1.400550">
						<ele>18</ele>
						<time>2026-05-01T09:44:57Z</time>
					</trkpt>
					<trkpt lat="47.148310" lon="-1.399770">
						<ele>12</ele>
						<time>2026-05-01T09:45:12Z</time>
					</trkpt>
					<trkpt lat="47.148510" lon="-1.399590">
						<ele>11</ele>
						<time>2026-05-01T09:45:16Z</time>
					</trkpt>
					<trkpt lat="47.148770" lon="-1.399490">
						<ele>9</ele>
						<time>2026-05-01T09:45:21Z</time>
					</trkpt>
					<trkpt lat="47.149870" lon="-1.399650">
						<ele>14</ele>
						<time>2026-05-01T09:45:41Z</time>
					</trkpt>
					<trkpt lat="47.149980" lon="-1.399720">
						<ele>15</ele>
						<time>2026-05-01T09:45:43Z</time>
					</trkpt>
					<trkpt lat="47.150110" lon="-1.399970">
						<ele>18</ele>
						<time>2026-05-01T09:45:47Z</time>
					</trkpt>
					<trkpt lat="47.150150" lon="-1.400160">
						<ele>19</ele>
						<time>2026-05-01T09:45:49Z</time>
					</trkpt>
					<trkpt lat="47.150150" lon="-1.400700">
						<ele>17</ele>
						<time>2026-05-01T09:45:56Z</time>
					</trkpt>
					<trkpt lat="47.150190" lon="-1.400960">
						<ele>17</ele>
						<time>2026-05-01T09:45:59Z</time>
					</trkpt>
					<trkpt lat="47.150290" lon="-1.401190">
						<ele>19</ele>
						<time>2026-05-01T09:46:02Z</time>
					</trkpt>
					<trkpt lat="47.150590" lon="-1.401650">
						<ele>22</ele>
						<time>2026-05-01T09:46:10Z</time>
					</trkpt>
					<trkpt lat="47.150670" lon="-1.401820">
						<ele>23</ele>
						<time>2026-05-01T09:46:12Z</time>
					</trkpt>
					<trkpt lat="47.150770" lon="-1.402080">
						<ele>24</ele>
						<time>2026-05-01T09:46:16Z</time>
					</trkpt>
					<trkpt lat="47.150830" lon="-1.402390">
						<ele>25</ele>
						<time>2026-05-01T09:46:20Z</time>
					</trkpt>
					<trkpt lat="47.151130" lon="-1.403250">
						<ele>26</ele>
						<time>2026-05-01T09:46:31Z</time>
					</trkpt>
					<trkpt lat="47.151460" lon="-1.403520">
						<ele>27</ele>
						<time>2026-05-01T09:46:38Z</time>
					</trkpt>
					<trkpt lat="47.151930" lon="-1.403480">
						<ele>27</ele>
						<time>2026-05-01T09:46:47Z</time>
					</trkpt>
					<trkpt lat="47.152190" lon="-1.402860">
						<ele>29</ele>
						<time>2026-05-01T09:46:55Z</time>
					</trkpt>
					<trkpt lat="47.152340" lon="-1.401980">
						<ele>33</ele>
						<time>2026-05-01T09:47:06Z</time>
					</trkpt>
					<trkpt lat="47.152510" lon="-1.401230">
						<ele>35</ele>
						<time>2026-05-01T09:47:16Z</time>
					</trkpt>
					<trkpt lat="47.152620" lon="-1.400990">
						<ele>35</ele>
						<time>2026-05-01T09:47:19Z</time>
					</trkpt>
					<trkpt lat="47.152900" lon="-1.400640">
						<ele>36</ele>
						<time>2026-05-01T09:47:26Z</time>
					</trkpt>
					<trkpt lat="47.153850" lon="-1.400130">
						<ele>35</ele>
						<time>2026-05-01T09:47:44Z</time>
					</trkpt>
					<trkpt lat="47.153990" lon="-1.400000">
						<ele>35</ele>
						<time>2026-05-01T09:47:47Z</time>
					</trkpt>
					<trkpt lat="47.154750" lon="-1.399750">
						<ele>33</ele>
						<time>2026-05-01T09:48:01Z</time>
					</trkpt>
					<trkpt lat="47.154930" lon="-1.400420">
						<ele>31</ele>
						<time>2026-05-01T09:48:09Z</time>
					</trkpt>
					<trkpt lat="47.154990" lon="-1.400500">
						<ele>31</ele>
						<time>2026-05-01T09:48:11Z</time>
					</trkpt>
					<trkpt lat="47.155150" lon="-1.400570">
						<ele>31</ele>
						<time>2026-05-01T09:48:14Z</time>
					</trkpt>
					<trkpt lat="47.155190" lon="-1.400630">
						<ele>31</ele>
						<time>2026-05-01T09:48:15Z</time>
					</trkpt>
					<trkpt lat="47.155610" lon="-1.401440">
						<ele>32</ele>
						<time>2026-05-01T09:48:27Z</time>
					</trkpt>
					<trkpt lat="47.155730" lon="-1.401830">
						<ele>33</ele>
						<time>2026-05-01T09:48:32Z</time>
					</trkpt>
					<trkpt lat="47.155760" lon="-1.402090">
						<ele>34</ele>
						<time>2026-05-01T09:48:36Z</time>
					</trkpt>
					<trkpt lat="47.155780" lon="-1.402860">
						<ele>36</ele>
						<time>2026-05-01T09:48:45Z</time>
					</trkpt>
					<trkpt lat="47.155720" lon="-1.403810">
						<ele>38</ele>
						<time>2026-05-01T09:48:56Z</time>
					</trkpt>
					<trkpt lat="47.155630" lon="-1.406670">
						<ele>42</ele>
						<time>2026-05-01T09:49:31Z</time>
					</trkpt>
					<trkpt lat="47.155640" lon="-1.406940">
						<ele>41</ele>
						<time>2026-05-01T09:49:34Z</time>
					</trkpt>
					<trkpt lat="47.155720" lon="-1.407430">
						<ele>41</ele>
						<time>2026-05-01T09:49:40Z</time>
					</trkpt>
					<trkpt lat="47.156760" lon="-1.411720">
						<ele>42</ele>
						<time>2026-05-01T09:50:36Z</time>
					</trkpt>
					<trkpt lat="47.157060" lon="-1.412750">
						<ele>43</ele>
						<time>2026-05-01T09:50:49Z</time>
					</trkpt>
					<trkpt lat="47.157390" lon="-1.413660">
						<ele>45</ele>
						<time>2026-05-01T09:51:02Z</time>
					</trkpt>
					<trkpt lat="47.157530" lon="-1.414160">
						<ele>45</ele>
						<time>2026-05-01T09:51:08Z</time>
					</trkpt>
					<trkpt lat="47.157650" lon="-1.414450">
						<ele>45</ele>
						<time>2026-05-01T09:51:12Z</time>
					</trkpt>
					<trkpt lat="47.157700" lon="-1.414680">
						<ele>45</ele>
						<time>2026-05-01T09:51:15Z</time>
					</trkpt>
					<trkpt lat="47.157790" lon="-1.414870">
						<ele>45</ele>
						<time>2026-05-01T09:51:18Z</time>
					</trkpt>
					<trkpt lat="47.157830" lon="-1.415110">
						<ele>45</ele>
						<time>2026-05-01T09:51:21Z</time>
					</trkpt>
					<trkpt lat="47.158210" lon="-1.414980">
						<ele>46</ele>
						<time>2026-05-01T09:51:28Z</time>
					</trkpt>
					<trkpt lat="47.159900" lon="-1.414770">
						<ele>49</ele>
						<time>2026-05-01T09:51:58Z</time>
					</trkpt>
					<trkpt lat="47.160490" lon="-1.414750">
						<ele>49</ele>
						<time>2026-05-01T09:52:09Z</time>
					</trkpt>
					<trkpt lat="47.161540" lon="-1.414820">
						<ele>47</ele>
						<time>2026-05-01T09:52:27Z</time>
					</trkpt>
					<trkpt lat="47.161910" lon="-1.414810">
						<ele>46</ele>
						<time>2026-05-01T09:52:34Z</time>
					</trkpt>
					<trkpt lat="47.162160" lon="-1.414740">
						<ele>46</ele>
						<time>2026-05-01T09:52:38Z</time>
					</trkpt>
					<trkpt lat="47.162760" lon="-1.414500">
						<ele>45</ele>
						<time>2026-05-01T09:52:49Z</time>
					</trkpt>
					<trkpt lat="47.162990" lon="-1.414440">
						<ele>44</ele>
						<time>2026-05-01T09:52:54Z</time>
					</trkpt>
					<trkpt lat="47.165890" lon="-1.414310">
						<ele>40</ele>
						<time>2026-05-01T09:53:45Z</time>
					</trkpt>
					<trkpt lat="47.166200" lon="-1.414190">
						<ele>40</ele>
						<time>2026-05-01T09:53:51Z</time>
					</trkpt>
					<trkpt lat="47.166650" lon="-1.413970">
						<ele>38</ele>
						<time>2026-05-01T09:53:59Z</time>
					</trkpt>
					<trkpt lat="47.167400" lon="-1.413550">
						<ele>38</ele>
						<time>2026-05-01T09:54:14Z</time>
					</trkpt>
					<trkpt lat="47.167940" lon="-1.413310">
						<ele>36</ele>
						<time>2026-05-01T09:54:24Z</time>
					</trkpt>
					<trkpt lat="47.168190" lon="-1.413310">
						<ele>35</ele>
						<time>2026-05-01T09:54:28Z</time>
					</trkpt>
					<trkpt lat="47.168520" lon="-1.413370">
						<ele>33</ele>
						<time>2026-05-01T09:54:34Z</time>
					</trkpt>
					<trkpt lat="47.168750" lon="-1.413500">
						<ele>32</ele>
						<time>2026-05-01T09:54:38Z</time>
					</trkpt>
					<trkpt lat="47.168990" lon="-1.413570">
						<ele>31</ele>
						<time>2026-05-01T09:54:43Z</time>
					</trkpt>
					<trkpt lat="47.168990" lon="-1.414060">
						<ele>30</ele>
						<time>2026-05-01T09:54:49Z</time>
					</trkpt>
					<trkpt lat="47.169210" lon="-1.414680">
						<ele>29</ele>
						<time>2026-05-01T09:54:57Z</time>
					</trkpt>
					<trkpt lat="47.169540" lon="-1.416210">
						<ele>25</ele>
						<time>2026-05-01T09:55:17Z</time>
					</trkpt>
					<trkpt lat="47.169800" lon="-1.417710">
						<ele>22</ele>
						<time>2026-05-01T09:55:35Z</time>
					</trkpt>
					<trkpt lat="47.170040" lon="-1.418330">
						<ele>22</ele>
						<time>2026-05-01T09:55:44Z</time>
					</trkpt>
					<trkpt lat="47.170650" lon="-1.419210">
						<ele>18</ele>
						<time>2026-05-01T09:55:59Z</time>
					</trkpt>
					<trkpt lat="47.171050" lon="-1.419480">
						<ele>18</ele>
						<time>2026-05-01T09:56:07Z</time>
					</trkpt>
					<trkpt lat="47.171520" lon="-1.419960">
						<ele>19</ele>
						<time>2026-05-01T09:56:17Z</time>
					</trkpt>
					<trkpt lat="47.171910" lon="-1.420300">
						<ele>19</ele>
						<time>2026-05-01T09:56:25Z</time>
					</trkpt>
					<trkpt lat="47.172430" lon="-1.420490">
						<ele>18</ele>
						<time>2026-05-01T09:56:35Z</time>
					</trkpt>
					<trkpt lat="47.172610" lon="-1.420650">
						<ele>18</ele>
						<time>2026-05-01T09:56:39Z</time>
					</trkpt>
					<trkpt lat="47.173170" lon="-1.421520">
						<ele>20</ele>
						<time>2026-05-01T09:56:53Z</time>
					</trkpt>
					<trkpt lat="47.173290" lon="-1.421840">
						<ele>20</ele>
						<time>2026-05-01T09:56:57Z</time>
					</trkpt>
					<trkpt lat="47.173310" lon="-1.421960">
						<ele>20</ele>
						<time>2026-05-01T09:56:59Z</time>
					</trkpt>
					<trkpt lat="47.173290" lon="-1.422330">
						<ele>20</ele>
						<time>2026-05-01T09:57:03Z</time>
					</trkpt>
					<trkpt lat="47.173010" lon="-1.423980">
						<ele>24</ele>
						<time>2026-05-01T09:57:24Z</time>
					</trkpt>
					<trkpt lat="47.173110" lon="-1.424300">
						<ele>25</ele>
						<time>2026-05-01T09:57:28Z</time>
					</trkpt>
					<trkpt lat="47.173170" lon="-1.424730">
						<ele>26</ele>
						<time>2026-05-01T09:57:34Z</time>
					</trkpt>
					<trkpt lat="47.173090" lon="-1.425060">
						<ele>26</ele>
						<time>2026-05-01T09:57:38Z</time>
					</trkpt>
					<trkpt lat="47.173120" lon="-1.425350">
						<ele>26</ele>
						<time>2026-05-01T09:57:41Z</time>
					</trkpt>
					<trkpt lat="47.173280" lon="-1.425700">
						<ele>26</ele>
						<time>2026-05-01T09:57:46Z</time>
					</trkpt>
					<trkpt lat="47.173390" lon="-1.425870">
						<ele>26</ele>
						<time>2026-05-01T09:57:49Z</time>
					</trkpt>
					<trkpt lat="47.173710" lon="-1.426260">
						<ele>24</ele>
						<time>2026-05-01T09:57:57Z</time>
					</trkpt>
					<trkpt lat="47.174000" lon="-1.426750">
						<ele>23</ele>
						<time>2026-05-01T09:58:05Z</time>
					</trkpt>
					<trkpt lat="47.174210" lon="-1.427200">
						<ele>23</ele>
						<time>2026-05-01T09:58:11Z</time>
					</trkpt>
					<trkpt lat="47.174530" lon="-1.427780">
						<ele>22</ele>
						<time>2026-05-01T09:58:20Z</time>
					</trkpt>
					<trkpt lat="47.174820" lon="-1.428200">
						<ele>21</ele>
						<time>2026-05-01T09:58:27Z</time>
					</trkpt>
					<trkpt lat="47.175310" lon="-1.428730">
						<ele>22</ele>
						<time>2026-05-01T09:58:38Z</time>
					</trkpt>
					<trkpt lat="47.175830" lon="-1.429040">
						<ele>24</ele>
						<time>2026-05-01T09:58:48Z</time>
					</trkpt>
					<trkpt lat="47.176710" lon="-1.429400">
						<ele>27</ele>
						<time>2026-05-01T09:59:04Z</time>
					</trkpt>
					<trkpt lat="47.176820" lon="-1.429550">
						<ele>27</ele>
						<time>2026-05-01T09:59:07Z</time>
					</trkpt>
					<trkpt lat="47.176840" lon="-1.429760">
						<ele>28</ele>
						<time>2026-05-01T09:59:10Z</time>
					</trkpt>
					<trkpt lat="47.176720" lon="-1.431130">
						<ele>29</ele>
						<time>2026-05-01T09:59:26Z</time>
					</trkpt>
					<trkpt lat="47.176670" lon="-1.431420">
						<ele>28</ele>
						<time>2026-05-01T09:59:30Z</time>
					</trkpt>
					<trkpt lat="47.176590" lon="-1.431650">
						<ele>28</ele>
						<time>2026-05-01T09:59:33Z</time>
					</trkpt>
					<trkpt lat="47.176550" lon="-1.433440">
						<ele>27</ele>
						<time>2026-05-01T09:59:55Z</time>
					</trkpt>
					<trkpt lat="47.176480" lon="-1.434500">
						<ele>26</ele>
						<time>2026-05-01T10:00:08Z</time>
					</trkpt>
					<trkpt lat="47.176510" lon="-1.435580">
						<ele>28</ele>
						<time>2026-05-01T10:00:21Z</time>
					</trkpt>
					<trkpt lat="47.176640" lon="-1.436940">
						<ele>29</ele>
						<time>2026-05-01T10:00:37Z</time>
					</trkpt>
					<trkpt lat="47.176590" lon="-1.437210">
						<ele>29</ele>
						<time>2026-05-01T10:00:41Z</time>
					</trkpt>
					<trkpt lat="47.176010" lon="-1.439010">
						<ele>29</ele>
						<time>2026-05-01T10:01:05Z</time>
					</trkpt>
					<trkpt lat="47.175890" lon="-1.439340">
						<ele>29</ele>
						<time>2026-05-01T10:01:09Z</time>
					</trkpt>
					<trkpt lat="47.175700" lon="-1.439570">
						<ele>30</ele>
						<time>2026-05-01T10:01:14Z</time>
					</trkpt>
					<trkpt lat="47.175630" lon="-1.439760">
						<ele>30</ele>
						<time>2026-05-01T10:01:16Z</time>
					</trkpt>
					<trkpt lat="47.175450" lon="-1.440460">
						<ele>31</ele>
						<time>2026-05-01T10:01:25Z</time>
					</trkpt>
					<trkpt lat="47.175180" lon="-1.441070">
						<ele>32</ele>
						<time>2026-05-01T10:01:34Z</time>
					</trkpt>
					<trkpt lat="47.175140" lon="-1.441260">
						<ele>32</ele>
						<time>2026-05-01T10:01:37Z</time>
					</trkpt>
					<trkpt lat="47.175110" lon="-1.441890">
						<ele>33</ele>
						<time>2026-05-01T10:01:44Z</time>
					</trkpt>
					<trkpt lat="47.175130" lon="-1.442040">
						<ele>33</ele>
						<time>2026-05-01T10:01:46Z</time>
					</trkpt>
					<trkpt lat="47.175310" lon="-1.442630">
						<ele>33</ele>
						<time>2026-05-01T10:01:54Z</time>
					</trkpt>
					<trkpt lat="47.175360" lon="-1.442880">
						<ele>33</ele>
						<time>2026-05-01T10:01:57Z</time>
					</trkpt>
					<trkpt lat="47.175330" lon="-1.443390">
						<ele>34</ele>
						<time>2026-05-01T10:02:03Z</time>
					</trkpt>
					<trkpt lat="47.175250" lon="-1.443920">
						<ele>35</ele>
						<time>2026-05-01T10:02:10Z</time>
					</trkpt>
					<trkpt lat="47.175210" lon="-1.444780">
						<ele>35</ele>
						<time>2026-05-01T10:02:20Z</time>
					</trkpt>
					<trkpt lat="47.175160" lon="-1.445070">
						<ele>35</ele>
						<time>2026-05-01T10:02:24Z</time>
					</trkpt>
					<trkpt lat="47.174980" lon="-1.445570">
						<ele>34</ele>
						<time>2026-05-01T10:02:31Z</time>
					</trkpt>
					<trkpt lat="47.174870" lon="-1.445990">
						<ele>33</ele>
						<time>2026-05-01T10:02:36Z</time>
					</trkpt>
					<trkpt lat="47.174770" lon="-1.447160">
						<ele>35</ele>
						<time>2026-05-01T10:02:50Z</time>
					</trkpt>
					<trkpt lat="47.174640" lon="-1.447570">
						<ele>35</ele>
						<time>2026-05-01T10:02:56Z</time>
					</trkpt>
					<trkpt lat="47.174330" lon="-1.448320">
						<ele>35</ele>
						<time>2026-05-01T10:03:07Z</time>
					</trkpt>
					<trkpt lat="47.174320" lon="-1.448440">
						<ele>34</ele>
						<time>2026-05-01T10:03:08Z</time>
					</trkpt>
					<trkpt lat="47.174350" lon="-1.448550">
						<ele>34</ele>
						<time>2026-05-01T10:03:09Z</time>
					</trkpt>
					<trkpt lat="47.174150" lon="-1.448850">
						<ele>33</ele>
						<time>2026-05-01T10:03:15Z</time>
					</trkpt>
					<trkpt lat="47.174000" lon="-1.449200">
						<ele>32</ele>
						<time>2026-05-01T10:03:20Z</time>
					</trkpt>
					<trkpt lat="47.173420" lon="-1.451060">
						<ele>30</ele>
						<time>2026-05-01T10:03:44Z</time>
					</trkpt>
					<trkpt lat="47.172820" lon="-1.453100">
						<ele>31</ele>
						<time>2026-05-01T10:04:11Z</time>
					</trkpt>
					<trkpt lat="47.172850" lon="-1.453160">
						<ele>31</ele>
						<time>2026-05-01T10:04:12Z</time>
					</trkpt>
					<trkpt lat="47.172860" lon="-1.453270">
						<ele>31</ele>
						<time>2026-05-01T10:04:13Z</time>
					</trkpt>
					<trkpt lat="47.172820" lon="-1.453330">
						<ele>31</ele>
						<time>2026-05-01T10:04:14Z</time>
					</trkpt>
					<trkpt lat="47.172750" lon="-1.453330">
						<ele>31</ele>
						<time>2026-05-01T10:04:16Z</time>
					</trkpt>
					<trkpt lat="47.172670" lon="-1.453870">
						<ele>31</ele>
						<time>2026-05-01T10:04:22Z</time>
					</trkpt>
					<trkpt lat="47.172650" lon="-1.456050">
						<ele>33</ele>
						<time>2026-05-01T10:04:49Z</time>
					</trkpt>
					<trkpt lat="47.172700" lon="-1.456060">
						<ele>33</ele>
						<time>2026-05-01T10:04:50Z</time>
					</trkpt>
					<trkpt lat="47.172770" lon="-1.456160">
						<ele>32</ele>
						<time>2026-05-01T10:04:51Z</time>
					</trkpt>
					<trkpt lat="47.172780" lon="-1.456300">
						<ele>33</ele>
						<time>2026-05-01T10:04:53Z</time>
					</trkpt>
					<trkpt lat="47.172730" lon="-1.456410">
						<ele>33</ele>
						<time>2026-05-01T10:04:55Z</time>
					</trkpt>
					<trkpt lat="47.172620" lon="-1.456460">
						<ele>33</ele>
						<time>2026-05-01T10:04:57Z</time>
					</trkpt>
					<trkpt lat="47.172600" lon="-1.456820">
						<ele>33</ele>
						<time>2026-05-01T10:05:01Z</time>
					</trkpt>
					<trkpt lat="47.172460" lon="-1.457420">
						<ele>33</ele>
						<time>2026-05-01T10:05:09Z</time>
					</trkpt>
					<trkpt lat="47.172500" lon="-1.457590">
						<ele>33</ele>
						<time>2026-05-01T10:05:11Z</time>
					</trkpt>
					<trkpt lat="47.171960" lon="-1.460080">
						<ele>38</ele>
						<time>2026-05-01T10:05:43Z</time>
					</trkpt>
					<trkpt lat="47.171840" lon="-1.460410">
						<ele>38</ele>
						<time>2026-05-01T10:05:47Z</time>
					</trkpt>
					<trkpt lat="47.171280" lon="-1.461300">
						<ele>41</ele>
						<time>2026-05-01T10:06:02Z</time>
					</trkpt>
					<trkpt lat="47.171230" lon="-1.461290">
						<ele>42</ele>
						<time>2026-05-01T10:06:03Z</time>
					</trkpt>
					<trkpt lat="47.170730" lon="-1.462090">
						<ele>42</ele>
						<time>2026-05-01T10:06:16Z</time>
					</trkpt>
					<trkpt lat="47.170550" lon="-1.462640">
						<ele>41</ele>
						<time>2026-05-01T10:06:23Z</time>
					</trkpt>
					<trkpt lat="47.169730" lon="-1.466440">
						<ele>32</ele>
						<time>2026-05-01T10:07:11Z</time>
					</trkpt>
					<trkpt lat="47.169730" lon="-1.466700">
						<ele>31</ele>
						<time>2026-05-01T10:07:15Z</time>
					</trkpt>
					<trkpt lat="47.169760" lon="-1.466840">
						<ele>31</ele>
						<time>2026-05-01T10:07:16Z</time>
					</trkpt>
					<trkpt lat="47.169720" lon="-1.466970">
						<ele>30</ele>
						<time>2026-05-01T10:07:18Z</time>
					</trkpt>
					<trkpt lat="47.169650" lon="-1.467010">
						<ele>31</ele>
						<time>2026-05-01T10:07:19Z</time>
					</trkpt>
					<trkpt lat="47.169530" lon="-1.467350">
						<ele>30</ele>
						<time>2026-05-01T10:07:24Z</time>
					</trkpt>
					<trkpt lat="47.168790" lon="-1.470820">
						<ele>32</ele>
						<time>2026-05-01T10:08:08Z</time>
					</trkpt>
					<trkpt lat="47.168720" lon="-1.470960">
						<ele>32</ele>
						<time>2026-05-01T10:08:10Z</time>
					</trkpt>
					<trkpt lat="47.168670" lon="-1.471370">
						<ele>33</ele>
						<time>2026-05-01T10:08:15Z</time>
					</trkpt>
					<trkpt lat="47.168680" lon="-1.471500">
						<ele>33</ele>
						<time>2026-05-01T10:08:17Z</time>
					</trkpt>
					<trkpt lat="47.168620" lon="-1.472410">
						<ele>35</ele>
						<time>2026-05-01T10:08:28Z</time>
					</trkpt>
					<trkpt lat="47.168480" lon="-1.473610">
						<ele>34</ele>
						<time>2026-05-01T10:08:43Z</time>
					</trkpt>
					<trkpt lat="47.167900" lon="-1.473640">
						<ele>33</ele>
						<time>2026-05-01T10:08:53Z</time>
					</trkpt>
					<trkpt lat="47.167880" lon="-1.474410">
						<ele>31</ele>
						<time>2026-05-01T10:09:02Z</time>
					</trkpt>
					<trkpt lat="47.168000" lon="-1.475730">
						<ele>25</ele>
						<time>2026-05-01T10:09:18Z</time>
					</trkpt>
					<trkpt lat="47.168170" lon="-1.477040">
						<ele>20</ele>
						<time>2026-05-01T10:09:34Z</time>
					</trkpt>
					<trkpt lat="47.168250" lon="-1.479010">
						<ele>15</ele>
						<time>2026-05-01T10:09:58Z</time>
					</trkpt>
					<trkpt lat="47.168220" lon="-1.479230">
						<ele>14</ele>
						<time>2026-05-01T10:10:01Z</time>
					</trkpt>
					<trkpt lat="47.168010" lon="-1.479610">
						<ele>11</ele>
						<time>2026-05-01T10:10:07Z</time>
					</trkpt>
					<trkpt lat="47.168060" lon="-1.480180">
						<ele>8</ele>
						<time>2026-05-01T10:10:14Z</time>
					</trkpt>
					<trkpt lat="47.168450" lon="-1.480880">
						<ele>6</ele>
						<time>2026-05-01T10:10:25Z</time>
					</trkpt>
					<trkpt lat="47.168580" lon="-1.480890">
						<ele>8</ele>
						<time>2026-05-01T10:10:27Z</time>
					</trkpt>
					<trkpt lat="47.169020" lon="-1.481790">
						<ele>10</ele>
						<time>2026-05-01T10:10:41Z</time>
					</trkpt>
					<trkpt lat="47.169200" lon="-1.482100">
						<ele>11</ele>
						<time>2026-05-01T10:10:45Z</time>
					</trkpt>
					<trkpt lat="47.169330" lon="-1.482480">
						<ele>11</ele>
						<time>2026-05-01T10:10:51Z</time>
					</trkpt>
					<trkpt lat="47.169370" lon="-1.482720">
						<ele>11</ele>
						<time>2026-05-01T10:10:54Z</time>
					</trkpt>
					<trkpt lat="47.169330" lon="-1.483230">
						<ele>12</ele>
						<time>2026-05-01T10:11:00Z</time>
					</trkpt>
					<trkpt lat="47.168840" lon="-1.485140">
						<ele>11</ele>
						<time>2026-05-01T10:11:25Z</time>
					</trkpt>
					<trkpt lat="47.168780" lon="-1.485570">
						<ele>12</ele>
						<time>2026-05-01T10:11:30Z</time>
					</trkpt>
					<trkpt lat="47.168790" lon="-1.486090">
						<ele>13</ele>
						<time>2026-05-01T10:11:36Z</time>
					</trkpt>
					<trkpt lat="47.169330" lon="-1.488470">
						<ele>13</ele>
						<time>2026-05-01T10:12:06Z</time>
					</trkpt>
					<trkpt lat="47.170040" lon="-1.491200">
						<ele>13</ele>
						<time>2026-05-01T10:12:42Z</time>
					</trkpt>
					<trkpt lat="47.170800" lon="-1.493820">
						<ele>8</ele>
						<time>2026-05-01T10:13:16Z</time>
					</trkpt>
					<trkpt lat="47.170880" lon="-1.493970">
						<ele>7</ele>
						<time>2026-05-01T10:13:19Z</time>
					</trkpt>
					<trkpt lat="47.171170" lon="-1.494790">
						<ele>8</ele>
						<time>2026-05-01T10:13:30Z</time>
					</trkpt>
					<trkpt lat="47.171220" lon="-1.495150">
						<ele>8</ele>
						<time>2026-05-01T10:13:34Z</time>
					</trkpt>
					<trkpt lat="47.171810" lon="-1.497530">
						<ele>7</ele>
						<time>2026-05-01T10:14:05Z</time>
					</trkpt>
					<trkpt lat="47.172770" lon="-1.500210">
						<ele>5</ele>
						<time>2026-05-01T10:14:41Z</time>
					</trkpt>
					<trkpt lat="47.172930" lon="-1.500370">
						<ele>6</ele>
						<time>2026-05-01T10:14:45Z</time>
					</trkpt>
					<trkpt lat="47.174310" lon="-1.503480">
						<ele>6</ele>
						<time>2026-05-01T10:15:30Z</time>
					</trkpt>
					<trkpt lat="47.175370" lon="-1.505490">
						<ele>10</ele>
						<time>2026-05-01T10:16:01Z</time>
					</trkpt>
					<trkpt lat="47.176230" lon="-1.506740">
						<ele>10</ele>
						<time>2026-05-01T10:16:22Z</time>
					</trkpt>
					<trkpt lat="47.176510" lon="-1.507190">
						<ele>10</ele>
						<time>2026-05-01T10:16:30Z</time>
					</trkpt>
					<trkpt lat="47.176320" lon="-1.507590">
						<ele>8</ele>
						<time>2026-05-01T10:16:35Z</time>
					</trkpt>
					<trkpt lat="47.176290" lon="-1.507730">
						<ele>8</ele>
						<time>2026-05-01T10:16:37Z</time>
					</trkpt>
					<trkpt lat="47.176300" lon="-1.507850">
						<ele>8</ele>
						<time>2026-05-01T10:16:39Z</time>
					</trkpt>
					<trkpt lat="47.176470" lon="-1.508110">
						<ele>8</ele>
						<time>2026-05-01T10:16:43Z</time>
					</trkpt>
					<trkpt lat="47.176640" lon="-1.508210">
						<ele>8</ele>
						<time>2026-05-01T10:16:46Z</time>
					</trkpt>
					<trkpt lat="47.176730" lon="-1.508200">
						<ele>8</ele>
						<time>2026-05-01T10:16:48Z</time>
					</trkpt>
					<trkpt lat="47.176970" lon="-1.507890">
						<ele>9</ele>
						<time>2026-05-01T10:16:54Z</time>
					</trkpt>
					<trkpt lat="47.178330" lon="-1.509390">
						<ele>7</ele>
						<time>2026-05-01T10:17:24Z</time>
					</trkpt>
					<trkpt lat="47.179450" lon="-1.510940">
						<ele>7</ele>
						<time>2026-05-01T10:17:51Z</time>
					</trkpt>
					<trkpt lat="47.179660" lon="-1.511170">
						<ele>7</ele>
						<time>2026-05-01T10:17:56Z</time>
					</trkpt>
					<trkpt lat="47.180020" lon="-1.511450">
						<ele>8</ele>
						<time>2026-05-01T10:18:03Z</time>
					</trkpt>
					<trkpt lat="47.180560" lon="-1.511560">
						<ele>10</ele>
						<time>2026-05-01T10:18:13Z</time>
					</trkpt>
					<trkpt lat="47.180530" lon="-1.511890">
						<ele>10</ele>
						<time>2026-05-01T10:18:17Z</time>
					</trkpt>
					<trkpt lat="47.180680" lon="-1.513280">
						<ele>9</ele>
						<time>2026-05-01T10:18:34Z</time>
					</trkpt>
					<trkpt lat="47.180970" lon="-1.514100">
						<ele>8</ele>
						<time>2026-05-01T10:18:45Z</time>
					</trkpt>
					<trkpt lat="47.181330" lon="-1.515450">
						<ele>7</ele>
						<time>2026-05-01T10:19:03Z</time>
					</trkpt>
					<trkpt lat="47.181490" lon="-1.517120">
						<ele>7</ele>
						<time>2026-05-01T10:19:23Z</time>
					</trkpt>
					<trkpt lat="47.181480" lon="-1.517450">
						<ele>7</ele>
						<time>2026-05-01T10:19:27Z</time>
					</trkpt>
					<trkpt lat="47.181410" lon="-1.517690">
						<ele>7</ele>
						<time>2026-05-01T10:19:30Z</time>
					</trkpt>
					<trkpt lat="47.181070" lon="-1.518200">
						<ele>5</ele>
						<time>2026-05-01T10:19:39Z</time>
					</trkpt>
					<trkpt lat="47.180990" lon="-1.518390">
						<ele>5</ele>
						<time>2026-05-01T10:19:41Z</time>
					</trkpt>
					<trkpt lat="47.181050" lon="-1.518860">
						<ele>7</ele>
						<time>2026-05-01T10:19:47Z</time>
					</trkpt>
					<trkpt lat="47.181100" lon="-1.519060">
						<ele>7</ele>
						<time>2026-05-01T10:19:50Z</time>
					</trkpt>
					<trkpt lat="47.181180" lon="-1.520130">
						<ele>5</ele>
						<time>2026-05-01T10:20:03Z</time>
					</trkpt>
					<trkpt lat="47.181290" lon="-1.520900">
						<ele>5</ele>
						<time>2026-05-01T10:20:12Z</time>
					</trkpt>
					<trkpt lat="47.181350" lon="-1.521140">
						<ele>5</ele>
						<time>2026-05-01T10:20:15Z</time>
					</trkpt>
					<trkpt lat="47.181530" lon="-1.521490">
						<ele>6</ele>
						<time>2026-05-01T10:20:21Z</time>
					</trkpt>
					<trkpt lat="47.181700" lon="-1.522130">
						<ele>5</ele>
						<time>2026-05-01T10:20:29Z</time>
					</trkpt>
					<trkpt lat="47.181850" lon="-1.522470">
						<ele>5</ele>
						<time>2026-05-01T10:20:34Z</time>
					</trkpt>
					<trkpt lat="47.181880" lon="-1.522910">
						<ele>4</ele>
						<time>2026-05-01T10:20:39Z</time>
					</trkpt>
					<trkpt lat="47.181810" lon="-1.523410">
						<ele>2</ele>
						<time>2026-05-01T10:20:45Z</time>
					</trkpt>
					<trkpt lat="47.181800" lon="-1.523790">
						<ele>3</ele>
						<time>2026-05-01T10:20:50Z</time>
					</trkpt>
					<trkpt lat="47.181860" lon="-1.524130">
						<ele>4</ele>
						<time>2026-05-01T10:20:54Z</time>
					</trkpt>
					<trkpt lat="47.181960" lon="-1.524290">
						<ele>4</ele>
						<time>2026-05-01T10:20:57Z</time>
					</trkpt>
					<trkpt lat="47.182010" lon="-1.524430">
						<ele>4</ele>
						<time>2026-05-01T10:20:59Z</time>
					</trkpt>
					<trkpt lat="47.181960" lon="-1.524800">
						<ele>5</ele>
						<time>2026-05-01T10:21:03Z</time>
					</trkpt>
					<trkpt lat="47.181950" lon="-1.525100">
						<ele>5</ele>
						<time>2026-05-01T10:21:07Z</time>
					</trkpt>
					<trkpt lat="47.181980" lon="-1.525330">
						<ele>5</ele>
						<time>2026-05-01T10:21:10Z</time>
					</trkpt>
					<trkpt lat="47.182090" lon="-1.525530">
						<ele>5</ele>
						<time>2026-05-01T10:21:13Z</time>
					</trkpt>
					<trkpt lat="47.182150" lon="-1.525790">
						<ele>6</ele>
						<time>2026-05-01T10:21:16Z</time>
					</trkpt>
					<trkpt lat="47.182210" lon="-1.525930">
						<ele>6</ele>
						<time>2026-05-01T10:21:18Z</time>
					</trkpt>
					<trkpt lat="47.182330" lon="-1.526060">
						<ele>6</ele>
						<time>2026-05-01T10:21:21Z</time>
					</trkpt>
					<trkpt lat="47.182410" lon="-1.526250">
						<ele>7</ele>
						<time>2026-05-01T10:21:24Z</time>
					</trkpt>
					<trkpt lat="47.182410" lon="-1.526670">
						<ele>7</ele>
						<time>2026-05-01T10:21:29Z</time>
					</trkpt>
					<trkpt lat="47.182330" lon="-1.527120">
						<ele>6</ele>
						<time>2026-05-01T10:21:34Z</time>
					</trkpt>
					<trkpt lat="47.182370" lon="-1.527530">
						<ele>5</ele>
						<time>2026-05-01T10:21:39Z</time>
					</trkpt>
					<trkpt lat="47.182600" lon="-1.528230">
						<ele>5</ele>
						<time>2026-05-01T10:21:49Z</time>
					</trkpt>
					<trkpt lat="47.182650" lon="-1.528720">
						<ele>5</ele>
						<time>2026-05-01T10:21:55Z</time>
					</trkpt>
					<trkpt lat="47.182700" lon="-1.528950">
						<ele>5</ele>
						<time>2026-05-01T10:21:58Z</time>
					</trkpt>
					<trkpt lat="47.182980" lon="-1.529480">
						<ele>4</ele>
						<time>2026-05-01T10:22:06Z</time>
					</trkpt>
					<trkpt lat="47.183070" lon="-1.529850">
						<ele>4</ele>
						<time>2026-05-01T10:22:11Z</time>
					</trkpt>
					<trkpt lat="47.183580" lon="-1.530780">
						<ele>4</ele>
						<time>2026-05-01T10:22:25Z</time>
					</trkpt>
					<trkpt lat="47.182830" lon="-1.531440">
						<ele>7</ele>
						<time>2026-05-01T10:22:41Z</time>
					</trkpt>
					<trkpt lat="47.182560" lon="-1.531730">
						<ele>8</ele>
						<time>2026-05-01T10:22:46Z</time>
					</trkpt>
					<trkpt lat="47.182430" lon="-1.531940">
						<ele>9</ele>
						<time>2026-05-01T10:22:50Z</time>
					</trkpt>
					<trkpt lat="47.182320" lon="-1.532300">
						<ele>10</ele>
						<time>2026-05-01T10:22:55Z</time>
					</trkpt>
					<trkpt lat="47.182340" lon="-1.532340">
						<ele>10</ele>
						<time>2026-05-01T10:22:55Z</time>
					</trkpt>
					<trkpt lat="47.182490" lon="-1.531940">
						<ele>9</ele>
						<time>2026-05-01T10:23:01Z</time>
					</trkpt>
					<trkpt lat="47.182900" lon="-1.531620">
						<ele>7</ele>
						<time>2026-05-01T10:23:09Z</time>
					</trkpt>
					<trkpt lat="47.183950" lon="-1.533100">
						<ele>9</ele>
						<time>2026-05-01T10:23:35Z</time>
					</trkpt>
					<trkpt lat="47.185030" lon="-1.534270">
						<ele>11</ele>
						<time>2026-05-01T10:23:59Z</time>
					</trkpt>
					<trkpt lat="47.185150" lon="-1.534460">
						<ele>11</ele>
						<time>2026-05-01T10:24:02Z</time>
					</trkpt>
					<trkpt lat="47.185420" lon="-1.534690">
						<ele>10</ele>
						<time>2026-05-01T10:24:08Z</time>
					</trkpt>
					<trkpt lat="47.185880" lon="-1.535170">
						<ele>11</ele>
						<time>2026-05-01T10:24:18Z</time>
					</trkpt>
					<trkpt lat="47.186570" lon="-1.535590">
						<ele>11</ele>
						<time>2026-05-01T10:24:31Z</time>
					</trkpt>
					<trkpt lat="47.188440" lon="-1.536150">
						<ele>6</ele>
						<time>2026-05-01T10:25:05Z</time>
					</trkpt>
					<trkpt lat="47.188850" lon="-1.536420">
						<ele>5</ele>
						<time>2026-05-01T10:25:13Z</time>
					</trkpt>
					<trkpt lat="47.189000" lon="-1.536470">
						<ele>5</ele>
						<time>2026-05-01T10:25:16Z</time>
					</trkpt>
					<trkpt lat="47.189470" lon="-1.536880">
						<ele>5</ele>
						<time>2026-05-01T10:25:25Z</time>
					</trkpt>
					<trkpt lat="47.189960" lon="-1.537250">
						<ele>6</ele>
						<time>2026-05-01T10:25:35Z</time>
					</trkpt>
					<trkpt lat="47.190240" lon="-1.537550">
						<ele>6</ele>
						<time>2026-05-01T10:25:41Z</time>
					</trkpt>
					<trkpt lat="47.190580" lon="-1.538040">
						<ele>6</ele>
						<time>2026-05-01T10:25:50Z</time>
					</trkpt>
					<trkpt lat="47.191200" lon="-1.538780">
						<ele>6</ele>
						<time>2026-05-01T10:26:04Z</time>
					</trkpt>
					<trkpt lat="47.191230" lon="-1.538880">
						<ele>6</ele>
						<time>2026-05-01T10:26:05Z</time>
					</trkpt>
					<trkpt lat="47.191380" lon="-1.539000">
						<ele>6</ele>
						<time>2026-05-01T10:26:08Z</time>
					</trkpt>
					<trkpt lat="47.192200" lon="-1.540380">
						<ele>5</ele>
						<time>2026-05-01T10:26:30Z</time>
					</trkpt>
					<trkpt lat="47.192830" lon="-1.541750">
						<ele>7</ele>
						<time>2026-05-01T10:26:50Z</time>
					</trkpt>
					<trkpt lat="47.192990" lon="-1.541940">
						<ele>7</ele>
						<time>2026-05-01T10:26:54Z</time>
					</trkpt>
					<trkpt lat="47.193450" lon="-1.542830">
						<ele>7</ele>
						<time>2026-05-01T10:27:08Z</time>
					</trkpt>
					<trkpt lat="47.193770" lon="-1.543210">
						<ele>6</ele>
						<time>2026-05-01T10:27:15Z</time>
					</trkpt>
					<trkpt lat="47.194540" lon="-1.544400">
						<ele>6</ele>
						<time>2026-05-01T10:27:35Z</time>
					</trkpt>
					<trkpt lat="47.194560" lon="-1.544520">
						<ele>6</ele>
						<time>2026-05-01T10:27:36Z</time>
					</trkpt>
					<trkpt lat="47.194540" lon="-1.544670">
						<ele>6</ele>
						<time>2026-05-01T10:27:38Z</time>
					</trkpt>
					<trkpt lat="47.194250" lon="-1.544850">
						<ele>8</ele>
						<time>2026-05-01T10:27:44Z</time>
					</trkpt>
					<trkpt lat="47.194460" lon="-1.544840">
						<ele>7</ele>
						<time>2026-05-01T10:27:47Z</time>
					</trkpt>
					<trkpt lat="47.194630" lon="-1.544610">
						<ele>6</ele>
						<time>2026-05-01T10:27:52Z</time>
					</trkpt>
					<trkpt lat="47.195530" lon="-1.543900">
						<ele>6</ele>
						<time>2026-05-01T10:28:10Z</time>
					</trkpt>
					<trkpt lat="47.195570" lon="-1.544030">
						<ele>6</ele>
						<time>2026-05-01T10:28:11Z</time>
					</trkpt>
					<trkpt lat="47.195940" lon="-1.543760">
						<ele>7</ele>
						<time>2026-05-01T10:28:19Z</time>
					</trkpt>
					<trkpt lat="47.196100" lon="-1.543600">
						<ele>8</ele>
						<time>2026-05-01T10:28:22Z</time>
					</trkpt>
					<trkpt lat="47.196450" lon="-1.543130">
						<ele>8</ele>
						<time>2026-05-01T10:28:31Z</time>
					</trkpt>
					<trkpt lat="47.196710" lon="-1.542900">
						<ele>9</ele>
						<time>2026-05-01T10:28:36Z</time>
					</trkpt>
					<trkpt lat="47.197270" lon="-1.542500">
						<ele>9</ele>
						<time>2026-05-01T10:28:47Z</time>
					</trkpt>
					<trkpt lat="47.197670" lon="-1.542140">
						<ele>8</ele>
						<time>2026-05-01T10:28:55Z</time>
					</trkpt>
					<trkpt lat="47.197740" lon="-1.542010">
						<ele>8</ele>
						<time>2026-05-01T10:28:57Z</time>
					</trkpt>
					<trkpt lat="47.198100" lon="-1.542220">
						<ele>5</ele>
						<time>2026-05-01T10:29:04Z</time>
					</trkpt>
					<trkpt lat="47.198110" lon="-1.542310">
						<ele>5</ele>
						<time>2026-05-01T10:29:05Z</time>
					</trkpt>
					<trkpt lat="47.200930" lon="-1.544190">
						<ele>10</ele>
						<time>2026-05-01T10:30:01Z</time>
					</trkpt>
					<trkpt lat="47.201030" lon="-1.544160">
						<ele>11</ele>
						<time>2026-05-01T10:30:02Z</time>
					</trkpt>
					<trkpt lat="47.201120" lon="-1.544230">
						<ele>11</ele>
						<time>2026-05-01T10:30:04Z</time>
					</trkpt>
					<trkpt lat="47.201110" lon="-1.544360">
						<ele>12</ele>
						<time>2026-05-01T10:30:06Z</time>
					</trkpt>
					<trkpt lat="47.201130" lon="-1.544440">
						<ele>12</ele>
						<time>2026-05-01T10:30:07Z</time>
					</trkpt>
					<trkpt lat="47.201570" lon="-1.544730">
						<ele>12</ele>
						<time>2026-05-01T10:30:15Z</time>
					</trkpt>
					<trkpt lat="47.201560" lon="-1.544850">
						<ele>12</ele>
						<time>2026-05-01T10:30:17Z</time>
					</trkpt>
					<trkpt lat="47.203660" lon="-1.546190">
						<ele>9</ele>
						<time>2026-05-01T10:30:58Z</time>
					</trkpt>
					<trkpt lat="47.205190" lon="-1.547220">
						<ele>10</ele>
						<time>2026-05-01T10:31:27Z</time>
					</trkpt>
					<trkpt lat="47.205890" lon="-1.547720">
						<ele>10</ele>
						<time>2026-05-01T10:31:41Z</time>
					</trkpt>
					<trkpt lat="47.206030" lon="-1.547770">
						<ele>10</ele>
						<time>2026-05-01T10:31:44Z</time>
					</trkpt>
					<trkpt lat="47.206600" lon="-1.548250">
						<ele>10</ele>
						<time>2026-05-01T10:31:56Z</time>
					</trkpt>
					<trkpt lat="47.208680" lon="-1.549600">
						<ele>3</ele>
						<time>2026-05-01T10:32:36Z</time>
					</trkpt>
					<trkpt lat="47.208760" lon="-1.549470">
						<ele>4</ele>
						<time>2026-05-01T10:32:38Z</time>
					</trkpt>
					<trkpt lat="47.210700" lon="-1.551330">
						<ele>10</ele>
						<time>2026-05-01T10:33:19Z</time>
					</trkpt>
					<trkpt lat="47.212420" lon="-1.552680">
						<ele>11</ele>
						<time>2026-05-01T10:33:54Z</time>
					</trkpt>
					<trkpt lat="47.212690" lon="-1.553560">
						<ele>10</ele>
						<time>2026-05-01T10:34:06Z</time>
					</trkpt>
					<trkpt lat="47.212990" lon="-1.552890">
						<ele>11</ele>
						<time>2026-05-01T10:34:15Z</time>
					</trkpt>
					<trkpt lat="47.214180" lon="-1.549940">
						<ele>9</ele>
						<time>2026-05-01T10:34:57Z</time>
					</trkpt>
					<trkpt lat="47.214550" lon="-1.549840">
						<ele>9</ele>
						<time>2026-05-01T10:35:04Z</time>
					</trkpt>
					<trkpt lat="47.214910" lon="-1.549560">
						<ele>9</ele>
						<time>2026-05-01T10:35:11Z</time>
					</trkpt>
					<trkpt lat="47.215240" lon="-1.549390">
						<ele>9</ele>
						<time>2026-05-01T10:35:17Z</time>
					</trkpt>
					<trkpt lat="47.215640" lon="-1.548390">
						<ele>7</ele>
						<time>2026-05-01T10:35:31Z</time>
					</trkpt>
					<trkpt lat="47.215760" lon="-1.548200">
						<ele>7</ele>
						<time>2026-05-01T10:35:34Z</time>
					</trkpt>
					<trkpt lat="47.215890" lon="-1.547920">
						<ele>8</ele>
						<time>2026-05-01T10:35:38Z</time>
					</trkpt>
					<trkpt lat="47.216000" lon="-1.547610">
						<ele>9</ele>
						<time>2026-05-01T10:35:43Z</time>
					</trkpt>
					<trkpt lat="47.216370" lon="-1.547130">
						<ele>10</ele>
						<time>2026-05-01T10:35:51Z</time>
					</trkpt>
					</trkseg>
				</trk>
			</gpx>