<?xml version="1.0" encoding="UTF-8"?>
<gpx xmlns="http://www.topografix.com/GPX/1/1" xmlns:xsi="http://www.w3.org/2001/XMLSchema-instance" version="1.1" creator="phpGPX/1.3.0" xsi:schemaLocation="http://www.topografix.com/GPX/1/1 http://www.topografix.com/GPX/1/1/gpx.xsd">
  <metadata>
    <time>2026-05-11T18:27:00+00:00</time>
  </metadata>
  <trk>
    <name>10km dans les bois</name>
    <trkseg>
      <trkpt lat="45.92351" lon="6.87117">
        <ele>1040</ele>
        <time>2026-05-11T18:27:01+00:00</time>
      </trkpt>
      <trkpt lat="45.92415" lon="6.87097">
        <ele>1040</ele>
        <time>2026-05-11T18:27:02+00:00</time>
      </trkpt>
      <trkpt lat="45.9251" lon="6.87121">
        <ele>1038</ele>
        <time>2026-05-11T18:27:03+00:00</time>
      </trkpt>
      <trkpt lat="45.92611" lon="6.87158">
        <ele>1040</ele>
        <time>2026-05-11T18:27:04+00:00</time>
      </trkpt>
      <trkpt lat="45.92713" lon="6.87185">
        <ele>1041</ele>
        <time>2026-05-11T18:27:05+00:00</time>
      </trkpt>
      <trkpt lat="45.92775" lon="6.87207">
        <ele>1042</ele>
        <time>2026-05-11T18:27:06+00:00</time>
      </trkpt>
      <trkpt lat="45.9275" lon="6.87369">
        <ele>1040</ele>
        <time>2026-05-11T18:27:07+00:00</time>
      </trkpt>
      <trkpt lat="45.92924" lon="6.87687">
        <ele>1042</ele>
        <time>2026-05-11T18:27:08+00:00</time>
      </trkpt>
      <trkpt lat="45.92936" lon="6.87727">
        <ele>1043</ele>
        <time>2026-05-11T18:27:09+00:00</time>
      </trkpt>
      <trkpt lat="45.92969" lon="6.87778">
        <ele>1046</ele>
        <time>2026-05-11T18:27:10+00:00</time>
      </trkpt>
      <trkpt lat="45.92989" lon="6.87796">
        <ele>1047</ele>
        <time>2026-05-11T18:27:11+00:00</time>
      </trkpt>
      <trkpt lat="45.93007" lon="6.87798">
        <ele>1047</ele>
        <time>2026-05-11T18:27:12+00:00</time>
      </trkpt>
      <trkpt lat="45.93026" lon="6.87825">
        <ele>1049</ele>
        <time>2026-05-11T18:27:13+00:00</time>
      </trkpt>
      <trkpt lat="45.9304" lon="6.8787">
        <ele>1049</ele>
        <time>2026-05-11T18:27:14+00:00</time>
      </trkpt>
      <trkpt lat="45.9305" lon="6.87935">
        <ele>1048</ele>
        <time>2026-05-11T18:27:15+00:00</time>
      </trkpt>
      <trkpt lat="45.93071" lon="6.87992">
        <ele>1047</ele>
        <time>2026-05-11T18:27:16+00:00</time>
      </trkpt>
      <trkpt lat="45.93097" lon="6.88046">
        <ele>1049</ele>
        <time>2026-05-11T18:27:17+00:00</time>
      </trkpt>
      <trkpt lat="45.93122" lon="6.88111">
        <ele>1051</ele>
        <time>2026-05-11T18:27:18+00:00</time>
      </trkpt>
      <trkpt lat="45.93141" lon="6.88162">
        <ele>1051</ele>
        <time>2026-05-11T18:27:19+00:00</time>
      </trkpt>
      <trkpt lat="45.93149" lon="6.88218">
        <ele>1052</ele>
        <time>2026-05-11T18:27:20+00:00</time>
      </trkpt>
      <trkpt lat="45.93158" lon="6.88256">
        <ele>1052</ele>
        <time>2026-05-11T18:27:21+00:00</time>
      </trkpt>
      <trkpt lat="45.93207" lon="6.8834">
        <ele>1053</ele>
        <time>2026-05-11T18:27:22+00:00</time>
      </trkpt>
      <trkpt lat="45.93214" lon="6.88373">
        <ele>1054</ele>
        <time>2026-05-11T18:27:23+00:00</time>
      </trkpt>
      <trkpt lat="45.93211" lon="6.88434">
        <ele>1055</ele>
        <time>2026-05-11T18:27:24+00:00</time>
      </trkpt>
      <trkpt lat="45.9322" lon="6.88458">
        <ele>1056</ele>
        <time>2026-05-11T18:27:25+00:00</time>
      </trkpt>
      <trkpt lat="45.93243" lon="6.88484">
        <ele>1057</ele>
        <time>2026-05-11T18:27:26+00:00</time>
      </trkpt>
      <trkpt lat="45.93261" lon="6.88497">
        <ele>1057</ele>
        <time>2026-05-11T18:27:27+00:00</time>
      </trkpt>
      <trkpt lat="45.93283" lon="6.88532">
        <ele>1059</ele>
        <time>2026-05-11T18:27:28+00:00</time>
      </trkpt>
      <trkpt lat="45.93308" lon="6.88583">
        <ele>1061</ele>
        <time>2026-05-11T18:27:29+00:00</time>
      </trkpt>
      <trkpt lat="45.93329" lon="6.88636">
        <ele>1063</ele>
        <time>2026-05-11T18:27:30+00:00</time>
      </trkpt>
      <trkpt lat="45.93385" lon="6.88767">
        <ele>1068</ele>
        <time>2026-05-11T18:27:31+00:00</time>
      </trkpt>
      <trkpt lat="45.93425" lon="6.88851">
        <ele>1068</ele>
        <time>2026-05-11T18:27:32+00:00</time>
      </trkpt>
      <trkpt lat="45.93445" lon="6.88878">
        <ele>1066</ele>
        <time>2026-05-11T18:27:33+00:00</time>
      </trkpt>
      <trkpt lat="45.93456" lon="6.88928">
        <ele>1066</ele>
        <time>2026-05-11T18:27:34+00:00</time>
      </trkpt>
      <trkpt lat="45.93454" lon="6.88973">
        <ele>1068</ele>
        <time>2026-05-11T18:27:35+00:00</time>
      </trkpt>
      <trkpt lat="45.93455" lon="6.89029">
        <ele>1070</ele>
        <time>2026-05-11T18:27:36+00:00</time>
      </trkpt>
      <trkpt lat="45.93465" lon="6.8908">
        <ele>1073</ele>
        <time>2026-05-11T18:27:37+00:00</time>
      </trkpt>
      <trkpt lat="45.93492" lon="6.8914">
        <ele>1072</ele>
        <time>2026-05-11T18:27:38+00:00</time>
      </trkpt>
      <trkpt lat="45.9352" lon="6.89189">
        <ele>1073</ele>
        <time>2026-05-11T18:27:39+00:00</time>
      </trkpt>
      <trkpt lat="45.93548" lon="6.89232">
        <ele>1075</ele>
        <time>2026-05-11T18:27:40+00:00</time>
      </trkpt>
      <trkpt lat="45.9357" lon="6.89259">
        <ele>1076</ele>
        <time>2026-05-11T18:27:41+00:00</time>
      </trkpt>
      <trkpt lat="45.93594" lon="6.89283">
        <ele>1076</ele>
        <time>2026-05-11T18:27:42+00:00</time>
      </trkpt>
      <trkpt lat="45.93605" lon="6.89311">
        <ele>1076</ele>
        <time>2026-05-11T18:27:43+00:00</time>
      </trkpt>
      <trkpt lat="45.93609" lon="6.89329">
        <ele>1077</ele>
        <time>2026-05-11T18:27:44+00:00</time>
      </trkpt>
      <trkpt lat="45.93608" lon="6.8935">
        <ele>1077</ele>
        <time>2026-05-11T18:27:45+00:00</time>
      </trkpt>
      <trkpt lat="45.936" lon="6.89395">
        <ele>1079</ele>
        <time>2026-05-11T18:27:46+00:00</time>
      </trkpt>
      <trkpt lat="45.936" lon="6.89433">
        <ele>1083</ele>
        <time>2026-05-11T18:27:47+00:00</time>
      </trkpt>
      <trkpt lat="45.93616" lon="6.89467">
        <ele>1087</ele>
        <time>2026-05-11T18:27:48+00:00</time>
      </trkpt>
      <trkpt lat="45.9363" lon="6.89483">
        <ele>1087</ele>
        <time>2026-05-11T18:27:49+00:00</time>
      </trkpt>
      <trkpt lat="45.93673" lon="6.89523">
        <ele>1088</ele>
        <time>2026-05-11T18:27:50+00:00</time>
      </trkpt>
      <trkpt lat="45.93694" lon="6.89546">
        <ele>1090</ele>
        <time>2026-05-11T18:27:51+00:00</time>
      </trkpt>
      <trkpt lat="45.93718" lon="6.89576">
        <ele>1090</ele>
        <time>2026-05-11T18:27:52+00:00</time>
      </trkpt>
      <trkpt lat="45.93773" lon="6.89656">
        <ele>1099</ele>
        <time>2026-05-11T18:27:53+00:00</time>
      </trkpt>
      <trkpt lat="45.93811" lon="6.89691">
        <ele>1099</ele>
        <time>2026-05-11T18:27:54+00:00</time>
      </trkpt>
      <trkpt lat="45.93862" lon="6.89751">
        <ele>1101</ele>
        <time>2026-05-11T18:27:55+00:00</time>
      </trkpt>
      <trkpt lat="45.9391" lon="6.89825">
        <ele>1096</ele>
        <time>2026-05-11T18:27:56+00:00</time>
      </trkpt>
      <trkpt lat="45.93933" lon="6.89895">
        <ele>1099</ele>
        <time>2026-05-11T18:27:57+00:00</time>
      </trkpt>
      <trkpt lat="45.93943" lon="6.89962">
        <ele>1107</ele>
        <time>2026-05-11T18:27:58+00:00</time>
      </trkpt>
      <trkpt lat="45.9395" lon="6.89997">
        <ele>1110</ele>
        <time>2026-05-11T18:27:59+00:00</time>
      </trkpt>
      <trkpt lat="45.93995" lon="6.90089">
        <ele>1108</ele>
        <time>2026-05-11T18:28:00+00:00</time>
      </trkpt>
      <trkpt lat="45.94005" lon="6.90104">
        <ele>1108</ele>
        <time>2026-05-11T18:28:01+00:00</time>
      </trkpt>
      <trkpt lat="45.94031" lon="6.9013">
        <ele>1107</ele>
        <time>2026-05-11T18:28:02+00:00</time>
      </trkpt>
      <trkpt lat="45.94051" lon="6.90179">
        <ele>1110</ele>
        <time>2026-05-11T18:28:03+00:00</time>
      </trkpt>
      <trkpt lat="45.94072" lon="6.90216">
        <ele>1109</ele>
        <time>2026-05-11T18:28:04+00:00</time>
      </trkpt>
      <trkpt lat="45.94101" lon="6.90305">
        <ele>1119</ele>
        <time>2026-05-11T18:28:05+00:00</time>
      </trkpt>
      <trkpt lat="45.94121" lon="6.90327">
        <ele>1119</ele>
        <time>2026-05-11T18:28:06+00:00</time>
      </trkpt>
      <trkpt lat="45.94136" lon="6.90365">
        <ele>1122</ele>
        <time>2026-05-11T18:28:07+00:00</time>
      </trkpt>
      <trkpt lat="45.94148" lon="6.9038">
        <ele>1121</ele>
        <time>2026-05-11T18:28:08+00:00</time>
      </trkpt>
      <trkpt lat="45.94157" lon="6.90415">
        <ele>1124</ele>
        <time>2026-05-11T18:28:09+00:00</time>
      </trkpt>
      <trkpt lat="45.94168" lon="6.90432">
        <ele>1124</ele>
        <time>2026-05-11T18:28:10+00:00</time>
      </trkpt>
      <trkpt lat="45.94173" lon="6.90446">
        <ele>1126</ele>
        <time>2026-05-11T18:28:11+00:00</time>
      </trkpt>
      <trkpt lat="45.94171" lon="6.9046">
        <ele>1129</ele>
        <time>2026-05-11T18:28:12+00:00</time>
      </trkpt>
      <trkpt lat="45.94154" lon="6.90494">
        <ele>1142</ele>
        <time>2026-05-11T18:28:13+00:00</time>
      </trkpt>
      <trkpt lat="45.94165" lon="6.90543">
        <ele>1146</ele>
        <time>2026-05-11T18:28:14+00:00</time>
      </trkpt>
      <trkpt lat="45.94163" lon="6.90553">
        <ele>1149</ele>
        <time>2026-05-11T18:28:15+00:00</time>
      </trkpt>
      <trkpt lat="45.94165" lon="6.90563">
        <ele>1149</ele>
        <time>2026-05-11T18:28:16+00:00</time>
      </trkpt>
      <trkpt lat="45.9418" lon="6.90615">
        <ele>1153</ele>
        <time>2026-05-11T18:28:17+00:00</time>
      </trkpt>
      <trkpt lat="45.94194" lon="6.90628">
        <ele>1152</ele>
        <time>2026-05-11T18:28:18+00:00</time>
      </trkpt>
      <trkpt lat="45.94205" lon="6.90628">
        <ele>1149</ele>
        <time>2026-05-11T18:28:19+00:00</time>
      </trkpt>
      <trkpt lat="45.94224" lon="6.90642">
        <ele>1148</ele>
        <time>2026-05-11T18:28:20+00:00</time>
      </trkpt>
      <trkpt lat="45.94235" lon="6.90651">
        <ele>1147</ele>
        <time>2026-05-11T18:28:21+00:00</time>
      </trkpt>
      <trkpt lat="45.94242" lon="6.90664">
        <ele>1147</ele>
        <time>2026-05-11T18:28:22+00:00</time>
      </trkpt>
      <trkpt lat="45.94267" lon="6.90683">
        <ele>1146</ele>
        <time>2026-05-11T18:28:23+00:00</time>
      </trkpt>
      <trkpt lat="45.94276" lon="6.90698">
        <ele>1146</ele>
        <time>2026-05-11T18:28:24+00:00</time>
      </trkpt>
      <trkpt lat="45.9428" lon="6.90724">
        <ele>1149</ele>
        <time>2026-05-11T18:28:25+00:00</time>
      </trkpt>
      <trkpt lat="45.9429" lon="6.90752">
        <ele>1151</ele>
        <time>2026-05-11T18:28:26+00:00</time>
      </trkpt>
      <trkpt lat="45.94309" lon="6.90752">
        <ele>1149</ele>
        <time>2026-05-11T18:28:27+00:00</time>
      </trkpt>
      <trkpt lat="45.9432" lon="6.90742">
        <ele>1146</ele>
        <time>2026-05-11T18:28:28+00:00</time>
      </trkpt>
      <trkpt lat="45.94323" lon="6.90717">
        <ele>1143</ele>
        <time>2026-05-11T18:28:29+00:00</time>
      </trkpt>
      <trkpt lat="45.9432" lon="6.90707">
        <ele>1143</ele>
        <time>2026-05-11T18:28:30+00:00</time>
      </trkpt>
      <trkpt lat="45.94318" lon="6.9069">
        <ele>1141</ele>
        <time>2026-05-11T18:28:31+00:00</time>
      </trkpt>
      <trkpt lat="45.94323" lon="6.90669">
        <ele>1138</ele>
        <time>2026-05-11T18:28:32+00:00</time>
      </trkpt>
      <trkpt lat="45.94329" lon="6.90659">
        <ele>1137</ele>
        <time>2026-05-11T18:28:33+00:00</time>
      </trkpt>
      <trkpt lat="45.94341" lon="6.90654">
        <ele>1136</ele>
        <time>2026-05-11T18:28:34+00:00</time>
      </trkpt>
      <trkpt lat="45.9436" lon="6.90673">
        <ele>1137</ele>
        <time>2026-05-11T18:28:35+00:00</time>
      </trkpt>
      <trkpt lat="45.94365" lon="6.90682">
        <ele>1138</ele>
        <time>2026-05-11T18:28:36+00:00</time>
      </trkpt>
      <trkpt lat="45.94383" lon="6.90694">
        <ele>1139</ele>
        <time>2026-05-11T18:28:37+00:00</time>
      </trkpt>
      <trkpt lat="45.94392" lon="6.90705">
        <ele>1140</ele>
        <time>2026-05-11T18:28:38+00:00</time>
      </trkpt>
      <trkpt lat="45.94402" lon="6.90706">
        <ele>1140</ele>
        <time>2026-05-11T18:28:39+00:00</time>
      </trkpt>
      <trkpt lat="45.94409" lon="6.90714">
        <ele>1141</ele>
        <time>2026-05-11T18:28:40+00:00</time>
      </trkpt>
      <trkpt lat="45.9443" lon="6.90712">
        <ele>1141</ele>
        <time>2026-05-11T18:28:41+00:00</time>
      </trkpt>
      <trkpt lat="45.94474" lon="6.90718">
        <ele>1143</ele>
        <time>2026-05-11T18:28:42+00:00</time>
      </trkpt>
      <trkpt lat="45.94494" lon="6.90737">
        <ele>1146</ele>
        <time>2026-05-11T18:28:43+00:00</time>
      </trkpt>
      <trkpt lat="45.9451" lon="6.90769">
        <ele>1153</ele>
        <time>2026-05-11T18:28:44+00:00</time>
      </trkpt>
      <trkpt lat="45.94535" lon="6.90787">
        <ele>1162</ele>
        <time>2026-05-11T18:28:45+00:00</time>
      </trkpt>
      <trkpt lat="45.94554" lon="6.90784">
        <ele>1163</ele>
        <time>2026-05-11T18:28:46+00:00</time>
      </trkpt>
      <trkpt lat="45.94575" lon="6.90786">
        <ele>1166</ele>
        <time>2026-05-11T18:28:47+00:00</time>
      </trkpt>
      <trkpt lat="45.94595" lon="6.90778">
        <ele>1164</ele>
        <time>2026-05-11T18:28:48+00:00</time>
      </trkpt>
      <trkpt lat="45.94602" lon="6.90723">
        <ele>1151</ele>
        <time>2026-05-11T18:28:49+00:00</time>
      </trkpt>
      <trkpt lat="45.94598" lon="6.90709">
        <ele>1149</ele>
        <time>2026-05-11T18:28:50+00:00</time>
      </trkpt>
      <trkpt lat="45.94599" lon="6.90683">
        <ele>1146</ele>
        <time>2026-05-11T18:28:51+00:00</time>
      </trkpt>
      <trkpt lat="45.94586" lon="6.90675">
        <ele>1143</ele>
        <time>2026-05-11T18:28:52+00:00</time>
      </trkpt>
      <trkpt lat="45.94575" lon="6.90676">
        <ele>1143</ele>
        <time>2026-05-11T18:28:53+00:00</time>
      </trkpt>
      <trkpt lat="45.94564" lon="6.90698">
        <ele>1145</ele>
        <time>2026-05-11T18:28:54+00:00</time>
      </trkpt>
      <trkpt lat="45.94556" lon="6.90708">
        <ele>1146</ele>
        <time>2026-05-11T18:28:55+00:00</time>
      </trkpt>
      <trkpt lat="45.94537" lon="6.90718">
        <ele>1146</ele>
        <time>2026-05-11T18:28:56+00:00</time>
      </trkpt>
      <trkpt lat="45.94521" lon="6.90712">
        <ele>1144</ele>
        <time>2026-05-11T18:28:57+00:00</time>
      </trkpt>
      <trkpt lat="45.94499" lon="6.90699">
        <ele>1141</ele>
        <time>2026-05-11T18:28:58+00:00</time>
      </trkpt>
      <trkpt lat="45.94485" lon="6.9068">
        <ele>1139</ele>
        <time>2026-05-11T18:28:59+00:00</time>
      </trkpt>
      <trkpt lat="45.94481" lon="6.90655">
        <ele>1136</ele>
        <time>2026-05-11T18:29:00+00:00</time>
      </trkpt>
      <trkpt lat="45.94473" lon="6.90629">
        <ele>1134</ele>
        <time>2026-05-11T18:29:01+00:00</time>
      </trkpt>
      <trkpt lat="45.94464" lon="6.9061">
        <ele>1133</ele>
        <time>2026-05-11T18:29:02+00:00</time>
      </trkpt>
      <trkpt lat="45.94455" lon="6.90566">
        <ele>1130</ele>
        <time>2026-05-11T18:29:03+00:00</time>
      </trkpt>
      <trkpt lat="45.94417" lon="6.90532">
        <ele>1128</ele>
        <time>2026-05-11T18:29:04+00:00</time>
      </trkpt>
      <trkpt lat="45.94402" lon="6.90532">
        <ele>1128</ele>
        <time>2026-05-11T18:29:05+00:00</time>
      </trkpt>
      <trkpt lat="45.94386" lon="6.90528">
        <ele>1127</ele>
        <time>2026-05-11T18:29:06+00:00</time>
      </trkpt>
      <trkpt lat="45.94362" lon="6.90503">
        <ele>1125</ele>
        <time>2026-05-11T18:29:07+00:00</time>
      </trkpt>
      <trkpt lat="45.9435" lon="6.90453">
        <ele>1121</ele>
        <time>2026-05-11T18:29:08+00:00</time>
      </trkpt>
      <trkpt lat="45.94341" lon="6.90436">
        <ele>1119</ele>
        <time>2026-05-11T18:29:09+00:00</time>
      </trkpt>
      <trkpt lat="45.94326" lon="6.9042">
        <ele>1117</ele>
        <time>2026-05-11T18:29:10+00:00</time>
      </trkpt>
      <trkpt lat="45.94308" lon="6.90411">
        <ele>1116</ele>
        <time>2026-05-11T18:29:11+00:00</time>
      </trkpt>
      <trkpt lat="45.94245" lon="6.90373">
        <ele>1112</ele>
        <time>2026-05-11T18:29:12+00:00</time>
      </trkpt>
      <trkpt lat="45.94231" lon="6.90353">
        <ele>1111</ele>
        <time>2026-05-11T18:29:13+00:00</time>
      </trkpt>
      <trkpt lat="45.94219" lon="6.90343">
        <ele>1111</ele>
        <time>2026-05-11T18:29:14+00:00</time>
      </trkpt>
      <trkpt lat="45.94195" lon="6.90316">
        <ele>1109</ele>
        <time>2026-05-11T18:29:15+00:00</time>
      </trkpt>
      <trkpt lat="45.94201" lon="6.90302">
        <ele>1108</ele>
        <time>2026-05-11T18:29:16+00:00</time>
      </trkpt>
      <trkpt lat="45.94209" lon="6.90258">
        <ele>1106</ele>
        <time>2026-05-11T18:29:17+00:00</time>
      </trkpt>
      <trkpt lat="45.94207" lon="6.90224">
        <ele>1105</ele>
        <time>2026-05-11T18:29:18+00:00</time>
      </trkpt>
      <trkpt lat="45.94209" lon="6.90158">
        <ele>1104</ele>
        <time>2026-05-11T18:29:19+00:00</time>
      </trkpt>
      <trkpt lat="45.94203" lon="6.90089">
        <ele>1102</ele>
        <time>2026-05-11T18:29:20+00:00</time>
      </trkpt>
      <trkpt lat="45.94204" lon="6.90057">
        <ele>1101</ele>
        <time>2026-05-11T18:29:21+00:00</time>
      </trkpt>
      <trkpt lat="45.94216" lon="6.90072">
        <ele>1103</ele>
        <time>2026-05-11T18:29:22+00:00</time>
      </trkpt>
      <trkpt lat="45.94226" lon="6.90077">
        <ele>1104</ele>
        <time>2026-05-11T18:29:23+00:00</time>
      </trkpt>
      <trkpt lat="45.94235" lon="6.9008">
        <ele>1105</ele>
        <time>2026-05-11T18:29:24+00:00</time>
      </trkpt>
      <trkpt lat="45.94245" lon="6.9007">
        <ele>1106</ele>
        <time>2026-05-11T18:29:25+00:00</time>
      </trkpt>
      <trkpt lat="45.94255" lon="6.90025">
        <ele>1106</ele>
        <time>2026-05-11T18:29:26+00:00</time>
      </trkpt>
      <trkpt lat="45.94266" lon="6.90012">
        <ele>1107</ele>
        <time>2026-05-11T18:29:27+00:00</time>
      </trkpt>
      <trkpt lat="45.94272" lon="6.90019">
        <ele>1108</ele>
        <time>2026-05-11T18:29:28+00:00</time>
      </trkpt>
      <trkpt lat="45.943" lon="6.90024">
        <ele>1111</ele>
        <time>2026-05-11T18:29:29+00:00</time>
      </trkpt>
      <trkpt lat="45.94307" lon="6.90032">
        <ele>1112</ele>
        <time>2026-05-11T18:29:30+00:00</time>
      </trkpt>
      <trkpt lat="45.94314" lon="6.90043">
        <ele>1113</ele>
        <time>2026-05-11T18:29:31+00:00</time>
      </trkpt>
      <trkpt lat="45.94319" lon="6.90064">
        <ele>1114</ele>
        <time>2026-05-11T18:29:32+00:00</time>
      </trkpt>
      <trkpt lat="45.94315" lon="6.90077">
        <ele>1114</ele>
        <time>2026-05-11T18:29:33+00:00</time>
      </trkpt>
      <trkpt lat="45.94305" lon="6.90087">
        <ele>1113</ele>
        <time>2026-05-11T18:29:34+00:00</time>
      </trkpt>
      <trkpt lat="45.94283" lon="6.90132">
        <ele>1111</ele>
        <time>2026-05-11T18:29:35+00:00</time>
      </trkpt>
      <trkpt lat="45.9428" lon="6.90146">
        <ele>1111</ele>
        <time>2026-05-11T18:29:36+00:00</time>
      </trkpt>
      <trkpt lat="45.94283" lon="6.90159">
        <ele>1112</ele>
        <time>2026-05-11T18:29:37+00:00</time>
      </trkpt>
      <trkpt lat="45.94291" lon="6.90166">
        <ele>1112</ele>
        <time>2026-05-11T18:29:38+00:00</time>
      </trkpt>
      <trkpt lat="45.94314" lon="6.90175">
        <ele>1114</ele>
        <time>2026-05-11T18:29:39+00:00</time>
      </trkpt>
      <trkpt lat="45.94323" lon="6.90184">
        <ele>1115</ele>
        <time>2026-05-11T18:29:40+00:00</time>
      </trkpt>
      <trkpt lat="45.94335" lon="6.90191">
        <ele>1116</ele>
        <time>2026-05-11T18:29:41+00:00</time>
      </trkpt>
      <trkpt lat="45.94346" lon="6.90193">
        <ele>1116</ele>
        <time>2026-05-11T18:29:42+00:00</time>
      </trkpt>
      <trkpt lat="45.94357" lon="6.90204">
        <ele>1117</ele>
        <time>2026-05-11T18:29:43+00:00</time>
      </trkpt>
      <trkpt lat="45.94369" lon="6.90221">
        <ele>1118</ele>
        <time>2026-05-11T18:29:44+00:00</time>
      </trkpt>
      <trkpt lat="45.94378" lon="6.90242">
        <ele>1118</ele>
        <time>2026-05-11T18:29:45+00:00</time>
      </trkpt>
      <trkpt lat="45.94391" lon="6.90252">
        <ele>1120</ele>
        <time>2026-05-11T18:29:46+00:00</time>
      </trkpt>
      <trkpt lat="45.94397" lon="6.90261">
        <ele>1120</ele>
        <time>2026-05-11T18:29:47+00:00</time>
      </trkpt>
      <trkpt lat="45.94413" lon="6.90257">
        <ele>1122</ele>
        <time>2026-05-11T18:29:48+00:00</time>
      </trkpt>
      <trkpt lat="45.94424" lon="6.90277">
        <ele>1122</ele>
        <time>2026-05-11T18:29:49+00:00</time>
      </trkpt>
      <trkpt lat="45.94428" lon="6.9031">
        <ele>1122</ele>
        <time>2026-05-11T18:29:50+00:00</time>
      </trkpt>
      <trkpt lat="45.94439" lon="6.90335">
        <ele>1123</ele>
        <time>2026-05-11T18:29:51+00:00</time>
      </trkpt>
      <trkpt lat="45.94458" lon="6.90339">
        <ele>1125</ele>
        <time>2026-05-11T18:29:52+00:00</time>
      </trkpt>
      <trkpt lat="45.9447" lon="6.90334">
        <ele>1126</ele>
        <time>2026-05-11T18:29:53+00:00</time>
      </trkpt>
      <trkpt lat="45.9449" lon="6.90344">
        <ele>1128</ele>
        <time>2026-05-11T18:29:54+00:00</time>
      </trkpt>
      <trkpt lat="45.94515" lon="6.9034">
        <ele>1130</ele>
        <time>2026-05-11T18:29:55+00:00</time>
      </trkpt>
      <trkpt lat="45.94541" lon="6.90332">
        <ele>1133</ele>
        <time>2026-05-11T18:29:56+00:00</time>
      </trkpt>
      <trkpt lat="45.94559" lon="6.90325">
        <ele>1136</ele>
        <time>2026-05-11T18:29:57+00:00</time>
      </trkpt>
      <trkpt lat="45.94572" lon="6.90335">
        <ele>1137</ele>
        <time>2026-05-11T18:29:58+00:00</time>
      </trkpt>
      <trkpt lat="45.94579" lon="6.90343">
        <ele>1137</ele>
        <time>2026-05-11T18:29:59+00:00</time>
      </trkpt>
      <trkpt lat="45.94602" lon="6.90367">
        <ele>1138</ele>
        <time>2026-05-11T18:30:00+00:00</time>
      </trkpt>
      <trkpt lat="45.94612" lon="6.90381">
        <ele>1138</ele>
        <time>2026-05-11T18:30:01+00:00</time>
      </trkpt>
      <trkpt lat="45.94621" lon="6.9043">
        <ele>1137</ele>
        <time>2026-05-11T18:30:02+00:00</time>
      </trkpt>
      <trkpt lat="45.94635" lon="6.90439">
        <ele>1139</ele>
        <time>2026-05-11T18:30:03+00:00</time>
      </trkpt>
      <trkpt lat="45.94647" lon="6.9044">
        <ele>1140</ele>
        <time>2026-05-11T18:30:04+00:00</time>
      </trkpt>
      <trkpt lat="45.94661" lon="6.90471">
        <ele>1141</ele>
        <time>2026-05-11T18:30:05+00:00</time>
      </trkpt>
      <trkpt lat="45.94673" lon="6.90483">
        <ele>1143</ele>
        <time>2026-05-11T18:30:06+00:00</time>
      </trkpt>
      <trkpt lat="45.94684" lon="6.90498">
        <ele>1145</ele>
        <time>2026-05-11T18:30:07+00:00</time>
      </trkpt>
      <trkpt lat="45.94704" lon="6.90512">
        <ele>1149</ele>
        <time>2026-05-11T18:30:08+00:00</time>
      </trkpt>
      <trkpt lat="45.94716" lon="6.90511">
        <ele>1152</ele>
        <time>2026-05-11T18:30:09+00:00</time>
      </trkpt>
      <trkpt lat="45.9473" lon="6.90516">
        <ele>1154</ele>
        <time>2026-05-11T18:30:10+00:00</time>
      </trkpt>
      <trkpt lat="45.94747" lon="6.90542">
        <ele>1157</ele>
        <time>2026-05-11T18:30:11+00:00</time>
      </trkpt>
      <trkpt lat="45.94752" lon="6.90554">
        <ele>1158</ele>
        <time>2026-05-11T18:30:12+00:00</time>
      </trkpt>
      <trkpt lat="45.94758" lon="6.90564">
        <ele>1160</ele>
        <time>2026-05-11T18:30:13+00:00</time>
      </trkpt>
      <trkpt lat="45.94761" lon="6.90586">
        <ele>1161</ele>
        <time>2026-05-11T18:30:14+00:00</time>
      </trkpt>
      <trkpt lat="45.94761" lon="6.90607">
        <ele>1163</ele>
        <time>2026-05-11T18:30:15+00:00</time>
      </trkpt>
      <trkpt lat="45.94759" lon="6.90626">
        <ele>1163</ele>
        <time>2026-05-11T18:30:16+00:00</time>
      </trkpt>
      <trkpt lat="45.94764" lon="6.90652">
        <ele>1167</ele>
        <time>2026-05-11T18:30:17+00:00</time>
      </trkpt>
      <trkpt lat="45.94764" lon="6.90669">
        <ele>1169</ele>
        <time>2026-05-11T18:30:18+00:00</time>
      </trkpt>
      <trkpt lat="45.94757" lon="6.90704">
        <ele>1168</ele>
        <time>2026-05-11T18:30:19+00:00</time>
      </trkpt>
      <trkpt lat="45.94759" lon="6.90735">
        <ele>1171</ele>
        <time>2026-05-11T18:30:20+00:00</time>
      </trkpt>
      <trkpt lat="45.94758" lon="6.90759">
        <ele>1172</ele>
        <time>2026-05-11T18:30:21+00:00</time>
      </trkpt>
      <trkpt lat="45.94759" lon="6.90786">
        <ele>1175</ele>
        <time>2026-05-11T18:30:22+00:00</time>
      </trkpt>
      <trkpt lat="45.94762" lon="6.90801">
        <ele>1178</ele>
        <time>2026-05-11T18:30:23+00:00</time>
      </trkpt>
      <trkpt lat="45.94762" lon="6.90819">
        <ele>1180</ele>
        <time>2026-05-11T18:30:24+00:00</time>
      </trkpt>
      <trkpt lat="45.9477" lon="6.90827">
        <ele>1185</ele>
        <time>2026-05-11T18:30:25+00:00</time>
      </trkpt>
      <trkpt lat="45.9477" lon="6.90851">
        <ele>1186</ele>
        <time>2026-05-11T18:30:26+00:00</time>
      </trkpt>
      <trkpt lat="45.94791" lon="6.90891">
        <ele>1199</ele>
        <time>2026-05-11T18:30:27+00:00</time>
      </trkpt>
      <trkpt lat="45.94802" lon="6.90921">
        <ele>1207</ele>
        <time>2026-05-11T18:30:28+00:00</time>
      </trkpt>
      <trkpt lat="45.94827" lon="6.90976">
        <ele>1222</ele>
        <time>2026-05-11T18:30:29+00:00</time>
      </trkpt>
      <trkpt lat="45.94832" lon="6.91009">
        <ele>1228</ele>
        <time>2026-05-11T18:30:30+00:00</time>
      </trkpt>
      <trkpt lat="45.94828" lon="6.91018">
        <ele>1229</ele>
        <time>2026-05-11T18:30:31+00:00</time>
      </trkpt>
      <trkpt lat="45.94818" lon="6.91064">
        <ele>1237</ele>
        <time>2026-05-11T18:30:32+00:00</time>
      </trkpt>
      <trkpt lat="45.94825" lon="6.91088">
        <ele>1245</ele>
        <time>2026-05-11T18:30:33+00:00</time>
      </trkpt>
      <trkpt lat="45.94832" lon="6.91088">
        <ele>1247</ele>
        <time>2026-05-11T18:30:34+00:00</time>
      </trkpt>
      <trkpt lat="45.94839" lon="6.91084">
        <ele>1250</ele>
        <time>2026-05-11T18:30:35+00:00</time>
      </trkpt>
      <trkpt lat="45.94864" lon="6.91037">
        <ele>1256</ele>
        <time>2026-05-11T18:30:36+00:00</time>
      </trkpt>
      <trkpt lat="45.94872" lon="6.91013">
        <ele>1257</ele>
        <time>2026-05-11T18:30:37+00:00</time>
      </trkpt>
      <trkpt lat="45.94877" lon="6.90987">
        <ele>1256</ele>
        <time>2026-05-11T18:30:38+00:00</time>
      </trkpt>
      <trkpt lat="45.94883" lon="6.90973">
        <ele>1258</ele>
        <time>2026-05-11T18:30:39+00:00</time>
      </trkpt>
      <trkpt lat="45.94897" lon="6.9091">
        <ele>1257</ele>
        <time>2026-05-11T18:30:40+00:00</time>
      </trkpt>
      <trkpt lat="45.94906" lon="6.90886">
        <ele>1258</ele>
        <time>2026-05-11T18:30:41+00:00</time>
      </trkpt>
      <trkpt lat="45.94908" lon="6.90809">
        <ele>1247</ele>
        <time>2026-05-11T18:30:42+00:00</time>
      </trkpt>
      <trkpt lat="45.94902" lon="6.90752">
        <ele>1234</ele>
        <time>2026-05-11T18:30:43+00:00</time>
      </trkpt>
      <trkpt lat="45.94892" lon="6.90731">
        <ele>1228</ele>
        <time>2026-05-11T18:30:44+00:00</time>
      </trkpt>
      <trkpt lat="45.94886" lon="6.90681">
        <ele>1217</ele>
        <time>2026-05-11T18:30:45+00:00</time>
      </trkpt>
      <trkpt lat="45.94885" lon="6.90634">
        <ele>1209</ele>
        <time>2026-05-11T18:30:46+00:00</time>
      </trkpt>
      <trkpt lat="45.94871" lon="6.90628">
        <ele>1205</ele>
        <time>2026-05-11T18:30:47+00:00</time>
      </trkpt>
      <trkpt lat="45.94855" lon="6.90628">
        <ele>1201</ele>
        <time>2026-05-11T18:30:48+00:00</time>
      </trkpt>
      <trkpt lat="45.94848" lon="6.90614">
        <ele>1197</ele>
        <time>2026-05-11T18:30:49+00:00</time>
      </trkpt>
      <trkpt lat="45.94848" lon="6.90592">
        <ele>1193</ele>
        <time>2026-05-11T18:30:50+00:00</time>
      </trkpt>
      <trkpt lat="45.94843" lon="6.90565">
        <ele>1190</ele>
        <time>2026-05-11T18:30:51+00:00</time>
      </trkpt>
      <trkpt lat="45.94847" lon="6.90542">
        <ele>1188</ele>
        <time>2026-05-11T18:30:52+00:00</time>
      </trkpt>
      <trkpt lat="45.94833" lon="6.90484">
        <ele>1182</ele>
        <time>2026-05-11T18:30:53+00:00</time>
      </trkpt>
      <trkpt lat="45.94826" lon="6.90471">
        <ele>1179</ele>
        <time>2026-05-11T18:30:54+00:00</time>
      </trkpt>
      <trkpt lat="45.94822" lon="6.90434">
        <ele>1175</ele>
        <time>2026-05-11T18:30:55+00:00</time>
      </trkpt>
      <trkpt lat="45.94812" lon="6.90418">
        <ele>1171</ele>
        <time>2026-05-11T18:30:56+00:00</time>
      </trkpt>
      <trkpt lat="45.94794" lon="6.90383">
        <ele>1167</ele>
        <time>2026-05-11T18:30:57+00:00</time>
      </trkpt>
      <trkpt lat="45.9478" lon="6.90365">
        <ele>1165</ele>
        <time>2026-05-11T18:30:58+00:00</time>
      </trkpt>
      <trkpt lat="45.94778" lon="6.90347">
        <ele>1165</ele>
        <time>2026-05-11T18:30:59+00:00</time>
      </trkpt>
      <trkpt lat="45.94771" lon="6.90362">
        <ele>1164</ele>
        <time>2026-05-11T18:31:00+00:00</time>
      </trkpt>
      <trkpt lat="45.94771" lon="6.90379">
        <ele>1163</ele>
        <time>2026-05-11T18:31:01+00:00</time>
      </trkpt>
      <trkpt lat="45.94782" lon="6.90418">
        <ele>1164</ele>
        <time>2026-05-11T18:31:02+00:00</time>
      </trkpt>
      <trkpt lat="45.9478" lon="6.90457">
        <ele>1165</ele>
        <time>2026-05-11T18:31:03+00:00</time>
      </trkpt>
      <trkpt lat="45.94759" lon="6.90495">
        <ele>1161</ele>
        <time>2026-05-11T18:31:04+00:00</time>
      </trkpt>
      <trkpt lat="45.94744" lon="6.90497">
        <ele>1157</ele>
        <time>2026-05-11T18:31:05+00:00</time>
      </trkpt>
      <trkpt lat="45.94735" lon="6.9046">
        <ele>1155</ele>
        <time>2026-05-11T18:31:06+00:00</time>
      </trkpt>
      <trkpt lat="45.94699" lon="6.90337">
        <ele>1153</ele>
        <time>2026-05-11T18:31:07+00:00</time>
      </trkpt>
      <trkpt lat="45.94665" lon="6.90294">
        <ele>1149</ele>
        <time>2026-05-11T18:31:08+00:00</time>
      </trkpt>
      <trkpt lat="45.94641" lon="6.90286">
        <ele>1146</ele>
        <time>2026-05-11T18:31:09+00:00</time>
      </trkpt>
      <trkpt lat="45.94603" lon="6.90262">
        <ele>1142</ele>
        <time>2026-05-11T18:31:10+00:00</time>
      </trkpt>
      <trkpt lat="45.94556" lon="6.90209">
        <ele>1140</ele>
        <time>2026-05-11T18:31:11+00:00</time>
      </trkpt>
      <trkpt lat="45.94527" lon="6.90196">
        <ele>1136</ele>
        <time>2026-05-11T18:31:12+00:00</time>
      </trkpt>
      <trkpt lat="45.94498" lon="6.90158">
        <ele>1134</ele>
        <time>2026-05-11T18:31:13+00:00</time>
      </trkpt>
      <trkpt lat="45.94481" lon="6.90117">
        <ele>1135</ele>
        <time>2026-05-11T18:31:14+00:00</time>
      </trkpt>
      <trkpt lat="45.94453" lon="6.90093">
        <ele>1131</ele>
        <time>2026-05-11T18:31:15+00:00</time>
      </trkpt>
      <trkpt lat="45.94418" lon="6.90088">
        <ele>1122</ele>
        <time>2026-05-11T18:31:16+00:00</time>
      </trkpt>
      <trkpt lat="45.94376" lon="6.90089">
        <ele>1119</ele>
        <time>2026-05-11T18:31:17+00:00</time>
      </trkpt>
      <trkpt lat="45.94348" lon="6.90074">
        <ele>1117</ele>
        <time>2026-05-11T18:31:18+00:00</time>
      </trkpt>
      <trkpt lat="45.94332" lon="6.90056">
        <ele>1115</ele>
        <time>2026-05-11T18:31:19+00:00</time>
      </trkpt>
      <trkpt lat="45.94321" lon="6.90021">
        <ele>1113</ele>
        <time>2026-05-11T18:31:20+00:00</time>
      </trkpt>
      <trkpt lat="45.94308" lon="6.89977">
        <ele>1109</ele>
        <time>2026-05-11T18:31:21+00:00</time>
      </trkpt>
      <trkpt lat="45.94278" lon="6.89956">
        <ele>1107</ele>
        <time>2026-05-11T18:31:22+00:00</time>
      </trkpt>
      <trkpt lat="45.94271" lon="6.89936">
        <ele>1106</ele>
        <time>2026-05-11T18:31:23+00:00</time>
      </trkpt>
      <trkpt lat="45.94254" lon="6.89924">
        <ele>1106</ele>
        <time>2026-05-11T18:31:24+00:00</time>
      </trkpt>
      <trkpt lat="45.94226" lon="6.89917">
        <ele>1104</ele>
        <time>2026-05-11T18:31:25+00:00</time>
      </trkpt>
      <trkpt lat="45.94213" lon="6.89918">
        <ele>1102</ele>
        <time>2026-05-11T18:31:26+00:00</time>
      </trkpt>
      <trkpt lat="45.94201" lon="6.89914">
        <ele>1101</ele>
        <time>2026-05-11T18:31:27+00:00</time>
      </trkpt>
      <trkpt lat="45.94184" lon="6.89911">
        <ele>1099</ele>
        <time>2026-05-11T18:31:28+00:00</time>
      </trkpt>
      <trkpt lat="45.94173" lon="6.89904">
        <ele>1098</ele>
        <time>2026-05-11T18:31:29+00:00</time>
      </trkpt>
      <trkpt lat="45.94163" lon="6.89886">
        <ele>1097</ele>
        <time>2026-05-11T18:31:30+00:00</time>
      </trkpt>
      <trkpt lat="45.9415" lon="6.89835">
        <ele>1095</ele>
        <time>2026-05-11T18:31:31+00:00</time>
      </trkpt>
      <trkpt lat="45.94132" lon="6.89801">
        <ele>1092</ele>
        <time>2026-05-11T18:31:32+00:00</time>
      </trkpt>
      <trkpt lat="45.94121" lon="6.89773">
        <ele>1091</ele>
        <time>2026-05-11T18:31:33+00:00</time>
      </trkpt>
      <trkpt lat="45.94115" lon="6.89741">
        <ele>1090</ele>
        <time>2026-05-11T18:31:34+00:00</time>
      </trkpt>
      <trkpt lat="45.94098" lon="6.89708">
        <ele>1089</ele>
        <time>2026-05-11T18:31:35+00:00</time>
      </trkpt>
      <trkpt lat="45.94039" lon="6.89665">
        <ele>1087</ele>
        <time>2026-05-11T18:31:36+00:00</time>
      </trkpt>
      <trkpt lat="45.94027" lon="6.89659">
        <ele>1086</ele>
        <time>2026-05-11T18:31:37+00:00</time>
      </trkpt>
      <trkpt lat="45.9401" lon="6.89658">
        <ele>1085</ele>
        <time>2026-05-11T18:31:38+00:00</time>
      </trkpt>
      <trkpt lat="45.94001" lon="6.89663">
        <ele>1085</ele>
        <time>2026-05-11T18:31:39+00:00</time>
      </trkpt>
      <trkpt lat="45.93956" lon="6.89676">
        <ele>1084</ele>
        <time>2026-05-11T18:31:40+00:00</time>
      </trkpt>
      <trkpt lat="45.93947" lon="6.89687">
        <ele>1084</ele>
        <time>2026-05-11T18:31:41+00:00</time>
      </trkpt>
      <trkpt lat="45.93932" lon="6.89686">
        <ele>1083</ele>
        <time>2026-05-11T18:31:42+00:00</time>
      </trkpt>
      <trkpt lat="45.93914" lon="6.89669">
        <ele>1082</ele>
        <time>2026-05-11T18:31:43+00:00</time>
      </trkpt>
      <trkpt lat="45.939" lon="6.89648">
        <ele>1082</ele>
        <time>2026-05-11T18:31:44+00:00</time>
      </trkpt>
      <trkpt lat="45.93877" lon="6.89632">
        <ele>1081</ele>
        <time>2026-05-11T18:31:45+00:00</time>
      </trkpt>
      <trkpt lat="45.9386" lon="6.89614">
        <ele>1080</ele>
        <time>2026-05-11T18:31:46+00:00</time>
      </trkpt>
      <trkpt lat="45.93844" lon="6.89591">
        <ele>1079</ele>
        <time>2026-05-11T18:31:47+00:00</time>
      </trkpt>
      <trkpt lat="45.93831" lon="6.89562">
        <ele>1078</ele>
        <time>2026-05-11T18:31:48+00:00</time>
      </trkpt>
      <trkpt lat="45.93802" lon="6.8951">
        <ele>1076</ele>
        <time>2026-05-11T18:31:49+00:00</time>
      </trkpt>
      <trkpt lat="45.93789" lon="6.89475">
        <ele>1076</ele>
        <time>2026-05-11T18:31:50+00:00</time>
      </trkpt>
      <trkpt lat="45.9377" lon="6.89448">
        <ele>1076</ele>
        <time>2026-05-11T18:31:51+00:00</time>
      </trkpt>
      <trkpt lat="45.93708" lon="6.89346">
        <ele>1073</ele>
        <time>2026-05-11T18:31:52+00:00</time>
      </trkpt>
      <trkpt lat="45.93701" lon="6.89311">
        <ele>1072</ele>
        <time>2026-05-11T18:31:53+00:00</time>
      </trkpt>
      <trkpt lat="45.93685" lon="6.89273">
        <ele>1071</ele>
        <time>2026-05-11T18:31:54+00:00</time>
      </trkpt>
      <trkpt lat="45.93664" lon="6.89258">
        <ele>1071</ele>
        <time>2026-05-11T18:31:55+00:00</time>
      </trkpt>
      <trkpt lat="45.93647" lon="6.8922">
        <ele>1074</ele>
        <time>2026-05-11T18:31:56+00:00</time>
      </trkpt>
      <trkpt lat="45.93623" lon="6.89181">
        <ele>1075</ele>
        <time>2026-05-11T18:31:57+00:00</time>
      </trkpt>
      <trkpt lat="45.93602" lon="6.89132">
        <ele>1075</ele>
        <time>2026-05-11T18:31:58+00:00</time>
      </trkpt>
      <trkpt lat="45.93598" lon="6.89101">
        <ele>1075</ele>
        <time>2026-05-11T18:31:59+00:00</time>
      </trkpt>
      <trkpt lat="45.9358" lon="6.89039">
        <ele>1074</ele>
        <time>2026-05-11T18:32:00+00:00</time>
      </trkpt>
      <trkpt lat="45.93566" lon="6.89039">
        <ele>1073</ele>
        <time>2026-05-11T18:32:01+00:00</time>
      </trkpt>
      <trkpt lat="45.93546" lon="6.89048">
        <ele>1072</ele>
        <time>2026-05-11T18:32:02+00:00</time>
      </trkpt>
      <trkpt lat="45.93513" lon="6.89058">
        <ele>1071</ele>
        <time>2026-05-11T18:32:03+00:00</time>
      </trkpt>
      <trkpt lat="45.93491" lon="6.89051">
        <ele>1070</ele>
        <time>2026-05-11T18:32:04+00:00</time>
      </trkpt>
      <trkpt lat="45.93486" lon="6.89043">
        <ele>1070</ele>
        <time>2026-05-11T18:32:05+00:00</time>
      </trkpt>
      <trkpt lat="45.93467" lon="6.88996">
        <ele>1068</ele>
        <time>2026-05-11T18:32:06+00:00</time>
      </trkpt>
      <trkpt lat="45.93461" lon="6.88972">
        <ele>1067</ele>
        <time>2026-05-11T18:32:07+00:00</time>
      </trkpt>
      <trkpt lat="45.9346" lon="6.88928">
        <ele>1066</ele>
        <time>2026-05-11T18:32:08+00:00</time>
      </trkpt>
      <trkpt lat="45.9344" lon="6.88831">
        <ele>1067</ele>
        <time>2026-05-11T18:32:09+00:00</time>
      </trkpt>
      <trkpt lat="45.93415" lon="6.88805">
        <ele>1069</ele>
        <time>2026-05-11T18:32:10+00:00</time>
      </trkpt>
      <trkpt lat="45.93402" lon="6.88779">
        <ele>1069</ele>
        <time>2026-05-11T18:32:11+00:00</time>
      </trkpt>
      <trkpt lat="45.93384" lon="6.88741">
        <ele>1068</ele>
        <time>2026-05-11T18:32:12+00:00</time>
      </trkpt>
      <trkpt lat="45.9337" lon="6.88696">
        <ele>1067</ele>
        <time>2026-05-11T18:32:13+00:00</time>
      </trkpt>
      <trkpt lat="45.93364" lon="6.88654">
        <ele>1065</ele>
        <time>2026-05-11T18:32:14+00:00</time>
      </trkpt>
      <trkpt lat="45.93342" lon="6.88601">
        <ele>1062</ele>
        <time>2026-05-11T18:32:15+00:00</time>
      </trkpt>
      <trkpt lat="45.93317" lon="6.8855">
        <ele>1060</ele>
        <time>2026-05-11T18:32:16+00:00</time>
      </trkpt>
      <trkpt lat="45.93294" lon="6.88497">
        <ele>1057</ele>
        <time>2026-05-11T18:32:17+00:00</time>
      </trkpt>
      <trkpt lat="45.9326" lon="6.88445">
        <ele>1056</ele>
        <time>2026-05-11T18:32:18+00:00</time>
      </trkpt>
      <trkpt lat="45.93258" lon="6.88407">
        <ele>1055</ele>
        <time>2026-05-11T18:32:19+00:00</time>
      </trkpt>
      <trkpt lat="45.93256" lon="6.88387">
        <ele>1055</ele>
        <time>2026-05-11T18:32:20+00:00</time>
      </trkpt>
      <trkpt lat="45.93256" lon="6.88348">
        <ele>1054</ele>
        <time>2026-05-11T18:32:21+00:00</time>
      </trkpt>
      <trkpt lat="45.93252" lon="6.88303">
        <ele>1054</ele>
        <time>2026-05-11T18:32:22+00:00</time>
      </trkpt>
      <trkpt lat="45.93236" lon="6.88247">
        <ele>1055</ele>
        <time>2026-05-11T18:32:23+00:00</time>
      </trkpt>
      <trkpt lat="45.93227" lon="6.88213">
        <ele>1055</ele>
        <time>2026-05-11T18:32:24+00:00</time>
      </trkpt>
      <trkpt lat="45.93161" lon="6.87998">
        <ele>1052</ele>
        <time>2026-05-11T18:32:25+00:00</time>
      </trkpt>
      <trkpt lat="45.93149" lon="6.87952">
        <ele>1052</ele>
        <time>2026-05-11T18:32:26+00:00</time>
      </trkpt>
      <trkpt lat="45.93143" lon="6.87919">
        <ele>1052</ele>
        <time>2026-05-11T18:32:27+00:00</time>
      </trkpt>
      <trkpt lat="45.93128" lon="6.87869">
        <ele>1052</ele>
        <time>2026-05-11T18:32:28+00:00</time>
      </trkpt>
      <trkpt lat="45.93123" lon="6.87833">
        <ele>1052</ele>
        <time>2026-05-11T18:32:29+00:00</time>
      </trkpt>
      <trkpt lat="45.93102" lon="6.87732">
        <ele>1053</ele>
        <time>2026-05-11T18:32:30+00:00</time>
      </trkpt>
      <trkpt lat="45.93087" lon="6.87683">
        <ele>1052</ele>
        <time>2026-05-11T18:32:31+00:00</time>
      </trkpt>
      <trkpt lat="45.9307" lon="6.87658">
        <ele>1051</ele>
        <time>2026-05-11T18:32:32+00:00</time>
      </trkpt>
      <trkpt lat="45.93057" lon="6.87648">
        <ele>1049</ele>
        <time>2026-05-11T18:32:33+00:00</time>
      </trkpt>
      <trkpt lat="45.9304" lon="6.87646">
        <ele>1048</ele>
        <time>2026-05-11T18:32:34+00:00</time>
      </trkpt>
      <trkpt lat="45.9303" lon="6.87617">
        <ele>1047</ele>
        <time>2026-05-11T18:32:35+00:00</time>
      </trkpt>
      <trkpt lat="45.9302" lon="6.87604">
        <ele>1046</ele>
        <time>2026-05-11T18:32:36+00:00</time>
      </trkpt>
      <trkpt lat="45.93014" lon="6.87589">
        <ele>1045</ele>
        <time>2026-05-11T18:32:37+00:00</time>
      </trkpt>
      <trkpt lat="45.93005" lon="6.87558">
        <ele>1046</ele>
        <time>2026-05-11T18:32:38+00:00</time>
      </trkpt>
      <trkpt lat="45.92992" lon="6.87543">
        <ele>1046</ele>
        <time>2026-05-11T18:32:39+00:00</time>
      </trkpt>
      <trkpt lat="45.92979" lon="6.87553">
        <ele>1045</ele>
        <time>2026-05-11T18:32:40+00:00</time>
      </trkpt>
      <trkpt lat="45.92968" lon="6.87573">
        <ele>1043</ele>
        <time>2026-05-11T18:32:41+00:00</time>
      </trkpt>
      <trkpt lat="45.92951" lon="6.87579">
        <ele>1042</ele>
        <time>2026-05-11T18:32:42+00:00</time>
      </trkpt>
      <trkpt lat="45.92927" lon="6.87589">
        <ele>1041</ele>
        <time>2026-05-11T18:32:43+00:00</time>
      </trkpt>
      <trkpt lat="45.92872" lon="6.87602">
        <ele>1041</ele>
        <time>2026-05-11T18:32:44+00:00</time>
      </trkpt>
      <trkpt lat="45.9283" lon="6.87577">
        <ele>1041</ele>
        <time>2026-05-11T18:32:45+00:00</time>
      </trkpt>
      <trkpt lat="45.92763" lon="6.87517">
        <ele>1041</ele>
        <time>2026-05-11T18:32:46+00:00</time>
      </trkpt>
      <trkpt lat="45.92697" lon="6.87445">
        <ele>1039</ele>
        <time>2026-05-11T18:32:47+00:00</time>
      </trkpt>
      <trkpt lat="45.92653" lon="6.8742">
        <ele>1037</ele>
        <time>2026-05-11T18:32:48+00:00</time>
      </trkpt>
      <trkpt lat="45.92609" lon="6.87413">
        <ele>1037</ele>
        <time>2026-05-11T18:32:49+00:00</time>
      </trkpt>
      <trkpt lat="45.92585" lon="6.87429">
        <ele>1039</ele>
        <time>2026-05-11T18:32:50+00:00</time>
      </trkpt>
      <trkpt lat="45.92525" lon="6.8736">
        <ele>1040</ele>
        <time>2026-05-11T18:32:51+00:00</time>
      </trkpt>
      <trkpt lat="45.92441" lon="6.87251">
        <ele>1036</ele>
        <time>2026-05-11T18:32:52+00:00</time>
      </trkpt>
      <trkpt lat="45.92389" lon="6.87212">
        <ele>1037</ele>
        <time>2026-05-11T18:32:53+00:00</time>
      </trkpt>
      <trkpt lat="45.9234" lon="6.87163">
        <ele>1039</ele>
        <time>2026-05-11T18:32:54+00:00</time>
      </trkpt>
      <trkpt lat="45.92344" lon="6.87143">
        <ele>1039</ele>
        <time>2026-05-11T18:32:55+00:00</time>
      </trkpt>
    </trkseg>
  </trk>
</gpx>
