<?xml version="1.0" encoding="UTF-8"?>
<gpx xmlns="http://www.topografix.com/GPX/1/1" xmlns:xsi="http://www.w3.org/2001/XMLSchema-instance" version="1.1" creator="phpGPX/1.3.0" xsi:schemaLocation="http://www.topografix.com/GPX/1/1 http://www.topografix.com/GPX/1/1/gpx.xsd">
  <metadata>
    <time>2026-05-14T12:48:19+00:00</time>
  </metadata>
  <trk>
    <name>1/2 KV Capu Di A Veta</name>
    <trkseg>
      <trkpt lat="42.54849" lon="8.73952">
        <ele>239</ele>
        <time>2026-05-14T12:48:20+00:00</time>
      </trkpt>
      <trkpt lat="42.54824" lon="8.73958">
        <ele>239</ele>
        <time>2026-05-14T12:48:21+00:00</time>
      </trkpt>
      <trkpt lat="42.54817" lon="8.73966">
        <ele>240</ele>
        <time>2026-05-14T12:48:22+00:00</time>
      </trkpt>
      <trkpt lat="42.54805" lon="8.73961">
        <ele>241</ele>
        <time>2026-05-14T12:48:23+00:00</time>
      </trkpt>
      <trkpt lat="42.54772" lon="8.73989">
        <ele>246</ele>
        <time>2026-05-14T12:48:24+00:00</time>
      </trkpt>
      <trkpt lat="42.5476" lon="8.7398">
        <ele>247</ele>
        <time>2026-05-14T12:48:25+00:00</time>
      </trkpt>
      <trkpt lat="42.54752" lon="8.73982">
        <ele>248</ele>
        <time>2026-05-14T12:48:26+00:00</time>
      </trkpt>
      <trkpt lat="42.54744" lon="8.73993">
        <ele>250</ele>
        <time>2026-05-14T12:48:27+00:00</time>
      </trkpt>
      <trkpt lat="42.54738" lon="8.74019">
        <ele>250</ele>
        <time>2026-05-14T12:48:28+00:00</time>
      </trkpt>
      <trkpt lat="42.54731" lon="8.74027">
        <ele>250</ele>
        <time>2026-05-14T12:48:29+00:00</time>
      </trkpt>
      <trkpt lat="42.54723" lon="8.74029">
        <ele>250</ele>
        <time>2026-05-14T12:48:30+00:00</time>
      </trkpt>
      <trkpt lat="42.54711" lon="8.74019">
        <ele>251</ele>
        <time>2026-05-14T12:48:31+00:00</time>
      </trkpt>
      <trkpt lat="42.54681" lon="8.74048">
        <ele>253</ele>
        <time>2026-05-14T12:48:32+00:00</time>
      </trkpt>
      <trkpt lat="42.54651" lon="8.74064">
        <ele>255</ele>
        <time>2026-05-14T12:48:33+00:00</time>
      </trkpt>
      <trkpt lat="42.54633" lon="8.74059">
        <ele>255</ele>
        <time>2026-05-14T12:48:34+00:00</time>
      </trkpt>
      <trkpt lat="42.54614" lon="8.74066">
        <ele>256</ele>
        <time>2026-05-14T12:48:35+00:00</time>
      </trkpt>
      <trkpt lat="42.54597" lon="8.74063">
        <ele>256</ele>
        <time>2026-05-14T12:48:36+00:00</time>
      </trkpt>
      <trkpt lat="42.54585" lon="8.74055">
        <ele>256</ele>
        <time>2026-05-14T12:48:37+00:00</time>
      </trkpt>
      <trkpt lat="42.54554" lon="8.74061">
        <ele>257</ele>
        <time>2026-05-14T12:48:38+00:00</time>
      </trkpt>
      <trkpt lat="42.54506" lon="8.74043">
        <ele>256</ele>
        <time>2026-05-14T12:48:39+00:00</time>
      </trkpt>
      <trkpt lat="42.54494" lon="8.74053">
        <ele>257</ele>
        <time>2026-05-14T12:48:40+00:00</time>
      </trkpt>
      <trkpt lat="42.54475" lon="8.7402">
        <ele>256</ele>
        <time>2026-05-14T12:48:41+00:00</time>
      </trkpt>
      <trkpt lat="42.54458" lon="8.74021">
        <ele>256</ele>
        <time>2026-05-14T12:48:42+00:00</time>
      </trkpt>
      <trkpt lat="42.5443" lon="8.74006">
        <ele>255</ele>
        <time>2026-05-14T12:48:43+00:00</time>
      </trkpt>
      <trkpt lat="42.5441" lon="8.74004">
        <ele>256</ele>
        <time>2026-05-14T12:48:44+00:00</time>
      </trkpt>
      <trkpt lat="42.54405" lon="8.74021">
        <ele>257</ele>
        <time>2026-05-14T12:48:45+00:00</time>
      </trkpt>
      <trkpt lat="42.54411" lon="8.74028">
        <ele>257</ele>
        <time>2026-05-14T12:48:46+00:00</time>
      </trkpt>
      <trkpt lat="42.54412" lon="8.74039">
        <ele>258</ele>
        <time>2026-05-14T12:48:47+00:00</time>
      </trkpt>
      <trkpt lat="42.54397" lon="8.74044">
        <ele>259</ele>
        <time>2026-05-14T12:48:48+00:00</time>
      </trkpt>
      <trkpt lat="42.54384" lon="8.74074">
        <ele>261</ele>
        <time>2026-05-14T12:48:49+00:00</time>
      </trkpt>
      <trkpt lat="42.54365" lon="8.74084">
        <ele>262</ele>
        <time>2026-05-14T12:48:50+00:00</time>
      </trkpt>
      <trkpt lat="42.54356" lon="8.74066">
        <ele>261</ele>
        <time>2026-05-14T12:48:51+00:00</time>
      </trkpt>
      <trkpt lat="42.54344" lon="8.74062">
        <ele>261</ele>
        <time>2026-05-14T12:48:52+00:00</time>
      </trkpt>
      <trkpt lat="42.54341" lon="8.74043">
        <ele>260</ele>
        <time>2026-05-14T12:48:53+00:00</time>
      </trkpt>
      <trkpt lat="42.54327" lon="8.74025">
        <ele>260</ele>
        <time>2026-05-14T12:48:54+00:00</time>
      </trkpt>
      <trkpt lat="42.54309" lon="8.74032">
        <ele>261</ele>
        <time>2026-05-14T12:48:55+00:00</time>
      </trkpt>
      <trkpt lat="42.54281" lon="8.74028">
        <ele>263</ele>
        <time>2026-05-14T12:48:56+00:00</time>
      </trkpt>
      <trkpt lat="42.54269" lon="8.74036">
        <ele>263</ele>
        <time>2026-05-14T12:48:57+00:00</time>
      </trkpt>
      <trkpt lat="42.54256" lon="8.74036">
        <ele>264</ele>
        <time>2026-05-14T12:48:58+00:00</time>
      </trkpt>
      <trkpt lat="42.5424" lon="8.74027">
        <ele>265</ele>
        <time>2026-05-14T12:48:59+00:00</time>
      </trkpt>
      <trkpt lat="42.5421" lon="8.74028">
        <ele>265</ele>
        <time>2026-05-14T12:49:00+00:00</time>
      </trkpt>
      <trkpt lat="42.54179" lon="8.74017">
        <ele>266</ele>
        <time>2026-05-14T12:49:01+00:00</time>
      </trkpt>
      <trkpt lat="42.54161" lon="8.74002">
        <ele>267</ele>
        <time>2026-05-14T12:49:02+00:00</time>
      </trkpt>
      <trkpt lat="42.54144" lon="8.73997">
        <ele>267</ele>
        <time>2026-05-14T12:49:03+00:00</time>
      </trkpt>
      <trkpt lat="42.54119" lon="8.73996">
        <ele>267</ele>
        <time>2026-05-14T12:49:04+00:00</time>
      </trkpt>
      <trkpt lat="42.54103" lon="8.73986">
        <ele>267</ele>
        <time>2026-05-14T12:49:05+00:00</time>
      </trkpt>
      <trkpt lat="42.54085" lon="8.73983">
        <ele>267</ele>
        <time>2026-05-14T12:49:06+00:00</time>
      </trkpt>
      <trkpt lat="42.54075" lon="8.73986">
        <ele>268</ele>
        <time>2026-05-14T12:49:07+00:00</time>
      </trkpt>
      <trkpt lat="42.54058" lon="8.73966">
        <ele>269</ele>
        <time>2026-05-14T12:49:08+00:00</time>
      </trkpt>
      <trkpt lat="42.54029" lon="8.73952">
        <ele>272</ele>
        <time>2026-05-14T12:49:09+00:00</time>
      </trkpt>
      <trkpt lat="42.53996" lon="8.73942">
        <ele>275</ele>
        <time>2026-05-14T12:49:10+00:00</time>
      </trkpt>
      <trkpt lat="42.53978" lon="8.73909">
        <ele>275</ele>
        <time>2026-05-14T12:49:11+00:00</time>
      </trkpt>
      <trkpt lat="42.53962" lon="8.73897">
        <ele>273</ele>
        <time>2026-05-14T12:49:12+00:00</time>
      </trkpt>
      <trkpt lat="42.5395" lon="8.7388">
        <ele>271</ele>
        <time>2026-05-14T12:49:13+00:00</time>
      </trkpt>
      <trkpt lat="42.53944" lon="8.73877">
        <ele>271</ele>
        <time>2026-05-14T12:49:14+00:00</time>
      </trkpt>
      <trkpt lat="42.53934" lon="8.73879">
        <ele>272</ele>
        <time>2026-05-14T12:49:15+00:00</time>
      </trkpt>
      <trkpt lat="42.53935" lon="8.73875">
        <ele>271</ele>
        <time>2026-05-14T12:49:16+00:00</time>
      </trkpt>
      <trkpt lat="42.53917" lon="8.73879">
        <ele>272</ele>
        <time>2026-05-14T12:49:17+00:00</time>
      </trkpt>
      <trkpt lat="42.53848" lon="8.73867">
        <ele>277</ele>
        <time>2026-05-14T12:49:18+00:00</time>
      </trkpt>
      <trkpt lat="42.53823" lon="8.73878">
        <ele>282</ele>
        <time>2026-05-14T12:49:19+00:00</time>
      </trkpt>
      <trkpt lat="42.53814" lon="8.73888">
        <ele>286</ele>
        <time>2026-05-14T12:49:20+00:00</time>
      </trkpt>
      <trkpt lat="42.53764" lon="8.73992">
        <ele>305</ele>
        <time>2026-05-14T12:49:21+00:00</time>
      </trkpt>
      <trkpt lat="42.53768" lon="8.73985">
        <ele>304</ele>
        <time>2026-05-14T12:49:22+00:00</time>
      </trkpt>
      <trkpt lat="42.53765" lon="8.73992">
        <ele>305</ele>
        <time>2026-05-14T12:49:23+00:00</time>
      </trkpt>
      <trkpt lat="42.53751" lon="8.7396">
        <ele>310</ele>
        <time>2026-05-14T12:49:24+00:00</time>
      </trkpt>
      <trkpt lat="42.5372" lon="8.73944">
        <ele>324</ele>
        <time>2026-05-14T12:49:25+00:00</time>
      </trkpt>
      <trkpt lat="42.53705" lon="8.73924">
        <ele>332</ele>
        <time>2026-05-14T12:49:26+00:00</time>
      </trkpt>
      <trkpt lat="42.53681" lon="8.73926">
        <ele>343</ele>
        <time>2026-05-14T12:49:27+00:00</time>
      </trkpt>
      <trkpt lat="42.53675" lon="8.73921">
        <ele>346</ele>
        <time>2026-05-14T12:49:28+00:00</time>
      </trkpt>
      <trkpt lat="42.53664" lon="8.73905">
        <ele>351</ele>
        <time>2026-05-14T12:49:29+00:00</time>
      </trkpt>
      <trkpt lat="42.53666" lon="8.739">
        <ele>349</ele>
        <time>2026-05-14T12:49:30+00:00</time>
      </trkpt>
      <trkpt lat="42.53657" lon="8.73842">
        <ele>350</ele>
        <time>2026-05-14T12:49:31+00:00</time>
      </trkpt>
      <trkpt lat="42.53628" lon="8.73788">
        <ele>366</ele>
        <time>2026-05-14T12:49:32+00:00</time>
      </trkpt>
      <trkpt lat="42.53598" lon="8.73744">
        <ele>383</ele>
        <time>2026-05-14T12:49:33+00:00</time>
      </trkpt>
      <trkpt lat="42.53585" lon="8.73727">
        <ele>391</ele>
        <time>2026-05-14T12:49:34+00:00</time>
      </trkpt>
      <trkpt lat="42.53573" lon="8.73729">
        <ele>391</ele>
        <time>2026-05-14T12:49:35+00:00</time>
      </trkpt>
      <trkpt lat="42.53544" lon="8.73784">
        <ele>390</ele>
        <time>2026-05-14T12:49:36+00:00</time>
      </trkpt>
      <trkpt lat="42.5351" lon="8.73828">
        <ele>392</ele>
        <time>2026-05-14T12:49:37+00:00</time>
      </trkpt>
      <trkpt lat="42.53501" lon="8.73859">
        <ele>399</ele>
        <time>2026-05-14T12:49:38+00:00</time>
      </trkpt>
      <trkpt lat="42.53458" lon="8.73919">
        <ele>399</ele>
        <time>2026-05-14T12:49:39+00:00</time>
      </trkpt>
      <trkpt lat="42.53457" lon="8.73936">
        <ele>404</ele>
        <time>2026-05-14T12:49:40+00:00</time>
      </trkpt>
      <trkpt lat="42.53438" lon="8.73953">
        <ele>404</ele>
        <time>2026-05-14T12:49:41+00:00</time>
      </trkpt>
      <trkpt lat="42.53435" lon="8.73964">
        <ele>406</ele>
        <time>2026-05-14T12:49:42+00:00</time>
      </trkpt>
      <trkpt lat="42.53437" lon="8.73977">
        <ele>412</ele>
        <time>2026-05-14T12:49:43+00:00</time>
      </trkpt>
      <trkpt lat="42.53403" lon="8.7402">
        <ele>416</ele>
        <time>2026-05-14T12:49:44+00:00</time>
      </trkpt>
      <trkpt lat="42.53402" lon="8.74029">
        <ele>418</ele>
        <time>2026-05-14T12:49:45+00:00</time>
      </trkpt>
      <trkpt lat="42.53398" lon="8.7403">
        <ele>418</ele>
        <time>2026-05-14T12:49:46+00:00</time>
      </trkpt>
      <trkpt lat="42.53385" lon="8.74065">
        <ele>424</ele>
        <time>2026-05-14T12:49:47+00:00</time>
      </trkpt>
      <trkpt lat="42.53386" lon="8.74083">
        <ele>429</ele>
        <time>2026-05-14T12:49:48+00:00</time>
      </trkpt>
      <trkpt lat="42.53357" lon="8.74142">
        <ele>437</ele>
        <time>2026-05-14T12:49:49+00:00</time>
      </trkpt>
      <trkpt lat="42.53359" lon="8.74152">
        <ele>439</ele>
        <time>2026-05-14T12:49:50+00:00</time>
      </trkpt>
      <trkpt lat="42.53353" lon="8.74178">
        <ele>445</ele>
        <time>2026-05-14T12:49:51+00:00</time>
      </trkpt>
      <trkpt lat="42.53344" lon="8.74191">
        <ele>449</ele>
        <time>2026-05-14T12:49:52+00:00</time>
      </trkpt>
      <trkpt lat="42.53338" lon="8.74192">
        <ele>450</ele>
        <time>2026-05-14T12:49:53+00:00</time>
      </trkpt>
      <trkpt lat="42.53337" lon="8.74198">
        <ele>452</ele>
        <time>2026-05-14T12:49:54+00:00</time>
      </trkpt>
      <trkpt lat="42.53335" lon="8.74195">
        <ele>452</ele>
        <time>2026-05-14T12:49:55+00:00</time>
      </trkpt>
      <trkpt lat="42.53309" lon="8.74209">
        <ele>459</ele>
        <time>2026-05-14T12:49:56+00:00</time>
      </trkpt>
      <trkpt lat="42.53309" lon="8.74225">
        <ele>463</ele>
        <time>2026-05-14T12:49:57+00:00</time>
      </trkpt>
      <trkpt lat="42.53286" lon="8.74269">
        <ele>473</ele>
        <time>2026-05-14T12:49:58+00:00</time>
      </trkpt>
      <trkpt lat="42.53278" lon="8.74301">
        <ele>476</ele>
        <time>2026-05-14T12:49:59+00:00</time>
      </trkpt>
      <trkpt lat="42.53247" lon="8.74327">
        <ele>489</ele>
        <time>2026-05-14T12:50:00+00:00</time>
      </trkpt>
      <trkpt lat="42.53239" lon="8.74349">
        <ele>491</ele>
        <time>2026-05-14T12:50:01+00:00</time>
      </trkpt>
      <trkpt lat="42.53234" lon="8.74352">
        <ele>493</ele>
        <time>2026-05-14T12:50:02+00:00</time>
      </trkpt>
      <trkpt lat="42.53226" lon="8.74349">
        <ele>498</ele>
        <time>2026-05-14T12:50:03+00:00</time>
      </trkpt>
      <trkpt lat="42.53215" lon="8.74351">
        <ele>503</ele>
        <time>2026-05-14T12:50:04+00:00</time>
      </trkpt>
      <trkpt lat="42.53212" lon="8.74358">
        <ele>504</ele>
        <time>2026-05-14T12:50:05+00:00</time>
      </trkpt>
      <trkpt lat="42.53203" lon="8.74361">
        <ele>509</ele>
        <time>2026-05-14T12:50:06+00:00</time>
      </trkpt>
      <trkpt lat="42.53187" lon="8.74388">
        <ele>518</ele>
        <time>2026-05-14T12:50:07+00:00</time>
      </trkpt>
      <trkpt lat="42.53179" lon="8.74385">
        <ele>523</ele>
        <time>2026-05-14T12:50:08+00:00</time>
      </trkpt>
      <trkpt lat="42.53166" lon="8.74396">
        <ele>532</ele>
        <time>2026-05-14T12:50:09+00:00</time>
      </trkpt>
      <trkpt lat="42.53161" lon="8.74392">
        <ele>534</ele>
        <time>2026-05-14T12:50:10+00:00</time>
      </trkpt>
      <trkpt lat="42.53145" lon="8.74397">
        <ele>544</ele>
        <time>2026-05-14T12:50:11+00:00</time>
      </trkpt>
      <trkpt lat="42.53135" lon="8.7441">
        <ele>550</ele>
        <time>2026-05-14T12:50:12+00:00</time>
      </trkpt>
      <trkpt lat="42.53125" lon="8.74413">
        <ele>556</ele>
        <time>2026-05-14T12:50:13+00:00</time>
      </trkpt>
      <trkpt lat="42.53097" lon="8.74395">
        <ele>572</ele>
        <time>2026-05-14T12:50:14+00:00</time>
      </trkpt>
      <trkpt lat="42.53081" lon="8.74399">
        <ele>581</ele>
        <time>2026-05-14T12:50:15+00:00</time>
      </trkpt>
      <trkpt lat="42.53075" lon="8.74394">
        <ele>585</ele>
        <time>2026-05-14T12:50:16+00:00</time>
      </trkpt>
      <trkpt lat="42.53066" lon="8.74408">
        <ele>591</ele>
        <time>2026-05-14T12:50:17+00:00</time>
      </trkpt>
      <trkpt lat="42.53053" lon="8.74408">
        <ele>599</ele>
        <time>2026-05-14T12:50:18+00:00</time>
      </trkpt>
      <trkpt lat="42.5305" lon="8.74403">
        <ele>601</ele>
        <time>2026-05-14T12:50:19+00:00</time>
      </trkpt>
      <trkpt lat="42.53035" lon="8.74423">
        <ele>611</ele>
        <time>2026-05-14T12:50:20+00:00</time>
      </trkpt>
      <trkpt lat="42.53031" lon="8.74415">
        <ele>614</ele>
        <time>2026-05-14T12:50:21+00:00</time>
      </trkpt>
      <trkpt lat="42.53024" lon="8.74421">
        <ele>618</ele>
        <time>2026-05-14T12:50:22+00:00</time>
      </trkpt>
      <trkpt lat="42.53014" lon="8.74422">
        <ele>624</ele>
        <time>2026-05-14T12:50:23+00:00</time>
      </trkpt>
      <trkpt lat="42.52989" lon="8.7441">
        <ele>641</ele>
        <time>2026-05-14T12:50:24+00:00</time>
      </trkpt>
      <trkpt lat="42.52963" lon="8.74416">
        <ele>658</ele>
        <time>2026-05-14T12:50:25+00:00</time>
      </trkpt>
      <trkpt lat="42.52942" lon="8.74431">
        <ele>669</ele>
        <time>2026-05-14T12:50:26+00:00</time>
      </trkpt>
      <trkpt lat="42.52911" lon="8.74423">
        <ele>685</ele>
        <time>2026-05-14T12:50:27+00:00</time>
      </trkpt>
      <trkpt lat="42.52904" lon="8.7441">
        <ele>682</ele>
        <time>2026-05-14T12:50:28+00:00</time>
      </trkpt>
      <trkpt lat="42.52917" lon="8.7439">
        <ele>683</ele>
        <time>2026-05-14T12:50:29+00:00</time>
      </trkpt>
      <trkpt lat="42.52921" lon="8.74391">
        <ele>681</ele>
        <time>2026-05-14T12:50:30+00:00</time>
      </trkpt>
      <trkpt lat="42.52926" lon="8.74383">
        <ele>677</ele>
        <time>2026-05-14T12:50:31+00:00</time>
      </trkpt>
      <trkpt lat="42.52931" lon="8.74383">
        <ele>674</ele>
        <time>2026-05-14T12:50:32+00:00</time>
      </trkpt>
    </trkseg>
  </trk>
</gpx>
