<?xml version="1.0" encoding="UTF-8"?>
<gpx xmlns="http://www.topografix.com/GPX/1/1" xmlns:xsi="http://www.w3.org/2001/XMLSchema-instance" version="1.1" creator="phpGPX/1.3.0" xsi:schemaLocation="http://www.topografix.com/GPX/1/1 http://www.topografix.com/GPX/1/1/gpx.xsd">
  <metadata>
    <time>2026-05-10T11:24:11+00:00</time>
  </metadata>
  <trk>
    <name>51 _ 3_La Ramasse à Clermont l’Hérault – BLEU</name>
    <trkseg>
      <trkpt lat="43.625676417723" lon="3.4230455383658">
        <ele>127</ele>
        <time>2026-05-10T11:24:12+00:00</time>
      </trkpt>
      <trkpt lat="43.625688655302" lon="3.4235478658229">
        <ele>126</ele>
        <time>2026-05-10T11:24:13+00:00</time>
      </trkpt>
      <trkpt lat="43.625654876232" lon="3.4236293379217">
        <ele>126</ele>
        <time>2026-05-10T11:24:14+00:00</time>
      </trkpt>
      <trkpt lat="43.625633921474" lon="3.4235997498035">
        <ele>127</ele>
        <time>2026-05-10T11:24:15+00:00</time>
      </trkpt>
      <trkpt lat="43.625690834597" lon="3.4238869976252">
        <ele>126</ele>
        <time>2026-05-10T11:24:16+00:00</time>
      </trkpt>
      <trkpt lat="43.625637274235" lon="3.42385455966">
        <ele>127</ele>
        <time>2026-05-10T11:24:17+00:00</time>
      </trkpt>
      <trkpt lat="43.625587988645" lon="3.4235211275518">
        <ele>127</ele>
        <time>2026-05-10T11:24:18+00:00</time>
      </trkpt>
      <trkpt lat="43.62539361231" lon="3.4228867851198">
        <ele>130</ele>
        <time>2026-05-10T11:24:19+00:00</time>
      </trkpt>
      <trkpt lat="43.625207114965" lon="3.4225176461041">
        <ele>132</ele>
        <time>2026-05-10T11:24:20+00:00</time>
      </trkpt>
      <trkpt lat="43.625045930967" lon="3.4222792647779">
        <ele>133</ele>
        <time>2026-05-10T11:24:21+00:00</time>
      </trkpt>
      <trkpt lat="43.624914754182" lon="3.4222297277302">
        <ele>135</ele>
        <time>2026-05-10T11:24:22+00:00</time>
      </trkpt>
      <trkpt lat="43.624876700342" lon="3.422144735232">
        <ele>136</ele>
        <time>2026-05-10T11:24:23+00:00</time>
      </trkpt>
      <trkpt lat="43.62464745529" lon="3.4220023266971">
        <ele>140</ele>
        <time>2026-05-10T11:24:24+00:00</time>
      </trkpt>
      <trkpt lat="43.624509740621" lon="3.4217884205282">
        <ele>142</ele>
        <time>2026-05-10T11:24:25+00:00</time>
      </trkpt>
      <trkpt lat="43.624450648203" lon="3.420876134187">
        <ele>139</ele>
        <time>2026-05-10T11:24:26+00:00</time>
      </trkpt>
      <trkpt lat="43.624370517209" lon="3.4204939194024">
        <ele>139</ele>
        <time>2026-05-10T11:24:27+00:00</time>
      </trkpt>
      <trkpt lat="43.624078240246" lon="3.419686909765">
        <ele>141</ele>
        <time>2026-05-10T11:24:28+00:00</time>
      </trkpt>
      <trkpt lat="43.624028619379" lon="3.4190477058291">
        <ele>140</ele>
        <time>2026-05-10T11:24:29+00:00</time>
      </trkpt>
      <trkpt lat="43.623418919742" lon="3.4188663214445">
        <ele>146</ele>
        <time>2026-05-10T11:24:30+00:00</time>
      </trkpt>
      <trkpt lat="43.622899493203" lon="3.4186154510826">
        <ele>153</ele>
        <time>2026-05-10T11:24:31+00:00</time>
      </trkpt>
      <trkpt lat="43.622393142432" lon="3.418336417526">
        <ele>159</ele>
        <time>2026-05-10T11:24:32+00:00</time>
      </trkpt>
      <trkpt lat="43.621704652905" lon="3.4178295638412">
        <ele>165</ele>
        <time>2026-05-10T11:24:33+00:00</time>
      </trkpt>
      <trkpt lat="43.621016582474" lon="3.4170195367187">
        <ele>168</ele>
        <time>2026-05-10T11:24:34+00:00</time>
      </trkpt>
      <trkpt lat="43.620171099901" lon="3.4162128623575">
        <ele>174</ele>
        <time>2026-05-10T11:24:35+00:00</time>
      </trkpt>
      <trkpt lat="43.619871530682" lon="3.415725370869">
        <ele>176</ele>
        <time>2026-05-10T11:24:36+00:00</time>
      </trkpt>
      <trkpt lat="43.619355540723" lon="3.415088430047">
        <ele>183</ele>
        <time>2026-05-10T11:24:37+00:00</time>
      </trkpt>
      <trkpt lat="43.619068795815" lon="3.4149177744985">
        <ele>186</ele>
        <time>2026-05-10T11:24:38+00:00</time>
      </trkpt>
      <trkpt lat="43.61893510446" lon="3.4150201175362">
        <ele>186</ele>
        <time>2026-05-10T11:24:39+00:00</time>
      </trkpt>
      <trkpt lat="43.618930578232" lon="3.4149697422981">
        <ele>186</ele>
        <time>2026-05-10T11:24:40+00:00</time>
      </trkpt>
      <trkpt lat="43.618917502463" lon="3.4150409046561">
        <ele>186</ele>
        <time>2026-05-10T11:24:41+00:00</time>
      </trkpt>
      <trkpt lat="43.618849525228" lon="3.4150024317205">
        <ele>186</ele>
        <time>2026-05-10T11:24:42+00:00</time>
      </trkpt>
      <trkpt lat="43.618934350088" lon="3.4150498732924">
        <ele>186</ele>
        <time>2026-05-10T11:24:43+00:00</time>
      </trkpt>
      <trkpt lat="43.618909539655" lon="3.4150062035769">
        <ele>186</ele>
        <time>2026-05-10T11:24:44+00:00</time>
      </trkpt>
      <trkpt lat="43.618822703138" lon="3.4153132326901">
        <ele>189</ele>
        <time>2026-05-10T11:24:45+00:00</time>
      </trkpt>
      <trkpt lat="43.618843071163" lon="3.4156615007669">
        <ele>193</ele>
        <time>2026-05-10T11:24:46+00:00</time>
      </trkpt>
      <trkpt lat="43.618991849944" lon="3.416018569842">
        <ele>195</ele>
        <time>2026-05-10T11:24:47+00:00</time>
      </trkpt>
      <trkpt lat="43.618980199099" lon="3.4161304682493">
        <ele>197</ele>
        <time>2026-05-10T11:24:48+00:00</time>
      </trkpt>
      <trkpt lat="43.618864612654" lon="3.4161627385765">
        <ele>200</ele>
        <time>2026-05-10T11:24:49+00:00</time>
      </trkpt>
      <trkpt lat="43.618517434224" lon="3.4157456550747">
        <ele>200</ele>
        <time>2026-05-10T11:24:50+00:00</time>
      </trkpt>
      <trkpt lat="43.618514416739" lon="3.4158566314727">
        <ele>203</ele>
        <time>2026-05-10T11:24:51+00:00</time>
      </trkpt>
      <trkpt lat="43.618828067556" lon="3.4165199752897">
        <ele>207</ele>
        <time>2026-05-10T11:24:52+00:00</time>
      </trkpt>
      <trkpt lat="43.619456542656" lon="3.4173279907554">
        <ele>207</ele>
        <time>2026-05-10T11:24:53+00:00</time>
      </trkpt>
      <trkpt lat="43.620067834854" lon="3.418587371707">
        <ele>210</ele>
        <time>2026-05-10T11:24:54+00:00</time>
      </trkpt>
      <trkpt lat="43.62009675242" lon="3.4188099112362">
        <ele>210</ele>
        <time>2026-05-10T11:24:55+00:00</time>
      </trkpt>
      <trkpt lat="43.620042102411" lon="3.4189696703106">
        <ele>213</ele>
        <time>2026-05-10T11:24:56+00:00</time>
      </trkpt>
      <trkpt lat="43.619841942564" lon="3.4191981609911">
        <ele>220</ele>
        <time>2026-05-10T11:24:57+00:00</time>
      </trkpt>
      <trkpt lat="43.619641615078" lon="3.4193051978946">
        <ele>227</ele>
        <time>2026-05-10T11:24:58+00:00</time>
      </trkpt>
      <trkpt lat="43.619484454393" lon="3.4194488637149">
        <ele>232</ele>
        <time>2026-05-10T11:24:59+00:00</time>
      </trkpt>
      <trkpt lat="43.619472887367" lon="3.4196222014725">
        <ele>234</ele>
        <time>2026-05-10T11:25:00+00:00</time>
      </trkpt>
      <trkpt lat="43.61980414018" lon="3.4200188331306">
        <ele>229</ele>
        <time>2026-05-10T11:25:01+00:00</time>
      </trkpt>
      <trkpt lat="43.61975912936" lon="3.4200704656541">
        <ele>232</ele>
        <time>2026-05-10T11:25:02+00:00</time>
      </trkpt>
      <trkpt lat="43.619945961982" lon="3.420249754563">
        <ele>231</ele>
        <time>2026-05-10T11:25:03+00:00</time>
      </trkpt>
      <trkpt lat="43.620344018564" lon="3.4205328114331">
        <ele>232</ele>
        <time>2026-05-10T11:25:04+00:00</time>
      </trkpt>
      <trkpt lat="43.620791612193" lon="3.4207628108561">
        <ele>233</ele>
        <time>2026-05-10T11:25:05+00:00</time>
      </trkpt>
      <trkpt lat="43.621017672122" lon="3.4209480509162">
        <ele>233</ele>
        <time>2026-05-10T11:25:06+00:00</time>
      </trkpt>
      <trkpt lat="43.621244234964" lon="3.4212891105562">
        <ele>234</ele>
        <time>2026-05-10T11:25:07+00:00</time>
      </trkpt>
      <trkpt lat="43.621354205534" lon="3.4216026775539">
        <ele>236</ele>
        <time>2026-05-10T11:25:08+00:00</time>
      </trkpt>
      <trkpt lat="43.62134071067" lon="3.4217840619385">
        <ele>237</ele>
        <time>2026-05-10T11:25:09+00:00</time>
      </trkpt>
      <trkpt lat="43.621278097853" lon="3.4218988101929">
        <ele>238</ele>
        <time>2026-05-10T11:25:10+00:00</time>
      </trkpt>
      <trkpt lat="43.621330820024" lon="3.4218264743686">
        <ele>237</ele>
        <time>2026-05-10T11:25:11+00:00</time>
      </trkpt>
      <trkpt lat="43.621344817802" lon="3.421634696424">
        <ele>237</ele>
        <time>2026-05-10T11:25:12+00:00</time>
      </trkpt>
      <trkpt lat="43.621398964897" lon="3.4216508734971">
        <ele>236</ele>
        <time>2026-05-10T11:25:13+00:00</time>
      </trkpt>
      <trkpt lat="43.621503906325" lon="3.4218267258257">
        <ele>235</ele>
        <time>2026-05-10T11:25:14+00:00</time>
      </trkpt>
      <trkpt lat="43.621592670679" lon="3.422094443813">
        <ele>233</ele>
        <time>2026-05-10T11:25:15+00:00</time>
      </trkpt>
      <trkpt lat="43.621588395908" lon="3.422242635861">
        <ele>233</ele>
        <time>2026-05-10T11:25:16+00:00</time>
      </trkpt>
      <trkpt lat="43.621218083426" lon="3.4234234783798">
        <ele>228</ele>
        <time>2026-05-10T11:25:17+00:00</time>
      </trkpt>
      <trkpt lat="43.621197966859" lon="3.423619531095">
        <ele>229</ele>
        <time>2026-05-10T11:25:18+00:00</time>
      </trkpt>
      <trkpt lat="43.62126192078" lon="3.4239143226296">
        <ele>228</ele>
        <time>2026-05-10T11:25:19+00:00</time>
      </trkpt>
      <trkpt lat="43.621483789757" lon="3.4242473356426">
        <ele>227</ele>
        <time>2026-05-10T11:25:20+00:00</time>
      </trkpt>
      <trkpt lat="43.621918894351" lon="3.424684619531">
        <ele>225</ele>
        <time>2026-05-10T11:25:21+00:00</time>
      </trkpt>
      <trkpt lat="43.622051328421" lon="3.4248670935631">
        <ele>224</ele>
        <time>2026-05-10T11:25:22+00:00</time>
      </trkpt>
      <trkpt lat="43.622271521017" lon="3.4255719278008">
        <ele>225</ele>
        <time>2026-05-10T11:25:23+00:00</time>
      </trkpt>
      <trkpt lat="43.622351316735" lon="3.4260069485754">
        <ele>229</ele>
        <time>2026-05-10T11:25:24+00:00</time>
      </trkpt>
      <trkpt lat="43.622598666698" lon="3.4263636823744">
        <ele>231</ele>
        <time>2026-05-10T11:25:25+00:00</time>
      </trkpt>
      <trkpt lat="43.622760856524" lon="3.4264801908284">
        <ele>231</ele>
        <time>2026-05-10T11:25:26+00:00</time>
      </trkpt>
      <trkpt lat="43.62294819206" lon="3.4265241958201">
        <ele>229</ele>
        <time>2026-05-10T11:25:27+00:00</time>
      </trkpt>
      <trkpt lat="43.623430486768" lon="3.4264201764017">
        <ele>220</ele>
        <time>2026-05-10T11:25:28+00:00</time>
      </trkpt>
      <trkpt lat="43.623515982181" lon="3.4264331683517">
        <ele>220</ele>
        <time>2026-05-10T11:25:29+00:00</time>
      </trkpt>
      <trkpt lat="43.623636597767" lon="3.426484214142">
        <ele>220</ele>
        <time>2026-05-10T11:25:30+00:00</time>
      </trkpt>
      <trkpt lat="43.624082850292" lon="3.4268184844404">
        <ele>220</ele>
        <time>2026-05-10T11:25:31+00:00</time>
      </trkpt>
      <trkpt lat="43.624114533886" lon="3.4268065821379">
        <ele>219</ele>
        <time>2026-05-10T11:25:32+00:00</time>
      </trkpt>
      <trkpt lat="43.624249985442" lon="3.4270547702909">
        <ele>213</ele>
        <time>2026-05-10T11:25:33+00:00</time>
      </trkpt>
      <trkpt lat="43.623832231387" lon="3.4281437471509">
        <ele>215</ele>
        <time>2026-05-10T11:25:34+00:00</time>
      </trkpt>
      <trkpt lat="43.623631233349" lon="3.4287780895829">
        <ele>212</ele>
        <time>2026-05-10T11:25:35+00:00</time>
      </trkpt>
      <trkpt lat="43.623485388234" lon="3.4290440473706">
        <ele>212</ele>
        <time>2026-05-10T11:25:36+00:00</time>
      </trkpt>
      <trkpt lat="43.623163942248" lon="3.4293723665178">
        <ele>212</ele>
        <time>2026-05-10T11:25:37+00:00</time>
      </trkpt>
      <trkpt lat="43.62302605994" lon="3.4294535871595">
        <ele>211</ele>
        <time>2026-05-10T11:25:38+00:00</time>
      </trkpt>
      <trkpt lat="43.622728753835" lon="3.42937823385">
        <ele>213</ele>
        <time>2026-05-10T11:25:39+00:00</time>
      </trkpt>
      <trkpt lat="43.622613754123" lon="3.4293023776263">
        <ele>214</ele>
        <time>2026-05-10T11:25:40+00:00</time>
      </trkpt>
      <trkpt lat="43.622428430244" lon="3.429127112031">
        <ele>216</ele>
        <time>2026-05-10T11:25:41+00:00</time>
      </trkpt>
      <trkpt lat="43.622179068625" lon="3.4286597371101">
        <ele>220</ele>
        <time>2026-05-10T11:25:42+00:00</time>
      </trkpt>
      <trkpt lat="43.621997851878" lon="3.4284871537238">
        <ele>220</ele>
        <time>2026-05-10T11:25:43+00:00</time>
      </trkpt>
      <trkpt lat="43.621768774465" lon="3.4284509439021">
        <ele>218</ele>
        <time>2026-05-10T11:25:44+00:00</time>
      </trkpt>
      <trkpt lat="43.62117106095" lon="3.4285904187709">
        <ele>214</ele>
        <time>2026-05-10T11:25:45+00:00</time>
      </trkpt>
      <trkpt lat="43.620892195031" lon="3.4286045841873">
        <ele>213</ele>
        <time>2026-05-10T11:25:46+00:00</time>
      </trkpt>
      <trkpt lat="43.620722880587" lon="3.4285438153893">
        <ele>212</ele>
        <time>2026-05-10T11:25:47+00:00</time>
      </trkpt>
      <trkpt lat="43.620598493144" lon="3.428416326642">
        <ele>210</ele>
        <time>2026-05-10T11:25:48+00:00</time>
      </trkpt>
      <trkpt lat="43.620526073501" lon="3.4282854013145">
        <ele>209</ele>
        <time>2026-05-10T11:25:49+00:00</time>
      </trkpt>
      <trkpt lat="43.620504867285" lon="3.4277518093586">
        <ele>211</ele>
        <time>2026-05-10T11:25:50+00:00</time>
      </trkpt>
      <trkpt lat="43.620878867805" lon="3.4263774286956">
        <ele>224</ele>
        <time>2026-05-10T11:25:51+00:00</time>
      </trkpt>
      <trkpt lat="43.620937624946" lon="3.4259128198028">
        <ele>226</ele>
        <time>2026-05-10T11:25:52+00:00</time>
      </trkpt>
      <trkpt lat="43.620800580829" lon="3.4253778029233">
        <ele>227</ele>
        <time>2026-05-10T11:25:53+00:00</time>
      </trkpt>
      <trkpt lat="43.620519116521" lon="3.4246715437621">
        <ele>228</ele>
        <time>2026-05-10T11:25:54+00:00</time>
      </trkpt>
      <trkpt lat="43.620462873951" lon="3.4241087827832">
        <ele>232</ele>
        <time>2026-05-10T11:25:55+00:00</time>
      </trkpt>
      <trkpt lat="43.620351143181" lon="3.4239527117461">
        <ele>233</ele>
        <time>2026-05-10T11:25:56+00:00</time>
      </trkpt>
      <trkpt lat="43.620186690241" lon="3.4239918552339">
        <ele>233</ele>
        <time>2026-05-10T11:25:57+00:00</time>
      </trkpt>
      <trkpt lat="43.619159068912" lon="3.4253888670355">
        <ele>231</ele>
        <time>2026-05-10T11:25:58+00:00</time>
      </trkpt>
      <trkpt lat="43.618112923577" lon="3.4272595401853">
        <ele>224</ele>
        <time>2026-05-10T11:25:59+00:00</time>
      </trkpt>
      <trkpt lat="43.617686033249" lon="3.427618118003">
        <ele>223</ele>
        <time>2026-05-10T11:26:00+00:00</time>
      </trkpt>
      <trkpt lat="43.617547061294" lon="3.4275999292731">
        <ele>225</ele>
        <time>2026-05-10T11:26:01+00:00</time>
      </trkpt>
      <trkpt lat="43.617429127917" lon="3.4273699298501">
        <ele>227</ele>
        <time>2026-05-10T11:26:02+00:00</time>
      </trkpt>
      <trkpt lat="43.617409849539" lon="3.4271403495222">
        <ele>228</ele>
        <time>2026-05-10T11:26:03+00:00</time>
      </trkpt>
      <trkpt lat="43.617472546175" lon="3.4265062585473">
        <ele>232</ele>
        <time>2026-05-10T11:26:04+00:00</time>
      </trkpt>
      <trkpt lat="43.617454441264" lon="3.4260238800198">
        <ele>235</ele>
        <time>2026-05-10T11:26:05+00:00</time>
      </trkpt>
      <trkpt lat="43.617433067411" lon="3.4257088042796">
        <ele>237</ele>
        <time>2026-05-10T11:26:06+00:00</time>
      </trkpt>
      <trkpt lat="43.617356456816" lon="3.4256138373166">
        <ele>238</ele>
        <time>2026-05-10T11:26:07+00:00</time>
      </trkpt>
      <trkpt lat="43.617045488209" lon="3.4260513726622">
        <ele>236</ele>
        <time>2026-05-10T11:26:08+00:00</time>
      </trkpt>
      <trkpt lat="43.616860751063" lon="3.4262337628752">
        <ele>234</ele>
        <time>2026-05-10T11:26:09+00:00</time>
      </trkpt>
      <trkpt lat="43.616668386385" lon="3.4263675380498">
        <ele>233</ele>
        <time>2026-05-10T11:26:10+00:00</time>
      </trkpt>
      <trkpt lat="43.616486247629" lon="3.4263965394348">
        <ele>232</ele>
        <time>2026-05-10T11:26:11+00:00</time>
      </trkpt>
      <trkpt lat="43.616393879056" lon="3.4263527020812">
        <ele>232</ele>
        <time>2026-05-10T11:26:12+00:00</time>
      </trkpt>
      <trkpt lat="43.616290697828" lon="3.4262342657894">
        <ele>234</ele>
        <time>2026-05-10T11:26:13+00:00</time>
      </trkpt>
      <trkpt lat="43.615916026756" lon="3.4253154415637">
        <ele>241</ele>
        <time>2026-05-10T11:26:14+00:00</time>
      </trkpt>
      <trkpt lat="43.615800272673" lon="3.4252645634115">
        <ele>241</ele>
        <time>2026-05-10T11:26:15+00:00</time>
      </trkpt>
      <trkpt lat="43.615634227172" lon="3.4254710935056">
        <ele>241</ele>
        <time>2026-05-10T11:26:16+00:00</time>
      </trkpt>
      <trkpt lat="43.615398276597" lon="3.4260849002749">
        <ele>237</ele>
        <time>2026-05-10T11:26:17+00:00</time>
      </trkpt>
      <trkpt lat="43.615242373198" lon="3.4262520354241">
        <ele>236</ele>
        <time>2026-05-10T11:26:18+00:00</time>
      </trkpt>
      <trkpt lat="43.615022599697" lon="3.426381116733">
        <ele>235</ele>
        <time>2026-05-10T11:26:19+00:00</time>
      </trkpt>
      <trkpt lat="43.614761838689" lon="3.4263081103563">
        <ele>234</ele>
        <time>2026-05-10T11:26:20+00:00</time>
      </trkpt>
      <trkpt lat="43.614650862291" lon="3.4262009058148">
        <ele>234</ele>
        <time>2026-05-10T11:26:21+00:00</time>
      </trkpt>
      <trkpt lat="43.614568803459" lon="3.4260460082442">
        <ele>235</ele>
        <time>2026-05-10T11:26:22+00:00</time>
      </trkpt>
      <trkpt lat="43.614531923085" lon="3.4257353749126">
        <ele>238</ele>
        <time>2026-05-10T11:26:23+00:00</time>
      </trkpt>
      <trkpt lat="43.614558912814" lon="3.4249395970255">
        <ele>245</ele>
        <time>2026-05-10T11:26:24+00:00</time>
      </trkpt>
      <trkpt lat="43.614625548944" lon="3.4244260378182">
        <ele>250</ele>
        <time>2026-05-10T11:26:25+00:00</time>
      </trkpt>
      <trkpt lat="43.614774327725" lon="3.4238412324339">
        <ele>256</ele>
        <time>2026-05-10T11:26:26+00:00</time>
      </trkpt>
      <trkpt lat="43.614878095686" lon="3.4231508150697">
        <ele>263</ele>
        <time>2026-05-10T11:26:27+00:00</time>
      </trkpt>
      <trkpt lat="43.61481548287" lon="3.4226272813976">
        <ele>268</ele>
        <time>2026-05-10T11:26:28+00:00</time>
      </trkpt>
      <trkpt lat="43.61482495442" lon="3.4220702201128">
        <ele>271</ele>
        <time>2026-05-10T11:26:29+00:00</time>
      </trkpt>
      <trkpt lat="43.614332685247" lon="3.4199159871787">
        <ele>259</ele>
        <time>2026-05-10T11:26:30+00:00</time>
      </trkpt>
      <trkpt lat="43.614222547039" lon="3.419697470963">
        <ele>258</ele>
        <time>2026-05-10T11:26:31+00:00</time>
      </trkpt>
      <trkpt lat="43.613930270076" lon="3.4193832334131">
        <ele>253</ele>
        <time>2026-05-10T11:26:32+00:00</time>
      </trkpt>
      <trkpt lat="43.613773277029" lon="3.4190987516195">
        <ele>252</ele>
        <time>2026-05-10T11:26:33+00:00</time>
      </trkpt>
      <trkpt lat="43.613531375304" lon="3.4184626489878">
        <ele>252</ele>
        <time>2026-05-10T11:26:34+00:00</time>
      </trkpt>
      <trkpt lat="43.613377986476" lon="3.4179474133998">
        <ele>253</ele>
        <time>2026-05-10T11:26:35+00:00</time>
      </trkpt>
      <trkpt lat="43.613348063082" lon="3.4176724031568">
        <ele>254</ele>
        <time>2026-05-10T11:26:36+00:00</time>
      </trkpt>
      <trkpt lat="43.613393409178" lon="3.4171244781464">
        <ele>254</ele>
        <time>2026-05-10T11:26:37+00:00</time>
      </trkpt>
      <trkpt lat="43.613665821031" lon="3.4161920752376">
        <ele>253</ele>
        <time>2026-05-10T11:26:38+00:00</time>
      </trkpt>
      <trkpt lat="43.613752322271" lon="3.4156484249979">
        <ele>250</ele>
        <time>2026-05-10T11:26:39+00:00</time>
      </trkpt>
      <trkpt lat="43.61394032836" lon="3.4156902506948">
        <ele>253</ele>
        <time>2026-05-10T11:26:40+00:00</time>
      </trkpt>
      <trkpt lat="43.613776545972" lon="3.415735764429">
        <ele>251</ele>
        <time>2026-05-10T11:26:41+00:00</time>
      </trkpt>
      <trkpt lat="43.613737234846" lon="3.4157019853592">
        <ele>251</ele>
        <time>2026-05-10T11:26:42+00:00</time>
      </trkpt>
      <trkpt lat="43.613923648372" lon="3.4155796933919">
        <ele>251</ele>
        <time>2026-05-10T11:26:43+00:00</time>
      </trkpt>
      <trkpt lat="43.613930102438" lon="3.4154039248824">
        <ele>250</ele>
        <time>2026-05-10T11:26:44+00:00</time>
      </trkpt>
      <trkpt lat="43.613774618134" lon="3.4148950595409">
        <ele>243</ele>
        <time>2026-05-10T11:26:45+00:00</time>
      </trkpt>
      <trkpt lat="43.613692056388" lon="3.4147958178073">
        <ele>241</ele>
        <time>2026-05-10T11:26:46+00:00</time>
      </trkpt>
      <trkpt lat="43.613284025341" lon="3.4149373043329">
        <ele>240</ele>
        <time>2026-05-10T11:26:47+00:00</time>
      </trkpt>
      <trkpt lat="43.613176904619" lon="3.4150814730674">
        <ele>240</ele>
        <time>2026-05-10T11:26:48+00:00</time>
      </trkpt>
      <trkpt lat="43.613129714504" lon="3.415275933221">
        <ele>240</ele>
        <time>2026-05-10T11:26:49+00:00</time>
      </trkpt>
      <trkpt lat="43.613055367023" lon="3.4153035935014">
        <ele>238</ele>
        <time>2026-05-10T11:26:50+00:00</time>
      </trkpt>
      <trkpt lat="43.612798964605" lon="3.4144898783416">
        <ele>227</ele>
        <time>2026-05-10T11:26:51+00:00</time>
      </trkpt>
      <trkpt lat="43.61262797378" lon="3.4142910595983">
        <ele>223</ele>
        <time>2026-05-10T11:26:52+00:00</time>
      </trkpt>
      <trkpt lat="43.612345922738" lon="3.4142745472491">
        <ele>224</ele>
        <time>2026-05-10T11:26:53+00:00</time>
      </trkpt>
      <trkpt lat="43.612417504191" lon="3.4141872916371">
        <ele>223</ele>
        <time>2026-05-10T11:26:54+00:00</time>
      </trkpt>
      <trkpt lat="43.612732831389" lon="3.413999537006">
        <ele>221</ele>
        <time>2026-05-10T11:26:55+00:00</time>
      </trkpt>
      <trkpt lat="43.612804915756" lon="3.4138869680464">
        <ele>221</ele>
        <time>2026-05-10T11:26:56+00:00</time>
      </trkpt>
      <trkpt lat="43.612897619605" lon="3.4136293083429">
        <ele>218</ele>
        <time>2026-05-10T11:26:57+00:00</time>
      </trkpt>
      <trkpt lat="43.612948413938" lon="3.4132564812899">
        <ele>214</ele>
        <time>2026-05-10T11:26:58+00:00</time>
      </trkpt>
      <trkpt lat="43.61294564791" lon="3.4126303531229">
        <ele>204</ele>
        <time>2026-05-10T11:26:59+00:00</time>
      </trkpt>
      <trkpt lat="43.612882615998" lon="3.4121841005981">
        <ele>196</ele>
        <time>2026-05-10T11:27:00+00:00</time>
      </trkpt>
      <trkpt lat="43.61270332709" lon="3.4118397720158">
        <ele>189</ele>
        <time>2026-05-10T11:27:01+00:00</time>
      </trkpt>
      <trkpt lat="43.612662423402" lon="3.4109906852245">
        <ele>174</ele>
        <time>2026-05-10T11:27:02+00:00</time>
      </trkpt>
      <trkpt lat="43.612518254668" lon="3.4105994179845">
        <ele>167</ele>
        <time>2026-05-10T11:27:03+00:00</time>
      </trkpt>
      <trkpt lat="43.612205777317" lon="3.4104757849127">
        <ele>170</ele>
        <time>2026-05-10T11:27:04+00:00</time>
      </trkpt>
      <trkpt lat="43.611024180427" lon="3.4095005504787">
        <ele>172</ele>
        <time>2026-05-10T11:27:05+00:00</time>
      </trkpt>
      <trkpt lat="43.610922256485" lon="3.4094921685755">
        <ele>173</ele>
        <time>2026-05-10T11:27:06+00:00</time>
      </trkpt>
      <trkpt lat="43.610695358366" lon="3.4095613192767">
        <ele>177</ele>
        <time>2026-05-10T11:27:07+00:00</time>
      </trkpt>
      <trkpt lat="43.610558146611" lon="3.4095207508653">
        <ele>178</ele>
        <time>2026-05-10T11:27:08+00:00</time>
      </trkpt>
      <trkpt lat="43.610499640927" lon="3.4094094391912">
        <ele>175</ele>
        <time>2026-05-10T11:27:09+00:00</time>
      </trkpt>
      <trkpt lat="43.610496539623" lon="3.4093364328146">
        <ele>174</ele>
        <time>2026-05-10T11:27:10+00:00</time>
      </trkpt>
      <trkpt lat="43.610554374754" lon="3.4092646837234">
        <ele>172</ele>
        <time>2026-05-10T11:27:11+00:00</time>
      </trkpt>
      <trkpt lat="43.610516907647" lon="3.4092096984386">
        <ele>171</ele>
        <time>2026-05-10T11:27:12+00:00</time>
      </trkpt>
      <trkpt lat="43.610218428075" lon="3.4090465866029">
        <ele>170</ele>
        <time>2026-05-10T11:27:13+00:00</time>
      </trkpt>
      <trkpt lat="43.609557598829" lon="3.4090161602944">
        <ele>173</ele>
        <time>2026-05-10T11:27:14+00:00</time>
      </trkpt>
      <trkpt lat="43.60945022665" lon="3.409115569666">
        <ele>174</ele>
        <time>2026-05-10T11:27:15+00:00</time>
      </trkpt>
      <trkpt lat="43.60927445814" lon="3.409176338464">
        <ele>176</ele>
        <time>2026-05-10T11:27:16+00:00</time>
      </trkpt>
      <trkpt lat="43.6091584526" lon="3.4092950262129">
        <ele>179</ele>
        <time>2026-05-10T11:27:17+00:00</time>
      </trkpt>
      <trkpt lat="43.608997520059" lon="3.4093516878784">
        <ele>180</ele>
        <time>2026-05-10T11:27:18+00:00</time>
      </trkpt>
      <trkpt lat="43.608831642196" lon="3.4093848802149">
        <ele>181</ele>
        <time>2026-05-10T11:27:19+00:00</time>
      </trkpt>
      <trkpt lat="43.608693424612" lon="3.409385131672">
        <ele>181</ele>
        <time>2026-05-10T11:27:20+00:00</time>
      </trkpt>
      <trkpt lat="43.608612539247" lon="3.409342719242">
        <ele>180</ele>
        <time>2026-05-10T11:27:21+00:00</time>
      </trkpt>
      <trkpt lat="43.608412044123" lon="3.4093703795224">
        <ele>181</ele>
        <time>2026-05-10T11:27:22+00:00</time>
      </trkpt>
      <trkpt lat="43.608163436875" lon="3.4095180686563">
        <ele>183</ele>
        <time>2026-05-10T11:27:23+00:00</time>
      </trkpt>
      <trkpt lat="43.608054723591" lon="3.4095133747905">
        <ele>183</ele>
        <time>2026-05-10T11:27:24+00:00</time>
      </trkpt>
      <trkpt lat="43.608060255647" lon="3.4095401968807">
        <ele>183</ele>
        <time>2026-05-10T11:27:25+00:00</time>
      </trkpt>
      <trkpt lat="43.607728248462" lon="3.4094126243144">
        <ele>180</ele>
        <time>2026-05-10T11:27:26+00:00</time>
      </trkpt>
      <trkpt lat="43.607367407531" lon="3.4090902563184">
        <ele>172</ele>
        <time>2026-05-10T11:27:27+00:00</time>
      </trkpt>
      <trkpt lat="43.607085188851" lon="3.409091681242">
        <ele>170</ele>
        <time>2026-05-10T11:27:28+00:00</time>
      </trkpt>
      <trkpt lat="43.606708170846" lon="3.4092177450657">
        <ele>170</ele>
        <time>2026-05-10T11:27:29+00:00</time>
      </trkpt>
      <trkpt lat="43.60640575178" lon="3.4094992093742">
        <ele>172</ele>
        <time>2026-05-10T11:27:30+00:00</time>
      </trkpt>
      <trkpt lat="43.606158066541" lon="3.4096303023398">
        <ele>172</ele>
        <time>2026-05-10T11:27:31+00:00</time>
      </trkpt>
      <trkpt lat="43.606044994667" lon="3.4095925837755">
        <ele>170</ele>
        <time>2026-05-10T11:27:32+00:00</time>
      </trkpt>
      <trkpt lat="43.605904430151" lon="3.4094271250069">
        <ele>166</ele>
        <time>2026-05-10T11:27:33+00:00</time>
      </trkpt>
      <trkpt lat="43.605674598366" lon="3.4093214292079">
        <ele>162</ele>
        <time>2026-05-10T11:27:34+00:00</time>
      </trkpt>
      <trkpt lat="43.605567896739" lon="3.4092197567225">
        <ele>160</ele>
        <time>2026-05-10T11:27:35+00:00</time>
      </trkpt>
      <trkpt lat="43.6055694893" lon="3.4091651067138">
        <ele>159</ele>
        <time>2026-05-10T11:27:36+00:00</time>
      </trkpt>
      <trkpt lat="43.605655487627" lon="3.4090850595385">
        <ele>157</ele>
        <time>2026-05-10T11:27:37+00:00</time>
      </trkpt>
      <trkpt lat="43.605847517028" lon="3.4085510484874">
        <ele>148</ele>
        <time>2026-05-10T11:27:38+00:00</time>
      </trkpt>
      <trkpt lat="43.605946004391" lon="3.4081440232694">
        <ele>142</ele>
        <time>2026-05-10T11:27:39+00:00</time>
      </trkpt>
      <trkpt lat="43.606155216694" lon="3.4079440310597">
        <ele>141</ele>
        <time>2026-05-10T11:27:40+00:00</time>
      </trkpt>
      <trkpt lat="43.606230737641" lon="3.4078056458384">
        <ele>140</ele>
        <time>2026-05-10T11:27:41+00:00</time>
      </trkpt>
      <trkpt lat="43.606309192255" lon="3.4073494188488">
        <ele>136</ele>
        <time>2026-05-10T11:27:42+00:00</time>
      </trkpt>
      <trkpt lat="43.606504155323" lon="3.4067455865443">
        <ele>134</ele>
        <time>2026-05-10T11:27:43+00:00</time>
      </trkpt>
      <trkpt lat="43.60667665489" lon="3.4065937902778">
        <ele>134</ele>
        <time>2026-05-10T11:27:44+00:00</time>
      </trkpt>
      <trkpt lat="43.606891818345" lon="3.4062432590872">
        <ele>131</ele>
        <time>2026-05-10T11:27:45+00:00</time>
      </trkpt>
      <trkpt lat="43.607240337878" lon="3.4061700850725">
        <ele>129</ele>
        <time>2026-05-10T11:27:46+00:00</time>
      </trkpt>
      <trkpt lat="43.607238577679" lon="3.406129181385">
        <ele>129</ele>
        <time>2026-05-10T11:27:47+00:00</time>
      </trkpt>
      <trkpt lat="43.606997346506" lon="3.406097246334">
        <ele>129</ele>
        <time>2026-05-10T11:27:48+00:00</time>
      </trkpt>
      <trkpt lat="43.606446571648" lon="3.4058264270425">
        <ele>127</ele>
        <time>2026-05-10T11:27:49+00:00</time>
      </trkpt>
      <trkpt lat="43.606424694881" lon="3.4058669116348">
        <ele>127</ele>
        <time>2026-05-10T11:27:50+00:00</time>
      </trkpt>
      <trkpt lat="43.606420923024" lon="3.405798766762">
        <ele>127</ele>
        <time>2026-05-10T11:27:51+00:00</time>
      </trkpt>
      <trkpt lat="43.607349805534" lon="3.4051252808422">
        <ele>125</ele>
        <time>2026-05-10T11:27:52+00:00</time>
      </trkpt>
      <trkpt lat="43.607831932604" lon="3.4046962950379">
        <ele>125</ele>
        <time>2026-05-10T11:27:53+00:00</time>
      </trkpt>
      <trkpt lat="43.608067715541" lon="3.4046190138906">
        <ele>125</ele>
        <time>2026-05-10T11:27:54+00:00</time>
      </trkpt>
      <trkpt lat="43.608401399106" lon="3.4042948018759">
        <ele>125</ele>
        <time>2026-05-10T11:27:55+00:00</time>
      </trkpt>
      <trkpt lat="43.608637684956" lon="3.4038941469043">
        <ele>126</ele>
        <time>2026-05-10T11:27:56+00:00</time>
      </trkpt>
      <trkpt lat="43.609038339928" lon="3.4034079965204">
        <ele>127</ele>
        <time>2026-05-10T11:27:57+00:00</time>
      </trkpt>
      <trkpt lat="43.609212432057" lon="3.4032530151308">
        <ele>127</ele>
        <time>2026-05-10T11:27:58+00:00</time>
      </trkpt>
      <trkpt lat="43.609697576612" lon="3.4025496058166">
        <ele>132</ele>
        <time>2026-05-10T11:27:59+00:00</time>
      </trkpt>
      <trkpt lat="43.609732445329" lon="3.4024087060243">
        <ele>133</ele>
        <time>2026-05-10T11:28:00+00:00</time>
      </trkpt>
      <trkpt lat="43.609917936847" lon="3.4024215303361">
        <ele>134</ele>
        <time>2026-05-10T11:28:01+00:00</time>
      </trkpt>
      <trkpt lat="43.609964959323" lon="3.4022861625999">
        <ele>135</ele>
        <time>2026-05-10T11:28:02+00:00</time>
      </trkpt>
      <trkpt lat="43.610500562936" lon="3.4015450347215">
        <ele>138</ele>
        <time>2026-05-10T11:28:03+00:00</time>
      </trkpt>
      <trkpt lat="43.610543729737" lon="3.4013618063182">
        <ele>139</ele>
        <time>2026-05-10T11:28:04+00:00</time>
      </trkpt>
      <trkpt lat="43.610838269815" lon="3.4008579701185">
        <ele>141</ele>
        <time>2026-05-10T11:28:05+00:00</time>
      </trkpt>
      <trkpt lat="43.61175365746" lon="3.4002717398107">
        <ele>138</ele>
        <time>2026-05-10T11:28:06+00:00</time>
      </trkpt>
      <trkpt lat="43.612384144217" lon="3.3999881800264">
        <ele>138</ele>
        <time>2026-05-10T11:28:07+00:00</time>
      </trkpt>
      <trkpt lat="43.612413564697" lon="3.3998761978">
        <ele>139</ele>
        <time>2026-05-10T11:28:08+00:00</time>
      </trkpt>
      <trkpt lat="43.612374924123" lon="3.3996965736151">
        <ele>139</ele>
        <time>2026-05-10T11:28:09+00:00</time>
      </trkpt>
      <trkpt lat="43.612225307152" lon="3.3993064798415">
        <ele>140</ele>
        <time>2026-05-10T11:28:10+00:00</time>
      </trkpt>
      <trkpt lat="43.612338379025" lon="3.39933950454">
        <ele>140</ele>
        <time>2026-05-10T11:28:11+00:00</time>
      </trkpt>
      <trkpt lat="43.613242954016" lon="3.3987592253834">
        <ele>142</ele>
        <time>2026-05-10T11:28:12+00:00</time>
      </trkpt>
      <trkpt lat="43.614232689142" lon="3.398234769702">
        <ele>144</ele>
        <time>2026-05-10T11:28:13+00:00</time>
      </trkpt>
      <trkpt lat="43.614557990804" lon="3.3979870006442">
        <ele>145</ele>
        <time>2026-05-10T11:28:14+00:00</time>
      </trkpt>
      <trkpt lat="43.614648347721" lon="3.397965375334">
        <ele>145</ele>
        <time>2026-05-10T11:28:15+00:00</time>
      </trkpt>
      <trkpt lat="43.614695705473" lon="3.3980421535671">
        <ele>145</ele>
        <time>2026-05-10T11:28:16+00:00</time>
      </trkpt>
      <trkpt lat="43.614977924153" lon="3.3982222806662">
        <ele>144</ele>
        <time>2026-05-10T11:28:17+00:00</time>
      </trkpt>
      <trkpt lat="43.615383105353" lon="3.3989394363016">
        <ele>139</ele>
        <time>2026-05-10T11:28:18+00:00</time>
      </trkpt>
      <trkpt lat="43.615653757006" lon="3.3995328750461">
        <ele>137</ele>
        <time>2026-05-10T11:28:19+00:00</time>
      </trkpt>
      <trkpt lat="43.616099338979" lon="3.4002917725593">
        <ele>138</ele>
        <time>2026-05-10T11:28:20+00:00</time>
      </trkpt>
      <trkpt lat="43.61642640084" lon="3.4013815037906">
        <ele>137</ele>
        <time>2026-05-10T11:28:21+00:00</time>
      </trkpt>
      <trkpt lat="43.617240535095" lon="3.4032281208783">
        <ele>140</ele>
        <time>2026-05-10T11:28:22+00:00</time>
      </trkpt>
      <trkpt lat="43.61729468219" lon="3.4035362396389">
        <ele>142</ele>
        <time>2026-05-10T11:28:23+00:00</time>
      </trkpt>
      <trkpt lat="43.617281941697" lon="3.4038919676095">
        <ele>143</ele>
        <time>2026-05-10T11:28:24+00:00</time>
      </trkpt>
      <trkpt lat="43.617247575894" lon="3.4039270039648">
        <ele>143</ele>
        <time>2026-05-10T11:28:25+00:00</time>
      </trkpt>
      <trkpt lat="43.6172920838" lon="3.4037590306252">
        <ele>143</ele>
        <time>2026-05-10T11:28:26+00:00</time>
      </trkpt>
      <trkpt lat="43.617864483967" lon="3.403047407046">
        <ele>146</ele>
        <time>2026-05-10T11:28:27+00:00</time>
      </trkpt>
      <trkpt lat="43.618162460625" lon="3.4025438223034">
        <ele>147</ele>
        <time>2026-05-10T11:28:28+00:00</time>
      </trkpt>
      <trkpt lat="43.618275616318" lon="3.4022461809218">
        <ele>148</ele>
        <time>2026-05-10T11:28:29+00:00</time>
      </trkpt>
      <trkpt lat="43.618656741455" lon="3.4004432335496">
        <ele>146</ele>
        <time>2026-05-10T11:28:30+00:00</time>
      </trkpt>
      <trkpt lat="43.619090169668" lon="3.3987821917981">
        <ele>147</ele>
        <time>2026-05-10T11:28:31+00:00</time>
      </trkpt>
      <trkpt lat="43.619160326198" lon="3.3982015773654">
        <ele>148</ele>
        <time>2026-05-10T11:28:32+00:00</time>
      </trkpt>
      <trkpt lat="43.619425697252" lon="3.3973367325962">
        <ele>153</ele>
        <time>2026-05-10T11:28:33+00:00</time>
      </trkpt>
      <trkpt lat="43.619466768578" lon="3.3973301108927">
        <ele>153</ele>
        <time>2026-05-10T11:28:34+00:00</time>
      </trkpt>
      <trkpt lat="43.619642453268" lon="3.3974778000265">
        <ele>153</ele>
        <time>2026-05-10T11:28:35+00:00</time>
      </trkpt>
      <trkpt lat="43.619757285342" lon="3.3974946476519">
        <ele>153</ele>
        <time>2026-05-10T11:28:36+00:00</time>
      </trkpt>
      <trkpt lat="43.620664961636" lon="3.3974052965641">
        <ele>161</ele>
        <time>2026-05-10T11:28:37+00:00</time>
      </trkpt>
      <trkpt lat="43.620961681008" lon="3.3973188791424">
        <ele>165</ele>
        <time>2026-05-10T11:28:38+00:00</time>
      </trkpt>
      <trkpt lat="43.62110350281" lon="3.3974462002516">
        <ele>166</ele>
        <time>2026-05-10T11:28:39+00:00</time>
      </trkpt>
      <trkpt lat="43.621304417029" lon="3.3977499604225">
        <ele>168</ele>
        <time>2026-05-10T11:28:40+00:00</time>
      </trkpt>
      <trkpt lat="43.621373064816" lon="3.3979253936559">
        <ele>168</ele>
        <time>2026-05-10T11:28:41+00:00</time>
      </trkpt>
      <trkpt lat="43.62142469734" lon="3.3985181618482">
        <ele>167</ele>
        <time>2026-05-10T11:28:42+00:00</time>
      </trkpt>
      <trkpt lat="43.621354289353" lon="3.3991309627891">
        <ele>165</ele>
        <time>2026-05-10T11:28:43+00:00</time>
      </trkpt>
      <trkpt lat="43.620891608298" lon="3.3998466096818">
        <ele>166</ele>
        <time>2026-05-10T11:28:44+00:00</time>
      </trkpt>
      <trkpt lat="43.62057720311" lon="3.400246007368">
        <ele>167</ele>
        <time>2026-05-10T11:28:45+00:00</time>
      </trkpt>
      <trkpt lat="43.619571626186" lon="3.4021166805178">
        <ele>178</ele>
        <time>2026-05-10T11:28:46+00:00</time>
      </trkpt>
      <trkpt lat="43.619518233463" lon="3.4024864900857">
        <ele>181</ele>
        <time>2026-05-10T11:28:47+00:00</time>
      </trkpt>
      <trkpt lat="43.619555532932" lon="3.4031052421778">
        <ele>187</ele>
        <time>2026-05-10T11:28:48+00:00</time>
      </trkpt>
      <trkpt lat="43.61941899173" lon="3.4041699953377">
        <ele>187</ele>
        <time>2026-05-10T11:28:49+00:00</time>
      </trkpt>
      <trkpt lat="43.619470456615" lon="3.4046509489417">
        <ele>186</ele>
        <time>2026-05-10T11:28:50+00:00</time>
      </trkpt>
      <trkpt lat="43.619550084695" lon="3.4051215089858">
        <ele>184</ele>
        <time>2026-05-10T11:28:51+00:00</time>
      </trkpt>
      <trkpt lat="43.619598615915" lon="3.4052975289524">
        <ele>182</ele>
        <time>2026-05-10T11:28:52+00:00</time>
      </trkpt>
      <trkpt lat="43.61966131255" lon="3.4053726308048">
        <ele>182</ele>
        <time>2026-05-10T11:28:53+00:00</time>
      </trkpt>
      <trkpt lat="43.620032798499" lon="3.4055649954826">
        <ele>180</ele>
        <time>2026-05-10T11:28:54+00:00</time>
      </trkpt>
      <trkpt lat="43.620547614992" lon="3.4054814279079">
        <ele>177</ele>
        <time>2026-05-10T11:28:55+00:00</time>
      </trkpt>
      <trkpt lat="43.620710978284" lon="3.4055143687874">
        <ele>176</ele>
        <time>2026-05-10T11:28:56+00:00</time>
      </trkpt>
      <trkpt lat="43.620965285227" lon="3.4057188034058">
        <ele>172</ele>
        <time>2026-05-10T11:28:57+00:00</time>
      </trkpt>
      <trkpt lat="43.621246414259" lon="3.406131779775">
        <ele>168</ele>
        <time>2026-05-10T11:28:58+00:00</time>
      </trkpt>
      <trkpt lat="43.621571632102" lon="3.406998552382">
        <ele>164</ele>
        <time>2026-05-10T11:28:59+00:00</time>
      </trkpt>
      <trkpt lat="43.621591581032" lon="3.4073230996728">
        <ele>163</ele>
        <time>2026-05-10T11:29:00+00:00</time>
      </trkpt>
      <trkpt lat="43.621863070875" lon="3.4086077939719">
        <ele>161</ele>
        <time>2026-05-10T11:29:01+00:00</time>
      </trkpt>
      <trkpt lat="43.621991816908" lon="3.4090514481068">
        <ele>161</ele>
        <time>2026-05-10T11:29:02+00:00</time>
      </trkpt>
      <trkpt lat="43.622346790507" lon="3.4095812682062">
        <ele>160</ele>
        <time>2026-05-10T11:29:03+00:00</time>
      </trkpt>
      <trkpt lat="43.622782984748" lon="3.4104956500232">
        <ele>158</ele>
        <time>2026-05-10T11:29:04+00:00</time>
      </trkpt>
      <trkpt lat="43.622732022777" lon="3.4104912914336">
        <ele>158</ele>
        <time>2026-05-10T11:29:05+00:00</time>
      </trkpt>
      <trkpt lat="43.622733699158" lon="3.4105882700533">
        <ele>159</ele>
        <time>2026-05-10T11:29:06+00:00</time>
      </trkpt>
      <trkpt lat="43.622905360535" lon="3.4111100435257">
        <ele>155</ele>
        <time>2026-05-10T11:29:07+00:00</time>
      </trkpt>
      <trkpt lat="43.622945090756" lon="3.4113931842148">
        <ele>153</ele>
        <time>2026-05-10T11:29:08+00:00</time>
      </trkpt>
      <trkpt lat="43.622962776572" lon="3.4131050202996">
        <ele>147</ele>
        <time>2026-05-10T11:29:09+00:00</time>
      </trkpt>
      <trkpt lat="43.62307978794" lon="3.4140168875456">
        <ele>145</ele>
        <time>2026-05-10T11:29:10+00:00</time>
      </trkpt>
      <trkpt lat="43.623102083802" lon="3.4146484639496">
        <ele>143</ele>
        <time>2026-05-10T11:29:11+00:00</time>
      </trkpt>
      <trkpt lat="43.62311356701" lon="3.4142956696451">
        <ele>144</ele>
        <time>2026-05-10T11:29:12+00:00</time>
      </trkpt>
      <trkpt lat="43.623080877587" lon="3.4143519122154">
        <ele>144</ele>
        <time>2026-05-10T11:29:13+00:00</time>
      </trkpt>
      <trkpt lat="43.623167295009" lon="3.4147481247783">
        <ele>142</ele>
        <time>2026-05-10T11:29:14+00:00</time>
      </trkpt>
      <trkpt lat="43.623076183721" lon="3.4148526471108">
        <ele>143</ele>
        <time>2026-05-10T11:29:15+00:00</time>
      </trkpt>
      <trkpt lat="43.623009799048" lon="3.4152982290834">
        <ele>143</ele>
        <time>2026-05-10T11:29:16+00:00</time>
      </trkpt>
      <trkpt lat="43.623192692176" lon="3.41597372666">
        <ele>143</ele>
        <time>2026-05-10T11:29:17+00:00</time>
      </trkpt>
      <trkpt lat="43.623481951654" lon="3.4167182072997">
        <ele>141</ele>
        <time>2026-05-10T11:29:18+00:00</time>
      </trkpt>
      <trkpt lat="43.62352905795" lon="3.4167265053838">
        <ele>141</ele>
        <time>2026-05-10T11:29:19+00:00</time>
      </trkpt>
      <trkpt lat="43.623545821756" lon="3.4170034434646">
        <ele>141</ele>
        <time>2026-05-10T11:29:20+00:00</time>
      </trkpt>
      <trkpt lat="43.623818485066" lon="3.4174127317965">
        <ele>140</ele>
        <time>2026-05-10T11:29:21+00:00</time>
      </trkpt>
      <trkpt lat="43.623976483941" lon="3.4178112074733">
        <ele>139</ele>
        <time>2026-05-10T11:29:22+00:00</time>
      </trkpt>
      <trkpt lat="43.624088298529" lon="3.4185669198632">
        <ele>140</ele>
        <time>2026-05-10T11:29:23+00:00</time>
      </trkpt>
      <trkpt lat="43.624045969918" lon="3.4193031862378">
        <ele>141</ele>
        <time>2026-05-10T11:29:24+00:00</time>
      </trkpt>
      <trkpt lat="43.624072372913" lon="3.4196290746331">
        <ele>141</ele>
        <time>2026-05-10T11:29:25+00:00</time>
      </trkpt>
      <trkpt lat="43.624131800607" lon="3.4198810346425">
        <ele>141</ele>
        <time>2026-05-10T11:29:26+00:00</time>
      </trkpt>
      <trkpt lat="43.624436650425" lon="3.4205710329115">
        <ele>139</ele>
        <time>2026-05-10T11:29:27+00:00</time>
      </trkpt>
      <trkpt lat="43.624518038705" lon="3.4210545010865">
        <ele>139</ele>
        <time>2026-05-10T11:29:28+00:00</time>
      </trkpt>
      <trkpt lat="43.624534383416" lon="3.4217427391559">
        <ele>141</ele>
        <time>2026-05-10T11:29:29+00:00</time>
      </trkpt>
      <trkpt lat="43.624617280439" lon="3.421965111047">
        <ele>140</ele>
        <time>2026-05-10T11:29:30+00:00</time>
      </trkpt>
      <trkpt lat="43.624701770023" lon="3.4220723994076">
        <ele>139</ele>
        <time>2026-05-10T11:29:31+00:00</time>
      </trkpt>
      <trkpt lat="43.625001003966" lon="3.4222771693021">
        <ele>134</ele>
        <time>2026-05-10T11:29:32+00:00</time>
      </trkpt>
      <trkpt lat="43.625239972025" lon="3.4226080868393">
        <ele>132</ele>
        <time>2026-05-10T11:29:33+00:00</time>
      </trkpt>
      <trkpt lat="43.625546414405" lon="3.4233026951551">
        <ele>128</ele>
        <time>2026-05-10T11:29:34+00:00</time>
      </trkpt>
    </trkseg>
  </trk>
</gpx>
