<?xml version="1.0" encoding="UTF-8" ?>
<gpx version="1.1" xmlns:xsi="http://www.w3.org/2001/XMLSchema-instance"
    xmlns="http://www.topografix.com/GPX/1/1"
    xsi:schemaLocation="http://www.topografix.com/GPX/1/1 http://www.topografix.com/GPX/1/1/gpx.xsd"
    creator="Openrunner - https://www.openrunner.com" >
                <wpt lat="43.662408" lon="2.369397">
                        <ele>0</ele>
                        <name><![CDATA[Az.060° route - parking - aire de pique-nique de la Croix de Beyriès]]></name>
                        <desc><![CDATA[1]]></desc>
                    <sym>0</sym>
                </wpt>
            
                <wpt lat="43.662960" lon="2.371155">
                        <ele>0</ele>
                        <name><![CDATA[Az.084°(A) tout droit route - Az.266°(R) à gauche route]]></name>
                        <desc><![CDATA[2]]></desc>
                    <sym>0</sym>
                </wpt>
            
                <wpt lat="43.662458" lon="2.377363">
                        <ele>0</ele>
                        <name><![CDATA[Az.010° à gauche route]]></name>
                        <desc><![CDATA[3]]></desc>
                    <sym>0</sym>
                </wpt>
            
                <wpt lat="43.663371" lon="2.377423">
                        <ele>0</ele>
                        <name><![CDATA[Az.072° à droite sentier]]></name>
                        <desc><![CDATA[4]]></desc>
                    <sym>0</sym>
                </wpt>
            
                <wpt lat="43.666597" lon="2.383145">
                        <ele>0</ele>
                        <name><![CDATA[Az.260°(A) à gauche chemin - Az.014°(R) à gauche chemin]]></name>
                        <desc><![CDATA[5]]></desc>
                    <sym>0</sym>
                </wpt>
            
                <wpt lat="43.667099" lon="2.381171">
                        <ele>0</ele>
                        <name><![CDATA[Az.270°(A) à droite sentier - Az.118°(R) tout droit sentier - Roc de la Fusarié]]></name>
                        <desc><![CDATA[6]]></desc>
                    <sym>0</sym>
                </wpt>
            
                <wpt lat="43.667462" lon="2.380774">
                        <ele>0</ele>
                        <name><![CDATA[Chapeau du Curé]]></name>
                        <desc><![CDATA[7]]></desc>
                    <sym>0</sym>
                </wpt>
            
                <wpt lat="43.672161" lon="2.384840">
                        <ele>0</ele>
                        <name><![CDATA[Az.110° à droite route - Ricard]]></name>
                        <desc><![CDATA[8]]></desc>
                    <sym>0</sym>
                </wpt>
            
                <wpt lat="43.670652" lon="2.387432">
                        <ele>0</ele>
                        <name><![CDATA[Les Trois Fromages]]></name>
                        <desc><![CDATA[9]]></desc>
                    <sym>0</sym>
                </wpt>
            
                <wpt lat="43.668289" lon="2.389640">
                        <ele>0</ele>
                        <name><![CDATA[Az.038° à gauche sentier - Roc de l’Oie]]></name>
                        <desc><![CDATA[10]]></desc>
                    <sym>0</sym>
                </wpt>
            
                <wpt lat="43.669287" lon="2.391810">
                        <ele>0</ele>
                        <name><![CDATA[Az.002°(A) tout droit sentier - Az.120°(R) à gauche sentier	 - L’éléphant]]></name>
                        <desc><![CDATA[11]]></desc>
                    <sym>0</sym>
                </wpt>
            
                <wpt lat="43.669764" lon="2.393202">
                        <ele>0</ele>
                        <name><![CDATA[Az.100° à droite sentier - Mur de la mort]]></name>
                        <desc><![CDATA[12]]></desc>
                    <sym>0</sym>
                </wpt>
            
                <wpt lat="43.667130" lon="2.395271">
                        <ele>0</ele>
                        <name><![CDATA[Les Rochers Décalés]]></name>
                        <desc><![CDATA[13]]></desc>
                    <sym>0</sym>
                </wpt>
            
                <wpt lat="43.665982" lon="2.393619">
                        <ele>0</ele>
                        <name><![CDATA[Az.246° à gauche piste]]></name>
                        <desc><![CDATA[14]]></desc>
                    <sym>0</sym>
                </wpt>
            
                <wpt lat="43.665142" lon="2.393287">
                        <ele>0</ele>
                        <name><![CDATA[Az.116° en face piste - Parking - Crémaussel]]></name>
                        <desc><![CDATA[15]]></desc>
                    <sym>0</sym>
                </wpt>
            
                <wpt lat="43.663466" lon="2.397682">
                        <ele>0</ele>
                        <name><![CDATA[Az.110° à gauche chemin]]></name>
                        <desc><![CDATA[16]]></desc>
                    <sym>0</sym>
                </wpt>
            
                <wpt lat="43.662167" lon="2.401789">
                        <ele>0</ele>
                        <name><![CDATA[Az.156° à droite chemin]]></name>
                        <desc><![CDATA[17]]></desc>
                    <sym>0</sym>
                </wpt>
            
                <wpt lat="43.657522" lon="2.404171">
                        <ele>0</ele>
                        <name><![CDATA[Az.240° à droite chemin]]></name>
                        <desc><![CDATA[18]]></desc>
                    <sym>0</sym>
                </wpt>
            
                <wpt lat="43.654280" lon="2.398729">
                        <ele>0</ele>
                        <name><![CDATA[Az.230°(A) tout droit chemin - Az.002°(R) à gauche chemin]]></name>
                        <desc><![CDATA[19]]></desc>
                    <sym>0</sym>
                </wpt>
            
                <wpt lat="43.650349" lon="2.391456">
                        <ele>0</ele>
                        <name><![CDATA[Az.200°(A) tout droit chemin - Az.034°(R) tout droit chemin]]></name>
                        <desc><![CDATA[20]]></desc>
                    <sym>0</sym>
                </wpt>
            
                <wpt lat="43.648371" lon="2.385417">
                        <ele>0</ele>
                        <name><![CDATA[Az.140°(A) à gauche route - Az.050°(R) à droite chemin]]></name>
                        <desc><![CDATA[21]]></desc>
                    <sym>0</sym>
                </wpt>
            
                <wpt lat="43.645975" lon="2.386788">
                        <ele>0</ele>
                        <name><![CDATA[Az.084°(A) à gauche chemin - Az.304°(R) à droite route - Lac du Merle]]></name>
                        <desc><![CDATA[22]]></desc>
                    <sym>0</sym>
                </wpt>
            
                <wpt lat="43.646011" lon="2.387480">
                        <ele>0</ele>
                        <name><![CDATA[Az.020°(A) à gauche sentier - Az.270°(R) à droite chemin]]></name>
                        <desc><![CDATA[23]]></desc>
                    <sym>0</sym>
                </wpt>
            
                <wpt lat="43.647444" lon="2.388297">
                        <ele>0</ele>
                        <name><![CDATA[Rocher de l’Escargot]]></name>
                        <desc><![CDATA[24]]></desc>
                    <sym>0</sym>
                </wpt>
            
                <wpt lat="43.658480" lon="2.398220">
                        <ele>0</ele>
                        <name><![CDATA[Az.240° à gauche chemin]]></name>
                        <desc><![CDATA[25]]></desc>
                    <sym>0</sym>
                </wpt>
            
                <wpt lat="43.658567" lon="2.385119">
                        <ele>0</ele>
                        <name><![CDATA[Az.240° tout droit chemin]]></name>
                        <desc><![CDATA[26]]></desc>
                    <sym>0</sym>
                </wpt>
            
                <wpt lat="43.658670" lon="2.380682">
                        <ele>0</ele>
                        <name><![CDATA[Az.344° à droite chemin]]></name>
                        <desc><![CDATA[27]]></desc>
                    <sym>0</sym>
                </wpt>
            
                <wpt lat="43.659929" lon="2.376681">
                        <ele>0</ele>
                        <name><![CDATA[Az.288° à droite petite route]]></name>
                        <desc><![CDATA[28]]></desc>
                    <sym>0</sym>
                </wpt>
            
                <wpt lat="43.660225" lon="2.375196">
                        <ele>0</ele>
                        <name><![CDATA[Az.340° tout droit route - La Safranière]]></name>
                        <desc><![CDATA[29]]></desc>
                    <sym>0</sym>
                </wpt>
            
                <wpt lat="43.660069" lon="2.364058">
                        <ele>0</ele>
                        <name><![CDATA[Peyro Clabado]]></name>
                        <desc><![CDATA[30]]></desc>
                    <sym>0</sym>
                </wpt>
            
                <wpt lat="43.659969" lon="2.362769">
                        <ele>0</ele>
                        <name><![CDATA[Table d’orientation]]></name>
                        <desc><![CDATA[31]]></desc>
                    <sym>0</sym>
                </wpt>
            	<trk>
	                   <name>81.001b Lacrouzette / Lac du Merle-15387480</name>
						<trkseg>
					<trkpt lat="43.662470" lon="2.369370">
						<ele>594</ele>
						<time>2026-05-01T09:39:44Z</time>
					</trkpt>
					<trkpt lat="43.662900" lon="2.370350">
						<ele>596</ele>
						<time>2026-05-01T09:41:35Z</time>
					</trkpt>
					<trkpt lat="43.662960" lon="2.371155">
						<ele>596</ele>
						<time>2026-05-01T09:42:53Z</time>
					</trkpt>
					<trkpt lat="43.662960" lon="2.371160">
						<ele>596</ele>
						<time>2026-05-01T09:42:53Z</time>
					</trkpt>
					<trkpt lat="43.663080" lon="2.372290">
						<ele>595</ele>
						<time>2026-05-01T09:44:44Z</time>
					</trkpt>
					<trkpt lat="43.663060" lon="2.373080">
						<ele>595</ele>
						<time>2026-05-01T09:46:00Z</time>
					</trkpt>
					<trkpt lat="43.663100" lon="2.373350">
						<ele>594</ele>
						<time>2026-05-01T09:46:26Z</time>
					</trkpt>
					<trkpt lat="43.663140" lon="2.373820">
						<ele>594</ele>
						<time>2026-05-01T09:47:12Z</time>
					</trkpt>
					<trkpt lat="43.663290" lon="2.374050">
						<ele>592</ele>
						<time>2026-05-01T09:47:42Z</time>
					</trkpt>
					<trkpt lat="43.663330" lon="2.374240">
						<ele>590</ele>
						<time>2026-05-01T09:48:01Z</time>
					</trkpt>
					<trkpt lat="43.663220" lon="2.374500">
						<ele>590</ele>
						<time>2026-05-01T09:48:30Z</time>
					</trkpt>
					<trkpt lat="43.662990" lon="2.375120">
						<ele>588</ele>
						<time>2026-05-01T09:49:37Z</time>
					</trkpt>
					<trkpt lat="43.662920" lon="2.375620">
						<ele>584</ele>
						<time>2026-05-01T09:50:27Z</time>
					</trkpt>
					<trkpt lat="43.662810" lon="2.376110">
						<ele>582</ele>
						<time>2026-05-01T09:51:16Z</time>
					</trkpt>
					<trkpt lat="43.662720" lon="2.376380">
						<ele>582</ele>
						<time>2026-05-01T09:51:45Z</time>
					</trkpt>
					<trkpt lat="43.662550" lon="2.376600">
						<ele>583</ele>
						<time>2026-05-01T09:52:16Z</time>
					</trkpt>
					<trkpt lat="43.662400" lon="2.376870">
						<ele>584</ele>
						<time>2026-05-01T09:52:49Z</time>
					</trkpt>
					<trkpt lat="43.662460" lon="2.377370">
						<ele>584</ele>
						<time>2026-05-01T09:53:38Z</time>
					</trkpt>
					<trkpt lat="43.662590" lon="2.377400">
						<ele>584</ele>
						<time>2026-05-01T09:53:55Z</time>
					</trkpt>
					<trkpt lat="43.663030" lon="2.377320">
						<ele>584</ele>
						<time>2026-05-01T09:54:55Z</time>
					</trkpt>
					<trkpt lat="43.663220" lon="2.377410">
						<ele>586</ele>
						<time>2026-05-01T09:55:21Z</time>
					</trkpt>
					<trkpt lat="43.663370" lon="2.377430">
						<ele>586</ele>
						<time>2026-05-01T09:55:41Z</time>
					</trkpt>
					<trkpt lat="43.663440" lon="2.377700">
						<ele>588</ele>
						<time>2026-05-01T09:56:09Z</time>
					</trkpt>
					<trkpt lat="43.663510" lon="2.377850">
						<ele>589</ele>
						<time>2026-05-01T09:56:26Z</time>
					</trkpt>
					<trkpt lat="43.663530" lon="2.378020">
						<ele>591</ele>
						<time>2026-05-01T09:56:43Z</time>
					</trkpt>
					<trkpt lat="43.663750" lon="2.378370">
						<ele>592</ele>
						<time>2026-05-01T09:57:28Z</time>
					</trkpt>
					<trkpt lat="43.663780" lon="2.378880">
						<ele>594</ele>
						<time>2026-05-01T09:58:17Z</time>
					</trkpt>
					<trkpt lat="43.663850" lon="2.379160">
						<ele>595</ele>
						<time>2026-05-01T09:58:46Z</time>
					</trkpt>
					<trkpt lat="43.664030" lon="2.379500">
						<ele>597</ele>
						<time>2026-05-01T09:59:26Z</time>
					</trkpt>
					<trkpt lat="43.664190" lon="2.379740">
						<ele>598</ele>
						<time>2026-05-01T09:59:58Z</time>
					</trkpt>
					<trkpt lat="43.664240" lon="2.379940">
						<ele>600</ele>
						<time>2026-05-01T10:00:18Z</time>
					</trkpt>
					<trkpt lat="43.664340" lon="2.379980">
						<ele>598</ele>
						<time>2026-05-01T10:00:32Z</time>
					</trkpt>
					<trkpt lat="43.664420" lon="2.380140">
						<ele>598</ele>
						<time>2026-05-01T10:00:51Z</time>
					</trkpt>
					<trkpt lat="43.664520" lon="2.380250">
						<ele>597</ele>
						<time>2026-05-01T10:01:08Z</time>
					</trkpt>
					<trkpt lat="43.664570" lon="2.380500">
						<ele>598</ele>
						<time>2026-05-01T10:01:33Z</time>
					</trkpt>
					<trkpt lat="43.664620" lon="2.380900">
						<ele>601</ele>
						<time>2026-05-01T10:02:12Z</time>
					</trkpt>
					<trkpt lat="43.664690" lon="2.381150">
						<ele>601</ele>
						<time>2026-05-01T10:02:38Z</time>
					</trkpt>
					<trkpt lat="43.664760" lon="2.381660">
						<ele>603</ele>
						<time>2026-05-01T10:03:28Z</time>
					</trkpt>
					<trkpt lat="43.664930" lon="2.381910">
						<ele>604</ele>
						<time>2026-05-01T10:04:01Z</time>
					</trkpt>
					<trkpt lat="43.665100" lon="2.381940">
						<ele>604</ele>
						<time>2026-05-01T10:04:24Z</time>
					</trkpt>
					<trkpt lat="43.665320" lon="2.381930">
						<ele>603</ele>
						<time>2026-05-01T10:04:54Z</time>
					</trkpt>
					<trkpt lat="43.665450" lon="2.381990">
						<ele>603</ele>
						<time>2026-05-01T10:05:12Z</time>
					</trkpt>
					<trkpt lat="43.665580" lon="2.382120">
						<ele>604</ele>
						<time>2026-05-01T10:05:33Z</time>
					</trkpt>
					<trkpt lat="43.665950" lon="2.382630">
						<ele>607</ele>
						<time>2026-05-01T10:06:43Z</time>
					</trkpt>
					<trkpt lat="43.665990" lon="2.382760">
						<ele>607</ele>
						<time>2026-05-01T10:06:57Z</time>
					</trkpt>
					<trkpt lat="43.666110" lon="2.382890">
						<ele>606</ele>
						<time>2026-05-01T10:07:17Z</time>
					</trkpt>
					<trkpt lat="43.666380" lon="2.383000">
						<ele>602</ele>
						<time>2026-05-01T10:07:55Z</time>
					</trkpt>
					<trkpt lat="43.666570" lon="2.383130">
						<ele>600</ele>
						<time>2026-05-01T10:08:23Z</time>
					</trkpt>
					<trkpt lat="43.666550" lon="2.383010">
						<ele>599</ele>
						<time>2026-05-01T10:08:35Z</time>
					</trkpt>
					<trkpt lat="43.666530" lon="2.382610">
						<ele>596</ele>
						<time>2026-05-01T10:09:13Z</time>
					</trkpt>
					<trkpt lat="43.666720" lon="2.381870">
						<ele>587</ele>
						<time>2026-05-01T10:10:29Z</time>
					</trkpt>
					<trkpt lat="43.666790" lon="2.381540">
						<ele>584</ele>
						<time>2026-05-01T10:11:02Z</time>
					</trkpt>
					<trkpt lat="43.667010" lon="2.381360">
						<ele>580</ele>
						<time>2026-05-01T10:11:37Z</time>
					</trkpt>
					<trkpt lat="43.667080" lon="2.381180">
						<ele>578</ele>
						<time>2026-05-01T10:11:56Z</time>
					</trkpt>
					<trkpt lat="43.667090" lon="2.380910">
						<ele>575</ele>
						<time>2026-05-01T10:12:22Z</time>
					</trkpt>
					<trkpt lat="43.667180" lon="2.380630">
						<ele>571</ele>
						<time>2026-05-01T10:12:52Z</time>
					</trkpt>
					<trkpt lat="43.667370" lon="2.380660">
						<ele>569</ele>
						<time>2026-05-01T10:13:18Z</time>
					</trkpt>
					<trkpt lat="43.667460" lon="2.380780">
						<ele>570</ele>
						<time>2026-05-01T10:13:34Z</time>
					</trkpt>
					<trkpt lat="43.667370" lon="2.380700">
						<ele>570</ele>
						<time>2026-05-01T10:13:48Z</time>
					</trkpt>
					<trkpt lat="43.667190" lon="2.380670">
						<ele>572</ele>
						<time>2026-05-01T10:14:13Z</time>
					</trkpt>
					<trkpt lat="43.667110" lon="2.380910">
						<ele>575</ele>
						<time>2026-05-01T10:14:38Z</time>
					</trkpt>
					<trkpt lat="43.667100" lon="2.381190">
						<ele>577</ele>
						<time>2026-05-01T10:15:05Z</time>
					</trkpt>
					<trkpt lat="43.667030" lon="2.381380">
						<ele>580</ele>
						<time>2026-05-01T10:15:26Z</time>
					</trkpt>
					<trkpt lat="43.666810" lon="2.381550">
						<ele>583</ele>
						<time>2026-05-01T10:15:59Z</time>
					</trkpt>
					<trkpt lat="43.666750" lon="2.381870">
						<ele>587</ele>
						<time>2026-05-01T10:16:31Z</time>
					</trkpt>
					<trkpt lat="43.666560" lon="2.382600">
						<ele>596</ele>
						<time>2026-05-01T10:17:46Z</time>
					</trkpt>
					<trkpt lat="43.666570" lon="2.383000">
						<ele>599</ele>
						<time>2026-05-01T10:18:25Z</time>
					</trkpt>
					<trkpt lat="43.666630" lon="2.383180">
						<ele>599</ele>
						<time>2026-05-01T10:18:44Z</time>
					</trkpt>
					<trkpt lat="43.666880" lon="2.383280">
						<ele>599</ele>
						<time>2026-05-01T10:19:19Z</time>
					</trkpt>
					<trkpt lat="43.667050" lon="2.383270">
						<ele>599</ele>
						<time>2026-05-01T10:19:41Z</time>
					</trkpt>
					<trkpt lat="43.667290" lon="2.383160">
						<ele>598</ele>
						<time>2026-05-01T10:20:15Z</time>
					</trkpt>
					<trkpt lat="43.667420" lon="2.383170">
						<ele>598</ele>
						<time>2026-05-01T10:20:33Z</time>
					</trkpt>
					<trkpt lat="43.667680" lon="2.383100">
						<ele>596</ele>
						<time>2026-05-01T10:21:08Z</time>
					</trkpt>
					<trkpt lat="43.667810" lon="2.383120">
						<ele>596</ele>
						<time>2026-05-01T10:21:25Z</time>
					</trkpt>
					<trkpt lat="43.668130" lon="2.383080">
						<ele>593</ele>
						<time>2026-05-01T10:22:08Z</time>
					</trkpt>
					<trkpt lat="43.668260" lon="2.383050">
						<ele>592</ele>
						<time>2026-05-01T10:22:26Z</time>
					</trkpt>
					<trkpt lat="43.668350" lon="2.383070">
						<ele>592</ele>
						<time>2026-05-01T10:22:38Z</time>
					</trkpt>
					<trkpt lat="43.668940" lon="2.382950">
						<ele>584</ele>
						<time>2026-05-01T10:23:58Z</time>
					</trkpt>
					<trkpt lat="43.669230" lon="2.382850">
						<ele>578</ele>
						<time>2026-05-01T10:24:37Z</time>
					</trkpt>
					<trkpt lat="43.669480" lon="2.382870">
						<ele>573</ele>
						<time>2026-05-01T10:25:11Z</time>
					</trkpt>
					<trkpt lat="43.669840" lon="2.382970">
						<ele>567</ele>
						<time>2026-05-01T10:26:00Z</time>
					</trkpt>
					<trkpt lat="43.670160" lon="2.383260">
						<ele>566</ele>
						<time>2026-05-01T10:26:51Z</time>
					</trkpt>
					<trkpt lat="43.670380" lon="2.383380">
						<ele>561</ele>
						<time>2026-05-01T10:27:23Z</time>
					</trkpt>
					<trkpt lat="43.670630" lon="2.383760">
						<ele>557</ele>
						<time>2026-05-01T10:28:12Z</time>
					</trkpt>
					<trkpt lat="43.670620" lon="2.383990">
						<ele>560</ele>
						<time>2026-05-01T10:28:34Z</time>
					</trkpt>
					<trkpt lat="43.670590" lon="2.384140">
						<ele>563</ele>
						<time>2026-05-01T10:28:49Z</time>
					</trkpt>
					<trkpt lat="43.670860" lon="2.384560">
						<ele>556</ele>
						<time>2026-05-01T10:29:44Z</time>
					</trkpt>
					<trkpt lat="43.670920" lon="2.384720">
						<ele>556</ele>
						<time>2026-05-01T10:30:01Z</time>
					</trkpt>
					<trkpt lat="43.671010" lon="2.384810">
						<ele>555</ele>
						<time>2026-05-01T10:30:16Z</time>
					</trkpt>
					<trkpt lat="43.671010" lon="2.385100">
						<ele>559</ele>
						<time>2026-05-01T10:30:44Z</time>
					</trkpt>
					<trkpt lat="43.671040" lon="2.385380">
						<ele>563</ele>
						<time>2026-05-01T10:31:11Z</time>
					</trkpt>
					<trkpt lat="43.671180" lon="2.385490">
						<ele>563</ele>
						<time>2026-05-01T10:31:33Z</time>
					</trkpt>
					<trkpt lat="43.671350" lon="2.385530">
						<ele>560</ele>
						<time>2026-05-01T10:31:56Z</time>
					</trkpt>
					<trkpt lat="43.671490" lon="2.385420">
						<ele>556</ele>
						<time>2026-05-01T10:32:17Z</time>
					</trkpt>
					<trkpt lat="43.671600" lon="2.385110">
						<ele>549</ele>
						<time>2026-05-01T10:32:50Z</time>
					</trkpt>
					<trkpt lat="43.671720" lon="2.384930">
						<ele>544</ele>
						<time>2026-05-01T10:33:14Z</time>
					</trkpt>
					<trkpt lat="43.671960" lon="2.384760">
						<ele>540</ele>
						<time>2026-05-01T10:33:50Z</time>
					</trkpt>
					<trkpt lat="43.672080" lon="2.384770">
						<ele>539</ele>
						<time>2026-05-01T10:34:06Z</time>
					</trkpt>
					<trkpt lat="43.672150" lon="2.384830">
						<ele>539</ele>
						<time>2026-05-01T10:34:17Z</time>
					</trkpt>
					<trkpt lat="43.672150" lon="2.384950">
						<ele>539</ele>
						<time>2026-05-01T10:34:29Z</time>
					</trkpt>
					<trkpt lat="43.672070" lon="2.385210">
						<ele>541</ele>
						<time>2026-05-01T10:34:56Z</time>
					</trkpt>
					<trkpt lat="43.671980" lon="2.385280">
						<ele>543</ele>
						<time>2026-05-01T10:35:10Z</time>
					</trkpt>
					<trkpt lat="43.671900" lon="2.385500">
						<ele>547</ele>
						<time>2026-05-01T10:35:34Z</time>
					</trkpt>
					<trkpt lat="43.671830" lon="2.385630">
						<ele>550</ele>
						<time>2026-05-01T10:35:49Z</time>
					</trkpt>
					<trkpt lat="43.671650" lon="2.385750">
						<ele>558</ele>
						<time>2026-05-01T10:36:16Z</time>
					</trkpt>
					<trkpt lat="43.671450" lon="2.386020">
						<ele>566</ele>
						<time>2026-05-01T10:36:53Z</time>
					</trkpt>
					<trkpt lat="43.671440" lon="2.386220">
						<ele>568</ele>
						<time>2026-05-01T10:37:12Z</time>
					</trkpt>
					<trkpt lat="43.671380" lon="2.386380">
						<ele>572</ele>
						<time>2026-05-01T10:37:30Z</time>
					</trkpt>
					<trkpt lat="43.671450" lon="2.386510">
						<ele>572</ele>
						<time>2026-05-01T10:37:46Z</time>
					</trkpt>
					<trkpt lat="43.671390" lon="2.386720">
						<ele>576</ele>
						<time>2026-05-01T10:38:07Z</time>
					</trkpt>
					<trkpt lat="43.671280" lon="2.386800">
						<ele>580</ele>
						<time>2026-05-01T10:38:24Z</time>
					</trkpt>
					<trkpt lat="43.671190" lon="2.386900">
						<ele>583</ele>
						<time>2026-05-01T10:38:39Z</time>
					</trkpt>
					<trkpt lat="43.671130" lon="2.387070">
						<ele>587</ele>
						<time>2026-05-01T10:38:58Z</time>
					</trkpt>
					<trkpt lat="43.671130" lon="2.387330">
						<ele>589</ele>
						<time>2026-05-01T10:39:23Z</time>
					</trkpt>
					<trkpt lat="43.670860" lon="2.387700">
						<ele>601</ele>
						<time>2026-05-01T10:40:13Z</time>
					</trkpt>
					<trkpt lat="43.670750" lon="2.387570">
						<ele>605</ele>
						<time>2026-05-01T10:40:33Z</time>
					</trkpt>
					<trkpt lat="43.670690" lon="2.387450">
						<ele>607</ele>
						<time>2026-05-01T10:40:47Z</time>
					</trkpt>
					<trkpt lat="43.670590" lon="2.387450">
						<ele>610</ele>
						<time>2026-05-01T10:41:00Z</time>
					</trkpt>
					<trkpt lat="43.670500" lon="2.387580">
						<ele>613</ele>
						<time>2026-05-01T10:41:17Z</time>
					</trkpt>
					<trkpt lat="43.670330" lon="2.387680">
						<ele>619</ele>
						<time>2026-05-01T10:41:42Z</time>
					</trkpt>
					<trkpt lat="43.670240" lon="2.387830">
						<ele>622</ele>
						<time>2026-05-01T10:42:01Z</time>
					</trkpt>
					<trkpt lat="43.670280" lon="2.387970">
						<ele>621</ele>
						<time>2026-05-01T10:42:15Z</time>
					</trkpt>
					<trkpt lat="43.670380" lon="2.388080">
						<ele>618</ele>
						<time>2026-05-01T10:42:33Z</time>
					</trkpt>
					<trkpt lat="43.670360" lon="2.388240">
						<ele>619</ele>
						<time>2026-05-01T10:42:48Z</time>
					</trkpt>
					<trkpt lat="43.670170" lon="2.388230">
						<ele>627</ele>
						<time>2026-05-01T10:43:14Z</time>
					</trkpt>
					<trkpt lat="43.670090" lon="2.388200">
						<ele>630</ele>
						<time>2026-05-01T10:43:25Z</time>
					</trkpt>
					<trkpt lat="43.670070" lon="2.388040">
						<ele>630</ele>
						<time>2026-05-01T10:43:40Z</time>
					</trkpt>
					<trkpt lat="43.670050" lon="2.388140">
						<ele>631</ele>
						<time>2026-05-01T10:43:50Z</time>
					</trkpt>
					<trkpt lat="43.669960" lon="2.388100">
						<ele>634</ele>
						<time>2026-05-01T10:44:03Z</time>
					</trkpt>
					<trkpt lat="43.669830" lon="2.388110">
						<ele>636</ele>
						<time>2026-05-01T10:44:20Z</time>
					</trkpt>
					<trkpt lat="43.669680" lon="2.388210">
						<ele>640</ele>
						<time>2026-05-01T10:44:43Z</time>
					</trkpt>
					<trkpt lat="43.669570" lon="2.388350">
						<ele>643</ele>
						<time>2026-05-01T10:45:03Z</time>
					</trkpt>
					<trkpt lat="43.669540" lon="2.388540">
						<ele>645</ele>
						<time>2026-05-01T10:45:21Z</time>
					</trkpt>
					<trkpt lat="43.669450" lon="2.388660">
						<ele>648</ele>
						<time>2026-05-01T10:45:38Z</time>
					</trkpt>
					<trkpt lat="43.669540" lon="2.388730">
						<ele>647</ele>
						<time>2026-05-01T10:45:52Z</time>
					</trkpt>
					<trkpt lat="43.669260" lon="2.388920">
						<ele>655</ele>
						<time>2026-05-01T10:46:33Z</time>
					</trkpt>
					<trkpt lat="43.669090" lon="2.389280">
						<ele>660</ele>
						<time>2026-05-01T10:47:15Z</time>
					</trkpt>
					<trkpt lat="43.669000" lon="2.389390">
						<ele>662</ele>
						<time>2026-05-01T10:47:31Z</time>
					</trkpt>
					<trkpt lat="43.668740" lon="2.389340">
						<ele>663</ele>
						<time>2026-05-01T10:48:06Z</time>
					</trkpt>
					<trkpt lat="43.668610" lon="2.389440">
						<ele>664</ele>
						<time>2026-05-01T10:48:26Z</time>
					</trkpt>
					<trkpt lat="43.668430" lon="2.389490">
						<ele>665</ele>
						<time>2026-05-01T10:48:50Z</time>
					</trkpt>
					<trkpt lat="43.668330" lon="2.389580">
						<ele>665</ele>
						<time>2026-05-01T10:49:06Z</time>
					</trkpt>
					<trkpt lat="43.668230" lon="2.389600">
						<ele>665</ele>
						<time>2026-05-01T10:49:20Z</time>
					</trkpt>
					<trkpt lat="43.668350" lon="2.389790">
						<ele>666</ele>
						<time>2026-05-01T10:49:44Z</time>
					</trkpt>
					<trkpt lat="43.668570" lon="2.390000">
						<ele>667</ele>
						<time>2026-05-01T10:50:20Z</time>
					</trkpt>
					<trkpt lat="43.668590" lon="2.390220">
						<ele>668</ele>
						<time>2026-05-01T10:50:41Z</time>
					</trkpt>
					<trkpt lat="43.668680" lon="2.390440">
						<ele>669</ele>
						<time>2026-05-01T10:51:06Z</time>
					</trkpt>
					<trkpt lat="43.668800" lon="2.390540">
						<ele>670</ele>
						<time>2026-05-01T10:51:24Z</time>
					</trkpt>
					<trkpt lat="43.668790" lon="2.390710">
						<ele>670</ele>
						<time>2026-05-01T10:51:41Z</time>
					</trkpt>
					<trkpt lat="43.668810" lon="2.390860">
						<ele>671</ele>
						<time>2026-05-01T10:51:55Z</time>
					</trkpt>
					<trkpt lat="43.668780" lon="2.390950">
						<ele>671</ele>
						<time>2026-05-01T10:52:05Z</time>
					</trkpt>
					<trkpt lat="43.668670" lon="2.390960">
						<ele>671</ele>
						<time>2026-05-01T10:52:20Z</time>
					</trkpt>
					<trkpt lat="43.668530" lon="2.391060">
						<ele>671</ele>
						<time>2026-05-01T10:52:41Z</time>
					</trkpt>
					<trkpt lat="43.668680" lon="2.390990">
						<ele>671</ele>
						<time>2026-05-01T10:53:02Z</time>
					</trkpt>
					<trkpt lat="43.668810" lon="2.391070">
						<ele>671</ele>
						<time>2026-05-01T10:53:21Z</time>
					</trkpt>
					<trkpt lat="43.668920" lon="2.391220">
						<ele>671</ele>
						<time>2026-05-01T10:53:41Z</time>
					</trkpt>
					<trkpt lat="43.668940" lon="2.391350">
						<ele>671</ele>
						<time>2026-05-01T10:53:54Z</time>
					</trkpt>
					<trkpt lat="43.669030" lon="2.391500">
						<ele>671</ele>
						<time>2026-05-01T10:54:13Z</time>
					</trkpt>
					<trkpt lat="43.669080" lon="2.391670">
						<ele>671</ele>
						<time>2026-05-01T10:54:31Z</time>
					</trkpt>
					<trkpt lat="43.669240" lon="2.391740">
						<ele>670</ele>
						<time>2026-05-01T10:54:53Z</time>
					</trkpt>
					<trkpt lat="43.669260" lon="2.391800">
						<ele>669</ele>
						<time>2026-05-01T10:55:00Z</time>
					</trkpt>
					<trkpt lat="43.669440" lon="2.391800">
						<ele>666</ele>
						<time>2026-05-01T10:55:24Z</time>
					</trkpt>
					<trkpt lat="43.669490" lon="2.392150">
						<ele>664</ele>
						<time>2026-05-01T10:55:58Z</time>
					</trkpt>
					<trkpt lat="43.669400" lon="2.392250">
						<ele>665</ele>
						<time>2026-05-01T10:56:13Z</time>
					</trkpt>
					<trkpt lat="43.669460" lon="2.392180">
						<ele>664</ele>
						<time>2026-05-01T10:56:24Z</time>
					</trkpt>
					<trkpt lat="43.669410" lon="2.391840">
						<ele>666</ele>
						<time>2026-05-01T10:56:57Z</time>
					</trkpt>
					<trkpt lat="43.669260" lon="2.391840">
						<ele>669</ele>
						<time>2026-05-01T10:57:17Z</time>
					</trkpt>
					<trkpt lat="43.669100" lon="2.392180">
						<ele>670</ele>
						<time>2026-05-01T10:57:57Z</time>
					</trkpt>
					<trkpt lat="43.669070" lon="2.392390">
						<ele>670</ele>
						<time>2026-05-01T10:58:17Z</time>
					</trkpt>
					<trkpt lat="43.669210" lon="2.392470">
						<ele>669</ele>
						<time>2026-05-01T10:58:37Z</time>
					</trkpt>
					<trkpt lat="43.669170" lon="2.392680">
						<ele>668</ele>
						<time>2026-05-01T10:58:58Z</time>
					</trkpt>
					<trkpt lat="43.669340" lon="2.392830">
						<ele>664</ele>
						<time>2026-05-01T10:59:25Z</time>
					</trkpt>
					<trkpt lat="43.669280" lon="2.392850">
						<ele>665</ele>
						<time>2026-05-01T10:59:34Z</time>
					</trkpt>
					<trkpt lat="43.669280" lon="2.393040">
						<ele>663</ele>
						<time>2026-05-01T10:59:52Z</time>
					</trkpt>
					<trkpt lat="43.669390" lon="2.393040">
						<ele>661</ele>
						<time>2026-05-01T11:00:07Z</time>
					</trkpt>
					<trkpt lat="43.669360" lon="2.393120">
						<ele>661</ele>
						<time>2026-05-01T11:00:15Z</time>
					</trkpt>
					<trkpt lat="43.669510" lon="2.393130">
						<ele>658</ele>
						<time>2026-05-01T11:00:35Z</time>
					</trkpt>
					<trkpt lat="43.669620" lon="2.393200">
						<ele>655</ele>
						<time>2026-05-01T11:00:51Z</time>
					</trkpt>
					<trkpt lat="43.669630" lon="2.393280">
						<ele>654</ele>
						<time>2026-05-01T11:00:59Z</time>
					</trkpt>
					<trkpt lat="43.669760" lon="2.393210">
						<ele>652</ele>
						<time>2026-05-01T11:01:18Z</time>
					</trkpt>
					<trkpt lat="43.669690" lon="2.393620">
						<ele>653</ele>
						<time>2026-05-01T11:01:59Z</time>
					</trkpt>
					<trkpt lat="43.669790" lon="2.393920">
						<ele>653</ele>
						<time>2026-05-01T11:02:30Z</time>
					</trkpt>
					<trkpt lat="43.669780" lon="2.394090">
						<ele>653</ele>
						<time>2026-05-01T11:02:47Z</time>
					</trkpt>
					<trkpt lat="43.669670" lon="2.394300">
						<ele>655</ele>
						<time>2026-05-01T11:03:12Z</time>
					</trkpt>
					<trkpt lat="43.669650" lon="2.394480">
						<ele>655</ele>
						<time>2026-05-01T11:03:30Z</time>
					</trkpt>
					<trkpt lat="43.669580" lon="2.394610">
						<ele>656</ele>
						<time>2026-05-01T11:03:45Z</time>
					</trkpt>
					<trkpt lat="43.669580" lon="2.395170">
						<ele>655</ele>
						<time>2026-05-01T11:04:39Z</time>
					</trkpt>
					<trkpt lat="43.669520" lon="2.395260">
						<ele>656</ele>
						<time>2026-05-01T11:04:51Z</time>
					</trkpt>
					<trkpt lat="43.669530" lon="2.395040">
						<ele>656</ele>
						<time>2026-05-01T11:05:12Z</time>
					</trkpt>
					<trkpt lat="43.669440" lon="2.394900">
						<ele>657</ele>
						<time>2026-05-01T11:05:30Z</time>
					</trkpt>
					<trkpt lat="43.669510" lon="2.395060">
						<ele>656</ele>
						<time>2026-05-01T11:05:48Z</time>
					</trkpt>
					<trkpt lat="43.669490" lon="2.395350">
						<ele>656</ele>
						<time>2026-05-01T11:06:17Z</time>
					</trkpt>
					<trkpt lat="43.669340" lon="2.395520">
						<ele>657</ele>
						<time>2026-05-01T11:06:42Z</time>
					</trkpt>
					<trkpt lat="43.669300" lon="2.395700">
						<ele>656</ele>
						<time>2026-05-01T11:07:01Z</time>
					</trkpt>
					<trkpt lat="43.669230" lon="2.395810">
						<ele>657</ele>
						<time>2026-05-01T11:07:15Z</time>
					</trkpt>
					<trkpt lat="43.669130" lon="2.395890">
						<ele>657</ele>
						<time>2026-05-01T11:07:30Z</time>
					</trkpt>
					<trkpt lat="43.668980" lon="2.395940">
						<ele>657</ele>
						<time>2026-05-01T11:07:51Z</time>
					</trkpt>
					<trkpt lat="43.668910" lon="2.396220">
						<ele>655</ele>
						<time>2026-05-01T11:08:19Z</time>
					</trkpt>
					<trkpt lat="43.668840" lon="2.396250">
						<ele>655</ele>
						<time>2026-05-01T11:08:29Z</time>
					</trkpt>
					<trkpt lat="43.668730" lon="2.396390">
						<ele>655</ele>
						<time>2026-05-01T11:08:49Z</time>
					</trkpt>
					<trkpt lat="43.668450" lon="2.396050">
						<ele>658</ele>
						<time>2026-05-01T11:09:39Z</time>
					</trkpt>
					<trkpt lat="43.668460" lon="2.395870">
						<ele>659</ele>
						<time>2026-05-01T11:09:56Z</time>
					</trkpt>
					<trkpt lat="43.668350" lon="2.395600">
						<ele>660</ele>
						<time>2026-05-01T11:10:26Z</time>
					</trkpt>
					<trkpt lat="43.668310" lon="2.395410">
						<ele>661</ele>
						<time>2026-05-01T11:10:45Z</time>
					</trkpt>
					<trkpt lat="43.668160" lon="2.395360">
						<ele>661</ele>
						<time>2026-05-01T11:11:06Z</time>
					</trkpt>
					<trkpt lat="43.668110" lon="2.395230">
						<ele>662</ele>
						<time>2026-05-01T11:11:20Z</time>
					</trkpt>
					<trkpt lat="43.668040" lon="2.395470">
						<ele>660</ele>
						<time>2026-05-01T11:11:45Z</time>
					</trkpt>
					<trkpt lat="43.667360" lon="2.395760">
						<ele>654</ele>
						<time>2026-05-01T11:13:20Z</time>
					</trkpt>
					<trkpt lat="43.667250" lon="2.395730">
						<ele>653</ele>
						<time>2026-05-01T11:13:35Z</time>
					</trkpt>
					<trkpt lat="43.667150" lon="2.395770">
						<ele>651</ele>
						<time>2026-05-01T11:13:49Z</time>
					</trkpt>
					<trkpt lat="43.667190" lon="2.395660">
						<ele>652</ele>
						<time>2026-05-01T11:14:01Z</time>
					</trkpt>
					<trkpt lat="43.667070" lon="2.395460">
						<ele>651</ele>
						<time>2026-05-01T11:14:26Z</time>
					</trkpt>
					<trkpt lat="43.667140" lon="2.395320">
						<ele>653</ele>
						<time>2026-05-01T11:14:42Z</time>
					</trkpt>
					<trkpt lat="43.667120" lon="2.395210">
						<ele>653</ele>
						<time>2026-05-01T11:14:53Z</time>
					</trkpt>
					<trkpt lat="43.667160" lon="2.395090">
						<ele>655</ele>
						<time>2026-05-01T11:15:06Z</time>
					</trkpt>
					<trkpt lat="43.667090" lon="2.395200">
						<ele>653</ele>
						<time>2026-05-01T11:15:20Z</time>
					</trkpt>
					<trkpt lat="43.667120" lon="2.395320">
						<ele>653</ele>
						<time>2026-05-01T11:15:32Z</time>
					</trkpt>
					<trkpt lat="43.667070" lon="2.395420">
						<ele>652</ele>
						<time>2026-05-01T11:15:44Z</time>
					</trkpt>
					<trkpt lat="43.666990" lon="2.395460">
						<ele>650</ele>
						<time>2026-05-01T11:15:55Z</time>
					</trkpt>
					<trkpt lat="43.666950" lon="2.395350">
						<ele>650</ele>
						<time>2026-05-01T11:16:07Z</time>
					</trkpt>
					<trkpt lat="43.666740" lon="2.395060">
						<ele>646</ele>
						<time>2026-05-01T11:16:47Z</time>
					</trkpt>
					<trkpt lat="43.666580" lon="2.394920">
						<ele>646</ele>
						<time>2026-05-01T11:17:12Z</time>
					</trkpt>
					<trkpt lat="43.666380" lon="2.394850">
						<ele>646</ele>
						<time>2026-05-01T11:17:40Z</time>
					</trkpt>
					<trkpt lat="43.666310" lon="2.394560">
						<ele>649</ele>
						<time>2026-05-01T11:18:09Z</time>
					</trkpt>
					<trkpt lat="43.666200" lon="2.394520">
						<ele>648</ele>
						<time>2026-05-01T11:18:24Z</time>
					</trkpt>
					<trkpt lat="43.666070" lon="2.394290">
						<ele>650</ele>
						<time>2026-05-01T11:18:53Z</time>
					</trkpt>
					<trkpt lat="43.665970" lon="2.393620">
						<ele>654</ele>
						<time>2026-05-01T11:19:59Z</time>
					</trkpt>
					<trkpt lat="43.665840" lon="2.393260">
						<ele>656</ele>
						<time>2026-05-01T11:20:38Z</time>
					</trkpt>
					<trkpt lat="43.665680" lon="2.393070">
						<ele>657</ele>
						<time>2026-05-01T11:21:06Z</time>
					</trkpt>
					<trkpt lat="43.665520" lon="2.393030">
						<ele>657</ele>
						<time>2026-05-01T11:21:27Z</time>
					</trkpt>
					<trkpt lat="43.665130" lon="2.393300">
						<ele>658</ele>
						<time>2026-05-01T11:22:26Z</time>
					</trkpt>
					<trkpt lat="43.664990" lon="2.393700">
						<ele>658</ele>
						<time>2026-05-01T11:23:08Z</time>
					</trkpt>
					<trkpt lat="43.664890" lon="2.393850">
						<ele>658</ele>
						<time>2026-05-01T11:23:28Z</time>
					</trkpt>
					<trkpt lat="43.664830" lon="2.393990">
						<ele>658</ele>
						<time>2026-05-01T11:23:44Z</time>
					</trkpt>
					<trkpt lat="43.664560" lon="2.394070">
						<ele>658</ele>
						<time>2026-05-01T11:24:21Z</time>
					</trkpt>
					<trkpt lat="43.664440" lon="2.394180">
						<ele>658</ele>
						<time>2026-05-01T11:24:40Z</time>
					</trkpt>
					<trkpt lat="43.664430" lon="2.394550">
						<ele>660</ele>
						<time>2026-05-01T11:25:16Z</time>
					</trkpt>
					<trkpt lat="43.664320" lon="2.395030">
						<ele>662</ele>
						<time>2026-05-01T11:26:04Z</time>
					</trkpt>
					<trkpt lat="43.664200" lon="2.395440">
						<ele>665</ele>
						<time>2026-05-01T11:26:47Z</time>
					</trkpt>
					<trkpt lat="43.664040" lon="2.395680">
						<ele>665</ele>
						<time>2026-05-01T11:27:18Z</time>
					</trkpt>
					<trkpt lat="43.663800" lon="2.395910">
						<ele>663</ele>
						<time>2026-05-01T11:27:57Z</time>
					</trkpt>
					<trkpt lat="43.663570" lon="2.396520">
						<ele>661</ele>
						<time>2026-05-01T11:29:04Z</time>
					</trkpt>
					<trkpt lat="43.663540" lon="2.396950">
						<ele>662</ele>
						<time>2026-05-01T11:29:46Z</time>
					</trkpt>
					<trkpt lat="43.663590" lon="2.397190">
						<ele>662</ele>
						<time>2026-05-01T11:30:10Z</time>
					</trkpt>
					<trkpt lat="43.663570" lon="2.397410">
						<ele>663</ele>
						<time>2026-05-01T11:30:31Z</time>
					</trkpt>
					<trkpt lat="43.663460" lon="2.397680">
						<ele>665</ele>
						<time>2026-05-01T11:31:01Z</time>
					</trkpt>
					<trkpt lat="43.663320" lon="2.398170">
						<ele>668</ele>
						<time>2026-05-01T11:31:52Z</time>
					</trkpt>
					<trkpt lat="43.663260" lon="2.398580">
						<ele>669</ele>
						<time>2026-05-01T11:32:32Z</time>
					</trkpt>
					<trkpt lat="43.663100" lon="2.399050">
						<ele>670</ele>
						<time>2026-05-01T11:33:22Z</time>
					</trkpt>
					<trkpt lat="43.662770" lon="2.400290">
						<ele>673</ele>
						<time>2026-05-01T11:35:30Z</time>
					</trkpt>
					<trkpt lat="43.662570" lon="2.400820">
						<ele>674</ele>
						<time>2026-05-01T11:36:28Z</time>
					</trkpt>
					<trkpt lat="43.662450" lon="2.400980">
						<ele>674</ele>
						<time>2026-05-01T11:36:50Z</time>
					</trkpt>
					<trkpt lat="43.662340" lon="2.401240">
						<ele>675</ele>
						<time>2026-05-01T11:37:19Z</time>
					</trkpt>
					<trkpt lat="43.662200" lon="2.401770">
						<ele>676</ele>
						<time>2026-05-01T11:38:13Z</time>
					</trkpt>
					<trkpt lat="43.661920" lon="2.401950">
						<ele>676</ele>
						<time>2026-05-01T11:38:55Z</time>
					</trkpt>
					<trkpt lat="43.661750" lon="2.402150">
						<ele>676</ele>
						<time>2026-05-01T11:39:24Z</time>
					</trkpt>
					<trkpt lat="43.661340" lon="2.402510">
						<ele>678</ele>
						<time>2026-05-01T11:40:29Z</time>
					</trkpt>
					<trkpt lat="43.661080" lon="2.402660">
						<ele>679</ele>
						<time>2026-05-01T11:41:07Z</time>
					</trkpt>
					<trkpt lat="43.660890" lon="2.402820">
						<ele>679</ele>
						<time>2026-05-01T11:41:37Z</time>
					</trkpt>
					<trkpt lat="43.660620" lon="2.402970">
						<ele>679</ele>
						<time>2026-05-01T11:42:15Z</time>
					</trkpt>
					<trkpt lat="43.660310" lon="2.403070">
						<ele>679</ele>
						<time>2026-05-01T11:42:58Z</time>
					</trkpt>
					<trkpt lat="43.660060" lon="2.403460">
						<ele>680</ele>
						<time>2026-05-01T11:43:48Z</time>
					</trkpt>
					<trkpt lat="43.659670" lon="2.403970">
						<ele>679</ele>
						<time>2026-05-01T11:45:00Z</time>
					</trkpt>
					<trkpt lat="43.659560" lon="2.404220">
						<ele>678</ele>
						<time>2026-05-01T11:45:28Z</time>
					</trkpt>
					<trkpt lat="43.659430" lon="2.404380">
						<ele>677</ele>
						<time>2026-05-01T11:45:51Z</time>
					</trkpt>
					<trkpt lat="43.659240" lon="2.404830">
						<ele>676</ele>
						<time>2026-05-01T11:46:42Z</time>
					</trkpt>
					<trkpt lat="43.659030" lon="2.405030">
						<ele>675</ele>
						<time>2026-05-01T11:47:16Z</time>
					</trkpt>
					<trkpt lat="43.658560" lon="2.404960">
						<ele>672</ele>
						<time>2026-05-01T11:48:19Z</time>
					</trkpt>
					<trkpt lat="43.658290" lon="2.404860">
						<ele>671</ele>
						<time>2026-05-01T11:48:56Z</time>
					</trkpt>
					<trkpt lat="43.658150" lon="2.404750">
						<ele>670</ele>
						<time>2026-05-01T11:49:17Z</time>
					</trkpt>
					<trkpt lat="43.658040" lon="2.404550">
						<ele>670</ele>
						<time>2026-05-01T11:49:42Z</time>
					</trkpt>
					<trkpt lat="43.657700" lon="2.404280">
						<ele>669</ele>
						<time>2026-05-01T11:50:34Z</time>
					</trkpt>
					<trkpt lat="43.657520" lon="2.404200">
						<ele>668</ele>
						<time>2026-05-01T11:50:59Z</time>
					</trkpt>
					<trkpt lat="43.657520" lon="2.404090">
						<ele>668</ele>
						<time>2026-05-01T11:51:10Z</time>
					</trkpt>
					<trkpt lat="43.657280" lon="2.403720">
						<ele>668</ele>
						<time>2026-05-01T11:51:58Z</time>
					</trkpt>
					<trkpt lat="43.657120" lon="2.403550">
						<ele>669</ele>
						<time>2026-05-01T11:52:25Z</time>
					</trkpt>
					<trkpt lat="43.656930" lon="2.403390">
						<ele>670</ele>
						<time>2026-05-01T11:52:55Z</time>
					</trkpt>
					<trkpt lat="43.656530" lon="2.403230">
						<ele>671</ele>
						<time>2026-05-01T11:53:50Z</time>
					</trkpt>
					<trkpt lat="43.656370" lon="2.403100">
						<ele>672</ele>
						<time>2026-05-01T11:54:15Z</time>
					</trkpt>
					<trkpt lat="43.656210" lon="2.402900">
						<ele>672</ele>
						<time>2026-05-01T11:54:44Z</time>
					</trkpt>
					<trkpt lat="43.656010" lon="2.402820">
						<ele>673</ele>
						<time>2026-05-01T11:55:11Z</time>
					</trkpt>
					<trkpt lat="43.655790" lon="2.402650">
						<ele>674</ele>
						<time>2026-05-01T11:55:45Z</time>
					</trkpt>
					<trkpt lat="43.655710" lon="2.402480">
						<ele>675</ele>
						<time>2026-05-01T11:56:05Z</time>
					</trkpt>
					<trkpt lat="43.655610" lon="2.402340">
						<ele>676</ele>
						<time>2026-05-01T11:56:24Z</time>
					</trkpt>
					<trkpt lat="43.655550" lon="2.402040">
						<ele>677</ele>
						<time>2026-05-01T11:56:54Z</time>
					</trkpt>
					<trkpt lat="43.655330" lon="2.401670">
						<ele>678</ele>
						<time>2026-05-01T11:57:40Z</time>
					</trkpt>
					<trkpt lat="43.655090" lon="2.401390">
						<ele>679</ele>
						<time>2026-05-01T11:58:22Z</time>
					</trkpt>
					<trkpt lat="43.654710" lon="2.400990">
						<ele>675</ele>
						<time>2026-05-01T11:59:26Z</time>
					</trkpt>
					<trkpt lat="43.654720" lon="2.400800">
						<ele>676</ele>
						<time>2026-05-01T11:59:44Z</time>
					</trkpt>
					<trkpt lat="43.654670" lon="2.400560">
						<ele>674</ele>
						<time>2026-05-01T12:00:08Z</time>
					</trkpt>
					<trkpt lat="43.654690" lon="2.400390">
						<ele>675</ele>
						<time>2026-05-01T12:00:25Z</time>
					</trkpt>
					<trkpt lat="43.654640" lon="2.399940">
						<ele>673</ele>
						<time>2026-05-01T12:01:09Z</time>
					</trkpt>
					<trkpt lat="43.654490" lon="2.399320">
						<ele>670</ele>
						<time>2026-05-01T12:02:12Z</time>
					</trkpt>
					<trkpt lat="43.654260" lon="2.398730">
						<ele>668</ele>
						<time>2026-05-01T12:03:16Z</time>
					</trkpt>
					<trkpt lat="43.653860" lon="2.398170">
						<ele>664</ele>
						<time>2026-05-01T12:04:32Z</time>
					</trkpt>
					<trkpt lat="43.653210" lon="2.397580">
						<ele>660</ele>
						<time>2026-05-01T12:06:16Z</time>
					</trkpt>
					<trkpt lat="43.653200" lon="2.396680">
						<ele>657</ele>
						<time>2026-05-01T12:07:43Z</time>
					</trkpt>
					<trkpt lat="43.652810" lon="2.395690">
						<ele>653</ele>
						<time>2026-05-01T12:09:32Z</time>
					</trkpt>
					<trkpt lat="43.652560" lon="2.395340">
						<ele>652</ele>
						<time>2026-05-01T12:10:19Z</time>
					</trkpt>
					<trkpt lat="43.652110" lon="2.395350">
						<ele>653</ele>
						<time>2026-05-01T12:11:20Z</time>
					</trkpt>
					<trkpt lat="43.651920" lon="2.395100">
						<ele>654</ele>
						<time>2026-05-01T12:11:55Z</time>
					</trkpt>
					<trkpt lat="43.651770" lon="2.394770">
						<ele>655</ele>
						<time>2026-05-01T12:12:32Z</time>
					</trkpt>
					<trkpt lat="43.651630" lon="2.394250">
						<ele>657</ele>
						<time>2026-05-01T12:13:26Z</time>
					</trkpt>
					<trkpt lat="43.651600" lon="2.393810">
						<ele>656</ele>
						<time>2026-05-01T12:14:08Z</time>
					</trkpt>
					<trkpt lat="43.651350" lon="2.393380">
						<ele>655</ele>
						<time>2026-05-01T12:15:02Z</time>
					</trkpt>
					<trkpt lat="43.651250" lon="2.392940">
						<ele>653</ele>
						<time>2026-05-01T12:15:46Z</time>
					</trkpt>
					<trkpt lat="43.651300" lon="2.392770">
						<ele>652</ele>
						<time>2026-05-01T12:16:04Z</time>
					</trkpt>
					<trkpt lat="43.651360" lon="2.392160">
						<ele>649</ele>
						<time>2026-05-01T12:17:03Z</time>
					</trkpt>
					<trkpt lat="43.651390" lon="2.391710">
						<ele>646</ele>
						<time>2026-05-01T12:17:47Z</time>
					</trkpt>
					<trkpt lat="43.651470" lon="2.391390">
						<ele>644</ele>
						<time>2026-05-01T12:18:20Z</time>
					</trkpt>
					<trkpt lat="43.651110" lon="2.391340">
						<ele>639</ele>
						<time>2026-05-01T12:19:08Z</time>
					</trkpt>
					<trkpt lat="43.650520" lon="2.391740">
						<ele>637</ele>
						<time>2026-05-01T12:20:36Z</time>
					</trkpt>
					<trkpt lat="43.650400" lon="2.391630">
						<ele>635</ele>
						<time>2026-05-01T12:20:55Z</time>
					</trkpt>
					<trkpt lat="43.650330" lon="2.391490">
						<ele>634</ele>
						<time>2026-05-01T12:21:11Z</time>
					</trkpt>
					<trkpt lat="43.650170" lon="2.391390">
						<ele>632</ele>
						<time>2026-05-01T12:21:35Z</time>
					</trkpt>
					<trkpt lat="43.650020" lon="2.391210">
						<ele>631</ele>
						<time>2026-05-01T12:22:01Z</time>
					</trkpt>
					<trkpt lat="43.649900" lon="2.390970">
						<ele>631</ele>
						<time>2026-05-01T12:22:29Z</time>
					</trkpt>
					<trkpt lat="43.649840" lon="2.390600">
						<ele>629</ele>
						<time>2026-05-01T12:23:06Z</time>
					</trkpt>
					<trkpt lat="43.649700" lon="2.390450">
						<ele>630</ele>
						<time>2026-05-01T12:23:30Z</time>
					</trkpt>
					<trkpt lat="43.649570" lon="2.390090">
						<ele>629</ele>
						<time>2026-05-01T12:24:09Z</time>
					</trkpt>
					<trkpt lat="43.649400" lon="2.389370">
						<ele>625</ele>
						<time>2026-05-01T12:25:22Z</time>
					</trkpt>
					<trkpt lat="43.649340" lon="2.388500">
						<ele>617</ele>
						<time>2026-05-01T12:26:46Z</time>
					</trkpt>
					<trkpt lat="43.649380" lon="2.388210">
						<ele>615</ele>
						<time>2026-05-01T12:27:15Z</time>
					</trkpt>
					<trkpt lat="43.649090" lon="2.387720">
						<ele>611</ele>
						<time>2026-05-01T12:28:16Z</time>
					</trkpt>
					<trkpt lat="43.648940" lon="2.387290">
						<ele>608</ele>
						<time>2026-05-01T12:29:02Z</time>
					</trkpt>
					<trkpt lat="43.648900" lon="2.386820">
						<ele>605</ele>
						<time>2026-05-01T12:29:47Z</time>
					</trkpt>
					<trkpt lat="43.648500" lon="2.385600">
						<ele>605</ele>
						<time>2026-05-01T12:31:57Z</time>
					</trkpt>
					<trkpt lat="43.648360" lon="2.385430">
						<ele>607</ele>
						<time>2026-05-01T12:32:22Z</time>
					</trkpt>
					<trkpt lat="43.648160" lon="2.385670">
						<ele>608</ele>
						<time>2026-05-01T12:32:57Z</time>
					</trkpt>
					<trkpt lat="43.647260" lon="2.386110">
						<ele>616</ele>
						<time>2026-05-01T12:35:04Z</time>
					</trkpt>
					<trkpt lat="43.646770" lon="2.386110">
						<ele>618</ele>
						<time>2026-05-01T12:36:10Z</time>
					</trkpt>
					<trkpt lat="43.646540" lon="2.386170">
						<ele>618</ele>
						<time>2026-05-01T12:36:41Z</time>
					</trkpt>
					<trkpt lat="43.646320" lon="2.386340">
						<ele>617</ele>
						<time>2026-05-01T12:37:15Z</time>
					</trkpt>
					<trkpt lat="43.645990" lon="2.386800">
						<ele>618</ele>
						<time>2026-05-01T12:38:17Z</time>
					</trkpt>
					<trkpt lat="43.646030" lon="2.387200">
						<ele>621</ele>
						<time>2026-05-01T12:38:56Z</time>
					</trkpt>
					<trkpt lat="43.646020" lon="2.387460">
						<ele>622</ele>
						<time>2026-05-01T12:39:21Z</time>
					</trkpt>
					<trkpt lat="43.646260" lon="2.387550">
						<ele>625</ele>
						<time>2026-05-01T12:39:55Z</time>
					</trkpt>
					<trkpt lat="43.646490" lon="2.387490">
						<ele>628</ele>
						<time>2026-05-01T12:40:26Z</time>
					</trkpt>
					<trkpt lat="43.646640" lon="2.387520">
						<ele>630</ele>
						<time>2026-05-01T12:40:46Z</time>
					</trkpt>
					<trkpt lat="43.646920" lon="2.387780">
						<ele>630</ele>
						<time>2026-05-01T12:41:31Z</time>
					</trkpt>
					<trkpt lat="43.647180" lon="2.388070">
						<ele>630</ele>
						<time>2026-05-01T12:42:16Z</time>
					</trkpt>
					<trkpt lat="43.647280" lon="2.388230">
						<ele>631</ele>
						<time>2026-05-01T12:42:36Z</time>
					</trkpt>
					<trkpt lat="43.647430" lon="2.388290">
						<ele>630</ele>
						<time>2026-05-01T12:42:57Z</time>
					</trkpt>
					<trkpt lat="43.647270" lon="2.388260">
						<ele>631</ele>
						<time>2026-05-01T12:43:18Z</time>
					</trkpt>
					<trkpt lat="43.647160" lon="2.388090">
						<ele>630</ele>
						<time>2026-05-01T12:43:40Z</time>
					</trkpt>
					<trkpt lat="43.646900" lon="2.387800">
						<ele>630</ele>
						<time>2026-05-01T12:44:25Z</time>
					</trkpt>
					<trkpt lat="43.646620" lon="2.387540">
						<ele>630</ele>
						<time>2026-05-01T12:45:10Z</time>
					</trkpt>
					<trkpt lat="43.646480" lon="2.387520">
						<ele>628</ele>
						<time>2026-05-01T12:45:29Z</time>
					</trkpt>
					<trkpt lat="43.646260" lon="2.387570">
						<ele>625</ele>
						<time>2026-05-01T12:45:59Z</time>
					</trkpt>
					<trkpt lat="43.645990" lon="2.387470">
						<ele>622</ele>
						<time>2026-05-01T12:46:36Z</time>
					</trkpt>
					<trkpt lat="43.646010" lon="2.387200">
						<ele>620</ele>
						<time>2026-05-01T12:47:02Z</time>
					</trkpt>
					<trkpt lat="43.645810" lon="2.387060">
						<ele>618</ele>
						<time>2026-05-01T12:47:32Z</time>
					</trkpt>
					<trkpt lat="43.645975" lon="2.386788">
						<ele>618</ele>
						<time>2026-05-01T12:48:06Z</time>
					</trkpt>
					<trkpt lat="43.645980" lon="2.386780">
						<ele>618</ele>
						<time>2026-05-01T12:48:07Z</time>
					</trkpt>
					<trkpt lat="43.646310" lon="2.386310">
						<ele>617</ele>
						<time>2026-05-01T12:49:11Z</time>
					</trkpt>
					<trkpt lat="43.646530" lon="2.386140">
						<ele>618</ele>
						<time>2026-05-01T12:49:44Z</time>
					</trkpt>
					<trkpt lat="43.646770" lon="2.386070">
						<ele>618</ele>
						<time>2026-05-01T12:50:17Z</time>
					</trkpt>
					<trkpt lat="43.647260" lon="2.386090">
						<ele>616</ele>
						<time>2026-05-01T12:51:22Z</time>
					</trkpt>
					<trkpt lat="43.648150" lon="2.385640">
						<ele>609</ele>
						<time>2026-05-01T12:53:29Z</time>
					</trkpt>
					<trkpt lat="43.648360" lon="2.385390">
						<ele>607</ele>
						<time>2026-05-01T12:54:06Z</time>
					</trkpt>
					<trkpt lat="43.648520" lon="2.385570">
						<ele>605</ele>
						<time>2026-05-01T12:54:33Z</time>
					</trkpt>
					<trkpt lat="43.648920" lon="2.386800">
						<ele>604</ele>
						<time>2026-05-01T12:56:44Z</time>
					</trkpt>
					<trkpt lat="43.648960" lon="2.387270">
						<ele>607</ele>
						<time>2026-05-01T12:57:29Z</time>
					</trkpt>
					<trkpt lat="43.649110" lon="2.387720">
						<ele>611</ele>
						<time>2026-05-01T12:58:17Z</time>
					</trkpt>
					<trkpt lat="43.649400" lon="2.388200">
						<ele>615</ele>
						<time>2026-05-01T12:59:17Z</time>
					</trkpt>
					<trkpt lat="43.649360" lon="2.388500">
						<ele>617</ele>
						<time>2026-05-01T12:59:47Z</time>
					</trkpt>
					<trkpt lat="43.649410" lon="2.389360">
						<ele>624</ele>
						<time>2026-05-01T13:01:10Z</time>
					</trkpt>
					<trkpt lat="43.649590" lon="2.390080">
						<ele>629</ele>
						<time>2026-05-01T13:02:24Z</time>
					</trkpt>
					<trkpt lat="43.649730" lon="2.390430">
						<ele>630</ele>
						<time>2026-05-01T13:03:02Z</time>
					</trkpt>
					<trkpt lat="43.649860" lon="2.390600">
						<ele>629</ele>
						<time>2026-05-01T13:03:26Z</time>
					</trkpt>
					<trkpt lat="43.649920" lon="2.390950">
						<ele>631</ele>
						<time>2026-05-01T13:04:01Z</time>
					</trkpt>
					<trkpt lat="43.650030" lon="2.391190">
						<ele>631</ele>
						<time>2026-05-01T13:04:28Z</time>
					</trkpt>
					<trkpt lat="43.650180" lon="2.391380">
						<ele>632</ele>
						<time>2026-05-01T13:04:56Z</time>
					</trkpt>
					<trkpt lat="43.650350" lon="2.391460">
						<ele>634</ele>
						<time>2026-05-01T13:05:20Z</time>
					</trkpt>
					<trkpt lat="43.650410" lon="2.391600">
						<ele>635</ele>
						<time>2026-05-01T13:05:35Z</time>
					</trkpt>
					<trkpt lat="43.650530" lon="2.391700">
						<ele>636</ele>
						<time>2026-05-01T13:05:54Z</time>
					</trkpt>
					<trkpt lat="43.651110" lon="2.391300">
						<ele>638</ele>
						<time>2026-05-01T13:07:20Z</time>
					</trkpt>
					<trkpt lat="43.651480" lon="2.391350">
						<ele>643</ele>
						<time>2026-05-01T13:08:10Z</time>
					</trkpt>
					<trkpt lat="43.651410" lon="2.391700">
						<ele>646</ele>
						<time>2026-05-01T13:08:45Z</time>
					</trkpt>
					<trkpt lat="43.651390" lon="2.392170">
						<ele>650</ele>
						<time>2026-05-01T13:09:31Z</time>
					</trkpt>
					<trkpt lat="43.651320" lon="2.392780">
						<ele>653</ele>
						<time>2026-05-01T13:10:30Z</time>
					</trkpt>
					<trkpt lat="43.651280" lon="2.392940">
						<ele>653</ele>
						<time>2026-05-01T13:10:47Z</time>
					</trkpt>
					<trkpt lat="43.651380" lon="2.393370">
						<ele>655</ele>
						<time>2026-05-01T13:11:30Z</time>
					</trkpt>
					<trkpt lat="43.651620" lon="2.393810">
						<ele>657</ele>
						<time>2026-05-01T13:12:23Z</time>
					</trkpt>
					<trkpt lat="43.651650" lon="2.394250">
						<ele>657</ele>
						<time>2026-05-01T13:13:06Z</time>
					</trkpt>
					<trkpt lat="43.651790" lon="2.394750">
						<ele>655</ele>
						<time>2026-05-01T13:13:58Z</time>
					</trkpt>
					<trkpt lat="43.651930" lon="2.395080">
						<ele>654</ele>
						<time>2026-05-01T13:14:35Z</time>
					</trkpt>
					<trkpt lat="43.652120" lon="2.395320">
						<ele>653</ele>
						<time>2026-05-01T13:15:09Z</time>
					</trkpt>
					<trkpt lat="43.652560" lon="2.395310">
						<ele>652</ele>
						<time>2026-05-01T13:16:08Z</time>
					</trkpt>
					<trkpt lat="43.652840" lon="2.395670">
						<ele>653</ele>
						<time>2026-05-01T13:16:59Z</time>
					</trkpt>
					<trkpt lat="43.653220" lon="2.396680">
						<ele>657</ele>
						<time>2026-05-01T13:18:49Z</time>
					</trkpt>
					<trkpt lat="43.653230" lon="2.397580">
						<ele>660</ele>
						<time>2026-05-01T13:20:16Z</time>
					</trkpt>
					<trkpt lat="43.653870" lon="2.398140">
						<ele>664</ele>
						<time>2026-05-01T13:21:57Z</time>
					</trkpt>
					<trkpt lat="43.654290" lon="2.398730">
						<ele>668</ele>
						<time>2026-05-01T13:23:17Z</time>
					</trkpt>
					<trkpt lat="43.654650" lon="2.398790">
						<ele>669</ele>
						<time>2026-05-01T13:24:05Z</time>
					</trkpt>
					<trkpt lat="43.655300" lon="2.398460">
						<ele>667</ele>
						<time>2026-05-01T13:25:37Z</time>
					</trkpt>
					<trkpt lat="43.655590" lon="2.398480">
						<ele>667</ele>
						<time>2026-05-01T13:26:16Z</time>
					</trkpt>
					<trkpt lat="43.655860" lon="2.398640">
						<ele>668</ele>
						<time>2026-05-01T13:26:55Z</time>
					</trkpt>
					<trkpt lat="43.656150" lon="2.398930">
						<ele>666</ele>
						<time>2026-05-01T13:27:43Z</time>
					</trkpt>
					<trkpt lat="43.656510" lon="2.399250">
						<ele>664</ele>
						<time>2026-05-01T13:28:40Z</time>
					</trkpt>
					<trkpt lat="43.656740" lon="2.399340">
						<ele>662</ele>
						<time>2026-05-01T13:29:12Z</time>
					</trkpt>
					<trkpt lat="43.656860" lon="2.399280">
						<ele>662</ele>
						<time>2026-05-01T13:29:29Z</time>
					</trkpt>
					<trkpt lat="43.656950" lon="2.399170">
						<ele>661</ele>
						<time>2026-05-01T13:29:45Z</time>
					</trkpt>
					<trkpt lat="43.657090" lon="2.399070">
						<ele>661</ele>
						<time>2026-05-01T13:30:06Z</time>
					</trkpt>
					<trkpt lat="43.657210" lon="2.399030">
						<ele>661</ele>
						<time>2026-05-01T13:30:23Z</time>
					</trkpt>
					<trkpt lat="43.657320" lon="2.399120">
						<ele>662</ele>
						<time>2026-05-01T13:30:40Z</time>
					</trkpt>
					<trkpt lat="43.657540" lon="2.399160">
						<ele>662</ele>
						<time>2026-05-01T13:31:09Z</time>
					</trkpt>
					<trkpt lat="43.657790" lon="2.399060">
						<ele>665</ele>
						<time>2026-05-01T13:31:44Z</time>
					</trkpt>
					<trkpt lat="43.658050" lon="2.398800">
						<ele>669</ele>
						<time>2026-05-01T13:32:27Z</time>
					</trkpt>
					<trkpt lat="43.658480" lon="2.398220">
						<ele>673</ele>
						<time>2026-05-01T13:33:47Z</time>
					</trkpt>
					<trkpt lat="43.658300" lon="2.397640">
						<ele>673</ele>
						<time>2026-05-01T13:34:48Z</time>
					</trkpt>
					<trkpt lat="43.658190" lon="2.397160">
						<ele>672</ele>
						<time>2026-05-01T13:35:37Z</time>
					</trkpt>
					<trkpt lat="43.658190" lon="2.396720">
						<ele>673</ele>
						<time>2026-05-01T13:36:19Z</time>
					</trkpt>
					<trkpt lat="43.658430" lon="2.395980">
						<ele>672</ele>
						<time>2026-05-01T13:37:37Z</time>
					</trkpt>
					<trkpt lat="43.658540" lon="2.395410">
						<ele>670</ele>
						<time>2026-05-01T13:38:34Z</time>
					</trkpt>
					<trkpt lat="43.658630" lon="2.394990">
						<ele>669</ele>
						<time>2026-05-01T13:39:17Z</time>
					</trkpt>
					<trkpt lat="43.658700" lon="2.394570">
						<ele>669</ele>
						<time>2026-05-01T13:39:58Z</time>
					</trkpt>
					<trkpt lat="43.658810" lon="2.394140">
						<ele>669</ele>
						<time>2026-05-01T13:40:42Z</time>
					</trkpt>
					<trkpt lat="43.658900" lon="2.393930">
						<ele>670</ele>
						<time>2026-05-01T13:41:06Z</time>
					</trkpt>
					<trkpt lat="43.658990" lon="2.393610">
						<ele>671</ele>
						<time>2026-05-01T13:41:39Z</time>
					</trkpt>
					<trkpt lat="43.658960" lon="2.393540">
						<ele>671</ele>
						<time>2026-05-01T13:41:47Z</time>
					</trkpt>
					<trkpt lat="43.659050" lon="2.393240">
						<ele>671</ele>
						<time>2026-05-01T13:42:18Z</time>
					</trkpt>
					<trkpt lat="43.659050" lon="2.392940">
						<ele>672</ele>
						<time>2026-05-01T13:42:47Z</time>
					</trkpt>
					<trkpt lat="43.658970" lon="2.392640">
						<ele>671</ele>
						<time>2026-05-01T13:43:18Z</time>
					</trkpt>
					<trkpt lat="43.658970" lon="2.392340">
						<ele>672</ele>
						<time>2026-05-01T13:43:47Z</time>
					</trkpt>
					<trkpt lat="43.658920" lon="2.391970">
						<ele>671</ele>
						<time>2026-05-01T13:44:23Z</time>
					</trkpt>
					<trkpt lat="43.658920" lon="2.391710">
						<ele>672</ele>
						<time>2026-05-01T13:44:49Z</time>
					</trkpt>
					<trkpt lat="43.659030" lon="2.391450">
						<ele>673</ele>
						<time>2026-05-01T13:45:18Z</time>
					</trkpt>
					<trkpt lat="43.659130" lon="2.391150">
						<ele>674</ele>
						<time>2026-05-01T13:45:49Z</time>
					</trkpt>
					<trkpt lat="43.659240" lon="2.390840">
						<ele>674</ele>
						<time>2026-05-01T13:46:23Z</time>
					</trkpt>
					<trkpt lat="43.659270" lon="2.390590">
						<ele>674</ele>
						<time>2026-05-01T13:46:47Z</time>
					</trkpt>
					<trkpt lat="43.659280" lon="2.390290">
						<ele>675</ele>
						<time>2026-05-01T13:47:16Z</time>
					</trkpt>
					<trkpt lat="43.659320" lon="2.390000">
						<ele>675</ele>
						<time>2026-05-01T13:47:45Z</time>
					</trkpt>
					<trkpt lat="43.659530" lon="2.389450">
						<ele>673</ele>
						<time>2026-05-01T13:48:45Z</time>
					</trkpt>
					<trkpt lat="43.659410" lon="2.388770">
						<ele>672</ele>
						<time>2026-05-01T13:49:52Z</time>
					</trkpt>
					<trkpt lat="43.659350" lon="2.388250">
						<ele>669</ele>
						<time>2026-05-01T13:50:43Z</time>
					</trkpt>
					<trkpt lat="43.659270" lon="2.388050">
						<ele>669</ele>
						<time>2026-05-01T13:51:05Z</time>
					</trkpt>
					<trkpt lat="43.659290" lon="2.387870">
						<ele>668</ele>
						<time>2026-05-01T13:51:23Z</time>
					</trkpt>
					<trkpt lat="43.659240" lon="2.387550">
						<ele>667</ele>
						<time>2026-05-01T13:51:54Z</time>
					</trkpt>
					<trkpt lat="43.659250" lon="2.387160">
						<ele>664</ele>
						<time>2026-05-01T13:52:32Z</time>
					</trkpt>
					<trkpt lat="43.659070" lon="2.386360">
						<ele>657</ele>
						<time>2026-05-01T13:53:53Z</time>
					</trkpt>
					<trkpt lat="43.658860" lon="2.385930">
						<ele>654</ele>
						<time>2026-05-01T13:54:43Z</time>
					</trkpt>
					<trkpt lat="43.658640" lon="2.385300">
						<ele>649</ele>
						<time>2026-05-01T13:55:51Z</time>
					</trkpt>
					<trkpt lat="43.658410" lon="2.384740">
						<ele>647</ele>
						<time>2026-05-01T13:56:53Z</time>
					</trkpt>
					<trkpt lat="43.658320" lon="2.384370">
						<ele>647</ele>
						<time>2026-05-01T13:57:31Z</time>
					</trkpt>
					<trkpt lat="43.658360" lon="2.383740">
						<ele>647</ele>
						<time>2026-05-01T13:58:32Z</time>
					</trkpt>
					<trkpt lat="43.658440" lon="2.383340">
						<ele>645</ele>
						<time>2026-05-01T13:59:12Z</time>
					</trkpt>
					<trkpt lat="43.658450" lon="2.383100">
						<ele>645</ele>
						<time>2026-05-01T13:59:35Z</time>
					</trkpt>
					<trkpt lat="43.658420" lon="2.382870">
						<ele>645</ele>
						<time>2026-05-01T13:59:57Z</time>
					</trkpt>
					<trkpt lat="43.658450" lon="2.382420">
						<ele>644</ele>
						<time>2026-05-01T14:00:41Z</time>
					</trkpt>
					<trkpt lat="43.658540" lon="2.382290">
						<ele>642</ele>
						<time>2026-05-01T14:00:58Z</time>
					</trkpt>
					<trkpt lat="43.658610" lon="2.382150">
						<ele>641</ele>
						<time>2026-05-01T14:01:15Z</time>
					</trkpt>
					<trkpt lat="43.658680" lon="2.381810">
						<ele>639</ele>
						<time>2026-05-01T14:01:49Z</time>
					</trkpt>
					<trkpt lat="43.658670" lon="2.381570">
						<ele>639</ele>
						<time>2026-05-01T14:02:12Z</time>
					</trkpt>
					<trkpt lat="43.658630" lon="2.381250">
						<ele>637</ele>
						<time>2026-05-01T14:02:44Z</time>
					</trkpt>
					<trkpt lat="43.658690" lon="2.381090">
						<ele>635</ele>
						<time>2026-05-01T14:03:01Z</time>
					</trkpt>
					<trkpt lat="43.658670" lon="2.380690">
						<ele>632</ele>
						<time>2026-05-01T14:03:40Z</time>
					</trkpt>
					<trkpt lat="43.658850" lon="2.380620">
						<ele>630</ele>
						<time>2026-05-01T14:04:05Z</time>
					</trkpt>
					<trkpt lat="43.658930" lon="2.380500">
						<ele>629</ele>
						<time>2026-05-01T14:04:20Z</time>
					</trkpt>
					<trkpt lat="43.659120" lon="2.380300">
						<ele>628</ele>
						<time>2026-05-01T14:04:52Z</time>
					</trkpt>
					<trkpt lat="43.659260" lon="2.379960">
						<ele>625</ele>
						<time>2026-05-01T14:05:30Z</time>
					</trkpt>
					<trkpt lat="43.659380" lon="2.379680">
						<ele>622</ele>
						<time>2026-05-01T14:06:01Z</time>
					</trkpt>
					<trkpt lat="43.659520" lon="2.379270">
						<ele>618</ele>
						<time>2026-05-01T14:06:45Z</time>
					</trkpt>
					<trkpt lat="43.659530" lon="2.379100">
						<ele>618</ele>
						<time>2026-05-01T14:07:02Z</time>
					</trkpt>
					<trkpt lat="43.659660" lon="2.378870">
						<ele>615</ele>
						<time>2026-05-01T14:07:30Z</time>
					</trkpt>
					<trkpt lat="43.659800" lon="2.378250">
						<ele>615</ele>
						<time>2026-05-01T14:08:33Z</time>
					</trkpt>
					<trkpt lat="43.659930" lon="2.377940">
						<ele>613</ele>
						<time>2026-05-01T14:09:07Z</time>
					</trkpt>
					<trkpt lat="43.659960" lon="2.377210">
						<ele>610</ele>
						<time>2026-05-01T14:10:18Z</time>
					</trkpt>
					<trkpt lat="43.660010" lon="2.376930">
						<ele>608</ele>
						<time>2026-05-01T14:10:46Z</time>
					</trkpt>
					<trkpt lat="43.659920" lon="2.376690">
						<ele>605</ele>
						<time>2026-05-01T14:11:12Z</time>
					</trkpt>
					<trkpt lat="43.660030" lon="2.376260">
						<ele>605</ele>
						<time>2026-05-01T14:11:56Z</time>
					</trkpt>
					<trkpt lat="43.660110" lon="2.375750">
						<ele>604</ele>
						<time>2026-05-01T14:12:46Z</time>
					</trkpt>
					<trkpt lat="43.660110" lon="2.375440">
						<ele>604</ele>
						<time>2026-05-01T14:13:16Z</time>
					</trkpt>
					<trkpt lat="43.660220" lon="2.375210">
						<ele>604</ele>
						<time>2026-05-01T14:13:43Z</time>
					</trkpt>
					<trkpt lat="43.660930" lon="2.374740">
						<ele>609</ele>
						<time>2026-05-01T14:15:28Z</time>
					</trkpt>
					<trkpt lat="43.661140" lon="2.374440">
						<ele>609</ele>
						<time>2026-05-01T14:16:08Z</time>
					</trkpt>
					<trkpt lat="43.661450" lon="2.373960">
						<ele>609</ele>
						<time>2026-05-01T14:17:10Z</time>
					</trkpt>
					<trkpt lat="43.662320" lon="2.372920">
						<ele>600</ele>
						<time>2026-05-01T14:19:44Z</time>
					</trkpt>
					<trkpt lat="43.662700" lon="2.372300">
						<ele>596</ele>
						<time>2026-05-01T14:21:02Z</time>
					</trkpt>
					<trkpt lat="43.662810" lon="2.371970">
						<ele>595</ele>
						<time>2026-05-01T14:21:37Z</time>
					</trkpt>
					<trkpt lat="43.662950" lon="2.371160">
						<ele>596</ele>
						<time>2026-05-01T14:22:57Z</time>
					</trkpt>
					<trkpt lat="43.662880" lon="2.370350">
						<ele>596</ele>
						<time>2026-05-01T14:24:16Z</time>
					</trkpt>
					<trkpt lat="43.662450" lon="2.369400">
						<ele>593</ele>
						<time>2026-05-01T14:26:04Z</time>
					</trkpt>
					</trkseg>
				</trk>
			</gpx>