<?xml version="1.0" encoding="UTF-8" ?>
<gpx version="1.1" xmlns:xsi="http://www.w3.org/2001/XMLSchema-instance"
    xmlns="http://www.topografix.com/GPX/1/1"
    xsi:schemaLocation="http://www.topografix.com/GPX/1/1 http://www.topografix.com/GPX/1/1/gpx.xsd"
    creator="Openrunner - https://www.openrunner.com" >	<trk>
	                   <name>Aumont Aubrac 6,5 km-23644380</name>
						<trkseg>
					<trkpt lat="44.722960" lon="3.284920">
						<ele>1047</ele>
						<time>2026-05-01T09:39:19Z</time>
					</trkpt>
					<trkpt lat="44.722960" lon="3.284870">
						<ele>1047</ele>
						<time>2026-05-01T09:39:24Z</time>
					</trkpt>
					<trkpt lat="44.722980" lon="3.284800">
						<ele>1047</ele>
						<time>2026-05-01T09:39:31Z</time>
					</trkpt>
					<trkpt lat="44.723200" lon="3.284950">
						<ele>1045</ele>
						<time>2026-05-01T09:40:04Z</time>
					</trkpt>
					<trkpt lat="44.723260" lon="3.285240">
						<ele>1043</ele>
						<time>2026-05-01T09:40:32Z</time>
					</trkpt>
					<trkpt lat="44.723260" lon="3.285370">
						<ele>1043</ele>
						<time>2026-05-01T09:40:44Z</time>
					</trkpt>
					<trkpt lat="44.723250" lon="3.285490">
						<ele>1043</ele>
						<time>2026-05-01T09:40:56Z</time>
					</trkpt>
					<trkpt lat="44.723250" lon="3.285540">
						<ele>1043</ele>
						<time>2026-05-01T09:41:01Z</time>
					</trkpt>
					<trkpt lat="44.723040" lon="3.285830">
						<ele>1044</ele>
						<time>2026-05-01T09:41:40Z</time>
					</trkpt>
					<trkpt lat="44.723120" lon="3.285940">
						<ele>1044</ele>
						<time>2026-05-01T09:41:55Z</time>
					</trkpt>
					<trkpt lat="44.723070" lon="3.285940">
						<ele>1044</ele>
						<time>2026-05-01T09:42:02Z</time>
					</trkpt>
					<trkpt lat="44.723020" lon="3.285990">
						<ele>1045</ele>
						<time>2026-05-01T09:42:10Z</time>
					</trkpt>
					<trkpt lat="44.722990" lon="3.286070">
						<ele>1046</ele>
						<time>2026-05-01T09:42:18Z</time>
					</trkpt>
					<trkpt lat="44.722790" lon="3.286340">
						<ele>1049</ele>
						<time>2026-05-01T09:42:55Z</time>
					</trkpt>
					<trkpt lat="44.722620" lon="3.286630">
						<ele>1052</ele>
						<time>2026-05-01T09:43:31Z</time>
					</trkpt>
					<trkpt lat="44.722340" lon="3.287120">
						<ele>1057</ele>
						<time>2026-05-01T09:44:31Z</time>
					</trkpt>
					<trkpt lat="44.722250" lon="3.287150">
						<ele>1057</ele>
						<time>2026-05-01T09:44:43Z</time>
					</trkpt>
					<trkpt lat="44.722250" lon="3.287260">
						<ele>1058</ele>
						<time>2026-05-01T09:44:53Z</time>
					</trkpt>
					<trkpt lat="44.722230" lon="3.287360">
						<ele>1058</ele>
						<time>2026-05-01T09:45:03Z</time>
					</trkpt>
					<trkpt lat="44.722140" lon="3.287680">
						<ele>1059</ele>
						<time>2026-05-01T09:45:36Z</time>
					</trkpt>
					<trkpt lat="44.721790" lon="3.288700">
						<ele>1062</ele>
						<time>2026-05-01T09:47:23Z</time>
					</trkpt>
					<trkpt lat="44.721640" lon="3.289110">
						<ele>1064</ele>
						<time>2026-05-01T09:48:07Z</time>
					</trkpt>
					<trkpt lat="44.721570" lon="3.289360">
						<ele>1065</ele>
						<time>2026-05-01T09:48:32Z</time>
					</trkpt>
					<trkpt lat="44.721460" lon="3.289800">
						<ele>1067</ele>
						<time>2026-05-01T09:49:17Z</time>
					</trkpt>
					<trkpt lat="44.721420" lon="3.289970">
						<ele>1067</ele>
						<time>2026-05-01T09:49:34Z</time>
					</trkpt>
					<trkpt lat="44.721300" lon="3.290500">
						<ele>1069</ele>
						<time>2026-05-01T09:50:26Z</time>
					</trkpt>
					<trkpt lat="44.721240" lon="3.290750">
						<ele>1070</ele>
						<time>2026-05-01T09:50:51Z</time>
					</trkpt>
					<trkpt lat="44.720980" lon="3.291860">
						<ele>1077</ele>
						<time>2026-05-01T09:52:42Z</time>
					</trkpt>
					<trkpt lat="44.720810" lon="3.292380">
						<ele>1079</ele>
						<time>2026-05-01T09:53:36Z</time>
					</trkpt>
					<trkpt lat="44.720780" lon="3.292440">
						<ele>1080</ele>
						<time>2026-05-01T09:53:43Z</time>
					</trkpt>
					<trkpt lat="44.720730" lon="3.292570">
						<ele>1081</ele>
						<time>2026-05-01T09:53:57Z</time>
					</trkpt>
					<trkpt lat="44.720680" lon="3.292850">
						<ele>1080</ele>
						<time>2026-05-01T09:54:25Z</time>
					</trkpt>
					<trkpt lat="44.720180" lon="3.294790">
						<ele>1076</ele>
						<time>2026-05-01T09:57:41Z</time>
					</trkpt>
					<trkpt lat="44.720180" lon="3.295030">
						<ele>1075</ele>
						<time>2026-05-01T09:58:03Z</time>
					</trkpt>
					<trkpt lat="44.720220" lon="3.295360">
						<ele>1078</ele>
						<time>2026-05-01T09:58:35Z</time>
					</trkpt>
					<trkpt lat="44.720350" lon="3.295760">
						<ele>1080</ele>
						<time>2026-05-01T09:59:17Z</time>
					</trkpt>
					<trkpt lat="44.720410" lon="3.295900">
						<ele>1082</ele>
						<time>2026-05-01T09:59:32Z</time>
					</trkpt>
					<trkpt lat="44.720640" lon="3.296160">
						<ele>1083</ele>
						<time>2026-05-01T10:00:12Z</time>
					</trkpt>
					<trkpt lat="44.720700" lon="3.296270">
						<ele>1084</ele>
						<time>2026-05-01T10:00:25Z</time>
					</trkpt>
					<trkpt lat="44.720850" lon="3.297230">
						<ele>1086</ele>
						<time>2026-05-01T10:01:58Z</time>
					</trkpt>
					<trkpt lat="44.720920" lon="3.298300">
						<ele>1085</ele>
						<time>2026-05-01T10:03:40Z</time>
					</trkpt>
					<trkpt lat="44.720960" lon="3.298490">
						<ele>1085</ele>
						<time>2026-05-01T10:03:59Z</time>
					</trkpt>
					<trkpt lat="44.721030" lon="3.298640">
						<ele>1086</ele>
						<time>2026-05-01T10:04:16Z</time>
					</trkpt>
					<trkpt lat="44.720950" lon="3.298670">
						<ele>1086</ele>
						<time>2026-05-01T10:04:27Z</time>
					</trkpt>
					<trkpt lat="44.721380" lon="3.300110">
						<ele>1090</ele>
						<time>2026-05-01T10:06:55Z</time>
					</trkpt>
					<trkpt lat="44.721460" lon="3.300900">
						<ele>1090</ele>
						<time>2026-05-01T10:08:10Z</time>
					</trkpt>
					<trkpt lat="44.721450" lon="3.301480">
						<ele>1090</ele>
						<time>2026-05-01T10:09:05Z</time>
					</trkpt>
					<trkpt lat="44.721120" lon="3.301650">
						<ele>1086</ele>
						<time>2026-05-01T10:09:52Z</time>
					</trkpt>
					<trkpt lat="44.720850" lon="3.301950">
						<ele>1083</ele>
						<time>2026-05-01T10:10:38Z</time>
					</trkpt>
					<trkpt lat="44.720570" lon="3.302380">
						<ele>1082</ele>
						<time>2026-05-01T10:11:34Z</time>
					</trkpt>
					<trkpt lat="44.720360" lon="3.303000">
						<ele>1080</ele>
						<time>2026-05-01T10:12:39Z</time>
					</trkpt>
					<trkpt lat="44.720280" lon="3.303530">
						<ele>1078</ele>
						<time>2026-05-01T10:13:30Z</time>
					</trkpt>
					<trkpt lat="44.720470" lon="3.304540">
						<ele>1074</ele>
						<time>2026-05-01T10:15:09Z</time>
					</trkpt>
					<trkpt lat="44.720720" lon="3.305520">
						<ele>1071</ele>
						<time>2026-05-01T10:16:48Z</time>
					</trkpt>
					<trkpt lat="44.720760" lon="3.306200">
						<ele>1070</ele>
						<time>2026-05-01T10:17:53Z</time>
					</trkpt>
					<trkpt lat="44.720830" lon="3.306500">
						<ele>1071</ele>
						<time>2026-05-01T10:18:23Z</time>
					</trkpt>
					<trkpt lat="44.721380" lon="3.307750">
						<ele>1072</ele>
						<time>2026-05-01T10:20:42Z</time>
					</trkpt>
					<trkpt lat="44.721370" lon="3.307930">
						<ele>1071</ele>
						<time>2026-05-01T10:20:59Z</time>
					</trkpt>
					<trkpt lat="44.721310" lon="3.308340">
						<ele>1070</ele>
						<time>2026-05-01T10:21:39Z</time>
					</trkpt>
					<trkpt lat="44.721280" lon="3.309170">
						<ele>1073</ele>
						<time>2026-05-01T10:22:58Z</time>
					</trkpt>
					<trkpt lat="44.721230" lon="3.309990">
						<ele>1076</ele>
						<time>2026-05-01T10:24:16Z</time>
					</trkpt>
					<trkpt lat="44.721260" lon="3.310350">
						<ele>1075</ele>
						<time>2026-05-01T10:24:50Z</time>
					</trkpt>
					<trkpt lat="44.721420" lon="3.310770">
						<ele>1074</ele>
						<time>2026-05-01T10:25:35Z</time>
					</trkpt>
					<trkpt lat="44.721640" lon="3.311300">
						<ele>1073</ele>
						<time>2026-05-01T10:26:33Z</time>
					</trkpt>
					<trkpt lat="44.721740" lon="3.311930">
						<ele>1070</ele>
						<time>2026-05-01T10:27:35Z</time>
					</trkpt>
					<trkpt lat="44.721600" lon="3.312380">
						<ele>1067</ele>
						<time>2026-05-01T10:28:21Z</time>
					</trkpt>
					<trkpt lat="44.721490" lon="3.312620">
						<ele>1066</ele>
						<time>2026-05-01T10:28:48Z</time>
					</trkpt>
					<trkpt lat="44.721470" lon="3.312800">
						<ele>1065</ele>
						<time>2026-05-01T10:29:05Z</time>
					</trkpt>
					<trkpt lat="44.721670" lon="3.312730">
						<ele>1066</ele>
						<time>2026-05-01T10:29:33Z</time>
					</trkpt>
					<trkpt lat="44.721740" lon="3.312730">
						<ele>1066</ele>
						<time>2026-05-01T10:29:42Z</time>
					</trkpt>
					<trkpt lat="44.721920" lon="3.312730">
						<ele>1065</ele>
						<time>2026-05-01T10:30:06Z</time>
					</trkpt>
					<trkpt lat="44.722290" lon="3.312540">
						<ele>1066</ele>
						<time>2026-05-01T10:30:59Z</time>
					</trkpt>
					<trkpt lat="44.722890" lon="3.312400">
						<ele>1066</ele>
						<time>2026-05-01T10:32:20Z</time>
					</trkpt>
					<trkpt lat="44.723130" lon="3.312440">
						<ele>1065</ele>
						<time>2026-05-01T10:32:52Z</time>
					</trkpt>
					<trkpt lat="44.723620" lon="3.312960">
						<ele>1060</ele>
						<time>2026-05-01T10:34:14Z</time>
					</trkpt>
					<trkpt lat="44.723740" lon="3.313230">
						<ele>1060</ele>
						<time>2026-05-01T10:34:44Z</time>
					</trkpt>
					<trkpt lat="44.723900" lon="3.313670">
						<ele>1061</ele>
						<time>2026-05-01T10:35:31Z</time>
					</trkpt>
					<trkpt lat="44.723910" lon="3.313920">
						<ele>1062</ele>
						<time>2026-05-01T10:35:55Z</time>
					</trkpt>
					<trkpt lat="44.724140" lon="3.314680">
						<ele>1064</ele>
						<time>2026-05-01T10:37:13Z</time>
					</trkpt>
					<trkpt lat="44.724720" lon="3.316010">
						<ele>1061</ele>
						<time>2026-05-01T10:39:41Z</time>
					</trkpt>
					<trkpt lat="44.724910" lon="3.316370">
						<ele>1061</ele>
						<time>2026-05-01T10:40:24Z</time>
					</trkpt>
					<trkpt lat="44.725050" lon="3.316730">
						<ele>1059</ele>
						<time>2026-05-01T10:41:03Z</time>
					</trkpt>
					<trkpt lat="44.725160" lon="3.317120">
						<ele>1057</ele>
						<time>2026-05-01T10:41:42Z</time>
					</trkpt>
					<trkpt lat="44.725170" lon="3.317150">
						<ele>1057</ele>
						<time>2026-05-01T10:41:46Z</time>
					</trkpt>
					<trkpt lat="44.725150" lon="3.316910">
						<ele>1058</ele>
						<time>2026-05-01T10:42:09Z</time>
					</trkpt>
					<trkpt lat="44.725160" lon="3.316510">
						<ele>1060</ele>
						<time>2026-05-01T10:42:46Z</time>
					</trkpt>
					<trkpt lat="44.725230" lon="3.316010">
						<ele>1062</ele>
						<time>2026-05-01T10:43:35Z</time>
					</trkpt>
					<trkpt lat="44.725300" lon="3.315630">
						<ele>1063</ele>
						<time>2026-05-01T10:44:12Z</time>
					</trkpt>
					<trkpt lat="44.725350" lon="3.315280">
						<ele>1065</ele>
						<time>2026-05-01T10:44:46Z</time>
					</trkpt>
					<trkpt lat="44.725380" lon="3.314920">
						<ele>1067</ele>
						<time>2026-05-01T10:45:20Z</time>
					</trkpt>
					<trkpt lat="44.725390" lon="3.314160">
						<ele>1070</ele>
						<time>2026-05-01T10:46:32Z</time>
					</trkpt>
					<trkpt lat="44.725460" lon="3.313600">
						<ele>1071</ele>
						<time>2026-05-01T10:47:26Z</time>
					</trkpt>
					<trkpt lat="44.725530" lon="3.312890">
						<ele>1072</ele>
						<time>2026-05-01T10:48:34Z</time>
					</trkpt>
					<trkpt lat="44.725510" lon="3.312270">
						<ele>1075</ele>
						<time>2026-05-01T10:49:33Z</time>
					</trkpt>
					<trkpt lat="44.725550" lon="3.311300">
						<ele>1082</ele>
						<time>2026-05-01T10:51:05Z</time>
					</trkpt>
					<trkpt lat="44.725560" lon="3.310760">
						<ele>1086</ele>
						<time>2026-05-01T10:51:56Z</time>
					</trkpt>
					<trkpt lat="44.725530" lon="3.309770">
						<ele>1089</ele>
						<time>2026-05-01T10:53:30Z</time>
					</trkpt>
					<trkpt lat="44.725530" lon="3.309090">
						<ele>1092</ele>
						<time>2026-05-01T10:54:35Z</time>
					</trkpt>
					<trkpt lat="44.725380" lon="3.308440">
						<ele>1093</ele>
						<time>2026-05-01T10:55:40Z</time>
					</trkpt>
					<trkpt lat="44.725310" lon="3.308070">
						<ele>1094</ele>
						<time>2026-05-01T10:56:16Z</time>
					</trkpt>
					<trkpt lat="44.725240" lon="3.307800">
						<ele>1094</ele>
						<time>2026-05-01T10:56:43Z</time>
					</trkpt>
					<trkpt lat="44.725120" lon="3.307580">
						<ele>1094</ele>
						<time>2026-05-01T10:57:09Z</time>
					</trkpt>
					<trkpt lat="44.725470" lon="3.307640">
						<ele>1094</ele>
						<time>2026-05-01T10:57:56Z</time>
					</trkpt>
					<trkpt lat="44.727000" lon="3.308280">
						<ele>1092</ele>
						<time>2026-05-01T11:01:29Z</time>
					</trkpt>
					<trkpt lat="44.726820" lon="3.308110">
						<ele>1093</ele>
						<time>2026-05-01T11:01:58Z</time>
					</trkpt>
					<trkpt lat="44.726270" lon="3.307720">
						<ele>1096</ele>
						<time>2026-05-01T11:03:21Z</time>
					</trkpt>
					<trkpt lat="44.725930" lon="3.307400">
						<ele>1096</ele>
						<time>2026-05-01T11:04:15Z</time>
					</trkpt>
					<trkpt lat="44.725620" lon="3.307020">
						<ele>1098</ele>
						<time>2026-05-01T11:05:10Z</time>
					</trkpt>
					<trkpt lat="44.725440" lon="3.306670">
						<ele>1099</ele>
						<time>2026-05-01T11:05:51Z</time>
					</trkpt>
					<trkpt lat="44.725300" lon="3.306300">
						<ele>1100</ele>
						<time>2026-05-01T11:06:31Z</time>
					</trkpt>
					<trkpt lat="44.725030" lon="3.305230">
						<ele>1099</ele>
						<time>2026-05-01T11:08:18Z</time>
					</trkpt>
					<trkpt lat="44.724820" lon="3.304590">
						<ele>1098</ele>
						<time>2026-05-01T11:09:25Z</time>
					</trkpt>
					<trkpt lat="44.724290" lon="3.303190">
						<ele>1100</ele>
						<time>2026-05-01T11:11:56Z</time>
					</trkpt>
					<trkpt lat="44.724010" lon="3.302670">
						<ele>1102</ele>
						<time>2026-05-01T11:12:58Z</time>
					</trkpt>
					<trkpt lat="44.723440" lon="3.301930">
						<ele>1103</ele>
						<time>2026-05-01T11:14:41Z</time>
					</trkpt>
					<trkpt lat="44.723290" lon="3.301610">
						<ele>1103</ele>
						<time>2026-05-01T11:15:17Z</time>
					</trkpt>
					<trkpt lat="44.722870" lon="3.300550">
						<ele>1100</ele>
						<time>2026-05-01T11:17:12Z</time>
					</trkpt>
					<trkpt lat="44.722570" lon="3.299860">
						<ele>1094</ele>
						<time>2026-05-01T11:18:29Z</time>
					</trkpt>
					<trkpt lat="44.722400" lon="3.299680">
						<ele>1092</ele>
						<time>2026-05-01T11:18:58Z</time>
					</trkpt>
					<trkpt lat="44.721700" lon="3.299270">
						<ele>1088</ele>
						<time>2026-05-01T11:20:39Z</time>
					</trkpt>
					<trkpt lat="44.721460" lon="3.299080">
						<ele>1087</ele>
						<time>2026-05-01T11:21:15Z</time>
					</trkpt>
					<trkpt lat="44.721030" lon="3.298640">
						<ele>1086</ele>
						<time>2026-05-01T11:22:26Z</time>
					</trkpt>
					<trkpt lat="44.720960" lon="3.298490">
						<ele>1085</ele>
						<time>2026-05-01T11:22:43Z</time>
					</trkpt>
					<trkpt lat="44.720920" lon="3.298300">
						<ele>1085</ele>
						<time>2026-05-01T11:23:02Z</time>
					</trkpt>
					<trkpt lat="44.720850" lon="3.297230">
						<ele>1086</ele>
						<time>2026-05-01T11:24:44Z</time>
					</trkpt>
					<trkpt lat="44.720700" lon="3.296270">
						<ele>1084</ele>
						<time>2026-05-01T11:26:17Z</time>
					</trkpt>
					<trkpt lat="44.720640" lon="3.296160">
						<ele>1083</ele>
						<time>2026-05-01T11:26:30Z</time>
					</trkpt>
					<trkpt lat="44.720410" lon="3.295900">
						<ele>1082</ele>
						<time>2026-05-01T11:27:10Z</time>
					</trkpt>
					<trkpt lat="44.720350" lon="3.295760">
						<ele>1080</ele>
						<time>2026-05-01T11:27:25Z</time>
					</trkpt>
					<trkpt lat="44.720220" lon="3.295360">
						<ele>1078</ele>
						<time>2026-05-01T11:28:07Z</time>
					</trkpt>
					<trkpt lat="44.720180" lon="3.295030">
						<ele>1075</ele>
						<time>2026-05-01T11:28:39Z</time>
					</trkpt>
					<trkpt lat="44.720180" lon="3.294790">
						<ele>1076</ele>
						<time>2026-05-01T11:29:01Z</time>
					</trkpt>
					<trkpt lat="44.720680" lon="3.292850">
						<ele>1080</ele>
						<time>2026-05-01T11:32:17Z</time>
					</trkpt>
					<trkpt lat="44.720730" lon="3.292570">
						<ele>1081</ele>
						<time>2026-05-01T11:32:45Z</time>
					</trkpt>
					<trkpt lat="44.720780" lon="3.292440">
						<ele>1080</ele>
						<time>2026-05-01T11:32:59Z</time>
					</trkpt>
					<trkpt lat="44.720810" lon="3.292380">
						<ele>1079</ele>
						<time>2026-05-01T11:33:06Z</time>
					</trkpt>
					<trkpt lat="44.720980" lon="3.291860">
						<ele>1077</ele>
						<time>2026-05-01T11:34:00Z</time>
					</trkpt>
					<trkpt lat="44.721240" lon="3.290750">
						<ele>1070</ele>
						<time>2026-05-01T11:35:51Z</time>
					</trkpt>
					<trkpt lat="44.721300" lon="3.290500">
						<ele>1069</ele>
						<time>2026-05-01T11:36:16Z</time>
					</trkpt>
					<trkpt lat="44.721420" lon="3.289970">
						<ele>1067</ele>
						<time>2026-05-01T11:37:08Z</time>
					</trkpt>
					<trkpt lat="44.721460" lon="3.289800">
						<ele>1067</ele>
						<time>2026-05-01T11:37:25Z</time>
					</trkpt>
					<trkpt lat="44.721570" lon="3.289360">
						<ele>1065</ele>
						<time>2026-05-01T11:38:10Z</time>
					</trkpt>
					<trkpt lat="44.721640" lon="3.289110">
						<ele>1064</ele>
						<time>2026-05-01T11:38:35Z</time>
					</trkpt>
					<trkpt lat="44.721790" lon="3.288700">
						<ele>1062</ele>
						<time>2026-05-01T11:39:19Z</time>
					</trkpt>
					<trkpt lat="44.722140" lon="3.287680">
						<ele>1059</ele>
						<time>2026-05-01T11:41:06Z</time>
					</trkpt>
					<trkpt lat="44.722230" lon="3.287360">
						<ele>1058</ele>
						<time>2026-05-01T11:41:39Z</time>
					</trkpt>
					<trkpt lat="44.722250" lon="3.287260">
						<ele>1058</ele>
						<time>2026-05-01T11:41:49Z</time>
					</trkpt>
					<trkpt lat="44.722250" lon="3.287150">
						<ele>1057</ele>
						<time>2026-05-01T11:41:59Z</time>
					</trkpt>
					<trkpt lat="44.722340" lon="3.287120">
						<ele>1057</ele>
						<time>2026-05-01T11:42:11Z</time>
					</trkpt>
					<trkpt lat="44.722620" lon="3.286630">
						<ele>1052</ele>
						<time>2026-05-01T11:43:11Z</time>
					</trkpt>
					<trkpt lat="44.722790" lon="3.286340">
						<ele>1049</ele>
						<time>2026-05-01T11:43:47Z</time>
					</trkpt>
					<trkpt lat="44.722990" lon="3.286070">
						<ele>1046</ele>
						<time>2026-05-01T11:44:24Z</time>
					</trkpt>
					<trkpt lat="44.723020" lon="3.285990">
						<ele>1045</ele>
						<time>2026-05-01T11:44:32Z</time>
					</trkpt>
					<trkpt lat="44.723070" lon="3.285940">
						<ele>1044</ele>
						<time>2026-05-01T11:44:40Z</time>
					</trkpt>
					<trkpt lat="44.723120" lon="3.285940">
						<ele>1044</ele>
						<time>2026-05-01T11:44:47Z</time>
					</trkpt>
					<trkpt lat="44.723040" lon="3.285830">
						<ele>1044</ele>
						<time>2026-05-01T11:45:02Z</time>
					</trkpt>
					<trkpt lat="44.723250" lon="3.285540">
						<ele>1043</ele>
						<time>2026-05-01T11:45:41Z</time>
					</trkpt>
					<trkpt lat="44.723250" lon="3.285490">
						<ele>1043</ele>
						<time>2026-05-01T11:45:46Z</time>
					</trkpt>
					<trkpt lat="44.723260" lon="3.285370">
						<ele>1043</ele>
						<time>2026-05-01T11:45:58Z</time>
					</trkpt>
					<trkpt lat="44.723260" lon="3.285240">
						<ele>1043</ele>
						<time>2026-05-01T11:46:10Z</time>
					</trkpt>
					<trkpt lat="44.723200" lon="3.284950">
						<ele>1045</ele>
						<time>2026-05-01T11:46:38Z</time>
					</trkpt>
					<trkpt lat="44.723190" lon="3.284510">
						<ele>1045</ele>
						<time>2026-05-01T11:47:20Z</time>
					</trkpt>
					<trkpt lat="44.723170" lon="3.284440">
						<ele>1046</ele>
						<time>2026-05-01T11:47:27Z</time>
					</trkpt>
					<trkpt lat="44.723140" lon="3.284370">
						<ele>1046</ele>
						<time>2026-05-01T11:47:35Z</time>
					</trkpt>
					<trkpt lat="44.723030" lon="3.283900">
						<ele>1047</ele>
						<time>2026-05-01T11:48:22Z</time>
					</trkpt>
					<trkpt lat="44.723000" lon="3.283910">
						<ele>1047</ele>
						<time>2026-05-01T11:48:26Z</time>
					</trkpt>
					<trkpt lat="44.722930" lon="3.283980">
						<ele>1048</ele>
						<time>2026-05-01T11:48:38Z</time>
					</trkpt>
					</trkseg>
				</trk>
			</gpx>