<?xml version="1.0" encoding="UTF-8"?>
<gpx xmlns="http://www.topografix.com/GPX/1/1" xmlns:xsi="http://www.w3.org/2001/XMLSchema-instance" version="1.1" creator="phpGPX/1.3.0" xsi:schemaLocation="http://www.topografix.com/GPX/1/1 http://www.topografix.com/GPX/1/1/gpx.xsd">
  <metadata>
    <time>2026-05-11T18:36:12+00:00</time>
  </metadata>
  <trk>
    <name>Ausa Gaztelu</name>
    <trkseg>
      <trkpt lat="43.03709" lon="-2.0995">
        <ele>396</ele>
        <time>2026-05-11T18:36:13+00:00</time>
      </trkpt>
      <trkpt lat="43.0373" lon="-2.10022">
        <ele>395</ele>
        <time>2026-05-11T18:36:14+00:00</time>
      </trkpt>
      <trkpt lat="43.03753" lon="-2.10083">
        <ele>398</ele>
        <time>2026-05-11T18:36:15+00:00</time>
      </trkpt>
      <trkpt lat="43.03756" lon="-2.1012">
        <ele>398</ele>
        <time>2026-05-11T18:36:16+00:00</time>
      </trkpt>
      <trkpt lat="43.03751" lon="-2.10142">
        <ele>399</ele>
        <time>2026-05-11T18:36:17+00:00</time>
      </trkpt>
      <trkpt lat="43.0374" lon="-2.10157">
        <ele>396</ele>
        <time>2026-05-11T18:36:18+00:00</time>
      </trkpt>
      <trkpt lat="43.03731" lon="-2.10289">
        <ele>389</ele>
        <time>2026-05-11T18:36:19+00:00</time>
      </trkpt>
      <trkpt lat="43.03721" lon="-2.10343">
        <ele>382</ele>
        <time>2026-05-11T18:36:20+00:00</time>
      </trkpt>
      <trkpt lat="43.03722" lon="-2.10359">
        <ele>380</ele>
        <time>2026-05-11T18:36:21+00:00</time>
      </trkpt>
      <trkpt lat="43.03725" lon="-2.10367">
        <ele>380</ele>
        <time>2026-05-11T18:36:22+00:00</time>
      </trkpt>
      <trkpt lat="43.03752" lon="-2.10419">
        <ele>378</ele>
        <time>2026-05-11T18:36:23+00:00</time>
      </trkpt>
      <trkpt lat="43.03741" lon="-2.10438">
        <ele>373</ele>
        <time>2026-05-11T18:36:24+00:00</time>
      </trkpt>
      <trkpt lat="43.037" lon="-2.10442">
        <ele>364</ele>
        <time>2026-05-11T18:36:25+00:00</time>
      </trkpt>
      <trkpt lat="43.03673" lon="-2.10399">
        <ele>364</ele>
        <time>2026-05-11T18:36:26+00:00</time>
      </trkpt>
      <trkpt lat="43.03643" lon="-2.10358">
        <ele>362</ele>
        <time>2026-05-11T18:36:27+00:00</time>
      </trkpt>
      <trkpt lat="43.03631" lon="-2.10346">
        <ele>361</ele>
        <time>2026-05-11T18:36:28+00:00</time>
      </trkpt>
      <trkpt lat="43.03628" lon="-2.10332">
        <ele>362</ele>
        <time>2026-05-11T18:36:29+00:00</time>
      </trkpt>
      <trkpt lat="43.0362" lon="-2.10322">
        <ele>361</ele>
        <time>2026-05-11T18:36:30+00:00</time>
      </trkpt>
      <trkpt lat="43.03588" lon="-2.10259">
        <ele>358</ele>
        <time>2026-05-11T18:36:31+00:00</time>
      </trkpt>
      <trkpt lat="43.03555" lon="-2.10378">
        <ele>351</ele>
        <time>2026-05-11T18:36:32+00:00</time>
      </trkpt>
      <trkpt lat="43.03545" lon="-2.10384">
        <ele>352</ele>
        <time>2026-05-11T18:36:33+00:00</time>
      </trkpt>
      <trkpt lat="43.03492" lon="-2.10367">
        <ele>357</ele>
        <time>2026-05-11T18:36:34+00:00</time>
      </trkpt>
      <trkpt lat="43.03483" lon="-2.10389">
        <ele>358</ele>
        <time>2026-05-11T18:36:35+00:00</time>
      </trkpt>
      <trkpt lat="43.03481" lon="-2.10408">
        <ele>357</ele>
        <time>2026-05-11T18:36:36+00:00</time>
      </trkpt>
      <trkpt lat="43.03483" lon="-2.10441">
        <ele>358</ele>
        <time>2026-05-11T18:36:37+00:00</time>
      </trkpt>
      <trkpt lat="43.03482" lon="-2.10453">
        <ele>359</ele>
        <time>2026-05-11T18:36:38+00:00</time>
      </trkpt>
      <trkpt lat="43.03477" lon="-2.10466">
        <ele>360</ele>
        <time>2026-05-11T18:36:39+00:00</time>
      </trkpt>
      <trkpt lat="43.03477" lon="-2.105">
        <ele>362</ele>
        <time>2026-05-11T18:36:40+00:00</time>
      </trkpt>
      <trkpt lat="43.03467" lon="-2.10594">
        <ele>372</ele>
        <time>2026-05-11T18:36:41+00:00</time>
      </trkpt>
      <trkpt lat="43.03474" lon="-2.10647">
        <ele>374</ele>
        <time>2026-05-11T18:36:42+00:00</time>
      </trkpt>
      <trkpt lat="43.03471" lon="-2.10675">
        <ele>375</ele>
        <time>2026-05-11T18:36:43+00:00</time>
      </trkpt>
      <trkpt lat="43.03382" lon="-2.1066">
        <ele>384</ele>
        <time>2026-05-11T18:36:44+00:00</time>
      </trkpt>
      <trkpt lat="43.03342" lon="-2.10658">
        <ele>386</ele>
        <time>2026-05-11T18:36:45+00:00</time>
      </trkpt>
      <trkpt lat="43.03312" lon="-2.10677">
        <ele>384</ele>
        <time>2026-05-11T18:36:46+00:00</time>
      </trkpt>
      <trkpt lat="43.03273" lon="-2.10722">
        <ele>379</ele>
        <time>2026-05-11T18:36:47+00:00</time>
      </trkpt>
      <trkpt lat="43.03265" lon="-2.1077">
        <ele>373</ele>
        <time>2026-05-11T18:36:48+00:00</time>
      </trkpt>
      <trkpt lat="43.03237" lon="-2.10733">
        <ele>378</ele>
        <time>2026-05-11T18:36:49+00:00</time>
      </trkpt>
      <trkpt lat="43.03211" lon="-2.10691">
        <ele>384</ele>
        <time>2026-05-11T18:36:50+00:00</time>
      </trkpt>
      <trkpt lat="43.03186" lon="-2.10664">
        <ele>389</ele>
        <time>2026-05-11T18:36:51+00:00</time>
      </trkpt>
      <trkpt lat="43.03157" lon="-2.1064">
        <ele>396</ele>
        <time>2026-05-11T18:36:52+00:00</time>
      </trkpt>
      <trkpt lat="43.03132" lon="-2.10638">
        <ele>398</ele>
        <time>2026-05-11T18:36:53+00:00</time>
      </trkpt>
      <trkpt lat="43.03064" lon="-2.10618">
        <ele>410</ele>
        <time>2026-05-11T18:36:54+00:00</time>
      </trkpt>
      <trkpt lat="43.03044" lon="-2.10648">
        <ele>407</ele>
        <time>2026-05-11T18:36:55+00:00</time>
      </trkpt>
      <trkpt lat="43.02972" lon="-2.10732">
        <ele>412</ele>
        <time>2026-05-11T18:36:56+00:00</time>
      </trkpt>
      <trkpt lat="43.02936" lon="-2.10763">
        <ele>417</ele>
        <time>2026-05-11T18:36:57+00:00</time>
      </trkpt>
      <trkpt lat="43.02892" lon="-2.10796">
        <ele>423</ele>
        <time>2026-05-11T18:36:58+00:00</time>
      </trkpt>
      <trkpt lat="43.02851" lon="-2.10845">
        <ele>424</ele>
        <time>2026-05-11T18:36:59+00:00</time>
      </trkpt>
      <trkpt lat="43.02799" lon="-2.109">
        <ele>430</ele>
        <time>2026-05-11T18:37:00+00:00</time>
      </trkpt>
      <trkpt lat="43.0275" lon="-2.10931">
        <ele>446</ele>
        <time>2026-05-11T18:37:01+00:00</time>
      </trkpt>
      <trkpt lat="43.02727" lon="-2.10976">
        <ele>443</ele>
        <time>2026-05-11T18:37:02+00:00</time>
      </trkpt>
      <trkpt lat="43.027" lon="-2.10993">
        <ele>446</ele>
        <time>2026-05-11T18:37:03+00:00</time>
      </trkpt>
      <trkpt lat="43.02681" lon="-2.11001">
        <ele>450</ele>
        <time>2026-05-11T18:37:04+00:00</time>
      </trkpt>
      <trkpt lat="43.02645" lon="-2.11006">
        <ele>456</ele>
        <time>2026-05-11T18:37:05+00:00</time>
      </trkpt>
      <trkpt lat="43.02596" lon="-2.11024">
        <ele>457</ele>
        <time>2026-05-11T18:37:06+00:00</time>
      </trkpt>
      <trkpt lat="43.02549" lon="-2.11035">
        <ele>459</ele>
        <time>2026-05-11T18:37:07+00:00</time>
      </trkpt>
      <trkpt lat="43.02473" lon="-2.11049">
        <ele>452</ele>
        <time>2026-05-11T18:37:08+00:00</time>
      </trkpt>
      <trkpt lat="43.02459" lon="-2.11045">
        <ele>449</ele>
        <time>2026-05-11T18:37:09+00:00</time>
      </trkpt>
      <trkpt lat="43.02443" lon="-2.11012">
        <ele>455</ele>
        <time>2026-05-11T18:37:10+00:00</time>
      </trkpt>
      <trkpt lat="43.02423" lon="-2.10905">
        <ele>483</ele>
        <time>2026-05-11T18:37:11+00:00</time>
      </trkpt>
      <trkpt lat="43.02416" lon="-2.10885">
        <ele>488</ele>
        <time>2026-05-11T18:37:12+00:00</time>
      </trkpt>
      <trkpt lat="43.02401" lon="-2.10878">
        <ele>490</ele>
        <time>2026-05-11T18:37:13+00:00</time>
      </trkpt>
      <trkpt lat="43.02385" lon="-2.10886">
        <ele>485</ele>
        <time>2026-05-11T18:37:14+00:00</time>
      </trkpt>
      <trkpt lat="43.02333" lon="-2.10936">
        <ele>458</ele>
        <time>2026-05-11T18:37:15+00:00</time>
      </trkpt>
      <trkpt lat="43.02318" lon="-2.10936">
        <ele>457</ele>
        <time>2026-05-11T18:37:16+00:00</time>
      </trkpt>
      <trkpt lat="43.02283" lon="-2.109">
        <ele>467</ele>
        <time>2026-05-11T18:37:17+00:00</time>
      </trkpt>
      <trkpt lat="43.02265" lon="-2.10892">
        <ele>467</ele>
        <time>2026-05-11T18:37:18+00:00</time>
      </trkpt>
      <trkpt lat="43.02252" lon="-2.10881">
        <ele>468</ele>
        <time>2026-05-11T18:37:19+00:00</time>
      </trkpt>
      <trkpt lat="43.02229" lon="-2.10881">
        <ele>464</ele>
        <time>2026-05-11T18:37:20+00:00</time>
      </trkpt>
      <trkpt lat="43.02203" lon="-2.10841">
        <ele>472</ele>
        <time>2026-05-11T18:37:21+00:00</time>
      </trkpt>
      <trkpt lat="43.02098" lon="-2.10905">
        <ele>448</ele>
        <time>2026-05-11T18:37:22+00:00</time>
      </trkpt>
      <trkpt lat="43.02079" lon="-2.10927">
        <ele>447</ele>
        <time>2026-05-11T18:37:23+00:00</time>
      </trkpt>
      <trkpt lat="43.02077" lon="-2.10946">
        <ele>448</ele>
        <time>2026-05-11T18:37:24+00:00</time>
      </trkpt>
      <trkpt lat="43.02064" lon="-2.1097">
        <ele>452</ele>
        <time>2026-05-11T18:37:25+00:00</time>
      </trkpt>
      <trkpt lat="43.02042" lon="-2.10969">
        <ele>459</ele>
        <time>2026-05-11T18:37:26+00:00</time>
      </trkpt>
      <trkpt lat="43.02052" lon="-2.11003">
        <ele>459</ele>
        <time>2026-05-11T18:37:27+00:00</time>
      </trkpt>
      <trkpt lat="43.02071" lon="-2.11031">
        <ele>460</ele>
        <time>2026-05-11T18:37:28+00:00</time>
      </trkpt>
      <trkpt lat="43.02083" lon="-2.11073">
        <ele>466</ele>
        <time>2026-05-11T18:37:29+00:00</time>
      </trkpt>
      <trkpt lat="43.02087" lon="-2.11126">
        <ele>478</ele>
        <time>2026-05-11T18:37:30+00:00</time>
      </trkpt>
      <trkpt lat="43.02098" lon="-2.11194">
        <ele>486</ele>
        <time>2026-05-11T18:37:31+00:00</time>
      </trkpt>
      <trkpt lat="43.02099" lon="-2.11254">
        <ele>497</ele>
        <time>2026-05-11T18:37:32+00:00</time>
      </trkpt>
      <trkpt lat="43.02105" lon="-2.11313">
        <ele>507</ele>
        <time>2026-05-11T18:37:33+00:00</time>
      </trkpt>
      <trkpt lat="43.02115" lon="-2.11369">
        <ele>518</ele>
        <time>2026-05-11T18:37:34+00:00</time>
      </trkpt>
      <trkpt lat="43.02103" lon="-2.11383">
        <ele>527</ele>
        <time>2026-05-11T18:37:35+00:00</time>
      </trkpt>
      <trkpt lat="43.02088" lon="-2.11372">
        <ele>530</ele>
        <time>2026-05-11T18:37:36+00:00</time>
      </trkpt>
      <trkpt lat="43.02062" lon="-2.11334">
        <ele>534</ele>
        <time>2026-05-11T18:37:37+00:00</time>
      </trkpt>
      <trkpt lat="43.02044" lon="-2.113">
        <ele>539</ele>
        <time>2026-05-11T18:37:38+00:00</time>
      </trkpt>
      <trkpt lat="43.02035" lon="-2.11269">
        <ele>539</ele>
        <time>2026-05-11T18:37:39+00:00</time>
      </trkpt>
      <trkpt lat="43.02026" lon="-2.11254">
        <ele>541</ele>
        <time>2026-05-11T18:37:40+00:00</time>
      </trkpt>
      <trkpt lat="43.02" lon="-2.11226">
        <ele>553</ele>
        <time>2026-05-11T18:37:41+00:00</time>
      </trkpt>
      <trkpt lat="43.02004" lon="-2.11239">
        <ele>553</ele>
        <time>2026-05-11T18:37:42+00:00</time>
      </trkpt>
      <trkpt lat="43.02009" lon="-2.11277">
        <ele>556</ele>
        <time>2026-05-11T18:37:43+00:00</time>
      </trkpt>
      <trkpt lat="43.02018" lon="-2.11305">
        <ele>555</ele>
        <time>2026-05-11T18:37:44+00:00</time>
      </trkpt>
      <trkpt lat="43.02023" lon="-2.11389">
        <ele>571</ele>
        <time>2026-05-11T18:37:45+00:00</time>
      </trkpt>
      <trkpt lat="43.02042" lon="-2.11448">
        <ele>576</ele>
        <time>2026-05-11T18:37:46+00:00</time>
      </trkpt>
      <trkpt lat="43.0206" lon="-2.1152">
        <ele>588</ele>
        <time>2026-05-11T18:37:47+00:00</time>
      </trkpt>
      <trkpt lat="43.02072" lon="-2.11544">
        <ele>590</ele>
        <time>2026-05-11T18:37:48+00:00</time>
      </trkpt>
      <trkpt lat="43.02083" lon="-2.11553">
        <ele>588</ele>
        <time>2026-05-11T18:37:49+00:00</time>
      </trkpt>
      <trkpt lat="43.02146" lon="-2.11658">
        <ele>600</ele>
        <time>2026-05-11T18:37:50+00:00</time>
      </trkpt>
      <trkpt lat="43.02137" lon="-2.11665">
        <ele>604</ele>
        <time>2026-05-11T18:37:51+00:00</time>
      </trkpt>
      <trkpt lat="43.02129" lon="-2.11708">
        <ele>608</ele>
        <time>2026-05-11T18:37:52+00:00</time>
      </trkpt>
      <trkpt lat="43.02087" lon="-2.11834">
        <ele>621</ele>
        <time>2026-05-11T18:37:53+00:00</time>
      </trkpt>
      <trkpt lat="43.02038" lon="-2.11885">
        <ele>632</ele>
        <time>2026-05-11T18:37:54+00:00</time>
      </trkpt>
      <trkpt lat="43.01987" lon="-2.11933">
        <ele>636</ele>
        <time>2026-05-11T18:37:55+00:00</time>
      </trkpt>
      <trkpt lat="43.01944" lon="-2.11949">
        <ele>641</ele>
        <time>2026-05-11T18:37:56+00:00</time>
      </trkpt>
      <trkpt lat="43.01885" lon="-2.11961">
        <ele>655</ele>
        <time>2026-05-11T18:37:57+00:00</time>
      </trkpt>
      <trkpt lat="43.01814" lon="-2.12038">
        <ele>659</ele>
        <time>2026-05-11T18:37:58+00:00</time>
      </trkpt>
      <trkpt lat="43.01776" lon="-2.12097">
        <ele>660</ele>
        <time>2026-05-11T18:37:59+00:00</time>
      </trkpt>
      <trkpt lat="43.01708" lon="-2.12147">
        <ele>682</ele>
        <time>2026-05-11T18:38:00+00:00</time>
      </trkpt>
      <trkpt lat="43.0168" lon="-2.12201">
        <ele>686</ele>
        <time>2026-05-11T18:38:01+00:00</time>
      </trkpt>
      <trkpt lat="43.01661" lon="-2.12271">
        <ele>688</ele>
        <time>2026-05-11T18:38:02+00:00</time>
      </trkpt>
      <trkpt lat="43.01636" lon="-2.12398">
        <ele>692</ele>
        <time>2026-05-11T18:38:03+00:00</time>
      </trkpt>
      <trkpt lat="43.01631" lon="-2.12413">
        <ele>694</ele>
        <time>2026-05-11T18:38:04+00:00</time>
      </trkpt>
      <trkpt lat="43.01626" lon="-2.12407">
        <ele>696</ele>
        <time>2026-05-11T18:38:05+00:00</time>
      </trkpt>
      <trkpt lat="43.01628" lon="-2.12387">
        <ele>696</ele>
        <time>2026-05-11T18:38:06+00:00</time>
      </trkpt>
      <trkpt lat="43.01605" lon="-2.12262">
        <ele>717</ele>
        <time>2026-05-11T18:38:07+00:00</time>
      </trkpt>
      <trkpt lat="43.01593" lon="-2.12177">
        <ele>735</ele>
        <time>2026-05-11T18:38:08+00:00</time>
      </trkpt>
      <trkpt lat="43.0159" lon="-2.12136">
        <ele>743</ele>
        <time>2026-05-11T18:38:09+00:00</time>
      </trkpt>
      <trkpt lat="43.01596" lon="-2.12112">
        <ele>745</ele>
        <time>2026-05-11T18:38:10+00:00</time>
      </trkpt>
      <trkpt lat="43.01599" lon="-2.12077">
        <ele>749</ele>
        <time>2026-05-11T18:38:11+00:00</time>
      </trkpt>
      <trkpt lat="43.01596" lon="-2.12053">
        <ele>754</ele>
        <time>2026-05-11T18:38:12+00:00</time>
      </trkpt>
      <trkpt lat="43.01589" lon="-2.12032">
        <ele>760</ele>
        <time>2026-05-11T18:38:13+00:00</time>
      </trkpt>
      <trkpt lat="43.01574" lon="-2.12022">
        <ele>764</ele>
        <time>2026-05-11T18:38:14+00:00</time>
      </trkpt>
      <trkpt lat="43.0156" lon="-2.1203">
        <ele>764</ele>
        <time>2026-05-11T18:38:15+00:00</time>
      </trkpt>
      <trkpt lat="43.01522" lon="-2.12034">
        <ele>766</ele>
        <time>2026-05-11T18:38:16+00:00</time>
      </trkpt>
      <trkpt lat="43.01433" lon="-2.12026">
        <ele>763</ele>
        <time>2026-05-11T18:38:17+00:00</time>
      </trkpt>
      <trkpt lat="43.01405" lon="-2.1204">
        <ele>758</ele>
        <time>2026-05-11T18:38:18+00:00</time>
      </trkpt>
      <trkpt lat="43.01393" lon="-2.12033">
        <ele>757</ele>
        <time>2026-05-11T18:38:19+00:00</time>
      </trkpt>
      <trkpt lat="43.0138" lon="-2.12">
        <ele>759</ele>
        <time>2026-05-11T18:38:20+00:00</time>
      </trkpt>
      <trkpt lat="43.01384" lon="-2.11985">
        <ele>761</ele>
        <time>2026-05-11T18:38:21+00:00</time>
      </trkpt>
      <trkpt lat="43.01396" lon="-2.11976">
        <ele>765</ele>
        <time>2026-05-11T18:38:22+00:00</time>
      </trkpt>
      <trkpt lat="43.01421" lon="-2.11938">
        <ele>777</ele>
        <time>2026-05-11T18:38:23+00:00</time>
      </trkpt>
      <trkpt lat="43.01439" lon="-2.11923">
        <ele>782</ele>
        <time>2026-05-11T18:38:24+00:00</time>
      </trkpt>
      <trkpt lat="43.01453" lon="-2.11904">
        <ele>787</ele>
        <time>2026-05-11T18:38:25+00:00</time>
      </trkpt>
      <trkpt lat="43.0147" lon="-2.11889">
        <ele>792</ele>
        <time>2026-05-11T18:38:26+00:00</time>
      </trkpt>
      <trkpt lat="43.01482" lon="-2.11855">
        <ele>800</ele>
        <time>2026-05-11T18:38:27+00:00</time>
      </trkpt>
      <trkpt lat="43.01493" lon="-2.11832">
        <ele>807</ele>
        <time>2026-05-11T18:38:28+00:00</time>
      </trkpt>
      <trkpt lat="43.01505" lon="-2.11795">
        <ele>817</ele>
        <time>2026-05-11T18:38:29+00:00</time>
      </trkpt>
      <trkpt lat="43.01529" lon="-2.11756">
        <ele>827</ele>
        <time>2026-05-11T18:38:30+00:00</time>
      </trkpt>
      <trkpt lat="43.01542" lon="-2.11717">
        <ele>838</ele>
        <time>2026-05-11T18:38:31+00:00</time>
      </trkpt>
      <trkpt lat="43.01544" lon="-2.11703">
        <ele>842</ele>
        <time>2026-05-11T18:38:32+00:00</time>
      </trkpt>
      <trkpt lat="43.01544" lon="-2.11657">
        <ele>853</ele>
        <time>2026-05-11T18:38:33+00:00</time>
      </trkpt>
      <trkpt lat="43.01541" lon="-2.11638">
        <ele>853</ele>
        <time>2026-05-11T18:38:34+00:00</time>
      </trkpt>
      <trkpt lat="43.01544" lon="-2.11617">
        <ele>854</ele>
        <time>2026-05-11T18:38:35+00:00</time>
      </trkpt>
      <trkpt lat="43.01554" lon="-2.11608">
        <ele>855</ele>
        <time>2026-05-11T18:38:36+00:00</time>
      </trkpt>
      <trkpt lat="43.01551" lon="-2.11607">
        <ele>855</ele>
        <time>2026-05-11T18:38:37+00:00</time>
      </trkpt>
      <trkpt lat="43.0155" lon="-2.11589">
        <ele>856</ele>
        <time>2026-05-11T18:38:38+00:00</time>
      </trkpt>
      <trkpt lat="43.01553" lon="-2.11555">
        <ele>848</ele>
        <time>2026-05-11T18:38:39+00:00</time>
      </trkpt>
      <trkpt lat="43.01547" lon="-2.11556">
        <ele>847</ele>
        <time>2026-05-11T18:38:40+00:00</time>
      </trkpt>
      <trkpt lat="43.01537" lon="-2.11553">
        <ele>845</ele>
        <time>2026-05-11T18:38:41+00:00</time>
      </trkpt>
      <trkpt lat="43.01519" lon="-2.11569">
        <ele>848</ele>
        <time>2026-05-11T18:38:42+00:00</time>
      </trkpt>
      <trkpt lat="43.01524" lon="-2.11545">
        <ele>841</ele>
        <time>2026-05-11T18:38:43+00:00</time>
      </trkpt>
      <trkpt lat="43.01504" lon="-2.11557">
        <ele>842</ele>
        <time>2026-05-11T18:38:44+00:00</time>
      </trkpt>
      <trkpt lat="43.01493" lon="-2.11567">
        <ele>841</ele>
        <time>2026-05-11T18:38:45+00:00</time>
      </trkpt>
      <trkpt lat="43.01487" lon="-2.11561">
        <ele>836</ele>
        <time>2026-05-11T18:38:46+00:00</time>
      </trkpt>
      <trkpt lat="43.01483" lon="-2.11567">
        <ele>836</ele>
        <time>2026-05-11T18:38:47+00:00</time>
      </trkpt>
      <trkpt lat="43.01469" lon="-2.11568">
        <ele>829</ele>
        <time>2026-05-11T18:38:48+00:00</time>
      </trkpt>
      <trkpt lat="43.0147" lon="-2.11558">
        <ele>827</ele>
        <time>2026-05-11T18:38:49+00:00</time>
      </trkpt>
      <trkpt lat="43.01464" lon="-2.11562">
        <ele>825</ele>
        <time>2026-05-11T18:38:50+00:00</time>
      </trkpt>
      <trkpt lat="43.01462" lon="-2.11558">
        <ele>823</ele>
        <time>2026-05-11T18:38:51+00:00</time>
      </trkpt>
      <trkpt lat="43.01457" lon="-2.1156">
        <ele>821</ele>
        <time>2026-05-11T18:38:52+00:00</time>
      </trkpt>
      <trkpt lat="43.01452" lon="-2.11557">
        <ele>818</ele>
        <time>2026-05-11T18:38:53+00:00</time>
      </trkpt>
      <trkpt lat="43.01447" lon="-2.11544">
        <ele>813</ele>
        <time>2026-05-11T18:38:54+00:00</time>
      </trkpt>
      <trkpt lat="43.01426" lon="-2.11507">
        <ele>798</ele>
        <time>2026-05-11T18:38:55+00:00</time>
      </trkpt>
      <trkpt lat="43.01409" lon="-2.1149">
        <ele>789</ele>
        <time>2026-05-11T18:38:56+00:00</time>
      </trkpt>
      <trkpt lat="43.01402" lon="-2.11465">
        <ele>782</ele>
        <time>2026-05-11T18:38:57+00:00</time>
      </trkpt>
      <trkpt lat="43.01397" lon="-2.11458">
        <ele>780</ele>
        <time>2026-05-11T18:38:58+00:00</time>
      </trkpt>
      <trkpt lat="43.01367" lon="-2.11431">
        <ele>770</ele>
        <time>2026-05-11T18:38:59+00:00</time>
      </trkpt>
      <trkpt lat="43.01351" lon="-2.11439">
        <ele>768</ele>
        <time>2026-05-11T18:39:00+00:00</time>
      </trkpt>
      <trkpt lat="43.01338" lon="-2.11428">
        <ele>765</ele>
        <time>2026-05-11T18:39:01+00:00</time>
      </trkpt>
      <trkpt lat="43.01344" lon="-2.11419">
        <ele>766</ele>
        <time>2026-05-11T18:39:02+00:00</time>
      </trkpt>
      <trkpt lat="43.01353" lon="-2.11381">
        <ele>767</ele>
        <time>2026-05-11T18:39:03+00:00</time>
      </trkpt>
      <trkpt lat="43.01361" lon="-2.11372">
        <ele>766</ele>
        <time>2026-05-11T18:39:04+00:00</time>
      </trkpt>
      <trkpt lat="43.01371" lon="-2.11344">
        <ele>763</ele>
        <time>2026-05-11T18:39:05+00:00</time>
      </trkpt>
      <trkpt lat="43.01381" lon="-2.11343">
        <ele>762</ele>
        <time>2026-05-11T18:39:06+00:00</time>
      </trkpt>
      <trkpt lat="43.01384" lon="-2.11346">
        <ele>761</ele>
        <time>2026-05-11T18:39:07+00:00</time>
      </trkpt>
      <trkpt lat="43.0139" lon="-2.11347">
        <ele>761</ele>
        <time>2026-05-11T18:39:08+00:00</time>
      </trkpt>
      <trkpt lat="43.01398" lon="-2.11344">
        <ele>759</ele>
        <time>2026-05-11T18:39:09+00:00</time>
      </trkpt>
      <trkpt lat="43.01403" lon="-2.11348">
        <ele>759</ele>
        <time>2026-05-11T18:39:10+00:00</time>
      </trkpt>
      <trkpt lat="43.01407" lon="-2.11342">
        <ele>757</ele>
        <time>2026-05-11T18:39:11+00:00</time>
      </trkpt>
      <trkpt lat="43.01412" lon="-2.1134">
        <ele>756</ele>
        <time>2026-05-11T18:39:12+00:00</time>
      </trkpt>
      <trkpt lat="43.01417" lon="-2.11328">
        <ele>752</ele>
        <time>2026-05-11T18:39:13+00:00</time>
      </trkpt>
      <trkpt lat="43.01442" lon="-2.113">
        <ele>748</ele>
        <time>2026-05-11T18:39:14+00:00</time>
      </trkpt>
      <trkpt lat="43.01462" lon="-2.11297">
        <ele>749</ele>
        <time>2026-05-11T18:39:15+00:00</time>
      </trkpt>
      <trkpt lat="43.01464" lon="-2.11287">
        <ele>746</ele>
        <time>2026-05-11T18:39:16+00:00</time>
      </trkpt>
      <trkpt lat="43.01462" lon="-2.11275">
        <ele>742</ele>
        <time>2026-05-11T18:39:17+00:00</time>
      </trkpt>
      <trkpt lat="43.01466" lon="-2.11267">
        <ele>740</ele>
        <time>2026-05-11T18:39:18+00:00</time>
      </trkpt>
      <trkpt lat="43.01467" lon="-2.11249">
        <ele>734</ele>
        <time>2026-05-11T18:39:19+00:00</time>
      </trkpt>
      <trkpt lat="43.01465" lon="-2.11242">
        <ele>733</ele>
        <time>2026-05-11T18:39:20+00:00</time>
      </trkpt>
      <trkpt lat="43.01452" lon="-2.11236">
        <ele>731</ele>
        <time>2026-05-11T18:39:21+00:00</time>
      </trkpt>
      <trkpt lat="43.01445" lon="-2.11226">
        <ele>729</ele>
        <time>2026-05-11T18:39:22+00:00</time>
      </trkpt>
      <trkpt lat="43.01455" lon="-2.11216">
        <ele>727</ele>
        <time>2026-05-11T18:39:23+00:00</time>
      </trkpt>
      <trkpt lat="43.01458" lon="-2.11222">
        <ele>728</ele>
        <time>2026-05-11T18:39:24+00:00</time>
      </trkpt>
      <trkpt lat="43.01464" lon="-2.11178">
        <ele>716</ele>
        <time>2026-05-11T18:39:25+00:00</time>
      </trkpt>
      <trkpt lat="43.0146" lon="-2.11158">
        <ele>713</ele>
        <time>2026-05-11T18:39:26+00:00</time>
      </trkpt>
      <trkpt lat="43.0146" lon="-2.11144">
        <ele>712</ele>
        <time>2026-05-11T18:39:27+00:00</time>
      </trkpt>
      <trkpt lat="43.01467" lon="-2.1112">
        <ele>707</ele>
        <time>2026-05-11T18:39:28+00:00</time>
      </trkpt>
      <trkpt lat="43.01484" lon="-2.11107">
        <ele>699</ele>
        <time>2026-05-11T18:39:29+00:00</time>
      </trkpt>
      <trkpt lat="43.01496" lon="-2.11091">
        <ele>691</ele>
        <time>2026-05-11T18:39:30+00:00</time>
      </trkpt>
      <trkpt lat="43.01519" lon="-2.11043">
        <ele>684</ele>
        <time>2026-05-11T18:39:31+00:00</time>
      </trkpt>
      <trkpt lat="43.01548" lon="-2.10994">
        <ele>672</ele>
        <time>2026-05-11T18:39:32+00:00</time>
      </trkpt>
      <trkpt lat="43.0156" lon="-2.10982">
        <ele>667</ele>
        <time>2026-05-11T18:39:33+00:00</time>
      </trkpt>
      <trkpt lat="43.01569" lon="-2.10966">
        <ele>660</ele>
        <time>2026-05-11T18:39:34+00:00</time>
      </trkpt>
      <trkpt lat="43.01572" lon="-2.10947">
        <ele>655</ele>
        <time>2026-05-11T18:39:35+00:00</time>
      </trkpt>
      <trkpt lat="43.01568" lon="-2.10926">
        <ele>652</ele>
        <time>2026-05-11T18:39:36+00:00</time>
      </trkpt>
      <trkpt lat="43.01565" lon="-2.1092">
        <ele>652</ele>
        <time>2026-05-11T18:39:37+00:00</time>
      </trkpt>
      <trkpt lat="43.01558" lon="-2.10915">
        <ele>654</ele>
        <time>2026-05-11T18:39:38+00:00</time>
      </trkpt>
      <trkpt lat="43.01539" lon="-2.10907">
        <ele>660</ele>
        <time>2026-05-11T18:39:39+00:00</time>
      </trkpt>
      <trkpt lat="43.0153" lon="-2.10894">
        <ele>663</ele>
        <time>2026-05-11T18:39:40+00:00</time>
      </trkpt>
      <trkpt lat="43.01524" lon="-2.10871">
        <ele>663</ele>
        <time>2026-05-11T18:39:41+00:00</time>
      </trkpt>
      <trkpt lat="43.01529" lon="-2.1085">
        <ele>658</ele>
        <time>2026-05-11T18:39:42+00:00</time>
      </trkpt>
      <trkpt lat="43.01548" lon="-2.10842">
        <ele>649</ele>
        <time>2026-05-11T18:39:43+00:00</time>
      </trkpt>
      <trkpt lat="43.0156" lon="-2.10827">
        <ele>643</ele>
        <time>2026-05-11T18:39:44+00:00</time>
      </trkpt>
      <trkpt lat="43.0156" lon="-2.10768">
        <ele>650</ele>
        <time>2026-05-11T18:39:45+00:00</time>
      </trkpt>
      <trkpt lat="43.01563" lon="-2.10757">
        <ele>650</ele>
        <time>2026-05-11T18:39:46+00:00</time>
      </trkpt>
      <trkpt lat="43.01582" lon="-2.10732">
        <ele>642</ele>
        <time>2026-05-11T18:39:47+00:00</time>
      </trkpt>
      <trkpt lat="43.01599" lon="-2.1067">
        <ele>643</ele>
        <time>2026-05-11T18:39:48+00:00</time>
      </trkpt>
      <trkpt lat="43.01604" lon="-2.10663">
        <ele>644</ele>
        <time>2026-05-11T18:39:49+00:00</time>
      </trkpt>
      <trkpt lat="43.01609" lon="-2.10661">
        <ele>643</ele>
        <time>2026-05-11T18:39:50+00:00</time>
      </trkpt>
      <trkpt lat="43.01625" lon="-2.10663">
        <ele>640</ele>
        <time>2026-05-11T18:39:51+00:00</time>
      </trkpt>
      <trkpt lat="43.0164" lon="-2.10683">
        <ele>632</ele>
        <time>2026-05-11T18:39:52+00:00</time>
      </trkpt>
      <trkpt lat="43.01656" lon="-2.10717">
        <ele>619</ele>
        <time>2026-05-11T18:39:53+00:00</time>
      </trkpt>
      <trkpt lat="43.01662" lon="-2.10755">
        <ele>607</ele>
        <time>2026-05-11T18:39:54+00:00</time>
      </trkpt>
      <trkpt lat="43.01668" lon="-2.10761">
        <ele>604</ele>
        <time>2026-05-11T18:39:55+00:00</time>
      </trkpt>
      <trkpt lat="43.01671" lon="-2.10758">
        <ele>603</ele>
        <time>2026-05-11T18:39:56+00:00</time>
      </trkpt>
      <trkpt lat="43.01679" lon="-2.10727">
        <ele>607</ele>
        <time>2026-05-11T18:39:57+00:00</time>
      </trkpt>
      <trkpt lat="43.01756" lon="-2.10648">
        <ele>606</ele>
        <time>2026-05-11T18:39:58+00:00</time>
      </trkpt>
      <trkpt lat="43.01803" lon="-2.10593">
        <ele>605</ele>
        <time>2026-05-11T18:39:59+00:00</time>
      </trkpt>
      <trkpt lat="43.01824" lon="-2.10578">
        <ele>597</ele>
        <time>2026-05-11T18:40:00+00:00</time>
      </trkpt>
      <trkpt lat="43.01837" lon="-2.10573">
        <ele>591</ele>
        <time>2026-05-11T18:40:01+00:00</time>
      </trkpt>
      <trkpt lat="43.01842" lon="-2.10566">
        <ele>590</ele>
        <time>2026-05-11T18:40:02+00:00</time>
      </trkpt>
      <trkpt lat="43.01847" lon="-2.10545">
        <ele>591</ele>
        <time>2026-05-11T18:40:03+00:00</time>
      </trkpt>
      <trkpt lat="43.01855" lon="-2.10477">
        <ele>598</ele>
        <time>2026-05-11T18:40:04+00:00</time>
      </trkpt>
      <trkpt lat="43.01864" lon="-2.10431">
        <ele>601</ele>
        <time>2026-05-11T18:40:05+00:00</time>
      </trkpt>
      <trkpt lat="43.01892" lon="-2.10354">
        <ele>610</ele>
        <time>2026-05-11T18:40:06+00:00</time>
      </trkpt>
      <trkpt lat="43.01902" lon="-2.10338">
        <ele>610</ele>
        <time>2026-05-11T18:40:07+00:00</time>
      </trkpt>
      <trkpt lat="43.01911" lon="-2.10335">
        <ele>607</ele>
        <time>2026-05-11T18:40:08+00:00</time>
      </trkpt>
      <trkpt lat="43.01917" lon="-2.10336">
        <ele>604</ele>
        <time>2026-05-11T18:40:09+00:00</time>
      </trkpt>
      <trkpt lat="43.01926" lon="-2.10339">
        <ele>605</ele>
        <time>2026-05-11T18:40:10+00:00</time>
      </trkpt>
      <trkpt lat="43.01932" lon="-2.10344">
        <ele>604</ele>
        <time>2026-05-11T18:40:11+00:00</time>
      </trkpt>
      <trkpt lat="43.01937" lon="-2.10351">
        <ele>603</ele>
        <time>2026-05-11T18:40:12+00:00</time>
      </trkpt>
      <trkpt lat="43.01952" lon="-2.10388">
        <ele>592</ele>
        <time>2026-05-11T18:40:13+00:00</time>
      </trkpt>
      <trkpt lat="43.01968" lon="-2.10404">
        <ele>588</ele>
        <time>2026-05-11T18:40:14+00:00</time>
      </trkpt>
      <trkpt lat="43.01999" lon="-2.10414">
        <ele>585</ele>
        <time>2026-05-11T18:40:15+00:00</time>
      </trkpt>
      <trkpt lat="43.02016" lon="-2.10423">
        <ele>584</ele>
        <time>2026-05-11T18:40:16+00:00</time>
      </trkpt>
      <trkpt lat="43.02052" lon="-2.10453">
        <ele>580</ele>
        <time>2026-05-11T18:40:17+00:00</time>
      </trkpt>
      <trkpt lat="43.02189" lon="-2.10505">
        <ele>578</ele>
        <time>2026-05-11T18:40:18+00:00</time>
      </trkpt>
      <trkpt lat="43.02221" lon="-2.10528">
        <ele>572</ele>
        <time>2026-05-11T18:40:19+00:00</time>
      </trkpt>
      <trkpt lat="43.02243" lon="-2.10548">
        <ele>567</ele>
        <time>2026-05-11T18:40:20+00:00</time>
      </trkpt>
      <trkpt lat="43.0226" lon="-2.1057">
        <ele>562</ele>
        <time>2026-05-11T18:40:21+00:00</time>
      </trkpt>
      <trkpt lat="43.0233" lon="-2.10715">
        <ele>539</ele>
        <time>2026-05-11T18:40:22+00:00</time>
      </trkpt>
      <trkpt lat="43.02345" lon="-2.10741">
        <ele>534</ele>
        <time>2026-05-11T18:40:23+00:00</time>
      </trkpt>
      <trkpt lat="43.02352" lon="-2.10744">
        <ele>534</ele>
        <time>2026-05-11T18:40:24+00:00</time>
      </trkpt>
      <trkpt lat="43.02359" lon="-2.10743">
        <ele>535</ele>
        <time>2026-05-11T18:40:25+00:00</time>
      </trkpt>
      <trkpt lat="43.02378" lon="-2.1072">
        <ele>546</ele>
        <time>2026-05-11T18:40:26+00:00</time>
      </trkpt>
      <trkpt lat="43.02388" lon="-2.10715">
        <ele>549</ele>
        <time>2026-05-11T18:40:27+00:00</time>
      </trkpt>
      <trkpt lat="43.02412" lon="-2.10718">
        <ele>552</ele>
        <time>2026-05-11T18:40:28+00:00</time>
      </trkpt>
      <trkpt lat="43.02424" lon="-2.10724">
        <ele>553</ele>
        <time>2026-05-11T18:40:29+00:00</time>
      </trkpt>
      <trkpt lat="43.02431" lon="-2.10729">
        <ele>554</ele>
        <time>2026-05-11T18:40:30+00:00</time>
      </trkpt>
      <trkpt lat="43.0244" lon="-2.10743">
        <ele>552</ele>
        <time>2026-05-11T18:40:31+00:00</time>
      </trkpt>
      <trkpt lat="43.02464" lon="-2.10798">
        <ele>539</ele>
        <time>2026-05-11T18:40:32+00:00</time>
      </trkpt>
      <trkpt lat="43.02489" lon="-2.1084">
        <ele>532</ele>
        <time>2026-05-11T18:40:33+00:00</time>
      </trkpt>
      <trkpt lat="43.02496" lon="-2.1085">
        <ele>530</ele>
        <time>2026-05-11T18:40:34+00:00</time>
      </trkpt>
      <trkpt lat="43.02511" lon="-2.10853">
        <ele>530</ele>
        <time>2026-05-11T18:40:35+00:00</time>
      </trkpt>
      <trkpt lat="43.02588" lon="-2.10795">
        <ele>546</ele>
        <time>2026-05-11T18:40:36+00:00</time>
      </trkpt>
      <trkpt lat="43.02612" lon="-2.10774">
        <ele>543</ele>
        <time>2026-05-11T18:40:37+00:00</time>
      </trkpt>
      <trkpt lat="43.02675" lon="-2.10707">
        <ele>537</ele>
        <time>2026-05-11T18:40:38+00:00</time>
      </trkpt>
      <trkpt lat="43.02745" lon="-2.10613">
        <ele>527</ele>
        <time>2026-05-11T18:40:39+00:00</time>
      </trkpt>
      <trkpt lat="43.02759" lon="-2.10589">
        <ele>525</ele>
        <time>2026-05-11T18:40:40+00:00</time>
      </trkpt>
      <trkpt lat="43.0279" lon="-2.10519">
        <ele>530</ele>
        <time>2026-05-11T18:40:41+00:00</time>
      </trkpt>
      <trkpt lat="43.02848" lon="-2.10438">
        <ele>522</ele>
        <time>2026-05-11T18:40:42+00:00</time>
      </trkpt>
      <trkpt lat="43.02901" lon="-2.10372">
        <ele>521</ele>
        <time>2026-05-11T18:40:43+00:00</time>
      </trkpt>
      <trkpt lat="43.02925" lon="-2.1035">
        <ele>519</ele>
        <time>2026-05-11T18:40:44+00:00</time>
      </trkpt>
      <trkpt lat="43.0294" lon="-2.10343">
        <ele>517</ele>
        <time>2026-05-11T18:40:45+00:00</time>
      </trkpt>
      <trkpt lat="43.02961" lon="-2.10341">
        <ele>513</ele>
        <time>2026-05-11T18:40:46+00:00</time>
      </trkpt>
      <trkpt lat="43.02972" lon="-2.10353">
        <ele>508</ele>
        <time>2026-05-11T18:40:47+00:00</time>
      </trkpt>
      <trkpt lat="43.02984" lon="-2.10353">
        <ele>505</ele>
        <time>2026-05-11T18:40:48+00:00</time>
      </trkpt>
      <trkpt lat="43.0301" lon="-2.10325">
        <ele>503</ele>
        <time>2026-05-11T18:40:49+00:00</time>
      </trkpt>
      <trkpt lat="43.0302" lon="-2.10306">
        <ele>500</ele>
        <time>2026-05-11T18:40:50+00:00</time>
      </trkpt>
      <trkpt lat="43.03024" lon="-2.10284">
        <ele>498</ele>
        <time>2026-05-11T18:40:51+00:00</time>
      </trkpt>
      <trkpt lat="43.03011" lon="-2.10223">
        <ele>504</ele>
        <time>2026-05-11T18:40:52+00:00</time>
      </trkpt>
      <trkpt lat="43.03014" lon="-2.10209">
        <ele>503</ele>
        <time>2026-05-11T18:40:53+00:00</time>
      </trkpt>
      <trkpt lat="43.0302" lon="-2.10194">
        <ele>500</ele>
        <time>2026-05-11T18:40:54+00:00</time>
      </trkpt>
      <trkpt lat="43.03058" lon="-2.10125">
        <ele>487</ele>
        <time>2026-05-11T18:40:55+00:00</time>
      </trkpt>
      <trkpt lat="43.03066" lon="-2.10098">
        <ele>485</ele>
        <time>2026-05-11T18:40:56+00:00</time>
      </trkpt>
      <trkpt lat="43.03068" lon="-2.1005">
        <ele>489</ele>
        <time>2026-05-11T18:40:57+00:00</time>
      </trkpt>
      <trkpt lat="43.03071" lon="-2.10044">
        <ele>488</ele>
        <time>2026-05-11T18:40:58+00:00</time>
      </trkpt>
      <trkpt lat="43.03085" lon="-2.10039">
        <ele>483</ele>
        <time>2026-05-11T18:40:59+00:00</time>
      </trkpt>
      <trkpt lat="43.031" lon="-2.10037">
        <ele>478</ele>
        <time>2026-05-11T18:41:00+00:00</time>
      </trkpt>
      <trkpt lat="43.0311" lon="-2.10032">
        <ele>475</ele>
        <time>2026-05-11T18:41:01+00:00</time>
      </trkpt>
      <trkpt lat="43.03125" lon="-2.10017">
        <ele>473</ele>
        <time>2026-05-11T18:41:02+00:00</time>
      </trkpt>
      <trkpt lat="43.03171" lon="-2.09934">
        <ele>465</ele>
        <time>2026-05-11T18:41:03+00:00</time>
      </trkpt>
      <trkpt lat="43.03187" lon="-2.09897">
        <ele>462</ele>
        <time>2026-05-11T18:41:04+00:00</time>
      </trkpt>
      <trkpt lat="43.03198" lon="-2.09881">
        <ele>460</ele>
        <time>2026-05-11T18:41:05+00:00</time>
      </trkpt>
      <trkpt lat="43.03219" lon="-2.09861">
        <ele>456</ele>
        <time>2026-05-11T18:41:06+00:00</time>
      </trkpt>
      <trkpt lat="43.03253" lon="-2.09817">
        <ele>449</ele>
        <time>2026-05-11T18:41:07+00:00</time>
      </trkpt>
      <trkpt lat="43.03303" lon="-2.09765">
        <ele>439</ele>
        <time>2026-05-11T18:41:08+00:00</time>
      </trkpt>
      <trkpt lat="43.03316" lon="-2.09739">
        <ele>437</ele>
        <time>2026-05-11T18:41:09+00:00</time>
      </trkpt>
      <trkpt lat="43.03322" lon="-2.09709">
        <ele>438</ele>
        <time>2026-05-11T18:41:10+00:00</time>
      </trkpt>
      <trkpt lat="43.03327" lon="-2.09704">
        <ele>437</ele>
        <time>2026-05-11T18:41:11+00:00</time>
      </trkpt>
      <trkpt lat="43.03344" lon="-2.09706">
        <ele>433</ele>
        <time>2026-05-11T18:41:12+00:00</time>
      </trkpt>
      <trkpt lat="43.03352" lon="-2.09704">
        <ele>431</ele>
        <time>2026-05-11T18:41:13+00:00</time>
      </trkpt>
      <trkpt lat="43.03361" lon="-2.09695">
        <ele>430</ele>
        <time>2026-05-11T18:41:14+00:00</time>
      </trkpt>
      <trkpt lat="43.03377" lon="-2.09669">
        <ele>428</ele>
        <time>2026-05-11T18:41:15+00:00</time>
      </trkpt>
      <trkpt lat="43.03392" lon="-2.09635">
        <ele>426</ele>
        <time>2026-05-11T18:41:16+00:00</time>
      </trkpt>
      <trkpt lat="43.03412" lon="-2.09608">
        <ele>423</ele>
        <time>2026-05-11T18:41:17+00:00</time>
      </trkpt>
      <trkpt lat="43.03424" lon="-2.09597">
        <ele>421</ele>
        <time>2026-05-11T18:41:18+00:00</time>
      </trkpt>
      <trkpt lat="43.03437" lon="-2.09593">
        <ele>419</ele>
        <time>2026-05-11T18:41:19+00:00</time>
      </trkpt>
      <trkpt lat="43.0345" lon="-2.09599">
        <ele>417</ele>
        <time>2026-05-11T18:41:20+00:00</time>
      </trkpt>
      <trkpt lat="43.03563" lon="-2.09699">
        <ele>407</ele>
        <time>2026-05-11T18:41:21+00:00</time>
      </trkpt>
      <trkpt lat="43.03643" lon="-2.0978">
        <ele>403</ele>
        <time>2026-05-11T18:41:22+00:00</time>
      </trkpt>
      <trkpt lat="43.0365" lon="-2.09789">
        <ele>403</ele>
        <time>2026-05-11T18:41:23+00:00</time>
      </trkpt>
      <trkpt lat="43.03671" lon="-2.09833">
        <ele>402</ele>
        <time>2026-05-11T18:41:24+00:00</time>
      </trkpt>
      <trkpt lat="43.03676" lon="-2.09845">
        <ele>401</ele>
        <time>2026-05-11T18:41:25+00:00</time>
      </trkpt>
      <trkpt lat="43.03677" lon="-2.09859">
        <ele>400</ele>
        <time>2026-05-11T18:41:26+00:00</time>
      </trkpt>
      <trkpt lat="43.03681" lon="-2.09868">
        <ele>400</ele>
        <time>2026-05-11T18:41:27+00:00</time>
      </trkpt>
      <trkpt lat="43.0369" lon="-2.0986">
        <ele>399</ele>
        <time>2026-05-11T18:41:28+00:00</time>
      </trkpt>
    </trkseg>
  </trk>
</gpx>
