<?xml version="1.0" encoding="UTF-8" ?>
<gpx version="1.1" xmlns:xsi="http://www.w3.org/2001/XMLSchema-instance"
    xmlns="http://www.topografix.com/GPX/1/1"
    xsi:schemaLocation="http://www.topografix.com/GPX/1/1 http://www.topografix.com/GPX/1/1/gpx.xsd"
    creator="Openrunner - https://www.openrunner.com" >	<trk>
	                   <name>Autour de Londres-21341819</name>
						<trkseg>
					<trkpt lat="51.481070" lon="-0.145220">
						<ele>15</ele>
						<time>2026-05-01T09:52:13Z</time>
					</trkpt>
					<trkpt lat="51.480990" lon="-0.145250">
						<ele>15</ele>
						<time>2026-05-01T09:52:16Z</time>
					</trkpt>
					<trkpt lat="51.480930" lon="-0.145280">
						<ele>15</ele>
						<time>2026-05-01T09:52:18Z</time>
					</trkpt>
					<trkpt lat="51.480970" lon="-0.145410">
						<ele>14</ele>
						<time>2026-05-01T09:52:21Z</time>
					</trkpt>
					<trkpt lat="51.481020" lon="-0.145510">
						<ele>13</ele>
						<time>2026-05-01T09:52:24Z</time>
					</trkpt>
					<trkpt lat="51.481040" lon="-0.145560">
						<ele>12</ele>
						<time>2026-05-01T09:52:25Z</time>
					</trkpt>
					<trkpt lat="51.481140" lon="-0.145680">
						<ele>11</ele>
						<time>2026-05-01T09:52:29Z</time>
					</trkpt>
					<trkpt lat="51.481170" lon="-0.145710">
						<ele>11</ele>
						<time>2026-05-01T09:52:30Z</time>
					</trkpt>
					<trkpt lat="51.481220" lon="-0.145760">
						<ele>11</ele>
						<time>2026-05-01T09:52:32Z</time>
					</trkpt>
					<trkpt lat="51.481400" lon="-0.145890">
						<ele>9</ele>
						<time>2026-05-01T09:52:39Z</time>
					</trkpt>
					<trkpt lat="51.481500" lon="-0.145930">
						<ele>9</ele>
						<time>2026-05-01T09:52:42Z</time>
					</trkpt>
					<trkpt lat="51.481650" lon="-0.145980">
						<ele>9</ele>
						<time>2026-05-01T09:52:47Z</time>
					</trkpt>
					<trkpt lat="51.481770" lon="-0.145990">
						<ele>9</ele>
						<time>2026-05-01T09:52:51Z</time>
					</trkpt>
					<trkpt lat="51.481980" lon="-0.145970">
						<ele>9</ele>
						<time>2026-05-01T09:52:58Z</time>
					</trkpt>
					<trkpt lat="51.482120" lon="-0.145910">
						<ele>9</ele>
						<time>2026-05-01T09:53:03Z</time>
					</trkpt>
					<trkpt lat="51.482130" lon="-0.145980">
						<ele>9</ele>
						<time>2026-05-01T09:53:05Z</time>
					</trkpt>
					<trkpt lat="51.482370" lon="-0.145820">
						<ele>10</ele>
						<time>2026-05-01T09:53:13Z</time>
					</trkpt>
					<trkpt lat="51.482500" lon="-0.145690">
						<ele>10</ele>
						<time>2026-05-01T09:53:18Z</time>
					</trkpt>
					<trkpt lat="51.482500" lon="-0.145670">
						<ele>10</ele>
						<time>2026-05-01T09:53:19Z</time>
					</trkpt>
					<trkpt lat="51.482560" lon="-0.145660">
						<ele>10</ele>
						<time>2026-05-01T09:53:21Z</time>
					</trkpt>
					<trkpt lat="51.482560" lon="-0.145660">
						<ele>10</ele>
						<time>2026-05-01T09:53:21Z</time>
					</trkpt>
					<trkpt lat="51.482680" lon="-0.145600">
						<ele>9</ele>
						<time>2026-05-01T09:53:25Z</time>
					</trkpt>
					<trkpt lat="51.482830" lon="-0.145560">
						<ele>8</ele>
						<time>2026-05-01T09:53:30Z</time>
					</trkpt>
					<trkpt lat="51.482890" lon="-0.145530">
						<ele>8</ele>
						<time>2026-05-01T09:53:32Z</time>
					</trkpt>
					<trkpt lat="51.482980" lon="-0.145540">
						<ele>7</ele>
						<time>2026-05-01T09:53:35Z</time>
					</trkpt>
					<trkpt lat="51.483040" lon="-0.145590">
						<ele>7</ele>
						<time>2026-05-01T09:53:37Z</time>
					</trkpt>
					<trkpt lat="51.483100" lon="-0.145650">
						<ele>7</ele>
						<time>2026-05-01T09:53:40Z</time>
					</trkpt>
					<trkpt lat="51.483210" lon="-0.145750">
						<ele>6</ele>
						<time>2026-05-01T09:53:44Z</time>
					</trkpt>
					<trkpt lat="51.483250" lon="-0.145800">
						<ele>6</ele>
						<time>2026-05-01T09:53:46Z</time>
					</trkpt>
					<trkpt lat="51.483320" lon="-0.145880">
						<ele>6</ele>
						<time>2026-05-01T09:53:49Z</time>
					</trkpt>
					<trkpt lat="51.483450" lon="-0.146080">
						<ele>6</ele>
						<time>2026-05-01T09:53:55Z</time>
					</trkpt>
					<trkpt lat="51.483490" lon="-0.146110">
						<ele>6</ele>
						<time>2026-05-01T09:53:56Z</time>
					</trkpt>
					<trkpt lat="51.483500" lon="-0.146230">
						<ele>6</ele>
						<time>2026-05-01T09:53:59Z</time>
					</trkpt>
					<trkpt lat="51.483520" lon="-0.146610">
						<ele>6</ele>
						<time>2026-05-01T09:54:06Z</time>
					</trkpt>
					<trkpt lat="51.483500" lon="-0.146860">
						<ele>6</ele>
						<time>2026-05-01T09:54:12Z</time>
					</trkpt>
					<trkpt lat="51.483480" lon="-0.146950">
						<ele>6</ele>
						<time>2026-05-01T09:54:14Z</time>
					</trkpt>
					<trkpt lat="51.483470" lon="-0.147000">
						<ele>6</ele>
						<time>2026-05-01T09:54:15Z</time>
					</trkpt>
					<trkpt lat="51.483480" lon="-0.147750">
						<ele>6</ele>
						<time>2026-05-01T09:54:30Z</time>
					</trkpt>
					<trkpt lat="51.483480" lon="-0.147760">
						<ele>6</ele>
						<time>2026-05-01T09:54:31Z</time>
					</trkpt>
					<trkpt lat="51.483480" lon="-0.147760">
						<ele>6</ele>
						<time>2026-05-01T09:54:31Z</time>
					</trkpt>
					<trkpt lat="51.483480" lon="-0.147820">
						<ele>6</ele>
						<time>2026-05-01T09:54:32Z</time>
					</trkpt>
					<trkpt lat="51.483520" lon="-0.147860">
						<ele>6</ele>
						<time>2026-05-01T09:54:33Z</time>
					</trkpt>
					<trkpt lat="51.483540" lon="-0.148200">
						<ele>6</ele>
						<time>2026-05-01T09:54:40Z</time>
					</trkpt>
					<trkpt lat="51.483540" lon="-0.148480">
						<ele>6</ele>
						<time>2026-05-01T09:54:46Z</time>
					</trkpt>
					<trkpt lat="51.483560" lon="-0.148480">
						<ele>6</ele>
						<time>2026-05-01T09:54:47Z</time>
					</trkpt>
					<trkpt lat="51.483560" lon="-0.149040">
						<ele>6</ele>
						<time>2026-05-01T09:54:59Z</time>
					</trkpt>
					<trkpt lat="51.483540" lon="-0.149180">
						<ele>6</ele>
						<time>2026-05-01T09:55:02Z</time>
					</trkpt>
					<trkpt lat="51.483570" lon="-0.149270">
						<ele>6</ele>
						<time>2026-05-01T09:55:04Z</time>
					</trkpt>
					<trkpt lat="51.483620" lon="-0.149450">
						<ele>6</ele>
						<time>2026-05-01T09:55:08Z</time>
					</trkpt>
					<trkpt lat="51.483620" lon="-0.149530">
						<ele>6</ele>
						<time>2026-05-01T09:55:09Z</time>
					</trkpt>
					<trkpt lat="51.483610" lon="-0.149690">
						<ele>6</ele>
						<time>2026-05-01T09:55:13Z</time>
					</trkpt>
					<trkpt lat="51.483580" lon="-0.149830">
						<ele>7</ele>
						<time>2026-05-01T09:55:16Z</time>
					</trkpt>
					<trkpt lat="51.483560" lon="-0.149890">
						<ele>7</ele>
						<time>2026-05-01T09:55:17Z</time>
					</trkpt>
					<trkpt lat="51.483520" lon="-0.149940">
						<ele>7</ele>
						<time>2026-05-01T09:55:19Z</time>
					</trkpt>
					<trkpt lat="51.483460" lon="-0.149970">
						<ele>7</ele>
						<time>2026-05-01T09:55:21Z</time>
					</trkpt>
					<trkpt lat="51.483410" lon="-0.149950">
						<ele>8</ele>
						<time>2026-05-01T09:55:23Z</time>
					</trkpt>
					<trkpt lat="51.483390" lon="-0.149970">
						<ele>8</ele>
						<time>2026-05-01T09:55:24Z</time>
					</trkpt>
					<trkpt lat="51.483360" lon="-0.150030">
						<ele>8</ele>
						<time>2026-05-01T09:55:25Z</time>
					</trkpt>
					<trkpt lat="51.483340" lon="-0.150130">
						<ele>8</ele>
						<time>2026-05-01T09:55:27Z</time>
					</trkpt>
					<trkpt lat="51.483220" lon="-0.151330">
						<ele>7</ele>
						<time>2026-05-01T09:55:53Z</time>
					</trkpt>
					<trkpt lat="51.483060" lon="-0.152510">
						<ele>6</ele>
						<time>2026-05-01T09:56:18Z</time>
					</trkpt>
					<trkpt lat="51.482720" lon="-0.155220">
						<ele>7</ele>
						<time>2026-05-01T09:57:15Z</time>
					</trkpt>
					<trkpt lat="51.482680" lon="-0.155430">
						<ele>6</ele>
						<time>2026-05-01T09:57:20Z</time>
					</trkpt>
					<trkpt lat="51.482630" lon="-0.155650">
						<ele>6</ele>
						<time>2026-05-01T09:57:25Z</time>
					</trkpt>
					<trkpt lat="51.482540" lon="-0.156380">
						<ele>5</ele>
						<time>2026-05-01T09:57:40Z</time>
					</trkpt>
					<trkpt lat="51.482470" lon="-0.156970">
						<ele>4</ele>
						<time>2026-05-01T09:57:52Z</time>
					</trkpt>
					<trkpt lat="51.482380" lon="-0.157630">
						<ele>5</ele>
						<time>2026-05-01T09:58:07Z</time>
					</trkpt>
					<trkpt lat="51.482300" lon="-0.158250">
						<ele>5</ele>
						<time>2026-05-01T09:58:20Z</time>
					</trkpt>
					<trkpt lat="51.482220" lon="-0.159010">
						<ele>6</ele>
						<time>2026-05-01T09:58:36Z</time>
					</trkpt>
					<trkpt lat="51.482170" lon="-0.159270">
						<ele>6</ele>
						<time>2026-05-01T09:58:41Z</time>
					</trkpt>
					<trkpt lat="51.482080" lon="-0.159930">
						<ele>7</ele>
						<time>2026-05-01T09:58:55Z</time>
					</trkpt>
					<trkpt lat="51.482000" lon="-0.160510">
						<ele>7</ele>
						<time>2026-05-01T09:59:08Z</time>
					</trkpt>
					<trkpt lat="51.481910" lon="-0.161170">
						<ele>9</ele>
						<time>2026-05-01T09:59:22Z</time>
					</trkpt>
					<trkpt lat="51.481830" lon="-0.161800">
						<ele>9</ele>
						<time>2026-05-01T09:59:35Z</time>
					</trkpt>
					<trkpt lat="51.481770" lon="-0.162290">
						<ele>8</ele>
						<time>2026-05-01T09:59:45Z</time>
					</trkpt>
					<trkpt lat="51.481690" lon="-0.162890">
						<ele>8</ele>
						<time>2026-05-01T09:59:58Z</time>
					</trkpt>
					<trkpt lat="51.481470" lon="-0.164610">
						<ele>8</ele>
						<time>2026-05-01T10:00:35Z</time>
					</trkpt>
					<trkpt lat="51.481370" lon="-0.165340">
						<ele>8</ele>
						<time>2026-05-01T10:00:50Z</time>
					</trkpt>
					<trkpt lat="51.481330" lon="-0.165600">
						<ele>8</ele>
						<time>2026-05-01T10:00:56Z</time>
					</trkpt>
					<trkpt lat="51.481290" lon="-0.165710">
						<ele>8</ele>
						<time>2026-05-01T10:00:58Z</time>
					</trkpt>
					<trkpt lat="51.481210" lon="-0.165810">
						<ele>8</ele>
						<time>2026-05-01T10:01:02Z</time>
					</trkpt>
					<trkpt lat="51.481140" lon="-0.165830">
						<ele>9</ele>
						<time>2026-05-01T10:01:04Z</time>
					</trkpt>
					<trkpt lat="51.481070" lon="-0.166000">
						<ele>10</ele>
						<time>2026-05-01T10:01:08Z</time>
					</trkpt>
					<trkpt lat="51.481070" lon="-0.166000">
						<ele>10</ele>
						<time>2026-05-01T10:01:08Z</time>
					</trkpt>
					<trkpt lat="51.481060" lon="-0.166020">
						<ele>10</ele>
						<time>2026-05-01T10:01:09Z</time>
					</trkpt>
					<trkpt lat="51.481050" lon="-0.166020">
						<ele>10</ele>
						<time>2026-05-01T10:01:09Z</time>
					</trkpt>
					<trkpt lat="51.481050" lon="-0.166020">
						<ele>10</ele>
						<time>2026-05-01T10:01:09Z</time>
					</trkpt>
					<trkpt lat="51.481040" lon="-0.166010">
						<ele>10</ele>
						<time>2026-05-01T10:01:10Z</time>
					</trkpt>
					<trkpt lat="51.481020" lon="-0.166110">
						<ele>10</ele>
						<time>2026-05-01T10:01:12Z</time>
					</trkpt>
					<trkpt lat="51.481010" lon="-0.166170">
						<ele>10</ele>
						<time>2026-05-01T10:01:13Z</time>
					</trkpt>
					<trkpt lat="51.481010" lon="-0.166190">
						<ele>10</ele>
						<time>2026-05-01T10:01:14Z</time>
					</trkpt>
					<trkpt lat="51.481140" lon="-0.166250">
						<ele>9</ele>
						<time>2026-05-01T10:01:18Z</time>
					</trkpt>
					<trkpt lat="51.481230" lon="-0.166290">
						<ele>8</ele>
						<time>2026-05-01T10:01:21Z</time>
					</trkpt>
					<trkpt lat="51.481260" lon="-0.166300">
						<ele>8</ele>
						<time>2026-05-01T10:01:22Z</time>
					</trkpt>
					<trkpt lat="51.481260" lon="-0.166320">
						<ele>8</ele>
						<time>2026-05-01T10:01:23Z</time>
					</trkpt>
					<trkpt lat="51.481270" lon="-0.166360">
						<ele>8</ele>
						<time>2026-05-01T10:01:24Z</time>
					</trkpt>
					<trkpt lat="51.481250" lon="-0.166490">
						<ele>8</ele>
						<time>2026-05-01T10:01:26Z</time>
					</trkpt>
					<trkpt lat="51.481070" lon="-0.167670">
						<ele>6</ele>
						<time>2026-05-01T10:01:52Z</time>
					</trkpt>
					<trkpt lat="51.481070" lon="-0.167730">
						<ele>6</ele>
						<time>2026-05-01T10:01:53Z</time>
					</trkpt>
					<trkpt lat="51.481040" lon="-0.167890">
						<ele>6</ele>
						<time>2026-05-01T10:01:56Z</time>
					</trkpt>
					<trkpt lat="51.481030" lon="-0.167920">
						<ele>6</ele>
						<time>2026-05-01T10:01:57Z</time>
					</trkpt>
					<trkpt lat="51.481030" lon="-0.167970">
						<ele>6</ele>
						<time>2026-05-01T10:01:58Z</time>
					</trkpt>
					<trkpt lat="51.480810" lon="-0.168900">
						<ele>5</ele>
						<time>2026-05-01T10:02:19Z</time>
					</trkpt>
					<trkpt lat="51.480710" lon="-0.169340">
						<ele>5</ele>
						<time>2026-05-01T10:02:28Z</time>
					</trkpt>
					<trkpt lat="51.480650" lon="-0.169710">
						<ele>5</ele>
						<time>2026-05-01T10:02:36Z</time>
					</trkpt>
					<trkpt lat="51.480640" lon="-0.169750">
						<ele>5</ele>
						<time>2026-05-01T10:02:37Z</time>
					</trkpt>
					<trkpt lat="51.480500" lon="-0.170350">
						<ele>7</ele>
						<time>2026-05-01T10:02:51Z</time>
					</trkpt>
					<trkpt lat="51.480400" lon="-0.170790">
						<ele>8</ele>
						<time>2026-05-01T10:03:00Z</time>
					</trkpt>
					<trkpt lat="51.480380" lon="-0.170870">
						<ele>8</ele>
						<time>2026-05-01T10:03:02Z</time>
					</trkpt>
					<trkpt lat="51.480260" lon="-0.171260">
						<ele>8</ele>
						<time>2026-05-01T10:03:11Z</time>
					</trkpt>
					<trkpt lat="51.480230" lon="-0.171420">
						<ele>8</ele>
						<time>2026-05-01T10:03:15Z</time>
					</trkpt>
					<trkpt lat="51.480210" lon="-0.171400">
						<ele>8</ele>
						<time>2026-05-01T10:03:15Z</time>
					</trkpt>
					<trkpt lat="51.480180" lon="-0.171500">
						<ele>8</ele>
						<time>2026-05-01T10:03:18Z</time>
					</trkpt>
					<trkpt lat="51.480130" lon="-0.171510">
						<ele>8</ele>
						<time>2026-05-01T10:03:19Z</time>
					</trkpt>
					<trkpt lat="51.480080" lon="-0.171460">
						<ele>8</ele>
						<time>2026-05-01T10:03:21Z</time>
					</trkpt>
					<trkpt lat="51.480030" lon="-0.171410">
						<ele>8</ele>
						<time>2026-05-01T10:03:23Z</time>
					</trkpt>
					<trkpt lat="51.480020" lon="-0.171430">
						<ele>8</ele>
						<time>2026-05-01T10:03:24Z</time>
					</trkpt>
					<trkpt lat="51.480010" lon="-0.171490">
						<ele>8</ele>
						<time>2026-05-01T10:03:25Z</time>
					</trkpt>
					<trkpt lat="51.479990" lon="-0.171550">
						<ele>8</ele>
						<time>2026-05-01T10:03:27Z</time>
					</trkpt>
					<trkpt lat="51.479970" lon="-0.171620">
						<ele>8</ele>
						<time>2026-05-01T10:03:28Z</time>
					</trkpt>
					<trkpt lat="51.479970" lon="-0.171810">
						<ele>8</ele>
						<time>2026-05-01T10:03:32Z</time>
					</trkpt>
					<trkpt lat="51.479870" lon="-0.171800">
						<ele>8</ele>
						<time>2026-05-01T10:03:35Z</time>
					</trkpt>
					<trkpt lat="51.479820" lon="-0.171930">
						<ele>8</ele>
						<time>2026-05-01T10:03:39Z</time>
					</trkpt>
					<trkpt lat="51.479810" lon="-0.171960">
						<ele>8</ele>
						<time>2026-05-01T10:03:39Z</time>
					</trkpt>
					<trkpt lat="51.479830" lon="-0.172170">
						<ele>7</ele>
						<time>2026-05-01T10:03:44Z</time>
					</trkpt>
					<trkpt lat="51.479910" lon="-0.172260">
						<ele>7</ele>
						<time>2026-05-01T10:03:47Z</time>
					</trkpt>
					<trkpt lat="51.479920" lon="-0.172350">
						<ele>7</ele>
						<time>2026-05-01T10:03:49Z</time>
					</trkpt>
					<trkpt lat="51.479620" lon="-0.173000">
						<ele>6</ele>
						<time>2026-05-01T10:04:06Z</time>
					</trkpt>
					<trkpt lat="51.479170" lon="-0.173740">
						<ele>7</ele>
						<time>2026-05-01T10:04:27Z</time>
					</trkpt>
					<trkpt lat="51.478730" lon="-0.174310">
						<ele>6</ele>
						<time>2026-05-01T10:04:46Z</time>
					</trkpt>
					<trkpt lat="51.478300" lon="-0.174760">
						<ele>6</ele>
						<time>2026-05-01T10:05:03Z</time>
					</trkpt>
					<trkpt lat="51.477860" lon="-0.175140">
						<ele>10</ele>
						<time>2026-05-01T10:05:20Z</time>
					</trkpt>
					<trkpt lat="51.477860" lon="-0.175190">
						<ele>10</ele>
						<time>2026-05-01T10:05:21Z</time>
					</trkpt>
					<trkpt lat="51.477690" lon="-0.175300">
						<ele>12</ele>
						<time>2026-05-01T10:05:27Z</time>
					</trkpt>
					<trkpt lat="51.477680" lon="-0.175260">
						<ele>12</ele>
						<time>2026-05-01T10:05:28Z</time>
					</trkpt>
					<trkpt lat="51.477150" lon="-0.175630">
						<ele>13</ele>
						<time>2026-05-01T10:05:47Z</time>
					</trkpt>
					<trkpt lat="51.477010" lon="-0.175620">
						<ele>13</ele>
						<time>2026-05-01T10:05:52Z</time>
					</trkpt>
					<trkpt lat="51.476910" lon="-0.175570">
						<ele>13</ele>
						<time>2026-05-01T10:05:55Z</time>
					</trkpt>
					<trkpt lat="51.476890" lon="-0.175590">
						<ele>13</ele>
						<time>2026-05-01T10:05:56Z</time>
					</trkpt>
					<trkpt lat="51.476890" lon="-0.175590">
						<ele>13</ele>
						<time>2026-05-01T10:05:56Z</time>
					</trkpt>
					<trkpt lat="51.476860" lon="-0.175620">
						<ele>12</ele>
						<time>2026-05-01T10:05:57Z</time>
					</trkpt>
					<trkpt lat="51.476610" lon="-0.175850">
						<ele>10</ele>
						<time>2026-05-01T10:06:07Z</time>
					</trkpt>
					<trkpt lat="51.476570" lon="-0.175880">
						<ele>9</ele>
						<time>2026-05-01T10:06:08Z</time>
					</trkpt>
					<trkpt lat="51.476540" lon="-0.175750">
						<ele>10</ele>
						<time>2026-05-01T10:06:11Z</time>
					</trkpt>
					<trkpt lat="51.476510" lon="-0.175710">
						<ele>10</ele>
						<time>2026-05-01T10:06:13Z</time>
					</trkpt>
					<trkpt lat="51.476450" lon="-0.175670">
						<ele>10</ele>
						<time>2026-05-01T10:06:15Z</time>
					</trkpt>
					<trkpt lat="51.476420" lon="-0.175660">
						<ele>10</ele>
						<time>2026-05-01T10:06:16Z</time>
					</trkpt>
					<trkpt lat="51.476380" lon="-0.175670">
						<ele>10</ele>
						<time>2026-05-01T10:06:17Z</time>
					</trkpt>
					<trkpt lat="51.476310" lon="-0.175660">
						<ele>10</ele>
						<time>2026-05-01T10:06:20Z</time>
					</trkpt>
					<trkpt lat="51.476250" lon="-0.175590">
						<ele>10</ele>
						<time>2026-05-01T10:06:22Z</time>
					</trkpt>
					<trkpt lat="51.476250" lon="-0.175590">
						<ele>10</ele>
						<time>2026-05-01T10:06:22Z</time>
					</trkpt>
					<trkpt lat="51.476250" lon="-0.175590">
						<ele>10</ele>
						<time>2026-05-01T10:06:22Z</time>
					</trkpt>
					<trkpt lat="51.476190" lon="-0.175540">
						<ele>10</ele>
						<time>2026-05-01T10:06:24Z</time>
					</trkpt>
					<trkpt lat="51.476180" lon="-0.175490">
						<ele>10</ele>
						<time>2026-05-01T10:06:25Z</time>
					</trkpt>
					<trkpt lat="51.476180" lon="-0.175490">
						<ele>10</ele>
						<time>2026-05-01T10:06:25Z</time>
					</trkpt>
					<trkpt lat="51.476170" lon="-0.175470">
						<ele>10</ele>
						<time>2026-05-01T10:06:26Z</time>
					</trkpt>
					<trkpt lat="51.476110" lon="-0.175500">
						<ele>9</ele>
						<time>2026-05-01T10:06:28Z</time>
					</trkpt>
					<trkpt lat="51.476080" lon="-0.175520">
						<ele>9</ele>
						<time>2026-05-01T10:06:29Z</time>
					</trkpt>
					<trkpt lat="51.476110" lon="-0.175660">
						<ele>9</ele>
						<time>2026-05-01T10:06:32Z</time>
					</trkpt>
					<trkpt lat="51.476120" lon="-0.175810">
						<ele>8</ele>
						<time>2026-05-01T10:06:35Z</time>
					</trkpt>
					<trkpt lat="51.475880" lon="-0.175930">
						<ele>7</ele>
						<time>2026-05-01T10:06:44Z</time>
					</trkpt>
					<trkpt lat="51.475830" lon="-0.175940">
						<ele>7</ele>
						<time>2026-05-01T10:06:45Z</time>
					</trkpt>
					<trkpt lat="51.475630" lon="-0.176040">
						<ele>6</ele>
						<time>2026-05-01T10:06:52Z</time>
					</trkpt>
					<trkpt lat="51.475600" lon="-0.176060">
						<ele>6</ele>
						<time>2026-05-01T10:06:53Z</time>
					</trkpt>
					<trkpt lat="51.475510" lon="-0.176110">
						<ele>6</ele>
						<time>2026-05-01T10:06:57Z</time>
					</trkpt>
					<trkpt lat="51.475400" lon="-0.176160">
						<ele>6</ele>
						<time>2026-05-01T10:07:00Z</time>
					</trkpt>
					<trkpt lat="51.475250" lon="-0.176240">
						<ele>6</ele>
						<time>2026-05-01T10:07:06Z</time>
					</trkpt>
					<trkpt lat="51.475300" lon="-0.176560">
						<ele>5</ele>
						<time>2026-05-01T10:07:13Z</time>
					</trkpt>
					<trkpt lat="51.475240" lon="-0.176590">
						<ele>5</ele>
						<time>2026-05-01T10:07:15Z</time>
					</trkpt>
					<trkpt lat="51.475180" lon="-0.176610">
						<ele>5</ele>
						<time>2026-05-01T10:07:17Z</time>
					</trkpt>
					<trkpt lat="51.475090" lon="-0.176650">
						<ele>5</ele>
						<time>2026-05-01T10:07:20Z</time>
					</trkpt>
					<trkpt lat="51.475020" lon="-0.176680">
						<ele>5</ele>
						<time>2026-05-01T10:07:22Z</time>
					</trkpt>
					<trkpt lat="51.474900" lon="-0.176740">
						<ele>5</ele>
						<time>2026-05-01T10:07:26Z</time>
					</trkpt>
					<trkpt lat="51.474550" lon="-0.176910">
						<ele>5</ele>
						<time>2026-05-01T10:07:39Z</time>
					</trkpt>
					<trkpt lat="51.474190" lon="-0.177060">
						<ele>6</ele>
						<time>2026-05-01T10:07:51Z</time>
					</trkpt>
					<trkpt lat="51.473630" lon="-0.177290">
						<ele>5</ele>
						<time>2026-05-01T10:08:10Z</time>
					</trkpt>
					<trkpt lat="51.473530" lon="-0.177320">
						<ele>5</ele>
						<time>2026-05-01T10:08:14Z</time>
					</trkpt>
					<trkpt lat="51.473230" lon="-0.177390">
						<ele>5</ele>
						<time>2026-05-01T10:08:24Z</time>
					</trkpt>
					<trkpt lat="51.472810" lon="-0.177530">
						<ele>4</ele>
						<time>2026-05-01T10:08:38Z</time>
					</trkpt>
					<trkpt lat="51.472620" lon="-0.177630">
						<ele>4</ele>
						<time>2026-05-01T10:08:45Z</time>
					</trkpt>
					<trkpt lat="51.472610" lon="-0.177620">
						<ele>4</ele>
						<time>2026-05-01T10:08:45Z</time>
					</trkpt>
					<trkpt lat="51.472590" lon="-0.177600">
						<ele>4</ele>
						<time>2026-05-01T10:08:46Z</time>
					</trkpt>
					<trkpt lat="51.472530" lon="-0.177410">
						<ele>4</ele>
						<time>2026-05-01T10:08:50Z</time>
					</trkpt>
					<trkpt lat="51.472510" lon="-0.177420">
						<ele>4</ele>
						<time>2026-05-01T10:08:51Z</time>
					</trkpt>
					<trkpt lat="51.472430" lon="-0.177460">
						<ele>4</ele>
						<time>2026-05-01T10:08:54Z</time>
					</trkpt>
					<trkpt lat="51.472410" lon="-0.177510">
						<ele>4</ele>
						<time>2026-05-01T10:08:55Z</time>
					</trkpt>
					<trkpt lat="51.472420" lon="-0.177610">
						<ele>4</ele>
						<time>2026-05-01T10:08:57Z</time>
					</trkpt>
					<trkpt lat="51.472400" lon="-0.177680">
						<ele>4</ele>
						<time>2026-05-01T10:08:59Z</time>
					</trkpt>
					<trkpt lat="51.472390" lon="-0.177730">
						<ele>4</ele>
						<time>2026-05-01T10:09:00Z</time>
					</trkpt>
					<trkpt lat="51.472000" lon="-0.177870">
						<ele>4</ele>
						<time>2026-05-01T10:09:13Z</time>
					</trkpt>
					<trkpt lat="51.472010" lon="-0.177910">
						<ele>4</ele>
						<time>2026-05-01T10:09:14Z</time>
					</trkpt>
					<trkpt lat="51.470980" lon="-0.178330">
						<ele>5</ele>
						<time>2026-05-01T10:09:50Z</time>
					</trkpt>
					<trkpt lat="51.470790" lon="-0.178420">
						<ele>5</ele>
						<time>2026-05-01T10:09:56Z</time>
					</trkpt>
					<trkpt lat="51.470770" lon="-0.178440">
						<ele>5</ele>
						<time>2026-05-01T10:09:57Z</time>
					</trkpt>
					<trkpt lat="51.470690" lon="-0.178470">
						<ele>5</ele>
						<time>2026-05-01T10:10:00Z</time>
					</trkpt>
					<trkpt lat="51.470670" lon="-0.178480">
						<ele>5</ele>
						<time>2026-05-01T10:10:00Z</time>
					</trkpt>
					<trkpt lat="51.470630" lon="-0.178560">
						<ele>5</ele>
						<time>2026-05-01T10:10:03Z</time>
					</trkpt>
					<trkpt lat="51.470380" lon="-0.178700">
						<ele>5</ele>
						<time>2026-05-01T10:10:11Z</time>
					</trkpt>
					<trkpt lat="51.470360" lon="-0.178700">
						<ele>5</ele>
						<time>2026-05-01T10:10:12Z</time>
					</trkpt>
					<trkpt lat="51.470030" lon="-0.178890">
						<ele>5</ele>
						<time>2026-05-01T10:10:24Z</time>
					</trkpt>
					<trkpt lat="51.470000" lon="-0.178900">
						<ele>5</ele>
						<time>2026-05-01T10:10:25Z</time>
					</trkpt>
					<trkpt lat="51.469870" lon="-0.178380">
						<ele>6</ele>
						<time>2026-05-01T10:10:36Z</time>
					</trkpt>
					<trkpt lat="51.469790" lon="-0.178270">
						<ele>6</ele>
						<time>2026-05-01T10:10:40Z</time>
					</trkpt>
					<trkpt lat="51.469740" lon="-0.178330">
						<ele>6</ele>
						<time>2026-05-01T10:10:42Z</time>
					</trkpt>
					<trkpt lat="51.469430" lon="-0.178500">
						<ele>6</ele>
						<time>2026-05-01T10:10:53Z</time>
					</trkpt>
					<trkpt lat="51.469340" lon="-0.178540">
						<ele>6</ele>
						<time>2026-05-01T10:10:56Z</time>
					</trkpt>
					<trkpt lat="51.469190" lon="-0.178610">
						<ele>6</ele>
						<time>2026-05-01T10:11:01Z</time>
					</trkpt>
					<trkpt lat="51.468960" lon="-0.178720">
						<ele>6</ele>
						<time>2026-05-01T10:11:09Z</time>
					</trkpt>
					<trkpt lat="51.468980" lon="-0.178810">
						<ele>6</ele>
						<time>2026-05-01T10:11:11Z</time>
					</trkpt>
					<trkpt lat="51.469020" lon="-0.178890">
						<ele>6</ele>
						<time>2026-05-01T10:11:13Z</time>
					</trkpt>
					<trkpt lat="51.469040" lon="-0.178980">
						<ele>6</ele>
						<time>2026-05-01T10:11:15Z</time>
					</trkpt>
					<trkpt lat="51.469040" lon="-0.179050">
						<ele>6</ele>
						<time>2026-05-01T10:11:17Z</time>
					</trkpt>
					<trkpt lat="51.469080" lon="-0.179190">
						<ele>6</ele>
						<time>2026-05-01T10:11:20Z</time>
					</trkpt>
					<trkpt lat="51.469140" lon="-0.179320">
						<ele>6</ele>
						<time>2026-05-01T10:11:23Z</time>
					</trkpt>
					<trkpt lat="51.469180" lon="-0.179510">
						<ele>6</ele>
						<time>2026-05-01T10:11:28Z</time>
					</trkpt>
					<trkpt lat="51.469200" lon="-0.179640">
						<ele>5</ele>
						<time>2026-05-01T10:11:30Z</time>
					</trkpt>
					<trkpt lat="51.468600" lon="-0.180080">
						<ele>8</ele>
						<time>2026-05-01T10:11:52Z</time>
					</trkpt>
					<trkpt lat="51.467870" lon="-0.180660">
						<ele>10</ele>
						<time>2026-05-01T10:12:20Z</time>
					</trkpt>
					<trkpt lat="51.467520" lon="-0.180960">
						<ele>12</ele>
						<time>2026-05-01T10:12:33Z</time>
					</trkpt>
					<trkpt lat="51.467280" lon="-0.181230">
						<ele>11</ele>
						<time>2026-05-01T10:12:43Z</time>
					</trkpt>
					<trkpt lat="51.467010" lon="-0.181450">
						<ele>11</ele>
						<time>2026-05-01T10:12:53Z</time>
					</trkpt>
					<trkpt lat="51.466910" lon="-0.181600">
						<ele>11</ele>
						<time>2026-05-01T10:12:57Z</time>
					</trkpt>
					<trkpt lat="51.466800" lon="-0.181750">
						<ele>11</ele>
						<time>2026-05-01T10:13:02Z</time>
					</trkpt>
					<trkpt lat="51.466770" lon="-0.181790">
						<ele>11</ele>
						<time>2026-05-01T10:13:03Z</time>
					</trkpt>
					<trkpt lat="51.466560" lon="-0.182070">
						<ele>9</ele>
						<time>2026-05-01T10:13:12Z</time>
					</trkpt>
					<trkpt lat="51.466330" lon="-0.182370">
						<ele>7</ele>
						<time>2026-05-01T10:13:22Z</time>
					</trkpt>
					<trkpt lat="51.466290" lon="-0.182420">
						<ele>7</ele>
						<time>2026-05-01T10:13:24Z</time>
					</trkpt>
					<trkpt lat="51.465970" lon="-0.182890">
						<ele>6</ele>
						<time>2026-05-01T10:13:39Z</time>
					</trkpt>
					<trkpt lat="51.465600" lon="-0.183490">
						<ele>5</ele>
						<time>2026-05-01T10:13:56Z</time>
					</trkpt>
					<trkpt lat="51.465440" lon="-0.183560">
						<ele>5</ele>
						<time>2026-05-01T10:14:02Z</time>
					</trkpt>
					<trkpt lat="51.465310" lon="-0.183910">
						<ele>5</ele>
						<time>2026-05-01T10:14:10Z</time>
					</trkpt>
					<trkpt lat="51.465060" lon="-0.184540">
						<ele>4</ele>
						<time>2026-05-01T10:14:26Z</time>
					</trkpt>
					<trkpt lat="51.465060" lon="-0.184540">
						<ele>4</ele>
						<time>2026-05-01T10:14:26Z</time>
					</trkpt>
					<trkpt lat="51.465030" lon="-0.184590">
						<ele>4</ele>
						<time>2026-05-01T10:14:27Z</time>
					</trkpt>
					<trkpt lat="51.464940" lon="-0.184830">
						<ele>4</ele>
						<time>2026-05-01T10:14:33Z</time>
					</trkpt>
					<trkpt lat="51.464910" lon="-0.184900">
						<ele>4</ele>
						<time>2026-05-01T10:14:35Z</time>
					</trkpt>
					<trkpt lat="51.464670" lon="-0.185540">
						<ele>5</ele>
						<time>2026-05-01T10:14:50Z</time>
					</trkpt>
					<trkpt lat="51.464580" lon="-0.185790">
						<ele>5</ele>
						<time>2026-05-01T10:14:56Z</time>
					</trkpt>
					<trkpt lat="51.464340" lon="-0.186430">
						<ele>5</ele>
						<time>2026-05-01T10:15:12Z</time>
					</trkpt>
					<trkpt lat="51.464290" lon="-0.186580">
						<ele>5</ele>
						<time>2026-05-01T10:15:15Z</time>
					</trkpt>
					<trkpt lat="51.464230" lon="-0.186750">
						<ele>5</ele>
						<time>2026-05-01T10:15:19Z</time>
					</trkpt>
					<trkpt lat="51.464190" lon="-0.186840">
						<ele>5</ele>
						<time>2026-05-01T10:15:22Z</time>
					</trkpt>
					<trkpt lat="51.463970" lon="-0.186640">
						<ele>6</ele>
						<time>2026-05-01T10:15:30Z</time>
					</trkpt>
					<trkpt lat="51.463940" lon="-0.186640">
						<ele>6</ele>
						<time>2026-05-01T10:15:31Z</time>
					</trkpt>
					<trkpt lat="51.463840" lon="-0.186900">
						<ele>7</ele>
						<time>2026-05-01T10:15:37Z</time>
					</trkpt>
					<trkpt lat="51.463830" lon="-0.186910">
						<ele>7</ele>
						<time>2026-05-01T10:15:38Z</time>
					</trkpt>
					<trkpt lat="51.463810" lon="-0.186880">
						<ele>7</ele>
						<time>2026-05-01T10:15:39Z</time>
					</trkpt>
					<trkpt lat="51.463760" lon="-0.186830">
						<ele>7</ele>
						<time>2026-05-01T10:15:41Z</time>
					</trkpt>
					<trkpt lat="51.463770" lon="-0.186810">
						<ele>7</ele>
						<time>2026-05-01T10:15:41Z</time>
					</trkpt>
					<trkpt lat="51.463820" lon="-0.186860">
						<ele>7</ele>
						<time>2026-05-01T10:15:43Z</time>
					</trkpt>
					<trkpt lat="51.463990" lon="-0.187000">
						<ele>6</ele>
						<time>2026-05-01T10:15:49Z</time>
					</trkpt>
					<trkpt lat="51.465980" lon="-0.188900">
						<ele>5</ele>
						<time>2026-05-01T10:17:07Z</time>
					</trkpt>
					<trkpt lat="51.466280" lon="-0.189210">
						<ele>5</ele>
						<time>2026-05-01T10:17:19Z</time>
					</trkpt>
					<trkpt lat="51.466240" lon="-0.189220">
						<ele>5</ele>
						<time>2026-05-01T10:17:20Z</time>
					</trkpt>
					<trkpt lat="51.465790" lon="-0.188800">
						<ele>4</ele>
						<time>2026-05-01T10:17:37Z</time>
					</trkpt>
					<trkpt lat="51.465730" lon="-0.188810">
						<ele>4</ele>
						<time>2026-05-01T10:17:39Z</time>
					</trkpt>
					<trkpt lat="51.465670" lon="-0.189020">
						<ele>4</ele>
						<time>2026-05-01T10:17:44Z</time>
					</trkpt>
					<trkpt lat="51.465730" lon="-0.188810">
						<ele>4</ele>
						<time>2026-05-01T10:17:49Z</time>
					</trkpt>
					<trkpt lat="51.465790" lon="-0.188800">
						<ele>4</ele>
						<time>2026-05-01T10:17:51Z</time>
					</trkpt>
					<trkpt lat="51.466240" lon="-0.189220">
						<ele>5</ele>
						<time>2026-05-01T10:18:08Z</time>
					</trkpt>
					<trkpt lat="51.466280" lon="-0.189210">
						<ele>5</ele>
						<time>2026-05-01T10:18:10Z</time>
					</trkpt>
					<trkpt lat="51.466430" lon="-0.189370">
						<ele>6</ele>
						<time>2026-05-01T10:18:16Z</time>
					</trkpt>
					<trkpt lat="51.466510" lon="-0.189450">
						<ele>6</ele>
						<time>2026-05-01T10:18:19Z</time>
					</trkpt>
					<trkpt lat="51.466520" lon="-0.189430">
						<ele>6</ele>
						<time>2026-05-01T10:18:19Z</time>
					</trkpt>
					<trkpt lat="51.466550" lon="-0.189340">
						<ele>6</ele>
						<time>2026-05-01T10:18:22Z</time>
					</trkpt>
					<trkpt lat="51.466590" lon="-0.189250">
						<ele>6</ele>
						<time>2026-05-01T10:18:24Z</time>
					</trkpt>
					<trkpt lat="51.466590" lon="-0.189230">
						<ele>6</ele>
						<time>2026-05-01T10:18:24Z</time>
					</trkpt>
					<trkpt lat="51.466640" lon="-0.189270">
						<ele>6</ele>
						<time>2026-05-01T10:18:26Z</time>
					</trkpt>
					<trkpt lat="51.466680" lon="-0.189290">
						<ele>6</ele>
						<time>2026-05-01T10:18:27Z</time>
					</trkpt>
					<trkpt lat="51.466720" lon="-0.189270">
						<ele>6</ele>
						<time>2026-05-01T10:18:29Z</time>
					</trkpt>
					<trkpt lat="51.466760" lon="-0.189210">
						<ele>6</ele>
						<time>2026-05-01T10:18:31Z</time>
					</trkpt>
					<trkpt lat="51.467000" lon="-0.188660">
						<ele>8</ele>
						<time>2026-05-01T10:18:45Z</time>
					</trkpt>
					<trkpt lat="51.467110" lon="-0.188380">
						<ele>8</ele>
						<time>2026-05-01T10:18:52Z</time>
					</trkpt>
					<trkpt lat="51.467210" lon="-0.188140">
						<ele>8</ele>
						<time>2026-05-01T10:18:58Z</time>
					</trkpt>
					<trkpt lat="51.467430" lon="-0.187650">
						<ele>9</ele>
						<time>2026-05-01T10:19:10Z</time>
					</trkpt>
					<trkpt lat="51.467460" lon="-0.187690">
						<ele>9</ele>
						<time>2026-05-01T10:19:11Z</time>
					</trkpt>
					<trkpt lat="51.467530" lon="-0.187540">
						<ele>9</ele>
						<time>2026-05-01T10:19:15Z</time>
					</trkpt>
					<trkpt lat="51.467710" lon="-0.187310">
						<ele>8</ele>
						<time>2026-05-01T10:19:23Z</time>
					</trkpt>
					<trkpt lat="51.467770" lon="-0.187290">
						<ele>8</ele>
						<time>2026-05-01T10:19:25Z</time>
					</trkpt>
					<trkpt lat="51.467940" lon="-0.187080">
						<ele>8</ele>
						<time>2026-05-01T10:19:32Z</time>
					</trkpt>
					<trkpt lat="51.467970" lon="-0.187030">
						<ele>8</ele>
						<time>2026-05-01T10:19:34Z</time>
					</trkpt>
					<trkpt lat="51.467980" lon="-0.186930">
						<ele>8</ele>
						<time>2026-05-01T10:19:36Z</time>
					</trkpt>
					<trkpt lat="51.467970" lon="-0.186880">
						<ele>8</ele>
						<time>2026-05-01T10:19:37Z</time>
					</trkpt>
					<trkpt lat="51.467940" lon="-0.186820">
						<ele>8</ele>
						<time>2026-05-01T10:19:38Z</time>
					</trkpt>
					<trkpt lat="51.467970" lon="-0.186740">
						<ele>8</ele>
						<time>2026-05-01T10:19:40Z</time>
					</trkpt>
					<trkpt lat="51.467980" lon="-0.186610">
						<ele>8</ele>
						<time>2026-05-01T10:19:43Z</time>
					</trkpt>
					<trkpt lat="51.467940" lon="-0.186560">
						<ele>8</ele>
						<time>2026-05-01T10:19:45Z</time>
					</trkpt>
					<trkpt lat="51.467990" lon="-0.186380">
						<ele>8</ele>
						<time>2026-05-01T10:19:49Z</time>
					</trkpt>
					<trkpt lat="51.468030" lon="-0.186380">
						<ele>8</ele>
						<time>2026-05-01T10:19:50Z</time>
					</trkpt>
					<trkpt lat="51.468100" lon="-0.186350">
						<ele>8</ele>
						<time>2026-05-01T10:19:53Z</time>
					</trkpt>
					<trkpt lat="51.468110" lon="-0.186130">
						<ele>8</ele>
						<time>2026-05-01T10:19:57Z</time>
					</trkpt>
					<trkpt lat="51.468120" lon="-0.186020">
						<ele>8</ele>
						<time>2026-05-01T10:20:00Z</time>
					</trkpt>
					<trkpt lat="51.468180" lon="-0.185770">
						<ele>8</ele>
						<time>2026-05-01T10:20:05Z</time>
					</trkpt>
					<trkpt lat="51.468370" lon="-0.185190">
						<ele>10</ele>
						<time>2026-05-01T10:20:19Z</time>
					</trkpt>
					<trkpt lat="51.468400" lon="-0.185070">
						<ele>11</ele>
						<time>2026-05-01T10:20:21Z</time>
					</trkpt>
					<trkpt lat="51.468420" lon="-0.184930">
						<ele>11</ele>
						<time>2026-05-01T10:20:24Z</time>
					</trkpt>
					<trkpt lat="51.468460" lon="-0.184800">
						<ele>11</ele>
						<time>2026-05-01T10:20:27Z</time>
					</trkpt>
					<trkpt lat="51.468500" lon="-0.184700">
						<ele>11</ele>
						<time>2026-05-01T10:20:30Z</time>
					</trkpt>
					<trkpt lat="51.468580" lon="-0.184560">
						<ele>11</ele>
						<time>2026-05-01T10:20:34Z</time>
					</trkpt>
					<trkpt lat="51.468630" lon="-0.184520">
						<ele>11</ele>
						<time>2026-05-01T10:20:36Z</time>
					</trkpt>
					<trkpt lat="51.469020" lon="-0.184210">
						<ele>12</ele>
						<time>2026-05-01T10:20:50Z</time>
					</trkpt>
					<trkpt lat="51.469470" lon="-0.183860">
						<ele>13</ele>
						<time>2026-05-01T10:21:07Z</time>
					</trkpt>
					<trkpt lat="51.469670" lon="-0.183720">
						<ele>13</ele>
						<time>2026-05-01T10:21:14Z</time>
					</trkpt>
					<trkpt lat="51.469760" lon="-0.183650">
						<ele>12</ele>
						<time>2026-05-01T10:21:17Z</time>
					</trkpt>
					<trkpt lat="51.469850" lon="-0.183620">
						<ele>12</ele>
						<time>2026-05-01T10:21:21Z</time>
					</trkpt>
					<trkpt lat="51.470070" lon="-0.183600">
						<ele>11</ele>
						<time>2026-05-01T10:21:28Z</time>
					</trkpt>
					<trkpt lat="51.470150" lon="-0.183570">
						<ele>11</ele>
						<time>2026-05-01T10:21:31Z</time>
					</trkpt>
					<trkpt lat="51.470170" lon="-0.183470">
						<ele>11</ele>
						<time>2026-05-01T10:21:33Z</time>
					</trkpt>
					<trkpt lat="51.470230" lon="-0.183350">
						<ele>11</ele>
						<time>2026-05-01T10:21:36Z</time>
					</trkpt>
					<trkpt lat="51.470300" lon="-0.183240">
						<ele>11</ele>
						<time>2026-05-01T10:21:39Z</time>
					</trkpt>
					<trkpt lat="51.470360" lon="-0.183180">
						<ele>11</ele>
						<time>2026-05-01T10:21:42Z</time>
					</trkpt>
					<trkpt lat="51.470430" lon="-0.183110">
						<ele>11</ele>
						<time>2026-05-01T10:21:44Z</time>
					</trkpt>
					<trkpt lat="51.470620" lon="-0.183050">
						<ele>10</ele>
						<time>2026-05-01T10:21:51Z</time>
					</trkpt>
					<trkpt lat="51.470710" lon="-0.182980">
						<ele>9</ele>
						<time>2026-05-01T10:21:54Z</time>
					</trkpt>
					<trkpt lat="51.470770" lon="-0.182880">
						<ele>9</ele>
						<time>2026-05-01T10:21:57Z</time>
					</trkpt>
					<trkpt lat="51.470830" lon="-0.182840">
						<ele>9</ele>
						<time>2026-05-01T10:21:59Z</time>
					</trkpt>
					<trkpt lat="51.470870" lon="-0.182750">
						<ele>9</ele>
						<time>2026-05-01T10:22:02Z</time>
					</trkpt>
					<trkpt lat="51.470870" lon="-0.182680">
						<ele>9</ele>
						<time>2026-05-01T10:22:03Z</time>
					</trkpt>
					<trkpt lat="51.470860" lon="-0.182570">
						<ele>9</ele>
						<time>2026-05-01T10:22:05Z</time>
					</trkpt>
					<trkpt lat="51.470870" lon="-0.182500">
						<ele>9</ele>
						<time>2026-05-01T10:22:07Z</time>
					</trkpt>
					<trkpt lat="51.470900" lon="-0.182400">
						<ele>8</ele>
						<time>2026-05-01T10:22:09Z</time>
					</trkpt>
					<trkpt lat="51.470950" lon="-0.182340">
						<ele>8</ele>
						<time>2026-05-01T10:22:11Z</time>
					</trkpt>
					<trkpt lat="51.471060" lon="-0.182240">
						<ele>8</ele>
						<time>2026-05-01T10:22:15Z</time>
					</trkpt>
					<trkpt lat="51.471210" lon="-0.182170">
						<ele>7</ele>
						<time>2026-05-01T10:22:21Z</time>
					</trkpt>
					<trkpt lat="51.471200" lon="-0.182140">
						<ele>7</ele>
						<time>2026-05-01T10:22:21Z</time>
					</trkpt>
					<trkpt lat="51.471200" lon="-0.182140">
						<ele>7</ele>
						<time>2026-05-01T10:22:21Z</time>
					</trkpt>
					<trkpt lat="51.471170" lon="-0.182010">
						<ele>6</ele>
						<time>2026-05-01T10:22:24Z</time>
					</trkpt>
					<trkpt lat="51.471290" lon="-0.181900">
						<ele>6</ele>
						<time>2026-05-01T10:22:29Z</time>
					</trkpt>
					<trkpt lat="51.471360" lon="-0.181770">
						<ele>5</ele>
						<time>2026-05-01T10:22:32Z</time>
					</trkpt>
					<trkpt lat="51.471700" lon="-0.181560">
						<ele>5</ele>
						<time>2026-05-01T10:22:45Z</time>
					</trkpt>
					<trkpt lat="51.472110" lon="-0.181330">
						<ele>5</ele>
						<time>2026-05-01T10:22:59Z</time>
					</trkpt>
					<trkpt lat="51.472480" lon="-0.181100">
						<ele>4</ele>
						<time>2026-05-01T10:23:12Z</time>
					</trkpt>
					<trkpt lat="51.472830" lon="-0.180920">
						<ele>4</ele>
						<time>2026-05-01T10:23:25Z</time>
					</trkpt>
					<trkpt lat="51.473000" lon="-0.180880">
						<ele>5</ele>
						<time>2026-05-01T10:23:30Z</time>
					</trkpt>
					<trkpt lat="51.473090" lon="-0.180830">
						<ele>5</ele>
						<time>2026-05-01T10:23:33Z</time>
					</trkpt>
					<trkpt lat="51.473250" lon="-0.180790">
						<ele>5</ele>
						<time>2026-05-01T10:23:39Z</time>
					</trkpt>
					<trkpt lat="51.473350" lon="-0.180800">
						<ele>5</ele>
						<time>2026-05-01T10:23:42Z</time>
					</trkpt>
					<trkpt lat="51.473470" lon="-0.180790">
						<ele>7</ele>
						<time>2026-05-01T10:23:46Z</time>
					</trkpt>
					<trkpt lat="51.473590" lon="-0.180760">
						<ele>8</ele>
						<time>2026-05-01T10:23:50Z</time>
					</trkpt>
					<trkpt lat="51.473710" lon="-0.180670">
						<ele>9</ele>
						<time>2026-05-01T10:23:55Z</time>
					</trkpt>
					<trkpt lat="51.473710" lon="-0.180670">
						<ele>9</ele>
						<time>2026-05-01T10:23:55Z</time>
					</trkpt>
					<trkpt lat="51.473800" lon="-0.180550">
						<ele>9</ele>
						<time>2026-05-01T10:23:59Z</time>
					</trkpt>
					<trkpt lat="51.473920" lon="-0.180470">
						<ele>9</ele>
						<time>2026-05-01T10:24:03Z</time>
					</trkpt>
					<trkpt lat="51.474310" lon="-0.180320">
						<ele>10</ele>
						<time>2026-05-01T10:24:16Z</time>
					</trkpt>
					<trkpt lat="51.474510" lon="-0.180250">
						<ele>9</ele>
						<time>2026-05-01T10:24:23Z</time>
					</trkpt>
					<trkpt lat="51.474550" lon="-0.180220">
						<ele>9</ele>
						<time>2026-05-01T10:24:25Z</time>
					</trkpt>
					<trkpt lat="51.474600" lon="-0.180240">
						<ele>9</ele>
						<time>2026-05-01T10:24:26Z</time>
					</trkpt>
					<trkpt lat="51.474640" lon="-0.180280">
						<ele>9</ele>
						<time>2026-05-01T10:24:28Z</time>
					</trkpt>
					<trkpt lat="51.474680" lon="-0.180340">
						<ele>10</ele>
						<time>2026-05-01T10:24:30Z</time>
					</trkpt>
					<trkpt lat="51.474750" lon="-0.180240">
						<ele>9</ele>
						<time>2026-05-01T10:24:33Z</time>
					</trkpt>
					<trkpt lat="51.474790" lon="-0.180170">
						<ele>9</ele>
						<time>2026-05-01T10:24:35Z</time>
					</trkpt>
					<trkpt lat="51.475580" lon="-0.179940">
						<ele>7</ele>
						<time>2026-05-01T10:25:02Z</time>
					</trkpt>
					<trkpt lat="51.475900" lon="-0.179840">
						<ele>7</ele>
						<time>2026-05-01T10:25:12Z</time>
					</trkpt>
					<trkpt lat="51.476410" lon="-0.179720">
						<ele>7</ele>
						<time>2026-05-01T10:25:30Z</time>
					</trkpt>
					<trkpt lat="51.476410" lon="-0.179720">
						<ele>7</ele>
						<time>2026-05-01T10:25:30Z</time>
					</trkpt>
					<trkpt lat="51.476440" lon="-0.179710">
						<ele>7</ele>
						<time>2026-05-01T10:25:31Z</time>
					</trkpt>
					<trkpt lat="51.476870" lon="-0.179600">
						<ele>7</ele>
						<time>2026-05-01T10:25:45Z</time>
					</trkpt>
					<trkpt lat="51.476880" lon="-0.179690">
						<ele>8</ele>
						<time>2026-05-01T10:25:47Z</time>
					</trkpt>
					<trkpt lat="51.476880" lon="-0.179690">
						<ele>8</ele>
						<time>2026-05-01T10:25:47Z</time>
					</trkpt>
					<trkpt lat="51.476920" lon="-0.180050">
						<ele>10</ele>
						<time>2026-05-01T10:25:55Z</time>
					</trkpt>
					<trkpt lat="51.477280" lon="-0.179950">
						<ele>10</ele>
						<time>2026-05-01T10:26:07Z</time>
					</trkpt>
					<trkpt lat="51.477310" lon="-0.179970">
						<ele>10</ele>
						<time>2026-05-01T10:26:08Z</time>
					</trkpt>
					<trkpt lat="51.477330" lon="-0.180000">
						<ele>11</ele>
						<time>2026-05-01T10:26:09Z</time>
					</trkpt>
					<trkpt lat="51.477330" lon="-0.180040">
						<ele>11</ele>
						<time>2026-05-01T10:26:10Z</time>
					</trkpt>
					<trkpt lat="51.477600" lon="-0.179970">
						<ele>10</ele>
						<time>2026-05-01T10:26:19Z</time>
					</trkpt>
					<trkpt lat="51.477690" lon="-0.179950">
						<ele>10</ele>
						<time>2026-05-01T10:26:22Z</time>
					</trkpt>
					<trkpt lat="51.477690" lon="-0.179950">
						<ele>10</ele>
						<time>2026-05-01T10:26:22Z</time>
					</trkpt>
					<trkpt lat="51.477990" lon="-0.179860">
						<ele>8</ele>
						<time>2026-05-01T10:26:32Z</time>
					</trkpt>
					<trkpt lat="51.478020" lon="-0.179840">
						<ele>8</ele>
						<time>2026-05-01T10:26:33Z</time>
					</trkpt>
					<trkpt lat="51.478100" lon="-0.179820">
						<ele>8</ele>
						<time>2026-05-01T10:26:36Z</time>
					</trkpt>
					<trkpt lat="51.478110" lon="-0.179950">
						<ele>8</ele>
						<time>2026-05-01T10:26:39Z</time>
					</trkpt>
					<trkpt lat="51.478080" lon="-0.180030">
						<ele>8</ele>
						<time>2026-05-01T10:26:41Z</time>
					</trkpt>
					<trkpt lat="51.478070" lon="-0.180110">
						<ele>8</ele>
						<time>2026-05-01T10:26:42Z</time>
					</trkpt>
					<trkpt lat="51.478100" lon="-0.180200">
						<ele>8</ele>
						<time>2026-05-01T10:26:44Z</time>
					</trkpt>
					<trkpt lat="51.478110" lon="-0.180340">
						<ele>8</ele>
						<time>2026-05-01T10:26:47Z</time>
					</trkpt>
					<trkpt lat="51.478490" lon="-0.180730">
						<ele>6</ele>
						<time>2026-05-01T10:27:02Z</time>
					</trkpt>
					<trkpt lat="51.478530" lon="-0.180670">
						<ele>7</ele>
						<time>2026-05-01T10:27:04Z</time>
					</trkpt>
					<trkpt lat="51.478580" lon="-0.180720">
						<ele>7</ele>
						<time>2026-05-01T10:27:06Z</time>
					</trkpt>
					<trkpt lat="51.478730" lon="-0.180400">
						<ele>7</ele>
						<time>2026-05-01T10:27:14Z</time>
					</trkpt>
					<trkpt lat="51.478840" lon="-0.180200">
						<ele>7</ele>
						<time>2026-05-01T10:27:20Z</time>
					</trkpt>
					<trkpt lat="51.479210" lon="-0.179630">
						<ele>8</ele>
						<time>2026-05-01T10:27:37Z</time>
					</trkpt>
					<trkpt lat="51.479420" lon="-0.179290">
						<ele>9</ele>
						<time>2026-05-01T10:27:47Z</time>
					</trkpt>
					<trkpt lat="51.479530" lon="-0.179050">
						<ele>10</ele>
						<time>2026-05-01T10:27:53Z</time>
					</trkpt>
					<trkpt lat="51.479610" lon="-0.178950">
						<ele>10</ele>
						<time>2026-05-01T10:27:57Z</time>
					</trkpt>
					<trkpt lat="51.479760" lon="-0.178750">
						<ele>10</ele>
						<time>2026-05-01T10:28:03Z</time>
					</trkpt>
					<trkpt lat="51.480000" lon="-0.178500">
						<ele>10</ele>
						<time>2026-05-01T10:28:13Z</time>
					</trkpt>
					<trkpt lat="51.480100" lon="-0.178360">
						<ele>10</ele>
						<time>2026-05-01T10:28:17Z</time>
					</trkpt>
					<trkpt lat="51.480200" lon="-0.178240">
						<ele>10</ele>
						<time>2026-05-01T10:28:21Z</time>
					</trkpt>
					<trkpt lat="51.480270" lon="-0.178180">
						<ele>10</ele>
						<time>2026-05-01T10:28:24Z</time>
					</trkpt>
					<trkpt lat="51.480300" lon="-0.178050">
						<ele>10</ele>
						<time>2026-05-01T10:28:27Z</time>
					</trkpt>
					<trkpt lat="51.480310" lon="-0.178000">
						<ele>10</ele>
						<time>2026-05-01T10:28:28Z</time>
					</trkpt>
					<trkpt lat="51.480320" lon="-0.177940">
						<ele>10</ele>
						<time>2026-05-01T10:28:29Z</time>
					</trkpt>
					<trkpt lat="51.480410" lon="-0.177770">
						<ele>10</ele>
						<time>2026-05-01T10:28:34Z</time>
					</trkpt>
					<trkpt lat="51.480590" lon="-0.177460">
						<ele>10</ele>
						<time>2026-05-01T10:28:43Z</time>
					</trkpt>
					<trkpt lat="51.480930" lon="-0.176980">
						<ele>9</ele>
						<time>2026-05-01T10:28:58Z</time>
					</trkpt>
					<trkpt lat="51.481390" lon="-0.176320">
						<ele>8</ele>
						<time>2026-05-01T10:29:18Z</time>
					</trkpt>
					<trkpt lat="51.481510" lon="-0.176150">
						<ele>7</ele>
						<time>2026-05-01T10:29:24Z</time>
					</trkpt>
					<trkpt lat="51.481570" lon="-0.176030">
						<ele>7</ele>
						<time>2026-05-01T10:29:27Z</time>
					</trkpt>
					<trkpt lat="51.481630" lon="-0.175860">
						<ele>6</ele>
						<time>2026-05-01T10:29:31Z</time>
					</trkpt>
					<trkpt lat="51.481710" lon="-0.175610">
						<ele>6</ele>
						<time>2026-05-01T10:29:37Z</time>
					</trkpt>
					<trkpt lat="51.481740" lon="-0.175460">
						<ele>6</ele>
						<time>2026-05-01T10:29:40Z</time>
					</trkpt>
					<trkpt lat="51.481770" lon="-0.175270">
						<ele>6</ele>
						<time>2026-05-01T10:29:44Z</time>
					</trkpt>
					<trkpt lat="51.481810" lon="-0.174940">
						<ele>7</ele>
						<time>2026-05-01T10:29:51Z</time>
					</trkpt>
					<trkpt lat="51.481870" lon="-0.174570">
						<ele>7</ele>
						<time>2026-05-01T10:29:59Z</time>
					</trkpt>
					<trkpt lat="51.482000" lon="-0.173870">
						<ele>8</ele>
						<time>2026-05-01T10:30:14Z</time>
					</trkpt>
					<trkpt lat="51.482040" lon="-0.173640">
						<ele>8</ele>
						<time>2026-05-01T10:30:19Z</time>
					</trkpt>
					<trkpt lat="51.482050" lon="-0.173540">
						<ele>8</ele>
						<time>2026-05-01T10:30:21Z</time>
					</trkpt>
					<trkpt lat="51.482050" lon="-0.173490">
						<ele>7</ele>
						<time>2026-05-01T10:30:22Z</time>
					</trkpt>
					<trkpt lat="51.482030" lon="-0.173450">
						<ele>7</ele>
						<time>2026-05-01T10:30:23Z</time>
					</trkpt>
					<trkpt lat="51.482040" lon="-0.173430">
						<ele>7</ele>
						<time>2026-05-01T10:30:24Z</time>
					</trkpt>
					<trkpt lat="51.482050" lon="-0.173350">
						<ele>7</ele>
						<time>2026-05-01T10:30:26Z</time>
					</trkpt>
					<trkpt lat="51.482060" lon="-0.173290">
						<ele>7</ele>
						<time>2026-05-01T10:30:27Z</time>
					</trkpt>
					<trkpt lat="51.482060" lon="-0.173270">
						<ele>7</ele>
						<time>2026-05-01T10:30:27Z</time>
					</trkpt>
					<trkpt lat="51.482080" lon="-0.173260">
						<ele>8</ele>
						<time>2026-05-01T10:30:28Z</time>
					</trkpt>
					<trkpt lat="51.482100" lon="-0.173220">
						<ele>8</ele>
						<time>2026-05-01T10:30:29Z</time>
					</trkpt>
					<trkpt lat="51.482130" lon="-0.173240">
						<ele>8</ele>
						<time>2026-05-01T10:30:30Z</time>
					</trkpt>
					<trkpt lat="51.482190" lon="-0.173270">
						<ele>8</ele>
						<time>2026-05-01T10:30:32Z</time>
					</trkpt>
					<trkpt lat="51.482280" lon="-0.173310">
						<ele>9</ele>
						<time>2026-05-01T10:30:35Z</time>
					</trkpt>
					<trkpt lat="51.482300" lon="-0.173300">
						<ele>9</ele>
						<time>2026-05-01T10:30:36Z</time>
					</trkpt>
					<trkpt lat="51.482310" lon="-0.173100">
						<ele>9</ele>
						<time>2026-05-01T10:30:40Z</time>
					</trkpt>
					<trkpt lat="51.482440" lon="-0.172590">
						<ele>10</ele>
						<time>2026-05-01T10:30:52Z</time>
					</trkpt>
					<trkpt lat="51.482530" lon="-0.172250">
						<ele>11</ele>
						<time>2026-05-01T10:30:59Z</time>
					</trkpt>
					<trkpt lat="51.482530" lon="-0.172250">
						<ele>11</ele>
						<time>2026-05-01T10:30:59Z</time>
					</trkpt>
					<trkpt lat="51.482540" lon="-0.172210">
						<ele>11</ele>
						<time>2026-05-01T10:31:00Z</time>
					</trkpt>
					<trkpt lat="51.482570" lon="-0.172090">
						<ele>10</ele>
						<time>2026-05-01T10:31:03Z</time>
					</trkpt>
					<trkpt lat="51.482740" lon="-0.171280">
						<ele>9</ele>
						<time>2026-05-01T10:31:21Z</time>
					</trkpt>
					<trkpt lat="51.482750" lon="-0.171200">
						<ele>9</ele>
						<time>2026-05-01T10:31:22Z</time>
					</trkpt>
					<trkpt lat="51.482760" lon="-0.171150">
						<ele>8</ele>
						<time>2026-05-01T10:31:23Z</time>
					</trkpt>
					<trkpt lat="51.482760" lon="-0.171150">
						<ele>8</ele>
						<time>2026-05-01T10:31:23Z</time>
					</trkpt>
					<trkpt lat="51.482790" lon="-0.171030">
						<ele>8</ele>
						<time>2026-05-01T10:31:26Z</time>
					</trkpt>
					<trkpt lat="51.482810" lon="-0.170810">
						<ele>8</ele>
						<time>2026-05-01T10:31:31Z</time>
					</trkpt>
					<trkpt lat="51.482840" lon="-0.170730">
						<ele>8</ele>
						<time>2026-05-01T10:31:33Z</time>
					</trkpt>
					<trkpt lat="51.482860" lon="-0.170690">
						<ele>8</ele>
						<time>2026-05-01T10:31:34Z</time>
					</trkpt>
					<trkpt lat="51.482860" lon="-0.170580">
						<ele>8</ele>
						<time>2026-05-01T10:31:36Z</time>
					</trkpt>
					<trkpt lat="51.482860" lon="-0.170580">
						<ele>8</ele>
						<time>2026-05-01T10:31:36Z</time>
					</trkpt>
					<trkpt lat="51.482870" lon="-0.170560">
						<ele>8</ele>
						<time>2026-05-01T10:31:37Z</time>
					</trkpt>
					<trkpt lat="51.482870" lon="-0.170530">
						<ele>8</ele>
						<time>2026-05-01T10:31:37Z</time>
					</trkpt>
					<trkpt lat="51.482870" lon="-0.170530">
						<ele>8</ele>
						<time>2026-05-01T10:31:37Z</time>
					</trkpt>
					<trkpt lat="51.482900" lon="-0.170320">
						<ele>8</ele>
						<time>2026-05-01T10:31:42Z</time>
					</trkpt>
					<trkpt lat="51.483060" lon="-0.169440">
						<ele>9</ele>
						<time>2026-05-01T10:32:01Z</time>
					</trkpt>
					<trkpt lat="51.483190" lon="-0.168650">
						<ele>10</ele>
						<time>2026-05-01T10:32:18Z</time>
					</trkpt>
					<trkpt lat="51.483240" lon="-0.168390">
						<ele>10</ele>
						<time>2026-05-01T10:32:23Z</time>
					</trkpt>
					<trkpt lat="51.483290" lon="-0.168210">
						<ele>10</ele>
						<time>2026-05-01T10:32:27Z</time>
					</trkpt>
					<trkpt lat="51.483360" lon="-0.168000">
						<ele>11</ele>
						<time>2026-05-01T10:32:32Z</time>
					</trkpt>
					<trkpt lat="51.483380" lon="-0.167960">
						<ele>11</ele>
						<time>2026-05-01T10:32:33Z</time>
					</trkpt>
					<trkpt lat="51.483410" lon="-0.167940">
						<ele>11</ele>
						<time>2026-05-01T10:32:35Z</time>
					</trkpt>
					<trkpt lat="51.483440" lon="-0.167880">
						<ele>11</ele>
						<time>2026-05-01T10:32:36Z</time>
					</trkpt>
					<trkpt lat="51.483460" lon="-0.167850">
						<ele>11</ele>
						<time>2026-05-01T10:32:37Z</time>
					</trkpt>
					<trkpt lat="51.483450" lon="-0.167830">
						<ele>11</ele>
						<time>2026-05-01T10:32:38Z</time>
					</trkpt>
					<trkpt lat="51.483580" lon="-0.167600">
						<ele>11</ele>
						<time>2026-05-01T10:32:44Z</time>
					</trkpt>
					<trkpt lat="51.483620" lon="-0.167530">
						<ele>11</ele>
						<time>2026-05-01T10:32:46Z</time>
					</trkpt>
					<trkpt lat="51.483640" lon="-0.167520">
						<ele>11</ele>
						<time>2026-05-01T10:32:47Z</time>
					</trkpt>
					<trkpt lat="51.483700" lon="-0.167540">
						<ele>11</ele>
						<time>2026-05-01T10:32:49Z</time>
					</trkpt>
					<trkpt lat="51.483710" lon="-0.167550">
						<ele>11</ele>
						<time>2026-05-01T10:32:49Z</time>
					</trkpt>
					<trkpt lat="51.483720" lon="-0.167510">
						<ele>11</ele>
						<time>2026-05-01T10:32:50Z</time>
					</trkpt>
					<trkpt lat="51.483730" lon="-0.167490">
						<ele>11</ele>
						<time>2026-05-01T10:32:51Z</time>
					</trkpt>
					<trkpt lat="51.483730" lon="-0.167470">
						<ele>11</ele>
						<time>2026-05-01T10:32:51Z</time>
					</trkpt>
					<trkpt lat="51.483670" lon="-0.167430">
						<ele>11</ele>
						<time>2026-05-01T10:32:53Z</time>
					</trkpt>
					<trkpt lat="51.483670" lon="-0.167410">
						<ele>11</ele>
						<time>2026-05-01T10:32:54Z</time>
					</trkpt>
					<trkpt lat="51.483690" lon="-0.167340">
						<ele>11</ele>
						<time>2026-05-01T10:32:55Z</time>
					</trkpt>
					<trkpt lat="51.483690" lon="-0.167320">
						<ele>11</ele>
						<time>2026-05-01T10:32:56Z</time>
					</trkpt>
					<trkpt lat="51.483680" lon="-0.167210">
						<ele>10</ele>
						<time>2026-05-01T10:32:58Z</time>
					</trkpt>
					<trkpt lat="51.483640" lon="-0.166990">
						<ele>9</ele>
						<time>2026-05-01T10:33:03Z</time>
					</trkpt>
					<trkpt lat="51.483640" lon="-0.166910">
						<ele>9</ele>
						<time>2026-05-01T10:33:04Z</time>
					</trkpt>
					<trkpt lat="51.483660" lon="-0.166750">
						<ele>9</ele>
						<time>2026-05-01T10:33:08Z</time>
					</trkpt>
					<trkpt lat="51.483630" lon="-0.166650">
						<ele>8</ele>
						<time>2026-05-01T10:33:10Z</time>
					</trkpt>
					<trkpt lat="51.483640" lon="-0.166610">
						<ele>8</ele>
						<time>2026-05-01T10:33:11Z</time>
					</trkpt>
					<trkpt lat="51.483890" lon="-0.165320">
						<ele>9</ele>
						<time>2026-05-01T10:33:39Z</time>
					</trkpt>
					<trkpt lat="51.483890" lon="-0.165290">
						<ele>9</ele>
						<time>2026-05-01T10:33:40Z</time>
					</trkpt>
					<trkpt lat="51.483820" lon="-0.165260">
						<ele>9</ele>
						<time>2026-05-01T10:33:42Z</time>
					</trkpt>
					<trkpt lat="51.483820" lon="-0.165260">
						<ele>9</ele>
						<time>2026-05-01T10:33:42Z</time>
					</trkpt>
					<trkpt lat="51.483730" lon="-0.165210">
						<ele>9</ele>
						<time>2026-05-01T10:33:45Z</time>
					</trkpt>
					<trkpt lat="51.483680" lon="-0.165200">
						<ele>8</ele>
						<time>2026-05-01T10:33:47Z</time>
					</trkpt>
					<trkpt lat="51.483680" lon="-0.165200">
						<ele>8</ele>
						<time>2026-05-01T10:33:47Z</time>
					</trkpt>
					<trkpt lat="51.483650" lon="-0.165180">
						<ele>8</ele>
						<time>2026-05-01T10:33:48Z</time>
					</trkpt>
					<trkpt lat="51.483760" lon="-0.164400">
						<ele>9</ele>
						<time>2026-05-01T10:34:05Z</time>
					</trkpt>
					<trkpt lat="51.483770" lon="-0.164330">
						<ele>9</ele>
						<time>2026-05-01T10:34:06Z</time>
					</trkpt>
					<trkpt lat="51.483800" lon="-0.164270">
						<ele>10</ele>
						<time>2026-05-01T10:34:08Z</time>
					</trkpt>
					<trkpt lat="51.483820" lon="-0.164240">
						<ele>10</ele>
						<time>2026-05-01T10:34:09Z</time>
					</trkpt>
					<trkpt lat="51.483820" lon="-0.164210">
						<ele>10</ele>
						<time>2026-05-01T10:34:09Z</time>
					</trkpt>
					<trkpt lat="51.483820" lon="-0.164170">
						<ele>10</ele>
						<time>2026-05-01T10:34:10Z</time>
					</trkpt>
					<trkpt lat="51.483820" lon="-0.164130">
						<ele>10</ele>
						<time>2026-05-01T10:34:11Z</time>
					</trkpt>
					<trkpt lat="51.483820" lon="-0.164130">
						<ele>10</ele>
						<time>2026-05-01T10:34:11Z</time>
					</trkpt>
					<trkpt lat="51.483820" lon="-0.164080">
						<ele>10</ele>
						<time>2026-05-01T10:34:12Z</time>
					</trkpt>
					<trkpt lat="51.483820" lon="-0.164080">
						<ele>10</ele>
						<time>2026-05-01T10:34:12Z</time>
					</trkpt>
					<trkpt lat="51.483810" lon="-0.164050">
						<ele>10</ele>
						<time>2026-05-01T10:34:13Z</time>
					</trkpt>
					<trkpt lat="51.483820" lon="-0.164020">
						<ele>10</ele>
						<time>2026-05-01T10:34:13Z</time>
					</trkpt>
					<trkpt lat="51.483820" lon="-0.164020">
						<ele>10</ele>
						<time>2026-05-01T10:34:13Z</time>
					</trkpt>
					<trkpt lat="51.483820" lon="-0.163960">
						<ele>10</ele>
						<time>2026-05-01T10:34:15Z</time>
					</trkpt>
					<trkpt lat="51.483820" lon="-0.163930">
						<ele>10</ele>
						<time>2026-05-01T10:34:15Z</time>
					</trkpt>
					<trkpt lat="51.483820" lon="-0.163930">
						<ele>10</ele>
						<time>2026-05-01T10:34:15Z</time>
					</trkpt>
					<trkpt lat="51.483840" lon="-0.163910">
						<ele>10</ele>
						<time>2026-05-01T10:34:16Z</time>
					</trkpt>
					<trkpt lat="51.483850" lon="-0.163890">
						<ele>10</ele>
						<time>2026-05-01T10:34:17Z</time>
					</trkpt>
					<trkpt lat="51.483850" lon="-0.163890">
						<ele>10</ele>
						<time>2026-05-01T10:34:17Z</time>
					</trkpt>
					<trkpt lat="51.483860" lon="-0.163880">
						<ele>10</ele>
						<time>2026-05-01T10:34:17Z</time>
					</trkpt>
					<trkpt lat="51.483840" lon="-0.163800">
						<ele>10</ele>
						<time>2026-05-01T10:34:19Z</time>
					</trkpt>
					<trkpt lat="51.483830" lon="-0.163710">
						<ele>10</ele>
						<time>2026-05-01T10:34:21Z</time>
					</trkpt>
					<trkpt lat="51.484090" lon="-0.161890">
						<ele>8</ele>
						<time>2026-05-01T10:34:59Z</time>
					</trkpt>
					<trkpt lat="51.484220" lon="-0.160920">
						<ele>11</ele>
						<time>2026-05-01T10:35:20Z</time>
					</trkpt>
					<trkpt lat="51.484230" lon="-0.160860">
						<ele>11</ele>
						<time>2026-05-01T10:35:21Z</time>
					</trkpt>
					<trkpt lat="51.484240" lon="-0.160770">
						<ele>11</ele>
						<time>2026-05-01T10:35:23Z</time>
					</trkpt>
					<trkpt lat="51.484400" lon="-0.159480">
						<ele>10</ele>
						<time>2026-05-01T10:35:51Z</time>
					</trkpt>
					<trkpt lat="51.484410" lon="-0.159370">
						<ele>10</ele>
						<time>2026-05-01T10:35:53Z</time>
					</trkpt>
					<trkpt lat="51.484420" lon="-0.159300">
						<ele>10</ele>
						<time>2026-05-01T10:35:54Z</time>
					</trkpt>
					<trkpt lat="51.484430" lon="-0.159240">
						<ele>10</ele>
						<time>2026-05-01T10:35:56Z</time>
					</trkpt>
					<trkpt lat="51.484500" lon="-0.158690">
						<ele>9</ele>
						<time>2026-05-01T10:36:07Z</time>
					</trkpt>
					<trkpt lat="51.484510" lon="-0.158590">
						<ele>9</ele>
						<time>2026-05-01T10:36:09Z</time>
					</trkpt>
					<trkpt lat="51.484520" lon="-0.158530">
						<ele>9</ele>
						<time>2026-05-01T10:36:11Z</time>
					</trkpt>
					<trkpt lat="51.484700" lon="-0.157200">
						<ele>9</ele>
						<time>2026-05-01T10:36:39Z</time>
					</trkpt>
					<trkpt lat="51.484720" lon="-0.157080">
						<ele>9</ele>
						<time>2026-05-01T10:36:42Z</time>
					</trkpt>
					<trkpt lat="51.484730" lon="-0.156960">
						<ele>9</ele>
						<time>2026-05-01T10:36:44Z</time>
					</trkpt>
					<trkpt lat="51.484740" lon="-0.156900">
						<ele>8</ele>
						<time>2026-05-01T10:36:45Z</time>
					</trkpt>
					<trkpt lat="51.485000" lon="-0.155120">
						<ele>6</ele>
						<time>2026-05-01T10:37:23Z</time>
					</trkpt>
					<trkpt lat="51.484910" lon="-0.155090">
						<ele>5</ele>
						<time>2026-05-01T10:37:26Z</time>
					</trkpt>
					<trkpt lat="51.484810" lon="-0.155050">
						<ele>5</ele>
						<time>2026-05-01T10:37:30Z</time>
					</trkpt>
					<trkpt lat="51.484930" lon="-0.154390">
						<ele>5</ele>
						<time>2026-05-01T10:37:44Z</time>
					</trkpt>
					<trkpt lat="51.485060" lon="-0.153740">
						<ele>5</ele>
						<time>2026-05-01T10:37:58Z</time>
					</trkpt>
					<trkpt lat="51.485100" lon="-0.153530">
						<ele>5</ele>
						<time>2026-05-01T10:38:03Z</time>
					</trkpt>
					<trkpt lat="51.485210" lon="-0.152750">
						<ele>6</ele>
						<time>2026-05-01T10:38:19Z</time>
					</trkpt>
					<trkpt lat="51.485270" lon="-0.152250">
						<ele>6</ele>
						<time>2026-05-01T10:38:30Z</time>
					</trkpt>
					<trkpt lat="51.485400" lon="-0.151580">
						<ele>6</ele>
						<time>2026-05-01T10:38:45Z</time>
					</trkpt>
					<trkpt lat="51.485610" lon="-0.150630">
						<ele>9</ele>
						<time>2026-05-01T10:39:06Z</time>
					</trkpt>
					<trkpt lat="51.485680" lon="-0.150290">
						<ele>9</ele>
						<time>2026-05-01T10:39:13Z</time>
					</trkpt>
					<trkpt lat="51.485670" lon="-0.150260">
						<ele>9</ele>
						<time>2026-05-01T10:39:14Z</time>
					</trkpt>
					<trkpt lat="51.485680" lon="-0.150160">
						<ele>9</ele>
						<time>2026-05-01T10:39:16Z</time>
					</trkpt>
					<trkpt lat="51.485680" lon="-0.150160">
						<ele>9</ele>
						<time>2026-05-01T10:39:16Z</time>
					</trkpt>
					<trkpt lat="51.485680" lon="-0.150090">
						<ele>9</ele>
						<time>2026-05-01T10:39:17Z</time>
					</trkpt>
					<trkpt lat="51.485680" lon="-0.150040">
						<ele>9</ele>
						<time>2026-05-01T10:39:18Z</time>
					</trkpt>
					<trkpt lat="51.485690" lon="-0.150040">
						<ele>9</ele>
						<time>2026-05-01T10:39:19Z</time>
					</trkpt>
					<trkpt lat="51.485690" lon="-0.150010">
						<ele>9</ele>
						<time>2026-05-01T10:39:19Z</time>
					</trkpt>
					<trkpt lat="51.485640" lon="-0.150010">
						<ele>9</ele>
						<time>2026-05-01T10:39:21Z</time>
					</trkpt>
					<trkpt lat="51.485640" lon="-0.149980">
						<ele>9</ele>
						<time>2026-05-01T10:39:22Z</time>
					</trkpt>
					<trkpt lat="51.485640" lon="-0.149980">
						<ele>9</ele>
						<time>2026-05-01T10:39:22Z</time>
					</trkpt>
					<trkpt lat="51.485640" lon="-0.149950">
						<ele>8</ele>
						<time>2026-05-01T10:39:22Z</time>
					</trkpt>
					<trkpt lat="51.485640" lon="-0.149890">
						<ele>8</ele>
						<time>2026-05-01T10:39:23Z</time>
					</trkpt>
					<trkpt lat="51.485640" lon="-0.149890">
						<ele>8</ele>
						<time>2026-05-01T10:39:23Z</time>
					</trkpt>
					<trkpt lat="51.485640" lon="-0.149860">
						<ele>8</ele>
						<time>2026-05-01T10:39:24Z</time>
					</trkpt>
					<trkpt lat="51.485690" lon="-0.149840">
						<ele>8</ele>
						<time>2026-05-01T10:39:26Z</time>
					</trkpt>
					<trkpt lat="51.485710" lon="-0.149800">
						<ele>8</ele>
						<time>2026-05-01T10:39:27Z</time>
					</trkpt>
					<trkpt lat="51.485730" lon="-0.149800">
						<ele>9</ele>
						<time>2026-05-01T10:39:28Z</time>
					</trkpt>
					<trkpt lat="51.485730" lon="-0.149800">
						<ele>9</ele>
						<time>2026-05-01T10:39:28Z</time>
					</trkpt>
					<trkpt lat="51.485780" lon="-0.149790">
						<ele>9</ele>
						<time>2026-05-01T10:39:29Z</time>
					</trkpt>
					<trkpt lat="51.485790" lon="-0.149790">
						<ele>9</ele>
						<time>2026-05-01T10:39:30Z</time>
					</trkpt>
					<trkpt lat="51.485780" lon="-0.149790">
						<ele>9</ele>
						<time>2026-05-01T10:39:30Z</time>
					</trkpt>
					<trkpt lat="51.485730" lon="-0.149800">
						<ele>9</ele>
						<time>2026-05-01T10:39:32Z</time>
					</trkpt>
					<trkpt lat="51.485730" lon="-0.149800">
						<ele>9</ele>
						<time>2026-05-01T10:39:32Z</time>
					</trkpt>
					<trkpt lat="51.485710" lon="-0.149800">
						<ele>8</ele>
						<time>2026-05-01T10:39:32Z</time>
					</trkpt>
					<trkpt lat="51.485690" lon="-0.149840">
						<ele>8</ele>
						<time>2026-05-01T10:39:33Z</time>
					</trkpt>
					<trkpt lat="51.485640" lon="-0.149860">
						<ele>8</ele>
						<time>2026-05-01T10:39:35Z</time>
					</trkpt>
					<trkpt lat="51.485490" lon="-0.149840">
						<ele>7</ele>
						<time>2026-05-01T10:39:40Z</time>
					</trkpt>
					<trkpt lat="51.483420" lon="-0.149440">
						<ele>7</ele>
						<time>2026-05-01T10:40:50Z</time>
					</trkpt>
					<trkpt lat="51.483350" lon="-0.149430">
						<ele>7</ele>
						<time>2026-05-01T10:40:52Z</time>
					</trkpt>
					<trkpt lat="51.483350" lon="-0.149390">
						<ele>7</ele>
						<time>2026-05-01T10:40:53Z</time>
					</trkpt>
					<trkpt lat="51.483370" lon="-0.149360">
						<ele>7</ele>
						<time>2026-05-01T10:40:54Z</time>
					</trkpt>
					<trkpt lat="51.483380" lon="-0.149350">
						<ele>7</ele>
						<time>2026-05-01T10:40:54Z</time>
					</trkpt>
					<trkpt lat="51.483400" lon="-0.149330">
						<ele>7</ele>
						<time>2026-05-01T10:40:55Z</time>
					</trkpt>
					<trkpt lat="51.483390" lon="-0.149310">
						<ele>7</ele>
						<time>2026-05-01T10:40:55Z</time>
					</trkpt>
					<trkpt lat="51.483420" lon="-0.149270">
						<ele>7</ele>
						<time>2026-05-01T10:40:57Z</time>
					</trkpt>
					<trkpt lat="51.483410" lon="-0.149260">
						<ele>7</ele>
						<time>2026-05-01T10:40:57Z</time>
					</trkpt>
					<trkpt lat="51.483400" lon="-0.149240">
						<ele>7</ele>
						<time>2026-05-01T10:40:58Z</time>
					</trkpt>
					<trkpt lat="51.483490" lon="-0.149140">
						<ele>6</ele>
						<time>2026-05-01T10:41:01Z</time>
					</trkpt>
					<trkpt lat="51.483520" lon="-0.149020">
						<ele>6</ele>
						<time>2026-05-01T10:41:04Z</time>
					</trkpt>
					<trkpt lat="51.483540" lon="-0.148900">
						<ele>6</ele>
						<time>2026-05-01T10:41:07Z</time>
					</trkpt>
					<trkpt lat="51.483540" lon="-0.148480">
						<ele>6</ele>
						<time>2026-05-01T10:41:15Z</time>
					</trkpt>
					<trkpt lat="51.483540" lon="-0.148200">
						<ele>6</ele>
						<time>2026-05-01T10:41:21Z</time>
					</trkpt>
					<trkpt lat="51.483520" lon="-0.147860">
						<ele>6</ele>
						<time>2026-05-01T10:41:28Z</time>
					</trkpt>
					<trkpt lat="51.483480" lon="-0.147820">
						<ele>6</ele>
						<time>2026-05-01T10:41:30Z</time>
					</trkpt>
					<trkpt lat="51.483480" lon="-0.147760">
						<ele>6</ele>
						<time>2026-05-01T10:41:31Z</time>
					</trkpt>
					<trkpt lat="51.483480" lon="-0.147760">
						<ele>6</ele>
						<time>2026-05-01T10:41:31Z</time>
					</trkpt>
					<trkpt lat="51.483480" lon="-0.147750">
						<ele>6</ele>
						<time>2026-05-01T10:41:31Z</time>
					</trkpt>
					<trkpt lat="51.483470" lon="-0.147000">
						<ele>6</ele>
						<time>2026-05-01T10:41:47Z</time>
					</trkpt>
					<trkpt lat="51.483480" lon="-0.146950">
						<ele>6</ele>
						<time>2026-05-01T10:41:48Z</time>
					</trkpt>
					<trkpt lat="51.483500" lon="-0.146860">
						<ele>6</ele>
						<time>2026-05-01T10:41:50Z</time>
					</trkpt>
					<trkpt lat="51.483520" lon="-0.146610">
						<ele>6</ele>
						<time>2026-05-01T10:41:55Z</time>
					</trkpt>
					<trkpt lat="51.483500" lon="-0.146230">
						<ele>6</ele>
						<time>2026-05-01T10:42:03Z</time>
					</trkpt>
					<trkpt lat="51.483490" lon="-0.146110">
						<ele>6</ele>
						<time>2026-05-01T10:42:06Z</time>
					</trkpt>
					<trkpt lat="51.483450" lon="-0.146080">
						<ele>6</ele>
						<time>2026-05-01T10:42:07Z</time>
					</trkpt>
					<trkpt lat="51.483320" lon="-0.145880">
						<ele>6</ele>
						<time>2026-05-01T10:42:13Z</time>
					</trkpt>
					<trkpt lat="51.483250" lon="-0.145800">
						<ele>6</ele>
						<time>2026-05-01T10:42:16Z</time>
					</trkpt>
					<trkpt lat="51.483210" lon="-0.145750">
						<ele>6</ele>
						<time>2026-05-01T10:42:18Z</time>
					</trkpt>
					<trkpt lat="51.483100" lon="-0.145650">
						<ele>7</ele>
						<time>2026-05-01T10:42:22Z</time>
					</trkpt>
					<trkpt lat="51.483040" lon="-0.145590">
						<ele>7</ele>
						<time>2026-05-01T10:42:24Z</time>
					</trkpt>
					<trkpt lat="51.482980" lon="-0.145540">
						<ele>7</ele>
						<time>2026-05-01T10:42:26Z</time>
					</trkpt>
					<trkpt lat="51.482890" lon="-0.145530">
						<ele>8</ele>
						<time>2026-05-01T10:42:29Z</time>
					</trkpt>
					<trkpt lat="51.482830" lon="-0.145560">
						<ele>8</ele>
						<time>2026-05-01T10:42:32Z</time>
					</trkpt>
					<trkpt lat="51.482680" lon="-0.145600">
						<ele>9</ele>
						<time>2026-05-01T10:42:37Z</time>
					</trkpt>
					<trkpt lat="51.482560" lon="-0.145660">
						<ele>10</ele>
						<time>2026-05-01T10:42:41Z</time>
					</trkpt>
					<trkpt lat="51.482560" lon="-0.145660">
						<ele>10</ele>
						<time>2026-05-01T10:42:41Z</time>
					</trkpt>
					<trkpt lat="51.482500" lon="-0.145670">
						<ele>10</ele>
						<time>2026-05-01T10:42:43Z</time>
					</trkpt>
					<trkpt lat="51.482500" lon="-0.145690">
						<ele>10</ele>
						<time>2026-05-01T10:42:43Z</time>
					</trkpt>
					<trkpt lat="51.482370" lon="-0.145820">
						<ele>10</ele>
						<time>2026-05-01T10:42:48Z</time>
					</trkpt>
					<trkpt lat="51.482130" lon="-0.145980">
						<ele>9</ele>
						<time>2026-05-01T10:42:57Z</time>
					</trkpt>
					<trkpt lat="51.482120" lon="-0.145910">
						<ele>9</ele>
						<time>2026-05-01T10:42:58Z</time>
					</trkpt>
					<trkpt lat="51.481980" lon="-0.145970">
						<ele>9</ele>
						<time>2026-05-01T10:43:03Z</time>
					</trkpt>
					<trkpt lat="51.481770" lon="-0.145990">
						<ele>9</ele>
						<time>2026-05-01T10:43:10Z</time>
					</trkpt>
					<trkpt lat="51.481650" lon="-0.145980">
						<ele>9</ele>
						<time>2026-05-01T10:43:14Z</time>
					</trkpt>
					<trkpt lat="51.481500" lon="-0.145930">
						<ele>9</ele>
						<time>2026-05-01T10:43:19Z</time>
					</trkpt>
					<trkpt lat="51.481400" lon="-0.145890">
						<ele>9</ele>
						<time>2026-05-01T10:43:23Z</time>
					</trkpt>
					<trkpt lat="51.481220" lon="-0.145760">
						<ele>11</ele>
						<time>2026-05-01T10:43:29Z</time>
					</trkpt>
					<trkpt lat="51.481170" lon="-0.145710">
						<ele>11</ele>
						<time>2026-05-01T10:43:31Z</time>
					</trkpt>
					<trkpt lat="51.481100" lon="-0.145640">
						<ele>12</ele>
						<time>2026-05-01T10:43:34Z</time>
					</trkpt>
					<trkpt lat="51.481040" lon="-0.145560">
						<ele>12</ele>
						<time>2026-05-01T10:43:37Z</time>
					</trkpt>
					<trkpt lat="51.481020" lon="-0.145510">
						<ele>13</ele>
						<time>2026-05-01T10:43:38Z</time>
					</trkpt>
					<trkpt lat="51.480970" lon="-0.145410">
						<ele>14</ele>
						<time>2026-05-01T10:43:41Z</time>
					</trkpt>
					<trkpt lat="51.480930" lon="-0.145280">
						<ele>15</ele>
						<time>2026-05-01T10:43:44Z</time>
					</trkpt>
					<trkpt lat="51.480990" lon="-0.145250">
						<ele>15</ele>
						<time>2026-05-01T10:43:46Z</time>
					</trkpt>
					<trkpt lat="51.481070" lon="-0.145220">
						<ele>15</ele>
						<time>2026-05-01T10:43:49Z</time>
					</trkpt>
					</trkseg>
				</trk>
			</gpx>