<?xml version="1.0" encoding="UTF-8" ?>
<gpx version="1.1" xmlns:xsi="http://www.w3.org/2001/XMLSchema-instance"
    xmlns="http://www.topografix.com/GPX/1/1"
    xsi:schemaLocation="http://www.topografix.com/GPX/1/1 http://www.topografix.com/GPX/1/1/gpx.xsd"
    creator="Openrunner - https://www.openrunner.com" >	<trk>
	                   <name>Balade au Pourtalès-10368239</name>
						<trkseg>
					<trkpt lat="48.603690" lon="7.784880">
						<ele>137</ele>
						<time>2026-05-01T09:41:29Z</time>
					</trkpt>
					<trkpt lat="48.603380" lon="7.785740">
						<ele>139</ele>
						<time>2026-05-01T09:42:55Z</time>
					</trkpt>
					<trkpt lat="48.603330" lon="7.786710">
						<ele>135</ele>
						<time>2026-05-01T09:44:21Z</time>
					</trkpt>
					<trkpt lat="48.603740" lon="7.787610">
						<ele>136</ele>
						<time>2026-05-01T09:45:58Z</time>
					</trkpt>
					<trkpt lat="48.603750" lon="7.788530">
						<ele>138</ele>
						<time>2026-05-01T09:47:19Z</time>
					</trkpt>
					<trkpt lat="48.603710" lon="7.788940">
						<ele>138</ele>
						<time>2026-05-01T09:47:55Z</time>
					</trkpt>
					<trkpt lat="48.603410" lon="7.790430">
						<ele>138</ele>
						<time>2026-05-01T09:50:13Z</time>
					</trkpt>
					<trkpt lat="48.603130" lon="7.792070">
						<ele>136</ele>
						<time>2026-05-01T09:52:42Z</time>
					</trkpt>
					<trkpt lat="48.603140" lon="7.793410">
						<ele>138</ele>
						<time>2026-05-01T09:54:41Z</time>
					</trkpt>
					<trkpt lat="48.603450" lon="7.794290">
						<ele>138</ele>
						<time>2026-05-01T09:56:09Z</time>
					</trkpt>
					<trkpt lat="48.603490" lon="7.794670">
						<ele>137</ele>
						<time>2026-05-01T09:56:43Z</time>
					</trkpt>
					<trkpt lat="48.603400" lon="7.795670">
						<ele>137</ele>
						<time>2026-05-01T09:58:12Z</time>
					</trkpt>
					<trkpt lat="48.603490" lon="7.796260">
						<ele>137</ele>
						<time>2026-05-01T09:59:05Z</time>
					</trkpt>
					<trkpt lat="48.603920" lon="7.797520">
						<ele>137</ele>
						<time>2026-05-01T10:01:10Z</time>
					</trkpt>
					<trkpt lat="48.604330" lon="7.798280">
						<ele>136</ele>
						<time>2026-05-01T10:02:37Z</time>
					</trkpt>
					<trkpt lat="48.604950" lon="7.798440">
						<ele>135</ele>
						<time>2026-05-01T10:04:01Z</time>
					</trkpt>
					<trkpt lat="48.605690" lon="7.799060">
						<ele>138</ele>
						<time>2026-05-01T10:05:54Z</time>
					</trkpt>
					<trkpt lat="48.606080" lon="7.799770">
						<ele>138</ele>
						<time>2026-05-01T10:07:15Z</time>
					</trkpt>
					<trkpt lat="48.606240" lon="7.800200">
						<ele>137</ele>
						<time>2026-05-01T10:07:59Z</time>
					</trkpt>
					<trkpt lat="48.606050" lon="7.800780">
						<ele>136</ele>
						<time>2026-05-01T10:08:56Z</time>
					</trkpt>
					<trkpt lat="48.605930" lon="7.801250">
						<ele>138</ele>
						<time>2026-05-01T10:09:40Z</time>
					</trkpt>
					<trkpt lat="48.605910" lon="7.801970">
						<ele>139</ele>
						<time>2026-05-01T10:10:44Z</time>
					</trkpt>
					<trkpt lat="48.605990" lon="7.802590">
						<ele>139</ele>
						<time>2026-05-01T10:11:39Z</time>
					</trkpt>
					<trkpt lat="48.606370" lon="7.803960">
						<ele>137</ele>
						<time>2026-05-01T10:13:51Z</time>
					</trkpt>
					<trkpt lat="48.606600" lon="7.804680">
						<ele>138</ele>
						<time>2026-05-01T10:15:01Z</time>
					</trkpt>
					<trkpt lat="48.606790" lon="7.805840">
						<ele>137</ele>
						<time>2026-05-01T10:16:47Z</time>
					</trkpt>
					<trkpt lat="48.606910" lon="7.806620">
						<ele>135</ele>
						<time>2026-05-01T10:17:57Z</time>
					</trkpt>
					<trkpt lat="48.606940" lon="7.807420">
						<ele>133</ele>
						<time>2026-05-01T10:19:08Z</time>
					</trkpt>
					<trkpt lat="48.607110" lon="7.808210">
						<ele>135</ele>
						<time>2026-05-01T10:20:21Z</time>
					</trkpt>
					<trkpt lat="48.607210" lon="7.808770">
						<ele>136</ele>
						<time>2026-05-01T10:21:12Z</time>
					</trkpt>
					<trkpt lat="48.607550" lon="7.808900">
						<ele>135</ele>
						<time>2026-05-01T10:21:59Z</time>
					</trkpt>
					<trkpt lat="48.607900" lon="7.808710">
						<ele>137</ele>
						<time>2026-05-01T10:22:49Z</time>
					</trkpt>
					<trkpt lat="48.608150" lon="7.808880">
						<ele>137</ele>
						<time>2026-05-01T10:23:25Z</time>
					</trkpt>
					<trkpt lat="48.608450" lon="7.808950">
						<ele>138</ele>
						<time>2026-05-01T10:24:06Z</time>
					</trkpt>
					<trkpt lat="48.608690" lon="7.809340">
						<ele>138</ele>
						<time>2026-05-01T10:24:53Z</time>
					</trkpt>
					<trkpt lat="48.608910" lon="7.809720">
						<ele>137</ele>
						<time>2026-05-01T10:25:38Z</time>
					</trkpt>
					<trkpt lat="48.609240" lon="7.810150">
						<ele>136</ele>
						<time>2026-05-01T10:26:36Z</time>
					</trkpt>
					<trkpt lat="48.609600" lon="7.810610">
						<ele>137</ele>
						<time>2026-05-01T10:27:39Z</time>
					</trkpt>
					<trkpt lat="48.609610" lon="7.811080">
						<ele>138</ele>
						<time>2026-05-01T10:28:20Z</time>
					</trkpt>
					<trkpt lat="48.609450" lon="7.811450">
						<ele>137</ele>
						<time>2026-05-01T10:28:59Z</time>
					</trkpt>
					<trkpt lat="48.609300" lon="7.811630">
						<ele>136</ele>
						<time>2026-05-01T10:29:25Z</time>
					</trkpt>
					<trkpt lat="48.609220" lon="7.812130">
						<ele>136</ele>
						<time>2026-05-01T10:30:10Z</time>
					</trkpt>
					<trkpt lat="48.609300" lon="7.812380">
						<ele>137</ele>
						<time>2026-05-01T10:30:34Z</time>
					</trkpt>
					<trkpt lat="48.609520" lon="7.812700">
						<ele>138</ele>
						<time>2026-05-01T10:31:15Z</time>
					</trkpt>
					<trkpt lat="48.609650" lon="7.813060">
						<ele>138</ele>
						<time>2026-05-01T10:31:51Z</time>
					</trkpt>
					<trkpt lat="48.609610" lon="7.813340">
						<ele>138</ele>
						<time>2026-05-01T10:32:17Z</time>
					</trkpt>
					<trkpt lat="48.609650" lon="7.813800">
						<ele>138</ele>
						<time>2026-05-01T10:32:58Z</time>
					</trkpt>
					<trkpt lat="48.609770" lon="7.813990">
						<ele>138</ele>
						<time>2026-05-01T10:33:21Z</time>
					</trkpt>
					<trkpt lat="48.609950" lon="7.814220">
						<ele>138</ele>
						<time>2026-05-01T10:33:52Z</time>
					</trkpt>
					<trkpt lat="48.610200" lon="7.814110">
						<ele>138</ele>
						<time>2026-05-01T10:34:27Z</time>
					</trkpt>
					<trkpt lat="48.610450" lon="7.813890">
						<ele>139</ele>
						<time>2026-05-01T10:35:06Z</time>
					</trkpt>
					<trkpt lat="48.610670" lon="7.813730">
						<ele>140</ele>
						<time>2026-05-01T10:35:38Z</time>
					</trkpt>
					<trkpt lat="48.610840" lon="7.813900">
						<ele>140</ele>
						<time>2026-05-01T10:36:05Z</time>
					</trkpt>
					<trkpt lat="48.610850" lon="7.814260">
						<ele>138</ele>
						<time>2026-05-01T10:36:37Z</time>
					</trkpt>
					<trkpt lat="48.610950" lon="7.814530">
						<ele>138</ele>
						<time>2026-05-01T10:37:04Z</time>
					</trkpt>
					<trkpt lat="48.611020" lon="7.814810">
						<ele>139</ele>
						<time>2026-05-01T10:37:31Z</time>
					</trkpt>
					<trkpt lat="48.611210" lon="7.814830">
						<ele>139</ele>
						<time>2026-05-01T10:37:56Z</time>
					</trkpt>
					<trkpt lat="48.611390" lon="7.815050">
						<ele>140</ele>
						<time>2026-05-01T10:38:27Z</time>
					</trkpt>
					<trkpt lat="48.611320" lon="7.815540">
						<ele>140</ele>
						<time>2026-05-01T10:39:11Z</time>
					</trkpt>
					<trkpt lat="48.611250" lon="7.815990">
						<ele>140</ele>
						<time>2026-05-01T10:39:52Z</time>
					</trkpt>
					<trkpt lat="48.611270" lon="7.816320">
						<ele>139</ele>
						<time>2026-05-01T10:40:21Z</time>
					</trkpt>
					<trkpt lat="48.611080" lon="7.816710">
						<ele>137</ele>
						<time>2026-05-01T10:41:04Z</time>
					</trkpt>
					<trkpt lat="48.610850" lon="7.816960">
						<ele>136</ele>
						<time>2026-05-01T10:41:42Z</time>
					</trkpt>
					<trkpt lat="48.610670" lon="7.817140">
						<ele>137</ele>
						<time>2026-05-01T10:42:11Z</time>
					</trkpt>
					<trkpt lat="48.610520" lon="7.816790">
						<ele>138</ele>
						<time>2026-05-01T10:42:48Z</time>
					</trkpt>
					<trkpt lat="48.610200" lon="7.816490">
						<ele>139</ele>
						<time>2026-05-01T10:43:38Z</time>
					</trkpt>
					<trkpt lat="48.609770" lon="7.816390">
						<ele>139</ele>
						<time>2026-05-01T10:44:36Z</time>
					</trkpt>
					<trkpt lat="48.609510" lon="7.816220">
						<ele>139</ele>
						<time>2026-05-01T10:45:14Z</time>
					</trkpt>
					<trkpt lat="48.609180" lon="7.816110">
						<ele>139</ele>
						<time>2026-05-01T10:45:59Z</time>
					</trkpt>
					<trkpt lat="48.608840" lon="7.815960">
						<ele>139</ele>
						<time>2026-05-01T10:46:46Z</time>
					</trkpt>
					<trkpt lat="48.608640" lon="7.815850">
						<ele>139</ele>
						<time>2026-05-01T10:47:14Z</time>
					</trkpt>
					<trkpt lat="48.608430" lon="7.815880">
						<ele>139</ele>
						<time>2026-05-01T10:47:43Z</time>
					</trkpt>
					<trkpt lat="48.608150" lon="7.815850">
						<ele>138</ele>
						<time>2026-05-01T10:48:20Z</time>
					</trkpt>
					<trkpt lat="48.607850" lon="7.815780">
						<ele>137</ele>
						<time>2026-05-01T10:49:01Z</time>
					</trkpt>
					<trkpt lat="48.607590" lon="7.815580">
						<ele>136</ele>
						<time>2026-05-01T10:49:39Z</time>
					</trkpt>
					<trkpt lat="48.607270" lon="7.815180">
						<ele>137</ele>
						<time>2026-05-01T10:50:35Z</time>
					</trkpt>
					<trkpt lat="48.606840" lon="7.814650">
						<ele>138</ele>
						<time>2026-05-01T10:51:49Z</time>
					</trkpt>
					<trkpt lat="48.606690" lon="7.814360">
						<ele>138</ele>
						<time>2026-05-01T10:52:21Z</time>
					</trkpt>
					<trkpt lat="48.606600" lon="7.813930">
						<ele>138</ele>
						<time>2026-05-01T10:53:01Z</time>
					</trkpt>
					<trkpt lat="48.606390" lon="7.813880">
						<ele>137</ele>
						<time>2026-05-01T10:53:30Z</time>
					</trkpt>
					<trkpt lat="48.606260" lon="7.813930">
						<ele>137</ele>
						<time>2026-05-01T10:53:47Z</time>
					</trkpt>
					<trkpt lat="48.606030" lon="7.813980">
						<ele>136</ele>
						<time>2026-05-01T10:54:18Z</time>
					</trkpt>
					<trkpt lat="48.605930" lon="7.813750">
						<ele>135</ele>
						<time>2026-05-01T10:54:43Z</time>
					</trkpt>
					<trkpt lat="48.605740" lon="7.813250">
						<ele>135</ele>
						<time>2026-05-01T10:55:34Z</time>
					</trkpt>
					<trkpt lat="48.605580" lon="7.812780">
						<ele>136</ele>
						<time>2026-05-01T10:56:20Z</time>
					</trkpt>
					<trkpt lat="48.605170" lon="7.812190">
						<ele>138</ele>
						<time>2026-05-01T10:57:36Z</time>
					</trkpt>
					<trkpt lat="48.604840" lon="7.811700">
						<ele>139</ele>
						<time>2026-05-01T10:58:38Z</time>
					</trkpt>
					<trkpt lat="48.604720" lon="7.811370">
						<ele>140</ele>
						<time>2026-05-01T10:59:11Z</time>
					</trkpt>
					<trkpt lat="48.604780" lon="7.811090">
						<ele>141</ele>
						<time>2026-05-01T10:59:37Z</time>
					</trkpt>
					<trkpt lat="48.604870" lon="7.810860">
						<ele>141</ele>
						<time>2026-05-01T11:00:00Z</time>
					</trkpt>
					<trkpt lat="48.604740" lon="7.810490">
						<ele>142</ele>
						<time>2026-05-01T11:00:37Z</time>
					</trkpt>
					<trkpt lat="48.604690" lon="7.810070">
						<ele>142</ele>
						<time>2026-05-01T11:01:15Z</time>
					</trkpt>
					<trkpt lat="48.604860" lon="7.809680">
						<ele>142</ele>
						<time>2026-05-01T11:01:56Z</time>
					</trkpt>
					<trkpt lat="48.604890" lon="7.809430">
						<ele>141</ele>
						<time>2026-05-01T11:02:19Z</time>
					</trkpt>
					<trkpt lat="48.604750" lon="7.808910">
						<ele>142</ele>
						<time>2026-05-01T11:03:08Z</time>
					</trkpt>
					<trkpt lat="48.604580" lon="7.808640">
						<ele>143</ele>
						<time>2026-05-01T11:03:41Z</time>
					</trkpt>
					<trkpt lat="48.604510" lon="7.808420">
						<ele>143</ele>
						<time>2026-05-01T11:04:03Z</time>
					</trkpt>
					<trkpt lat="48.604570" lon="7.808160">
						<ele>143</ele>
						<time>2026-05-01T11:04:27Z</time>
					</trkpt>
					<trkpt lat="48.605090" lon="7.808740">
						<ele>141</ele>
						<time>2026-05-01T11:05:53Z</time>
					</trkpt>
					<trkpt lat="48.605400" lon="7.809210">
						<ele>141</ele>
						<time>2026-05-01T11:06:52Z</time>
					</trkpt>
					<trkpt lat="48.605880" lon="7.809390">
						<ele>140</ele>
						<time>2026-05-01T11:07:58Z</time>
					</trkpt>
					<trkpt lat="48.606200" lon="7.809740">
						<ele>139</ele>
						<time>2026-05-01T11:08:50Z</time>
					</trkpt>
					<trkpt lat="48.606420" lon="7.809830">
						<ele>138</ele>
						<time>2026-05-01T11:09:21Z</time>
					</trkpt>
					<trkpt lat="48.606360" lon="7.809170">
						<ele>139</ele>
						<time>2026-05-01T11:10:20Z</time>
					</trkpt>
					<trkpt lat="48.606280" lon="7.808850">
						<ele>138</ele>
						<time>2026-05-01T11:10:50Z</time>
					</trkpt>
					<trkpt lat="48.606290" lon="7.808590">
						<ele>137</ele>
						<time>2026-05-01T11:11:13Z</time>
					</trkpt>
					<trkpt lat="48.606440" lon="7.808670">
						<ele>138</ele>
						<time>2026-05-01T11:11:34Z</time>
					</trkpt>
					<trkpt lat="48.606670" lon="7.809030">
						<ele>139</ele>
						<time>2026-05-01T11:12:18Z</time>
					</trkpt>
					<trkpt lat="48.606720" lon="7.809340">
						<ele>138</ele>
						<time>2026-05-01T11:12:46Z</time>
					</trkpt>
					<trkpt lat="48.606870" lon="7.809500">
						<ele>137</ele>
						<time>2026-05-01T11:13:11Z</time>
					</trkpt>
					<trkpt lat="48.607160" lon="7.809450">
						<ele>136</ele>
						<time>2026-05-01T11:13:50Z</time>
					</trkpt>
					<trkpt lat="48.607150" lon="7.809130">
						<ele>137</ele>
						<time>2026-05-01T11:14:18Z</time>
					</trkpt>
					<trkpt lat="48.607170" lon="7.808650">
						<ele>136</ele>
						<time>2026-05-01T11:15:00Z</time>
					</trkpt>
					<trkpt lat="48.607010" lon="7.807880">
						<ele>134</ele>
						<time>2026-05-01T11:16:12Z</time>
					</trkpt>
					<trkpt lat="48.606900" lon="7.807410">
						<ele>133</ele>
						<time>2026-05-01T11:16:56Z</time>
					</trkpt>
					<trkpt lat="48.606830" lon="7.806230">
						<ele>136</ele>
						<time>2026-05-01T11:18:40Z</time>
					</trkpt>
					<trkpt lat="48.606670" lon="7.805390">
						<ele>138</ele>
						<time>2026-05-01T11:19:57Z</time>
					</trkpt>
					<trkpt lat="48.606570" lon="7.804550">
						<ele>138</ele>
						<time>2026-05-01T11:21:13Z</time>
					</trkpt>
					<trkpt lat="48.606410" lon="7.804230">
						<ele>137</ele>
						<time>2026-05-01T11:21:48Z</time>
					</trkpt>
					<trkpt lat="48.606210" lon="7.803480">
						<ele>137</ele>
						<time>2026-05-01T11:22:59Z</time>
					</trkpt>
					<trkpt lat="48.606060" lon="7.803020">
						<ele>138</ele>
						<time>2026-05-01T11:23:45Z</time>
					</trkpt>
					<trkpt lat="48.605880" lon="7.801690">
						<ele>139</ele>
						<time>2026-05-01T11:25:44Z</time>
					</trkpt>
					<trkpt lat="48.605900" lon="7.801160">
						<ele>137</ele>
						<time>2026-05-01T11:26:31Z</time>
					</trkpt>
					<trkpt lat="48.606240" lon="7.800200">
						<ele>137</ele>
						<time>2026-05-01T11:28:07Z</time>
					</trkpt>
					<trkpt lat="48.605810" lon="7.799200">
						<ele>139</ele>
						<time>2026-05-01T11:29:53Z</time>
					</trkpt>
					<trkpt lat="48.605100" lon="7.798530">
						<ele>135</ele>
						<time>2026-05-01T11:31:44Z</time>
					</trkpt>
					<trkpt lat="48.604270" lon="7.798190">
						<ele>136</ele>
						<time>2026-05-01T11:33:39Z</time>
					</trkpt>
					<trkpt lat="48.603940" lon="7.797480">
						<ele>137</ele>
						<time>2026-05-01T11:34:56Z</time>
					</trkpt>
					<trkpt lat="48.603480" lon="7.796180">
						<ele>137</ele>
						<time>2026-05-01T11:37:06Z</time>
					</trkpt>
					<trkpt lat="48.603430" lon="7.795210">
						<ele>137</ele>
						<time>2026-05-01T11:38:32Z</time>
					</trkpt>
					<trkpt lat="48.603460" lon="7.794400">
						<ele>138</ele>
						<time>2026-05-01T11:39:43Z</time>
					</trkpt>
					<trkpt lat="48.603140" lon="7.793430">
						<ele>138</ele>
						<time>2026-05-01T11:41:19Z</time>
					</trkpt>
					<trkpt lat="48.603210" lon="7.792180">
						<ele>137</ele>
						<time>2026-05-01T11:43:10Z</time>
					</trkpt>
					<trkpt lat="48.603390" lon="7.790620">
						<ele>137</ele>
						<time>2026-05-01T11:45:29Z</time>
					</trkpt>
					<trkpt lat="48.603600" lon="7.789350">
						<ele>139</ele>
						<time>2026-05-01T11:47:25Z</time>
					</trkpt>
					<trkpt lat="48.603650" lon="7.787430">
						<ele>136</ele>
						<time>2026-05-01T11:50:14Z</time>
					</trkpt>
					<trkpt lat="48.603310" lon="7.785850">
						<ele>139</ele>
						<time>2026-05-01T11:52:41Z</time>
					</trkpt>
					<trkpt lat="48.603710" lon="7.784900">
						<ele>137</ele>
						<time>2026-05-01T11:54:20Z</time>
					</trkpt>
					</trkseg>
				</trk>
			</gpx>