<?xml version="1.0" encoding="UTF-8" ?>
<gpx version="1.1" xmlns:xsi="http://www.w3.org/2001/XMLSchema-instance"
    xmlns="http://www.topografix.com/GPX/1/1"
    xsi:schemaLocation="http://www.topografix.com/GPX/1/1 http://www.topografix.com/GPX/1/1/gpx.xsd"
    creator="Openrunner - https://www.openrunner.com" >	<trk>
	                   <name>Belleville -- Villette - Canal de l&#039;Ourcq-22748204</name>
						<trkseg>
					<trkpt lat="48.870160" lon="2.379470">
						<ele>58</ele>
						<time>2026-05-01T08:37:29Z</time>
					</trkpt>
					<trkpt lat="48.870630" lon="2.380720">
						<ele>63</ele>
						<time>2026-05-01T08:38:45Z</time>
					</trkpt>
					<trkpt lat="48.870900" lon="2.381400">
						<ele>64</ele>
						<time>2026-05-01T08:39:27Z</time>
					</trkpt>
					<trkpt lat="48.870920" lon="2.381470">
						<ele>64</ele>
						<time>2026-05-01T08:39:31Z</time>
					</trkpt>
					<trkpt lat="48.870930" lon="2.381560">
						<ele>64</ele>
						<time>2026-05-01T08:39:35Z</time>
					</trkpt>
					<trkpt lat="48.871000" lon="2.382120">
						<ele>66</ele>
						<time>2026-05-01T08:40:06Z</time>
					</trkpt>
					<trkpt lat="48.870950" lon="2.382170">
						<ele>66</ele>
						<time>2026-05-01T08:40:10Z</time>
					</trkpt>
					<trkpt lat="48.870960" lon="2.382210">
						<ele>67</ele>
						<time>2026-05-01T08:40:13Z</time>
					</trkpt>
					<trkpt lat="48.870970" lon="2.382230">
						<ele>67</ele>
						<time>2026-05-01T08:40:14Z</time>
					</trkpt>
					<trkpt lat="48.870720" lon="2.382460">
						<ele>67</ele>
						<time>2026-05-01T08:40:37Z</time>
					</trkpt>
					<trkpt lat="48.870740" lon="2.382490">
						<ele>67</ele>
						<time>2026-05-01T08:40:40Z</time>
					</trkpt>
					<trkpt lat="48.870750" lon="2.382560">
						<ele>67</ele>
						<time>2026-05-01T08:40:43Z</time>
					</trkpt>
					<trkpt lat="48.870770" lon="2.382590">
						<ele>67</ele>
						<time>2026-05-01T08:40:46Z</time>
					</trkpt>
					<trkpt lat="48.870860" lon="2.382690">
						<ele>67</ele>
						<time>2026-05-01T08:40:54Z</time>
					</trkpt>
					<trkpt lat="48.871170" lon="2.382990">
						<ele>70</ele>
						<time>2026-05-01T08:41:24Z</time>
					</trkpt>
					<trkpt lat="48.871230" lon="2.383010">
						<ele>71</ele>
						<time>2026-05-01T08:41:29Z</time>
					</trkpt>
					<trkpt lat="48.871240" lon="2.383030">
						<ele>71</ele>
						<time>2026-05-01T08:41:30Z</time>
					</trkpt>
					<trkpt lat="48.871240" lon="2.383040">
						<ele>71</ele>
						<time>2026-05-01T08:41:31Z</time>
					</trkpt>
					<trkpt lat="48.871230" lon="2.383050">
						<ele>71</ele>
						<time>2026-05-01T08:41:32Z</time>
					</trkpt>
					<trkpt lat="48.871250" lon="2.383070">
						<ele>71</ele>
						<time>2026-05-01T08:41:34Z</time>
					</trkpt>
					<trkpt lat="48.871220" lon="2.383110">
						<ele>71</ele>
						<time>2026-05-01T08:41:37Z</time>
					</trkpt>
					<trkpt lat="48.871290" lon="2.383180">
						<ele>72</ele>
						<time>2026-05-01T08:41:43Z</time>
					</trkpt>
					<trkpt lat="48.871520" lon="2.383400">
						<ele>77</ele>
						<time>2026-05-01T08:42:05Z</time>
					</trkpt>
					<trkpt lat="48.871540" lon="2.383410">
						<ele>77</ele>
						<time>2026-05-01T08:42:07Z</time>
					</trkpt>
					<trkpt lat="48.871600" lon="2.383410">
						<ele>78</ele>
						<time>2026-05-01T08:42:12Z</time>
					</trkpt>
					<trkpt lat="48.871670" lon="2.383380">
						<ele>79</ele>
						<time>2026-05-01T08:42:18Z</time>
					</trkpt>
					<trkpt lat="48.872010" lon="2.383220">
						<ele>80</ele>
						<time>2026-05-01T08:42:46Z</time>
					</trkpt>
					<trkpt lat="48.872020" lon="2.383200">
						<ele>80</ele>
						<time>2026-05-01T08:42:47Z</time>
					</trkpt>
					<trkpt lat="48.872060" lon="2.383210">
						<ele>80</ele>
						<time>2026-05-01T08:42:51Z</time>
					</trkpt>
					<trkpt lat="48.872500" lon="2.383000">
						<ele>82</ele>
						<time>2026-05-01T08:43:27Z</time>
					</trkpt>
					<trkpt lat="48.872530" lon="2.382990">
						<ele>82</ele>
						<time>2026-05-01T08:43:30Z</time>
					</trkpt>
					<trkpt lat="48.872580" lon="2.382960">
						<ele>82</ele>
						<time>2026-05-01T08:43:34Z</time>
					</trkpt>
					<trkpt lat="48.873340" lon="2.382620">
						<ele>83</ele>
						<time>2026-05-01T08:44:38Z</time>
					</trkpt>
					<trkpt lat="48.873340" lon="2.382650">
						<ele>83</ele>
						<time>2026-05-01T08:44:39Z</time>
					</trkpt>
					<trkpt lat="48.873370" lon="2.382660">
						<ele>83</ele>
						<time>2026-05-01T08:44:42Z</time>
					</trkpt>
					<trkpt lat="48.873390" lon="2.382750">
						<ele>84</ele>
						<time>2026-05-01T08:44:47Z</time>
					</trkpt>
					<trkpt lat="48.873430" lon="2.382860">
						<ele>84</ele>
						<time>2026-05-01T08:44:53Z</time>
					</trkpt>
					<trkpt lat="48.873530" lon="2.382950">
						<ele>86</ele>
						<time>2026-05-01T08:45:03Z</time>
					</trkpt>
					<trkpt lat="48.873690" lon="2.382980">
						<ele>87</ele>
						<time>2026-05-01T08:45:16Z</time>
					</trkpt>
					<trkpt lat="48.873790" lon="2.382930">
						<ele>88</ele>
						<time>2026-05-01T08:45:24Z</time>
					</trkpt>
					<trkpt lat="48.873840" lon="2.382890">
						<ele>88</ele>
						<time>2026-05-01T08:45:29Z</time>
					</trkpt>
					<trkpt lat="48.873850" lon="2.382880">
						<ele>88</ele>
						<time>2026-05-01T08:45:29Z</time>
					</trkpt>
					<trkpt lat="48.873970" lon="2.382980">
						<ele>89</ele>
						<time>2026-05-01T08:45:40Z</time>
					</trkpt>
					<trkpt lat="48.874000" lon="2.383000">
						<ele>90</ele>
						<time>2026-05-01T08:45:43Z</time>
					</trkpt>
					<trkpt lat="48.874090" lon="2.382990">
						<ele>90</ele>
						<time>2026-05-01T08:45:50Z</time>
					</trkpt>
					<trkpt lat="48.874170" lon="2.382920">
						<ele>91</ele>
						<time>2026-05-01T08:45:58Z</time>
					</trkpt>
					<trkpt lat="48.874370" lon="2.382670">
						<ele>90</ele>
						<time>2026-05-01T08:46:18Z</time>
					</trkpt>
					<trkpt lat="48.874910" lon="2.382410">
						<ele>92</ele>
						<time>2026-05-01T08:47:04Z</time>
					</trkpt>
					<trkpt lat="48.874920" lon="2.382420">
						<ele>92</ele>
						<time>2026-05-01T08:47:05Z</time>
					</trkpt>
					<trkpt lat="48.874940" lon="2.382510">
						<ele>93</ele>
						<time>2026-05-01T08:47:10Z</time>
					</trkpt>
					<trkpt lat="48.874950" lon="2.382540">
						<ele>93</ele>
						<time>2026-05-01T08:47:11Z</time>
					</trkpt>
					<trkpt lat="48.875130" lon="2.382310">
						<ele>92</ele>
						<time>2026-05-01T08:47:30Z</time>
					</trkpt>
					<trkpt lat="48.875480" lon="2.381870">
						<ele>90</ele>
						<time>2026-05-01T08:48:07Z</time>
					</trkpt>
					<trkpt lat="48.875490" lon="2.381850">
						<ele>90</ele>
						<time>2026-05-01T08:48:08Z</time>
					</trkpt>
					<trkpt lat="48.875520" lon="2.381820">
						<ele>90</ele>
						<time>2026-05-01T08:48:11Z</time>
					</trkpt>
					<trkpt lat="48.875530" lon="2.381800">
						<ele>90</ele>
						<time>2026-05-01T08:48:12Z</time>
					</trkpt>
					<trkpt lat="48.875560" lon="2.381770">
						<ele>90</ele>
						<time>2026-05-01T08:48:15Z</time>
					</trkpt>
					<trkpt lat="48.875610" lon="2.381720">
						<ele>89</ele>
						<time>2026-05-01T08:48:20Z</time>
					</trkpt>
					<trkpt lat="48.875630" lon="2.381750">
						<ele>90</ele>
						<time>2026-05-01T08:48:22Z</time>
					</trkpt>
					<trkpt lat="48.875660" lon="2.381790">
						<ele>90</ele>
						<time>2026-05-01T08:48:25Z</time>
					</trkpt>
					<trkpt lat="48.875840" lon="2.381560">
						<ele>90</ele>
						<time>2026-05-01T08:48:44Z</time>
					</trkpt>
					<trkpt lat="48.875920" lon="2.381450">
						<ele>90</ele>
						<time>2026-05-01T08:48:53Z</time>
					</trkpt>
					<trkpt lat="48.875980" lon="2.381320">
						<ele>89</ele>
						<time>2026-05-01T08:49:01Z</time>
					</trkpt>
					<trkpt lat="48.876110" lon="2.381230">
						<ele>90</ele>
						<time>2026-05-01T08:49:13Z</time>
					</trkpt>
					<trkpt lat="48.876180" lon="2.381130">
						<ele>90</ele>
						<time>2026-05-01T08:49:20Z</time>
					</trkpt>
					<trkpt lat="48.876190" lon="2.381110">
						<ele>90</ele>
						<time>2026-05-01T08:49:22Z</time>
					</trkpt>
					<trkpt lat="48.876280" lon="2.380980">
						<ele>91</ele>
						<time>2026-05-01T08:49:32Z</time>
					</trkpt>
					<trkpt lat="48.876370" lon="2.380870">
						<ele>91</ele>
						<time>2026-05-01T08:49:41Z</time>
					</trkpt>
					<trkpt lat="48.876400" lon="2.380750">
						<ele>91</ele>
						<time>2026-05-01T08:49:48Z</time>
					</trkpt>
					<trkpt lat="48.876530" lon="2.380480">
						<ele>91</ele>
						<time>2026-05-01T08:50:05Z</time>
					</trkpt>
					<trkpt lat="48.876690" lon="2.380060">
						<ele>91</ele>
						<time>2026-05-01T08:50:31Z</time>
					</trkpt>
					<trkpt lat="48.876750" lon="2.379930">
						<ele>92</ele>
						<time>2026-05-01T08:50:39Z</time>
					</trkpt>
					<trkpt lat="48.876820" lon="2.379710">
						<ele>91</ele>
						<time>2026-05-01T08:50:52Z</time>
					</trkpt>
					<trkpt lat="48.876940" lon="2.379470">
						<ele>91</ele>
						<time>2026-05-01T08:51:08Z</time>
					</trkpt>
					<trkpt lat="48.877070" lon="2.379280">
						<ele>91</ele>
						<time>2026-05-01T08:51:22Z</time>
					</trkpt>
					<trkpt lat="48.877120" lon="2.379220">
						<ele>91</ele>
						<time>2026-05-01T08:51:27Z</time>
					</trkpt>
					<trkpt lat="48.877230" lon="2.379120">
						<ele>91</ele>
						<time>2026-05-01T08:51:38Z</time>
					</trkpt>
					<trkpt lat="48.877290" lon="2.379080">
						<ele>92</ele>
						<time>2026-05-01T08:51:43Z</time>
					</trkpt>
					<trkpt lat="48.877660" lon="2.378890">
						<ele>91</ele>
						<time>2026-05-01T08:52:14Z</time>
					</trkpt>
					<trkpt lat="48.877740" lon="2.378940">
						<ele>91</ele>
						<time>2026-05-01T08:52:21Z</time>
					</trkpt>
					<trkpt lat="48.877810" lon="2.379000">
						<ele>91</ele>
						<time>2026-05-01T08:52:27Z</time>
					</trkpt>
					<trkpt lat="48.877960" lon="2.379140">
						<ele>91</ele>
						<time>2026-05-01T08:52:42Z</time>
					</trkpt>
					<trkpt lat="48.878050" lon="2.379350">
						<ele>92</ele>
						<time>2026-05-01T08:52:55Z</time>
					</trkpt>
					<trkpt lat="48.878120" lon="2.379620">
						<ele>94</ele>
						<time>2026-05-01T08:53:10Z</time>
					</trkpt>
					<trkpt lat="48.878140" lon="2.379730">
						<ele>95</ele>
						<time>2026-05-01T08:53:16Z</time>
					</trkpt>
					<trkpt lat="48.878140" lon="2.379730">
						<ele>95</ele>
						<time>2026-05-01T08:53:16Z</time>
					</trkpt>
					<trkpt lat="48.878170" lon="2.379960">
						<ele>96</ele>
						<time>2026-05-01T08:53:28Z</time>
					</trkpt>
					<trkpt lat="48.878210" lon="2.380280">
						<ele>97</ele>
						<time>2026-05-01T08:53:46Z</time>
					</trkpt>
					<trkpt lat="48.878260" lon="2.380590">
						<ele>97</ele>
						<time>2026-05-01T08:54:02Z</time>
					</trkpt>
					<trkpt lat="48.878310" lon="2.380780">
						<ele>97</ele>
						<time>2026-05-01T08:54:13Z</time>
					</trkpt>
					<trkpt lat="48.878420" lon="2.381130">
						<ele>96</ele>
						<time>2026-05-01T08:54:34Z</time>
					</trkpt>
					<trkpt lat="48.878710" lon="2.381430">
						<ele>94</ele>
						<time>2026-05-01T08:55:02Z</time>
					</trkpt>
					<trkpt lat="48.878900" lon="2.381650">
						<ele>94</ele>
						<time>2026-05-01T08:55:21Z</time>
					</trkpt>
					<trkpt lat="48.879150" lon="2.381990">
						<ele>95</ele>
						<time>2026-05-01T08:55:48Z</time>
					</trkpt>
					<trkpt lat="48.879380" lon="2.382380">
						<ele>92</ele>
						<time>2026-05-01T08:56:15Z</time>
					</trkpt>
					<trkpt lat="48.879430" lon="2.382460">
						<ele>91</ele>
						<time>2026-05-01T08:56:21Z</time>
					</trkpt>
					<trkpt lat="48.879430" lon="2.382280">
						<ele>91</ele>
						<time>2026-05-01T08:56:31Z</time>
					</trkpt>
					<trkpt lat="48.879530" lon="2.381710">
						<ele>88</ele>
						<time>2026-05-01T08:57:02Z</time>
					</trkpt>
					<trkpt lat="48.879610" lon="2.381120">
						<ele>86</ele>
						<time>2026-05-01T08:57:33Z</time>
					</trkpt>
					<trkpt lat="48.879690" lon="2.380690">
						<ele>84</ele>
						<time>2026-05-01T08:57:57Z</time>
					</trkpt>
					<trkpt lat="48.879750" lon="2.380500">
						<ele>83</ele>
						<time>2026-05-01T08:58:08Z</time>
					</trkpt>
					<trkpt lat="48.880040" lon="2.380900">
						<ele>80</ele>
						<time>2026-05-01T08:58:39Z</time>
					</trkpt>
					<trkpt lat="48.880130" lon="2.381070">
						<ele>79</ele>
						<time>2026-05-01T08:58:51Z</time>
					</trkpt>
					<trkpt lat="48.880200" lon="2.380830">
						<ele>78</ele>
						<time>2026-05-01T08:59:05Z</time>
					</trkpt>
					<trkpt lat="48.880250" lon="2.380740">
						<ele>78</ele>
						<time>2026-05-01T08:59:11Z</time>
					</trkpt>
					<trkpt lat="48.880320" lon="2.380940">
						<ele>77</ele>
						<time>2026-05-01T08:59:23Z</time>
					</trkpt>
					<trkpt lat="48.880440" lon="2.381080">
						<ele>75</ele>
						<time>2026-05-01T08:59:35Z</time>
					</trkpt>
					<trkpt lat="48.880560" lon="2.381140">
						<ele>74</ele>
						<time>2026-05-01T08:59:45Z</time>
					</trkpt>
					<trkpt lat="48.881300" lon="2.381160">
						<ele>70</ele>
						<time>2026-05-01T09:00:44Z</time>
					</trkpt>
					<trkpt lat="48.881390" lon="2.381170">
						<ele>70</ele>
						<time>2026-05-01T09:00:51Z</time>
					</trkpt>
					<trkpt lat="48.881520" lon="2.381250">
						<ele>69</ele>
						<time>2026-05-01T09:01:03Z</time>
					</trkpt>
					<trkpt lat="48.881610" lon="2.381330">
						<ele>68</ele>
						<time>2026-05-01T09:01:11Z</time>
					</trkpt>
					<trkpt lat="48.881840" lon="2.381760">
						<ele>67</ele>
						<time>2026-05-01T09:01:40Z</time>
					</trkpt>
					<trkpt lat="48.881540" lon="2.381610">
						<ele>67</ele>
						<time>2026-05-01T09:02:05Z</time>
					</trkpt>
					<trkpt lat="48.881410" lon="2.381620">
						<ele>67</ele>
						<time>2026-05-01T09:02:16Z</time>
					</trkpt>
					<trkpt lat="48.881680" lon="2.382230">
						<ele>62</ele>
						<time>2026-05-01T09:02:55Z</time>
					</trkpt>
					<trkpt lat="48.881750" lon="2.382500">
						<ele>61</ele>
						<time>2026-05-01T09:03:10Z</time>
					</trkpt>
					<trkpt lat="48.881720" lon="2.382960">
						<ele>64</ele>
						<time>2026-05-01T09:03:34Z</time>
					</trkpt>
					<trkpt lat="48.881640" lon="2.383400">
						<ele>66</ele>
						<time>2026-05-01T09:03:58Z</time>
					</trkpt>
					<trkpt lat="48.881570" lon="2.383610">
						<ele>67</ele>
						<time>2026-05-01T09:04:11Z</time>
					</trkpt>
					<trkpt lat="48.881460" lon="2.383770">
						<ele>68</ele>
						<time>2026-05-01T09:04:23Z</time>
					</trkpt>
					<trkpt lat="48.881270" lon="2.383990">
						<ele>68</ele>
						<time>2026-05-01T09:04:42Z</time>
					</trkpt>
					<trkpt lat="48.881170" lon="2.384040">
						<ele>69</ele>
						<time>2026-05-01T09:04:50Z</time>
					</trkpt>
					<trkpt lat="48.880700" lon="2.384040">
						<ele>71</ele>
						<time>2026-05-01T09:05:28Z</time>
					</trkpt>
					<trkpt lat="48.880700" lon="2.384040">
						<ele>71</ele>
						<time>2026-05-01T09:05:28Z</time>
					</trkpt>
					<trkpt lat="48.880690" lon="2.384120">
						<ele>72</ele>
						<time>2026-05-01T09:05:32Z</time>
					</trkpt>
					<trkpt lat="48.880660" lon="2.384150">
						<ele>73</ele>
						<time>2026-05-01T09:05:35Z</time>
					</trkpt>
					<trkpt lat="48.880560" lon="2.384240">
						<ele>76</ele>
						<time>2026-05-01T09:05:45Z</time>
					</trkpt>
					<trkpt lat="48.880460" lon="2.384340">
						<ele>78</ele>
						<time>2026-05-01T09:05:54Z</time>
					</trkpt>
					<trkpt lat="48.880460" lon="2.384370">
						<ele>79</ele>
						<time>2026-05-01T09:05:56Z</time>
					</trkpt>
					<trkpt lat="48.880480" lon="2.384390">
						<ele>78</ele>
						<time>2026-05-01T09:05:58Z</time>
					</trkpt>
					<trkpt lat="48.880520" lon="2.384470">
						<ele>78</ele>
						<time>2026-05-01T09:06:03Z</time>
					</trkpt>
					<trkpt lat="48.880550" lon="2.384650">
						<ele>79</ele>
						<time>2026-05-01T09:06:13Z</time>
					</trkpt>
					<trkpt lat="48.880560" lon="2.384760">
						<ele>79</ele>
						<time>2026-05-01T09:06:19Z</time>
					</trkpt>
					<trkpt lat="48.880540" lon="2.384830">
						<ele>80</ele>
						<time>2026-05-01T09:06:23Z</time>
					</trkpt>
					<trkpt lat="48.880280" lon="2.385350">
						<ele>84</ele>
						<time>2026-05-01T09:06:57Z</time>
					</trkpt>
					<trkpt lat="48.880000" lon="2.385800">
						<ele>89</ele>
						<time>2026-05-01T09:07:30Z</time>
					</trkpt>
					<trkpt lat="48.880070" lon="2.385970">
						<ele>89</ele>
						<time>2026-05-01T09:07:40Z</time>
					</trkpt>
					<trkpt lat="48.880110" lon="2.386410">
						<ele>90</ele>
						<time>2026-05-01T09:08:03Z</time>
					</trkpt>
					<trkpt lat="48.880530" lon="2.386930">
						<ele>86</ele>
						<time>2026-05-01T09:08:47Z</time>
					</trkpt>
					<trkpt lat="48.880910" lon="2.386960">
						<ele>83</ele>
						<time>2026-05-01T09:09:17Z</time>
					</trkpt>
					<trkpt lat="48.881340" lon="2.386930">
						<ele>83</ele>
						<time>2026-05-01T09:09:52Z</time>
					</trkpt>
					<trkpt lat="48.882150" lon="2.386290">
						<ele>80</ele>
						<time>2026-05-01T09:11:05Z</time>
					</trkpt>
					<trkpt lat="48.882450" lon="2.385830">
						<ele>80</ele>
						<time>2026-05-01T09:11:39Z</time>
					</trkpt>
					<trkpt lat="48.882630" lon="2.385310">
						<ele>77</ele>
						<time>2026-05-01T09:12:10Z</time>
					</trkpt>
					<trkpt lat="48.882970" lon="2.385350">
						<ele>75</ele>
						<time>2026-05-01T09:12:37Z</time>
					</trkpt>
					<trkpt lat="48.883030" lon="2.385550">
						<ele>75</ele>
						<time>2026-05-01T09:12:49Z</time>
					</trkpt>
					<trkpt lat="48.883970" lon="2.386550">
						<ele>67</ele>
						<time>2026-05-01T09:14:21Z</time>
					</trkpt>
					<trkpt lat="48.884340" lon="2.390150">
						<ele>67</ele>
						<time>2026-05-01T09:17:33Z</time>
					</trkpt>
					<trkpt lat="48.884350" lon="2.390150">
						<ele>67</ele>
						<time>2026-05-01T09:17:33Z</time>
					</trkpt>
					<trkpt lat="48.884350" lon="2.390160">
						<ele>67</ele>
						<time>2026-05-01T09:17:34Z</time>
					</trkpt>
					<trkpt lat="48.884350" lon="2.390180">
						<ele>67</ele>
						<time>2026-05-01T09:17:35Z</time>
					</trkpt>
					<trkpt lat="48.884350" lon="2.390180">
						<ele>67</ele>
						<time>2026-05-01T09:17:35Z</time>
					</trkpt>
					<trkpt lat="48.884350" lon="2.390220">
						<ele>67</ele>
						<time>2026-05-01T09:17:37Z</time>
					</trkpt>
					<trkpt lat="48.884360" lon="2.390260">
						<ele>67</ele>
						<time>2026-05-01T09:17:39Z</time>
					</trkpt>
					<trkpt lat="48.884360" lon="2.390260">
						<ele>67</ele>
						<time>2026-05-01T09:17:39Z</time>
					</trkpt>
					<trkpt lat="48.884370" lon="2.390340">
						<ele>67</ele>
						<time>2026-05-01T09:17:44Z</time>
					</trkpt>
					<trkpt lat="48.884390" lon="2.390450">
						<ele>67</ele>
						<time>2026-05-01T09:17:50Z</time>
					</trkpt>
					<trkpt lat="48.884420" lon="2.390550">
						<ele>66</ele>
						<time>2026-05-01T09:17:55Z</time>
					</trkpt>
					<trkpt lat="48.884760" lon="2.391390">
						<ele>65</ele>
						<time>2026-05-01T09:18:47Z</time>
					</trkpt>
					<trkpt lat="48.885220" lon="2.392260">
						<ele>66</ele>
						<time>2026-05-01T09:19:46Z</time>
					</trkpt>
					<trkpt lat="48.885890" lon="2.393090">
						<ele>64</ele>
						<time>2026-05-01T09:20:55Z</time>
					</trkpt>
					<trkpt lat="48.886360" lon="2.393450">
						<ele>63</ele>
						<time>2026-05-01T09:21:37Z</time>
					</trkpt>
					<trkpt lat="48.887160" lon="2.393720">
						<ele>60</ele>
						<time>2026-05-01T09:22:43Z</time>
					</trkpt>
					<trkpt lat="48.888790" lon="2.393210">
						<ele>56</ele>
						<time>2026-05-01T09:24:56Z</time>
					</trkpt>
					<trkpt lat="48.888820" lon="2.393020">
						<ele>56</ele>
						<time>2026-05-01T09:25:07Z</time>
					</trkpt>
					<trkpt lat="48.888990" lon="2.392870">
						<ele>55</ele>
						<time>2026-05-01T09:25:22Z</time>
					</trkpt>
					<trkpt lat="48.889350" lon="2.392520">
						<ele>55</ele>
						<time>2026-05-01T09:25:56Z</time>
					</trkpt>
					<trkpt lat="48.890070" lon="2.392870">
						<ele>56</ele>
						<time>2026-05-01T09:26:57Z</time>
					</trkpt>
					<trkpt lat="48.890570" lon="2.392910">
						<ele>56</ele>
						<time>2026-05-01T09:27:37Z</time>
					</trkpt>
					<trkpt lat="48.891150" lon="2.392950">
						<ele>56</ele>
						<time>2026-05-01T09:28:24Z</time>
					</trkpt>
					<trkpt lat="48.892330" lon="2.393020">
						<ele>55</ele>
						<time>2026-05-01T09:29:58Z</time>
					</trkpt>
					<trkpt lat="48.892720" lon="2.393050">
						<ele>54</ele>
						<time>2026-05-01T09:30:29Z</time>
					</trkpt>
					<trkpt lat="48.892890" lon="2.393060">
						<ele>54</ele>
						<time>2026-05-01T09:30:43Z</time>
					</trkpt>
					<trkpt lat="48.893140" lon="2.393080">
						<ele>54</ele>
						<time>2026-05-01T09:31:03Z</time>
					</trkpt>
					<trkpt lat="48.893140" lon="2.393080">
						<ele>54</ele>
						<time>2026-05-01T09:31:03Z</time>
					</trkpt>
					<trkpt lat="48.893080" lon="2.392970">
						<ele>54</ele>
						<time>2026-05-01T09:31:11Z</time>
					</trkpt>
					<trkpt lat="48.893030" lon="2.392770">
						<ele>54</ele>
						<time>2026-05-01T09:31:22Z</time>
					</trkpt>
					<trkpt lat="48.893020" lon="2.392680">
						<ele>54</ele>
						<time>2026-05-01T09:31:27Z</time>
					</trkpt>
					<trkpt lat="48.893070" lon="2.392540">
						<ele>54</ele>
						<time>2026-05-01T09:31:35Z</time>
					</trkpt>
					<trkpt lat="48.893170" lon="2.392430">
						<ele>54</ele>
						<time>2026-05-01T09:31:45Z</time>
					</trkpt>
					<trkpt lat="48.893380" lon="2.392390">
						<ele>54</ele>
						<time>2026-05-01T09:32:02Z</time>
					</trkpt>
					<trkpt lat="48.893590" lon="2.392430">
						<ele>53</ele>
						<time>2026-05-01T09:32:19Z</time>
					</trkpt>
					<trkpt lat="48.893630" lon="2.392430">
						<ele>53</ele>
						<time>2026-05-01T09:32:22Z</time>
					</trkpt>
					<trkpt lat="48.893770" lon="2.392480">
						<ele>53</ele>
						<time>2026-05-01T09:32:34Z</time>
					</trkpt>
					<trkpt lat="48.893810" lon="2.392450">
						<ele>53</ele>
						<time>2026-05-01T09:32:37Z</time>
					</trkpt>
					<trkpt lat="48.893830" lon="2.392390">
						<ele>53</ele>
						<time>2026-05-01T09:32:41Z</time>
					</trkpt>
					<trkpt lat="48.893830" lon="2.392220">
						<ele>53</ele>
						<time>2026-05-01T09:32:50Z</time>
					</trkpt>
					<trkpt lat="48.893840" lon="2.392140">
						<ele>53</ele>
						<time>2026-05-01T09:32:54Z</time>
					</trkpt>
					<trkpt lat="48.893860" lon="2.392100">
						<ele>53</ele>
						<time>2026-05-01T09:32:57Z</time>
					</trkpt>
					<trkpt lat="48.893880" lon="2.392080">
						<ele>53</ele>
						<time>2026-05-01T09:32:58Z</time>
					</trkpt>
					<trkpt lat="48.893920" lon="2.392080">
						<ele>53</ele>
						<time>2026-05-01T09:33:02Z</time>
					</trkpt>
					<trkpt lat="48.894030" lon="2.392190">
						<ele>53</ele>
						<time>2026-05-01T09:33:12Z</time>
					</trkpt>
					<trkpt lat="48.894080" lon="2.392220">
						<ele>53</ele>
						<time>2026-05-01T09:33:16Z</time>
					</trkpt>
					<trkpt lat="48.894110" lon="2.392200">
						<ele>53</ele>
						<time>2026-05-01T09:33:19Z</time>
					</trkpt>
					<trkpt lat="48.894170" lon="2.392050">
						<ele>54</ele>
						<time>2026-05-01T09:33:28Z</time>
					</trkpt>
					<trkpt lat="48.894190" lon="2.392020">
						<ele>54</ele>
						<time>2026-05-01T09:33:31Z</time>
					</trkpt>
					<trkpt lat="48.894320" lon="2.391980">
						<ele>54</ele>
						<time>2026-05-01T09:33:41Z</time>
					</trkpt>
					<trkpt lat="48.894420" lon="2.391880">
						<ele>54</ele>
						<time>2026-05-01T09:33:51Z</time>
					</trkpt>
					<trkpt lat="48.895200" lon="2.393570">
						<ele>51</ele>
						<time>2026-05-01T09:35:39Z</time>
					</trkpt>
					<trkpt lat="48.895350" lon="2.393840">
						<ele>51</ele>
						<time>2026-05-01T09:35:58Z</time>
					</trkpt>
					<trkpt lat="48.895630" lon="2.394820">
						<ele>53</ele>
						<time>2026-05-01T09:36:54Z</time>
					</trkpt>
					<trkpt lat="48.895580" lon="2.395030">
						<ele>54</ele>
						<time>2026-05-01T09:37:06Z</time>
					</trkpt>
					<trkpt lat="48.895800" lon="2.396770">
						<ele>51</ele>
						<time>2026-05-01T09:38:39Z</time>
					</trkpt>
					<trkpt lat="48.895890" lon="2.397770">
						<ele>53</ele>
						<time>2026-05-01T09:39:32Z</time>
					</trkpt>
					<trkpt lat="48.895880" lon="2.399060">
						<ele>54</ele>
						<time>2026-05-01T09:40:40Z</time>
					</trkpt>
					<trkpt lat="48.895830" lon="2.399740">
						<ele>56</ele>
						<time>2026-05-01T09:41:16Z</time>
					</trkpt>
					<trkpt lat="48.895950" lon="2.399900">
						<ele>57</ele>
						<time>2026-05-01T09:41:29Z</time>
					</trkpt>
					<trkpt lat="48.895870" lon="2.400750">
						<ele>55</ele>
						<time>2026-05-01T09:42:14Z</time>
					</trkpt>
					<trkpt lat="48.895890" lon="2.400770">
						<ele>55</ele>
						<time>2026-05-01T09:42:16Z</time>
					</trkpt>
					<trkpt lat="48.895920" lon="2.400840">
						<ele>55</ele>
						<time>2026-05-01T09:42:21Z</time>
					</trkpt>
					<trkpt lat="48.895930" lon="2.400870">
						<ele>55</ele>
						<time>2026-05-01T09:42:22Z</time>
					</trkpt>
					<trkpt lat="48.895900" lon="2.401160">
						<ele>55</ele>
						<time>2026-05-01T09:42:38Z</time>
					</trkpt>
					<trkpt lat="48.895860" lon="2.401240">
						<ele>56</ele>
						<time>2026-05-01T09:42:43Z</time>
					</trkpt>
					<trkpt lat="48.895780" lon="2.402030">
						<ele>57</ele>
						<time>2026-05-01T09:43:25Z</time>
					</trkpt>
					<trkpt lat="48.895760" lon="2.402160">
						<ele>58</ele>
						<time>2026-05-01T09:43:32Z</time>
					</trkpt>
					<trkpt lat="48.895620" lon="2.403730">
						<ele>58</ele>
						<time>2026-05-01T09:44:56Z</time>
					</trkpt>
					<trkpt lat="48.895470" lon="2.405170">
						<ele>58</ele>
						<time>2026-05-01T09:46:12Z</time>
					</trkpt>
					<trkpt lat="48.895450" lon="2.405240">
						<ele>58</ele>
						<time>2026-05-01T09:46:16Z</time>
					</trkpt>
					<trkpt lat="48.895430" lon="2.405310">
						<ele>57</ele>
						<time>2026-05-01T09:46:21Z</time>
					</trkpt>
					<trkpt lat="48.895370" lon="2.406070">
						<ele>56</ele>
						<time>2026-05-01T09:47:01Z</time>
					</trkpt>
					<trkpt lat="48.895370" lon="2.406090">
						<ele>56</ele>
						<time>2026-05-01T09:47:02Z</time>
					</trkpt>
					<trkpt lat="48.895360" lon="2.406110">
						<ele>56</ele>
						<time>2026-05-01T09:47:03Z</time>
					</trkpt>
					<trkpt lat="48.895370" lon="2.406130">
						<ele>56</ele>
						<time>2026-05-01T09:47:05Z</time>
					</trkpt>
					<trkpt lat="48.895380" lon="2.406120">
						<ele>56</ele>
						<time>2026-05-01T09:47:05Z</time>
					</trkpt>
					<trkpt lat="48.895390" lon="2.406080">
						<ele>56</ele>
						<time>2026-05-01T09:47:08Z</time>
					</trkpt>
					<trkpt lat="48.895140" lon="2.408780">
						<ele>55</ele>
						<time>2026-05-01T09:49:31Z</time>
					</trkpt>
					<trkpt lat="48.895090" lon="2.409230">
						<ele>56</ele>
						<time>2026-05-01T09:49:55Z</time>
					</trkpt>
					<trkpt lat="48.895080" lon="2.409260">
						<ele>56</ele>
						<time>2026-05-01T09:49:57Z</time>
					</trkpt>
					<trkpt lat="48.895040" lon="2.409260">
						<ele>56</ele>
						<time>2026-05-01T09:50:00Z</time>
					</trkpt>
					<trkpt lat="48.895040" lon="2.409510">
						<ele>56</ele>
						<time>2026-05-01T09:50:13Z</time>
					</trkpt>
					<trkpt lat="48.894990" lon="2.409960">
						<ele>56</ele>
						<time>2026-05-01T09:50:37Z</time>
					</trkpt>
					<trkpt lat="48.894940" lon="2.410350">
						<ele>56</ele>
						<time>2026-05-01T09:50:58Z</time>
					</trkpt>
					<trkpt lat="48.894930" lon="2.410380">
						<ele>56</ele>
						<time>2026-05-01T09:51:00Z</time>
					</trkpt>
					<trkpt lat="48.894940" lon="2.410450">
						<ele>56</ele>
						<time>2026-05-01T09:51:04Z</time>
					</trkpt>
					<trkpt lat="48.894950" lon="2.410500">
						<ele>56</ele>
						<time>2026-05-01T09:51:07Z</time>
					</trkpt>
					<trkpt lat="48.894950" lon="2.410500">
						<ele>56</ele>
						<time>2026-05-01T09:51:07Z</time>
					</trkpt>
					<trkpt lat="48.894960" lon="2.410560">
						<ele>55</ele>
						<time>2026-05-01T09:51:10Z</time>
					</trkpt>
					<trkpt lat="48.894750" lon="2.412640">
						<ele>55</ele>
						<time>2026-05-01T09:53:01Z</time>
					</trkpt>
					<trkpt lat="48.894720" lon="2.412920">
						<ele>55</ele>
						<time>2026-05-01T09:53:16Z</time>
					</trkpt>
					<trkpt lat="48.894720" lon="2.413140">
						<ele>55</ele>
						<time>2026-05-01T09:53:27Z</time>
					</trkpt>
					<trkpt lat="48.894750" lon="2.413320">
						<ele>55</ele>
						<time>2026-05-01T09:53:37Z</time>
					</trkpt>
					<trkpt lat="48.894990" lon="2.415380">
						<ele>55</ele>
						<time>2026-05-01T09:55:27Z</time>
					</trkpt>
					<trkpt lat="48.895190" lon="2.417260">
						<ele>56</ele>
						<time>2026-05-01T09:57:07Z</time>
					</trkpt>
					<trkpt lat="48.895240" lon="2.417670">
						<ele>55</ele>
						<time>2026-05-01T09:57:29Z</time>
					</trkpt>
					<trkpt lat="48.895290" lon="2.418150">
						<ele>54</ele>
						<time>2026-05-01T09:57:55Z</time>
					</trkpt>
					<trkpt lat="48.895460" lon="2.419680">
						<ele>52</ele>
						<time>2026-05-01T09:59:17Z</time>
					</trkpt>
					<trkpt lat="48.895480" lon="2.419860">
						<ele>52</ele>
						<time>2026-05-01T09:59:26Z</time>
					</trkpt>
					<trkpt lat="48.895620" lon="2.421070">
						<ele>52</ele>
						<time>2026-05-01T10:00:31Z</time>
					</trkpt>
					<trkpt lat="48.895710" lon="2.421860">
						<ele>52</ele>
						<time>2026-05-01T10:01:13Z</time>
					</trkpt>
					<trkpt lat="48.895780" lon="2.422460">
						<ele>52</ele>
						<time>2026-05-01T10:01:45Z</time>
					</trkpt>
					<trkpt lat="48.895780" lon="2.422460">
						<ele>52</ele>
						<time>2026-05-01T10:01:45Z</time>
					</trkpt>
					<trkpt lat="48.895850" lon="2.423150">
						<ele>52</ele>
						<time>2026-05-01T10:02:22Z</time>
					</trkpt>
					<trkpt lat="48.895870" lon="2.423350">
						<ele>52</ele>
						<time>2026-05-01T10:02:33Z</time>
					</trkpt>
					<trkpt lat="48.895920" lon="2.423680">
						<ele>52</ele>
						<time>2026-05-01T10:02:50Z</time>
					</trkpt>
					<trkpt lat="48.895970" lon="2.423930">
						<ele>52</ele>
						<time>2026-05-01T10:03:04Z</time>
					</trkpt>
					<trkpt lat="48.895990" lon="2.424000">
						<ele>51</ele>
						<time>2026-05-01T10:03:08Z</time>
					</trkpt>
					<trkpt lat="48.895970" lon="2.424020">
						<ele>52</ele>
						<time>2026-05-01T10:03:10Z</time>
					</trkpt>
					<trkpt lat="48.895980" lon="2.424080">
						<ele>51</ele>
						<time>2026-05-01T10:03:13Z</time>
					</trkpt>
					<trkpt lat="48.895980" lon="2.424100">
						<ele>51</ele>
						<time>2026-05-01T10:03:14Z</time>
					</trkpt>
					<trkpt lat="48.895990" lon="2.424130">
						<ele>51</ele>
						<time>2026-05-01T10:03:16Z</time>
					</trkpt>
					<trkpt lat="48.896130" lon="2.424080">
						<ele>51</ele>
						<time>2026-05-01T10:03:28Z</time>
					</trkpt>
					<trkpt lat="48.896350" lon="2.424020">
						<ele>50</ele>
						<time>2026-05-01T10:03:46Z</time>
					</trkpt>
					<trkpt lat="48.896580" lon="2.423980">
						<ele>50</ele>
						<time>2026-05-01T10:04:04Z</time>
					</trkpt>
					<trkpt lat="48.896570" lon="2.421840">
						<ele>48</ele>
						<time>2026-05-01T10:05:57Z</time>
					</trkpt>
					<trkpt lat="48.896570" lon="2.421550">
						<ele>48</ele>
						<time>2026-05-01T10:06:12Z</time>
					</trkpt>
					<trkpt lat="48.896360" lon="2.421580">
						<ele>49</ele>
						<time>2026-05-01T10:06:29Z</time>
					</trkpt>
					<trkpt lat="48.896260" lon="2.421600">
						<ele>50</ele>
						<time>2026-05-01T10:06:37Z</time>
					</trkpt>
					<trkpt lat="48.896200" lon="2.421610">
						<ele>50</ele>
						<time>2026-05-01T10:06:42Z</time>
					</trkpt>
					<trkpt lat="48.896200" lon="2.421510">
						<ele>50</ele>
						<time>2026-05-01T10:06:47Z</time>
					</trkpt>
					<trkpt lat="48.896200" lon="2.421510">
						<ele>50</ele>
						<time>2026-05-01T10:06:47Z</time>
					</trkpt>
					<trkpt lat="48.896110" lon="2.420020">
						<ele>51</ele>
						<time>2026-05-01T10:08:06Z</time>
					</trkpt>
					<trkpt lat="48.896110" lon="2.420020">
						<ele>51</ele>
						<time>2026-05-01T10:08:06Z</time>
					</trkpt>
					<trkpt lat="48.895960" lon="2.417570">
						<ele>55</ele>
						<time>2026-05-01T10:10:15Z</time>
					</trkpt>
					<trkpt lat="48.895360" lon="2.415050">
						<ele>54</ele>
						<time>2026-05-01T10:12:36Z</time>
					</trkpt>
					<trkpt lat="48.895350" lon="2.415010">
						<ele>54</ele>
						<time>2026-05-01T10:12:39Z</time>
					</trkpt>
					<trkpt lat="48.895330" lon="2.414960">
						<ele>53</ele>
						<time>2026-05-01T10:12:42Z</time>
					</trkpt>
					<trkpt lat="48.895140" lon="2.413170">
						<ele>54</ele>
						<time>2026-05-01T10:14:17Z</time>
					</trkpt>
					<trkpt lat="48.895110" lon="2.412820">
						<ele>54</ele>
						<time>2026-05-01T10:14:36Z</time>
					</trkpt>
					<trkpt lat="48.895090" lon="2.412170">
						<ele>54</ele>
						<time>2026-05-01T10:15:10Z</time>
					</trkpt>
					<trkpt lat="48.895100" lon="2.411470">
						<ele>55</ele>
						<time>2026-05-01T10:15:47Z</time>
					</trkpt>
					<trkpt lat="48.895210" lon="2.410190">
						<ele>55</ele>
						<time>2026-05-01T10:16:55Z</time>
					</trkpt>
					<trkpt lat="48.895240" lon="2.410010">
						<ele>55</ele>
						<time>2026-05-01T10:17:05Z</time>
					</trkpt>
					<trkpt lat="48.895240" lon="2.409850">
						<ele>56</ele>
						<time>2026-05-01T10:17:13Z</time>
					</trkpt>
					<trkpt lat="48.895260" lon="2.409620">
						<ele>56</ele>
						<time>2026-05-01T10:17:25Z</time>
					</trkpt>
					<trkpt lat="48.896050" lon="2.400920">
						<ele>56</ele>
						<time>2026-05-01T10:25:08Z</time>
					</trkpt>
					<trkpt lat="48.896090" lon="2.400820">
						<ele>56</ele>
						<time>2026-05-01T10:25:14Z</time>
					</trkpt>
					<trkpt lat="48.896220" lon="2.399580">
						<ele>55</ele>
						<time>2026-05-01T10:26:20Z</time>
					</trkpt>
					<trkpt lat="48.896290" lon="2.398030">
						<ele>54</ele>
						<time>2026-05-01T10:27:42Z</time>
					</trkpt>
					<trkpt lat="48.896290" lon="2.397560">
						<ele>55</ele>
						<time>2026-05-01T10:28:06Z</time>
					</trkpt>
					<trkpt lat="48.896230" lon="2.396730">
						<ele>52</ele>
						<time>2026-05-01T10:28:50Z</time>
					</trkpt>
					<trkpt lat="48.896260" lon="2.396440">
						<ele>52</ele>
						<time>2026-05-01T10:29:06Z</time>
					</trkpt>
					<trkpt lat="48.896100" lon="2.395350">
						<ele>53</ele>
						<time>2026-05-01T10:30:05Z</time>
					</trkpt>
					<trkpt lat="48.895790" lon="2.394320">
						<ele>51</ele>
						<time>2026-05-01T10:31:04Z</time>
					</trkpt>
					<trkpt lat="48.895720" lon="2.394210">
						<ele>51</ele>
						<time>2026-05-01T10:31:12Z</time>
					</trkpt>
					<trkpt lat="48.895660" lon="2.394030">
						<ele>51</ele>
						<time>2026-05-01T10:31:23Z</time>
					</trkpt>
					<trkpt lat="48.895760" lon="2.393800">
						<ele>51</ele>
						<time>2026-05-01T10:31:37Z</time>
					</trkpt>
					<trkpt lat="48.895740" lon="2.393550">
						<ele>50</ele>
						<time>2026-05-01T10:31:51Z</time>
					</trkpt>
					<trkpt lat="48.895080" lon="2.392020">
						<ele>52</ele>
						<time>2026-05-01T10:33:27Z</time>
					</trkpt>
					<trkpt lat="48.894950" lon="2.392090">
						<ele>53</ele>
						<time>2026-05-01T10:33:38Z</time>
					</trkpt>
					<trkpt lat="48.892800" lon="2.387870">
						<ele>54</ele>
						<time>2026-05-01T10:38:19Z</time>
					</trkpt>
					<trkpt lat="48.892540" lon="2.388120">
						<ele>54</ele>
						<time>2026-05-01T10:38:44Z</time>
					</trkpt>
					<trkpt lat="48.891890" lon="2.386750">
						<ele>55</ele>
						<time>2026-05-01T10:40:13Z</time>
					</trkpt>
					<trkpt lat="48.891700" lon="2.386710">
						<ele>54</ele>
						<time>2026-05-01T10:40:28Z</time>
					</trkpt>
					<trkpt lat="48.891310" lon="2.385700">
						<ele>57</ele>
						<time>2026-05-01T10:41:30Z</time>
					</trkpt>
					<trkpt lat="48.888320" lon="2.379690">
						<ele>54</ele>
						<time>2026-05-01T10:48:06Z</time>
					</trkpt>
					<trkpt lat="48.887970" lon="2.379960">
						<ele>56</ele>
						<time>2026-05-01T10:48:38Z</time>
					</trkpt>
					<trkpt lat="48.887550" lon="2.378950">
						<ele>56</ele>
						<time>2026-05-01T10:49:41Z</time>
					</trkpt>
					<trkpt lat="48.887650" lon="2.378810">
						<ele>55</ele>
						<time>2026-05-01T10:49:52Z</time>
					</trkpt>
					<trkpt lat="48.883930" lon="2.371330">
						<ele>54</ele>
						<time>2026-05-01T10:58:05Z</time>
					</trkpt>
					<trkpt lat="48.883550" lon="2.371060">
						<ele>55</ele>
						<time>2026-05-01T10:58:39Z</time>
					</trkpt>
					<trkpt lat="48.883050" lon="2.370650">
						<ele>55</ele>
						<time>2026-05-01T10:59:24Z</time>
					</trkpt>
					<trkpt lat="48.882900" lon="2.370560">
						<ele>56</ele>
						<time>2026-05-01T10:59:37Z</time>
					</trkpt>
					<trkpt lat="48.882660" lon="2.370430">
						<ele>57</ele>
						<time>2026-05-01T10:59:58Z</time>
					</trkpt>
					<trkpt lat="48.882630" lon="2.370250">
						<ele>56</ele>
						<time>2026-05-01T11:00:08Z</time>
					</trkpt>
					<trkpt lat="48.882530" lon="2.370120">
						<ele>56</ele>
						<time>2026-05-01T11:00:18Z</time>
					</trkpt>
					<trkpt lat="48.882370" lon="2.370070">
						<ele>56</ele>
						<time>2026-05-01T11:00:31Z</time>
					</trkpt>
					<trkpt lat="48.882250" lon="2.369960">
						<ele>56</ele>
						<time>2026-05-01T11:00:42Z</time>
					</trkpt>
					<trkpt lat="48.881860" lon="2.369970">
						<ele>57</ele>
						<time>2026-05-01T11:01:14Z</time>
					</trkpt>
					<trkpt lat="48.881400" lon="2.369250">
						<ele>56</ele>
						<time>2026-05-01T11:02:06Z</time>
					</trkpt>
					<trkpt lat="48.879840" lon="2.368030">
						<ele>56</ele>
						<time>2026-05-01T11:04:27Z</time>
					</trkpt>
					<trkpt lat="48.879560" lon="2.367730">
						<ele>57</ele>
						<time>2026-05-01T11:04:54Z</time>
					</trkpt>
					<trkpt lat="48.878420" lon="2.369780">
						<ele>60</ele>
						<time>2026-05-01T11:07:16Z</time>
					</trkpt>
					<trkpt lat="48.878410" lon="2.369770">
						<ele>60</ele>
						<time>2026-05-01T11:07:17Z</time>
					</trkpt>
					<trkpt lat="48.878320" lon="2.369710">
						<ele>60</ele>
						<time>2026-05-01T11:07:25Z</time>
					</trkpt>
					<trkpt lat="48.878180" lon="2.369650">
						<ele>60</ele>
						<time>2026-05-01T11:07:36Z</time>
					</trkpt>
					<trkpt lat="48.878040" lon="2.369640">
						<ele>60</ele>
						<time>2026-05-01T11:07:47Z</time>
					</trkpt>
					<trkpt lat="48.877990" lon="2.369650">
						<ele>60</ele>
						<time>2026-05-01T11:07:51Z</time>
					</trkpt>
					<trkpt lat="48.877920" lon="2.369670">
						<ele>60</ele>
						<time>2026-05-01T11:07:57Z</time>
					</trkpt>
					<trkpt lat="48.877830" lon="2.369710">
						<ele>60</ele>
						<time>2026-05-01T11:08:05Z</time>
					</trkpt>
					<trkpt lat="48.877760" lon="2.369770">
						<ele>60</ele>
						<time>2026-05-01T11:08:11Z</time>
					</trkpt>
					<trkpt lat="48.877710" lon="2.369830">
						<ele>61</ele>
						<time>2026-05-01T11:08:16Z</time>
					</trkpt>
					<trkpt lat="48.877630" lon="2.369980">
						<ele>61</ele>
						<time>2026-05-01T11:08:26Z</time>
					</trkpt>
					<trkpt lat="48.877630" lon="2.370110">
						<ele>61</ele>
						<time>2026-05-01T11:08:33Z</time>
					</trkpt>
					<trkpt lat="48.877630" lon="2.370420">
						<ele>60</ele>
						<time>2026-05-01T11:08:49Z</time>
					</trkpt>
					<trkpt lat="48.877640" lon="2.370460">
						<ele>60</ele>
						<time>2026-05-01T11:08:52Z</time>
					</trkpt>
					<trkpt lat="48.877680" lon="2.370570">
						<ele>60</ele>
						<time>2026-05-01T11:08:58Z</time>
					</trkpt>
					<trkpt lat="48.877660" lon="2.370590">
						<ele>60</ele>
						<time>2026-05-01T11:09:00Z</time>
					</trkpt>
					<trkpt lat="48.877660" lon="2.370640">
						<ele>60</ele>
						<time>2026-05-01T11:09:03Z</time>
					</trkpt>
					<trkpt lat="48.877630" lon="2.370680">
						<ele>60</ele>
						<time>2026-05-01T11:09:06Z</time>
					</trkpt>
					<trkpt lat="48.877660" lon="2.370720">
						<ele>60</ele>
						<time>2026-05-01T11:09:09Z</time>
					</trkpt>
					<trkpt lat="48.877690" lon="2.370770">
						<ele>60</ele>
						<time>2026-05-01T11:09:13Z</time>
					</trkpt>
					<trkpt lat="48.877690" lon="2.370780">
						<ele>60</ele>
						<time>2026-05-01T11:09:13Z</time>
					</trkpt>
					<trkpt lat="48.877040" lon="2.371530">
						<ele>62</ele>
						<time>2026-05-01T11:10:19Z</time>
					</trkpt>
					<trkpt lat="48.876530" lon="2.372110">
						<ele>64</ele>
						<time>2026-05-01T11:11:10Z</time>
					</trkpt>
					<trkpt lat="48.876510" lon="2.372150">
						<ele>64</ele>
						<time>2026-05-01T11:11:12Z</time>
					</trkpt>
					<trkpt lat="48.876510" lon="2.372190">
						<ele>64</ele>
						<time>2026-05-01T11:11:14Z</time>
					</trkpt>
					<trkpt lat="48.876540" lon="2.372280">
						<ele>64</ele>
						<time>2026-05-01T11:11:20Z</time>
					</trkpt>
					<trkpt lat="48.876520" lon="2.372310">
						<ele>64</ele>
						<time>2026-05-01T11:11:22Z</time>
					</trkpt>
					<trkpt lat="48.876500" lon="2.372330">
						<ele>64</ele>
						<time>2026-05-01T11:11:24Z</time>
					</trkpt>
					<trkpt lat="48.876470" lon="2.372280">
						<ele>64</ele>
						<time>2026-05-01T11:11:28Z</time>
					</trkpt>
					<trkpt lat="48.876430" lon="2.372260">
						<ele>64</ele>
						<time>2026-05-01T11:11:31Z</time>
					</trkpt>
					<trkpt lat="48.876410" lon="2.372260">
						<ele>64</ele>
						<time>2026-05-01T11:11:32Z</time>
					</trkpt>
					<trkpt lat="48.876400" lon="2.372270">
						<ele>64</ele>
						<time>2026-05-01T11:11:33Z</time>
					</trkpt>
					<trkpt lat="48.875470" lon="2.373340">
						<ele>67</ele>
						<time>2026-05-01T11:13:07Z</time>
					</trkpt>
					<trkpt lat="48.875310" lon="2.373510">
						<ele>67</ele>
						<time>2026-05-01T11:13:22Z</time>
					</trkpt>
					<trkpt lat="48.875270" lon="2.373560">
						<ele>67</ele>
						<time>2026-05-01T11:13:27Z</time>
					</trkpt>
					<trkpt lat="48.875250" lon="2.373590">
						<ele>67</ele>
						<time>2026-05-01T11:13:29Z</time>
					</trkpt>
					<trkpt lat="48.875240" lon="2.373620">
						<ele>67</ele>
						<time>2026-05-01T11:13:31Z</time>
					</trkpt>
					<trkpt lat="48.875240" lon="2.373650">
						<ele>67</ele>
						<time>2026-05-01T11:13:32Z</time>
					</trkpt>
					<trkpt lat="48.875250" lon="2.373690">
						<ele>67</ele>
						<time>2026-05-01T11:13:34Z</time>
					</trkpt>
					<trkpt lat="48.875230" lon="2.373710">
						<ele>67</ele>
						<time>2026-05-01T11:13:36Z</time>
					</trkpt>
					<trkpt lat="48.875210" lon="2.373740">
						<ele>67</ele>
						<time>2026-05-01T11:13:39Z</time>
					</trkpt>
					<trkpt lat="48.875190" lon="2.373760">
						<ele>67</ele>
						<time>2026-05-01T11:13:41Z</time>
					</trkpt>
					<trkpt lat="48.875050" lon="2.373910">
						<ele>67</ele>
						<time>2026-05-01T11:13:54Z</time>
					</trkpt>
					<trkpt lat="48.874710" lon="2.374290">
						<ele>66</ele>
						<time>2026-05-01T11:14:28Z</time>
					</trkpt>
					<trkpt lat="48.874500" lon="2.374520">
						<ele>66</ele>
						<time>2026-05-01T11:14:49Z</time>
					</trkpt>
					<trkpt lat="48.874460" lon="2.374560">
						<ele>66</ele>
						<time>2026-05-01T11:14:53Z</time>
					</trkpt>
					<trkpt lat="48.874400" lon="2.374640">
						<ele>67</ele>
						<time>2026-05-01T11:14:59Z</time>
					</trkpt>
					<trkpt lat="48.873980" lon="2.375110">
						<ele>66</ele>
						<time>2026-05-01T11:15:41Z</time>
					</trkpt>
					<trkpt lat="48.874010" lon="2.375200">
						<ele>67</ele>
						<time>2026-05-01T11:15:46Z</time>
					</trkpt>
					<trkpt lat="48.873990" lon="2.375210">
						<ele>67</ele>
						<time>2026-05-01T11:15:48Z</time>
					</trkpt>
					<trkpt lat="48.873980" lon="2.375230">
						<ele>67</ele>
						<time>2026-05-01T11:15:49Z</time>
					</trkpt>
					<trkpt lat="48.873960" lon="2.375240">
						<ele>67</ele>
						<time>2026-05-01T11:15:51Z</time>
					</trkpt>
					<trkpt lat="48.873940" lon="2.375260">
						<ele>67</ele>
						<time>2026-05-01T11:15:53Z</time>
					</trkpt>
					<trkpt lat="48.873930" lon="2.375270">
						<ele>67</ele>
						<time>2026-05-01T11:15:54Z</time>
					</trkpt>
					<trkpt lat="48.873910" lon="2.375290">
						<ele>67</ele>
						<time>2026-05-01T11:15:56Z</time>
					</trkpt>
					<trkpt lat="48.873890" lon="2.375260">
						<ele>66</ele>
						<time>2026-05-01T11:15:58Z</time>
					</trkpt>
					<trkpt lat="48.873850" lon="2.375240">
						<ele>66</ele>
						<time>2026-05-01T11:16:01Z</time>
					</trkpt>
					<trkpt lat="48.873810" lon="2.375250">
						<ele>66</ele>
						<time>2026-05-01T11:16:04Z</time>
					</trkpt>
					<trkpt lat="48.873760" lon="2.375280">
						<ele>66</ele>
						<time>2026-05-01T11:16:09Z</time>
					</trkpt>
					<trkpt lat="48.873740" lon="2.375310">
						<ele>66</ele>
						<time>2026-05-01T11:16:11Z</time>
					</trkpt>
					<trkpt lat="48.873720" lon="2.375300">
						<ele>66</ele>
						<time>2026-05-01T11:16:13Z</time>
					</trkpt>
					<trkpt lat="48.873700" lon="2.375330">
						<ele>66</ele>
						<time>2026-05-01T11:16:15Z</time>
					</trkpt>
					<trkpt lat="48.873690" lon="2.375360">
						<ele>66</ele>
						<time>2026-05-01T11:16:17Z</time>
					</trkpt>
					<trkpt lat="48.873590" lon="2.375480">
						<ele>66</ele>
						<time>2026-05-01T11:16:27Z</time>
					</trkpt>
					<trkpt lat="48.873020" lon="2.376120">
						<ele>68</ele>
						<time>2026-05-01T11:17:24Z</time>
					</trkpt>
					<trkpt lat="48.872810" lon="2.376330">
						<ele>68</ele>
						<time>2026-05-01T11:17:44Z</time>
					</trkpt>
					<trkpt lat="48.872240" lon="2.376980">
						<ele>66</ele>
						<time>2026-05-01T11:18:41Z</time>
					</trkpt>
					<trkpt lat="48.871120" lon="2.378110">
						<ele>59</ele>
						<time>2026-05-01T11:20:28Z</time>
					</trkpt>
					<trkpt lat="48.870130" lon="2.379370">
						<ele>58</ele>
						<time>2026-05-01T11:22:12Z</time>
					</trkpt>
					</trkseg>
				</trk>
			</gpx>