<?xml version="1.0" encoding="UTF-8" ?>
<gpx version="1.1" xmlns:xsi="http://www.w3.org/2001/XMLSchema-instance"
    xmlns="http://www.topografix.com/GPX/1/1"
    xsi:schemaLocation="http://www.topografix.com/GPX/1/1 http://www.topografix.com/GPX/1/1/gpx.xsd"
    creator="Openrunner - https://www.openrunner.com" >
                <wpt lat="43.531890" lon="5.506461">
                        <ele>0</ele>
                        <name><![CDATA[Point de vue]]></name>
                        <desc><![CDATA[]]></desc>
                    <sym>40</sym>
                </wpt>
            	<trk>
	                   <name>bibemus-petite mer-infernets. RC2  CS-17840315</name>
						<trkseg>
					<trkpt lat="43.541120" lon="5.502950">
						<ele>353</ele>
						<time>2026-05-01T09:41:38Z</time>
					</trkpt>
					<trkpt lat="43.541000" lon="5.502920">
						<ele>353</ele>
						<time>2026-05-01T09:41:54Z</time>
					</trkpt>
					<trkpt lat="43.540840" lon="5.502980">
						<ele>354</ele>
						<time>2026-05-01T09:42:16Z</time>
					</trkpt>
					<trkpt lat="43.540760" lon="5.503060">
						<ele>355</ele>
						<time>2026-05-01T09:42:30Z</time>
					</trkpt>
					<trkpt lat="43.540570" lon="5.503200">
						<ele>357</ele>
						<time>2026-05-01T09:42:58Z</time>
					</trkpt>
					<trkpt lat="43.540340" lon="5.503210">
						<ele>358</ele>
						<time>2026-05-01T09:43:29Z</time>
					</trkpt>
					<trkpt lat="43.540100" lon="5.503270">
						<ele>359</ele>
						<time>2026-05-01T09:44:02Z</time>
					</trkpt>
					<trkpt lat="43.539880" lon="5.503350">
						<ele>359</ele>
						<time>2026-05-01T09:44:32Z</time>
					</trkpt>
					<trkpt lat="43.539670" lon="5.503440">
						<ele>360</ele>
						<time>2026-05-01T09:45:01Z</time>
					</trkpt>
					<trkpt lat="43.539560" lon="5.503600">
						<ele>360</ele>
						<time>2026-05-01T09:45:23Z</time>
					</trkpt>
					<trkpt lat="43.539490" lon="5.503830">
						<ele>360</ele>
						<time>2026-05-01T09:45:47Z</time>
					</trkpt>
					<trkpt lat="43.539420" lon="5.503970">
						<ele>360</ele>
						<time>2026-05-01T09:46:03Z</time>
					</trkpt>
					<trkpt lat="43.539290" lon="5.504190">
						<ele>360</ele>
						<time>2026-05-01T09:46:31Z</time>
					</trkpt>
					<trkpt lat="43.539080" lon="5.504320">
						<ele>360</ele>
						<time>2026-05-01T09:47:01Z</time>
					</trkpt>
					<trkpt lat="43.538800" lon="5.504450">
						<ele>359</ele>
						<time>2026-05-01T09:47:41Z</time>
					</trkpt>
					<trkpt lat="43.538540" lon="5.504370">
						<ele>358</ele>
						<time>2026-05-01T09:48:16Z</time>
					</trkpt>
					<trkpt lat="43.538370" lon="5.504560">
						<ele>357</ele>
						<time>2026-05-01T09:48:46Z</time>
					</trkpt>
					<trkpt lat="43.538110" lon="5.504690">
						<ele>357</ele>
						<time>2026-05-01T09:49:22Z</time>
					</trkpt>
					<trkpt lat="43.537770" lon="5.504820">
						<ele>356</ele>
						<time>2026-05-01T09:50:10Z</time>
					</trkpt>
					<trkpt lat="43.537510" lon="5.504910">
						<ele>356</ele>
						<time>2026-05-01T09:50:45Z</time>
					</trkpt>
					<trkpt lat="43.537290" lon="5.504950">
						<ele>355</ele>
						<time>2026-05-01T09:51:15Z</time>
					</trkpt>
					<trkpt lat="43.537090" lon="5.505040">
						<ele>354</ele>
						<time>2026-05-01T09:51:43Z</time>
					</trkpt>
					<trkpt lat="43.536970" lon="5.505140">
						<ele>353</ele>
						<time>2026-05-01T09:52:02Z</time>
					</trkpt>
					<trkpt lat="43.536850" lon="5.505340">
						<ele>351</ele>
						<time>2026-05-01T09:52:27Z</time>
					</trkpt>
					<trkpt lat="43.536790" lon="5.505450">
						<ele>351</ele>
						<time>2026-05-01T09:52:40Z</time>
					</trkpt>
					<trkpt lat="43.536620" lon="5.505510">
						<ele>349</ele>
						<time>2026-05-01T09:53:04Z</time>
					</trkpt>
					<trkpt lat="43.536500" lon="5.505570">
						<ele>348</ele>
						<time>2026-05-01T09:53:21Z</time>
					</trkpt>
					<trkpt lat="43.536360" lon="5.505650">
						<ele>346</ele>
						<time>2026-05-01T09:53:41Z</time>
					</trkpt>
					<trkpt lat="43.536310" lon="5.505800">
						<ele>344</ele>
						<time>2026-05-01T09:53:57Z</time>
					</trkpt>
					<trkpt lat="43.536280" lon="5.506250">
						<ele>341</ele>
						<time>2026-05-01T09:54:40Z</time>
					</trkpt>
					<trkpt lat="43.535930" lon="5.506170">
						<ele>337</ele>
						<time>2026-05-01T09:55:28Z</time>
					</trkpt>
					<trkpt lat="43.535720" lon="5.506080">
						<ele>334</ele>
						<time>2026-05-01T09:55:57Z</time>
					</trkpt>
					<trkpt lat="43.535660" lon="5.505880">
						<ele>336</ele>
						<time>2026-05-01T09:56:18Z</time>
					</trkpt>
					<trkpt lat="43.535480" lon="5.505690">
						<ele>335</ele>
						<time>2026-05-01T09:56:48Z</time>
					</trkpt>
					<trkpt lat="43.535220" lon="5.505630">
						<ele>332</ele>
						<time>2026-05-01T09:57:24Z</time>
					</trkpt>
					<trkpt lat="43.535030" lon="5.505460">
						<ele>332</ele>
						<time>2026-05-01T09:57:54Z</time>
					</trkpt>
					<trkpt lat="43.534950" lon="5.505300">
						<ele>334</ele>
						<time>2026-05-01T09:58:13Z</time>
					</trkpt>
					<trkpt lat="43.534860" lon="5.505140">
						<ele>336</ele>
						<time>2026-05-01T09:58:32Z</time>
					</trkpt>
					<trkpt lat="43.534700" lon="5.505080">
						<ele>335</ele>
						<time>2026-05-01T09:58:54Z</time>
					</trkpt>
					<trkpt lat="43.534480" lon="5.504980">
						<ele>335</ele>
						<time>2026-05-01T09:59:25Z</time>
					</trkpt>
					<trkpt lat="43.534200" lon="5.504980">
						<ele>333</ele>
						<time>2026-05-01T10:00:03Z</time>
					</trkpt>
					<trkpt lat="43.534000" lon="5.504910">
						<ele>334</ele>
						<time>2026-05-01T10:00:30Z</time>
					</trkpt>
					<trkpt lat="43.533830" lon="5.505010">
						<ele>334</ele>
						<time>2026-05-01T10:00:55Z</time>
					</trkpt>
					<trkpt lat="43.533630" lon="5.505070">
						<ele>333</ele>
						<time>2026-05-01T10:01:22Z</time>
					</trkpt>
					<trkpt lat="43.533500" lon="5.505490">
						<ele>325</ele>
						<time>2026-05-01T10:02:06Z</time>
					</trkpt>
					<trkpt lat="43.533430" lon="5.505730">
						<ele>320</ele>
						<time>2026-05-01T10:02:31Z</time>
					</trkpt>
					<trkpt lat="43.533260" lon="5.505940">
						<ele>314</ele>
						<time>2026-05-01T10:03:02Z</time>
					</trkpt>
					<trkpt lat="43.533050" lon="5.505890">
						<ele>320</ele>
						<time>2026-05-01T10:03:30Z</time>
					</trkpt>
					<trkpt lat="43.532850" lon="5.505760">
						<ele>326</ele>
						<time>2026-05-01T10:04:00Z</time>
					</trkpt>
					<trkpt lat="43.532690" lon="5.505780">
						<ele>328</ele>
						<time>2026-05-01T10:04:21Z</time>
					</trkpt>
					<trkpt lat="43.532520" lon="5.505860">
						<ele>329</ele>
						<time>2026-05-01T10:04:45Z</time>
					</trkpt>
					<trkpt lat="43.532460" lon="5.506020">
						<ele>324</ele>
						<time>2026-05-01T10:05:03Z</time>
					</trkpt>
					<trkpt lat="43.532450" lon="5.506240">
						<ele>316</ele>
						<time>2026-05-01T10:05:24Z</time>
					</trkpt>
					<trkpt lat="43.532430" lon="5.506490">
						<ele>307</ele>
						<time>2026-05-01T10:05:48Z</time>
					</trkpt>
					<trkpt lat="43.532300" lon="5.506380">
						<ele>313</ele>
						<time>2026-05-01T10:06:09Z</time>
					</trkpt>
					<trkpt lat="43.532220" lon="5.506490">
						<ele>310</ele>
						<time>2026-05-01T10:06:24Z</time>
					</trkpt>
					<trkpt lat="43.532070" lon="5.506440">
						<ele>314</ele>
						<time>2026-05-01T10:06:44Z</time>
					</trkpt>
					<trkpt lat="43.531690" lon="5.506300">
						<ele>324</ele>
						<time>2026-05-01T10:07:37Z</time>
					</trkpt>
					<trkpt lat="43.531450" lon="5.506190">
						<ele>326</ele>
						<time>2026-05-01T10:08:10Z</time>
					</trkpt>
					<trkpt lat="43.531230" lon="5.506080">
						<ele>327</ele>
						<time>2026-05-01T10:08:42Z</time>
					</trkpt>
					<trkpt lat="43.531090" lon="5.505950">
						<ele>331</ele>
						<time>2026-05-01T10:09:04Z</time>
					</trkpt>
					<trkpt lat="43.530830" lon="5.505950">
						<ele>328</ele>
						<time>2026-05-01T10:09:39Z</time>
					</trkpt>
					<trkpt lat="43.530580" lon="5.505910">
						<ele>326</ele>
						<time>2026-05-01T10:10:12Z</time>
					</trkpt>
					<trkpt lat="43.530330" lon="5.505770">
						<ele>327</ele>
						<time>2026-05-01T10:10:48Z</time>
					</trkpt>
					<trkpt lat="43.529990" lon="5.505490">
						<ele>329</ele>
						<time>2026-05-01T10:11:41Z</time>
					</trkpt>
					<trkpt lat="43.529740" lon="5.505340">
						<ele>329</ele>
						<time>2026-05-01T10:12:18Z</time>
					</trkpt>
					<trkpt lat="43.529520" lon="5.505120">
						<ele>332</ele>
						<time>2026-05-01T10:12:54Z</time>
					</trkpt>
					<trkpt lat="43.529260" lon="5.505220">
						<ele>327</ele>
						<time>2026-05-01T10:13:30Z</time>
					</trkpt>
					<trkpt lat="43.529010" lon="5.505280">
						<ele>318</ele>
						<time>2026-05-01T10:14:04Z</time>
					</trkpt>
					<trkpt lat="43.528810" lon="5.505080">
						<ele>314</ele>
						<time>2026-05-01T10:14:37Z</time>
					</trkpt>
					<trkpt lat="43.528750" lon="5.504830">
						<ele>313</ele>
						<time>2026-05-01T10:15:02Z</time>
					</trkpt>
					<trkpt lat="43.528750" lon="5.503680">
						<ele>314</ele>
						<time>2026-05-01T10:16:54Z</time>
					</trkpt>
					<trkpt lat="43.528540" lon="5.504160">
						<ele>305</ele>
						<time>2026-05-01T10:17:48Z</time>
					</trkpt>
					<trkpt lat="43.528410" lon="5.504550">
						<ele>298</ele>
						<time>2026-05-01T10:18:29Z</time>
					</trkpt>
					<trkpt lat="43.528460" lon="5.504890">
						<ele>300</ele>
						<time>2026-05-01T10:19:03Z</time>
					</trkpt>
					<trkpt lat="43.528550" lon="5.505460">
						<ele>298</ele>
						<time>2026-05-01T10:19:59Z</time>
					</trkpt>
					<trkpt lat="43.528710" lon="5.505890">
						<ele>297</ele>
						<time>2026-05-01T10:20:46Z</time>
					</trkpt>
					<trkpt lat="43.528830" lon="5.506160">
						<ele>297</ele>
						<time>2026-05-01T10:21:17Z</time>
					</trkpt>
					<trkpt lat="43.528680" lon="5.506620">
						<ele>292</ele>
						<time>2026-05-01T10:22:06Z</time>
					</trkpt>
					<trkpt lat="43.528500" lon="5.506840">
						<ele>291</ele>
						<time>2026-05-01T10:22:38Z</time>
					</trkpt>
					<trkpt lat="43.528260" lon="5.506920">
						<ele>291</ele>
						<time>2026-05-01T10:23:11Z</time>
					</trkpt>
					<trkpt lat="43.528180" lon="5.507080">
						<ele>289</ele>
						<time>2026-05-01T10:23:29Z</time>
					</trkpt>
					<trkpt lat="43.528140" lon="5.507400">
						<ele>285</ele>
						<time>2026-05-01T10:24:01Z</time>
					</trkpt>
					<trkpt lat="43.527990" lon="5.507180">
						<ele>286</ele>
						<time>2026-05-01T10:24:30Z</time>
					</trkpt>
					<trkpt lat="43.527810" lon="5.507080">
						<ele>286</ele>
						<time>2026-05-01T10:24:56Z</time>
					</trkpt>
					<trkpt lat="43.527650" lon="5.507030">
						<ele>285</ele>
						<time>2026-05-01T10:25:18Z</time>
					</trkpt>
					<trkpt lat="43.527490" lon="5.506960">
						<ele>285</ele>
						<time>2026-05-01T10:25:40Z</time>
					</trkpt>
					<trkpt lat="43.527380" lon="5.506910">
						<ele>285</ele>
						<time>2026-05-01T10:25:56Z</time>
					</trkpt>
					<trkpt lat="43.526860" lon="5.506980">
						<ele>279</ele>
						<time>2026-05-01T10:27:05Z</time>
					</trkpt>
					<trkpt lat="43.526750" lon="5.507090">
						<ele>276</ele>
						<time>2026-05-01T10:27:24Z</time>
					</trkpt>
					<trkpt lat="43.527060" lon="5.507180">
						<ele>278</ele>
						<time>2026-05-01T10:28:06Z</time>
					</trkpt>
					<trkpt lat="43.527300" lon="5.507360">
						<ele>277</ele>
						<time>2026-05-01T10:28:42Z</time>
					</trkpt>
					<trkpt lat="43.527550" lon="5.507470">
						<ele>277</ele>
						<time>2026-05-01T10:29:17Z</time>
					</trkpt>
					<trkpt lat="43.527670" lon="5.507980">
						<ele>257</ele>
						<time>2026-05-01T10:30:09Z</time>
					</trkpt>
					<trkpt lat="43.527780" lon="5.508150">
						<ele>251</ele>
						<time>2026-05-01T10:30:31Z</time>
					</trkpt>
					<trkpt lat="43.527990" lon="5.508050">
						<ele>258</ele>
						<time>2026-05-01T10:31:01Z</time>
					</trkpt>
					<trkpt lat="43.528290" lon="5.507980">
						<ele>265</ele>
						<time>2026-05-01T10:31:41Z</time>
					</trkpt>
					<trkpt lat="43.528520" lon="5.508160">
						<ele>260</ele>
						<time>2026-05-01T10:32:17Z</time>
					</trkpt>
					<trkpt lat="43.528480" lon="5.508220">
						<ele>257</ele>
						<time>2026-05-01T10:32:25Z</time>
					</trkpt>
					<trkpt lat="43.528390" lon="5.508210">
						<ele>256</ele>
						<time>2026-05-01T10:32:37Z</time>
					</trkpt>
					<trkpt lat="43.528400" lon="5.508310">
						<ele>252</ele>
						<time>2026-05-01T10:32:46Z</time>
					</trkpt>
					<trkpt lat="43.528490" lon="5.508370">
						<ele>251</ele>
						<time>2026-05-01T10:33:00Z</time>
					</trkpt>
					<trkpt lat="43.528760" lon="5.508360">
						<ele>258</ele>
						<time>2026-05-01T10:33:36Z</time>
					</trkpt>
					<trkpt lat="43.528660" lon="5.508540">
						<ele>249</ele>
						<time>2026-05-01T10:33:58Z</time>
					</trkpt>
					<trkpt lat="43.528710" lon="5.508580">
						<ele>249</ele>
						<time>2026-05-01T10:34:05Z</time>
					</trkpt>
					<trkpt lat="43.528710" lon="5.508640">
						<ele>247</ele>
						<time>2026-05-01T10:34:11Z</time>
					</trkpt>
					<trkpt lat="43.528620" lon="5.508740">
						<ele>242</ele>
						<time>2026-05-01T10:34:27Z</time>
					</trkpt>
					<trkpt lat="43.528650" lon="5.508780">
						<ele>241</ele>
						<time>2026-05-01T10:34:32Z</time>
					</trkpt>
					<trkpt lat="43.528740" lon="5.508770">
						<ele>244</ele>
						<time>2026-05-01T10:34:44Z</time>
					</trkpt>
					<trkpt lat="43.528800" lon="5.508810">
						<ele>244</ele>
						<time>2026-05-01T10:34:53Z</time>
					</trkpt>
					<trkpt lat="43.528830" lon="5.509010">
						<ele>239</ele>
						<time>2026-05-01T10:35:13Z</time>
					</trkpt>
					<trkpt lat="43.528940" lon="5.509050">
						<ele>241</ele>
						<time>2026-05-01T10:35:28Z</time>
					</trkpt>
					<trkpt lat="43.528840" lon="5.509190">
						<ele>233</ele>
						<time>2026-05-01T10:35:47Z</time>
					</trkpt>
					<trkpt lat="43.528830" lon="5.509430">
						<ele>230</ele>
						<time>2026-05-01T10:36:10Z</time>
					</trkpt>
					<trkpt lat="43.528750" lon="5.509540">
						<ele>227</ele>
						<time>2026-05-01T10:36:26Z</time>
					</trkpt>
					<trkpt lat="43.528850" lon="5.509700">
						<ele>226</ele>
						<time>2026-05-01T10:36:46Z</time>
					</trkpt>
					<trkpt lat="43.529120" lon="5.510550">
						<ele>215</ele>
						<time>2026-05-01T10:38:16Z</time>
					</trkpt>
					<trkpt lat="43.529240" lon="5.510770">
						<ele>213</ele>
						<time>2026-05-01T10:38:42Z</time>
					</trkpt>
					<trkpt lat="43.529370" lon="5.510880">
						<ele>214</ele>
						<time>2026-05-01T10:39:03Z</time>
					</trkpt>
					<trkpt lat="43.529510" lon="5.511190">
						<ele>217</ele>
						<time>2026-05-01T10:39:38Z</time>
					</trkpt>
					<trkpt lat="43.529780" lon="5.511130">
						<ele>217</ele>
						<time>2026-05-01T10:40:15Z</time>
					</trkpt>
					<trkpt lat="43.529990" lon="5.511290">
						<ele>217</ele>
						<time>2026-05-01T10:40:47Z</time>
					</trkpt>
					<trkpt lat="43.530190" lon="5.511190">
						<ele>221</ele>
						<time>2026-05-01T10:41:15Z</time>
					</trkpt>
					<trkpt lat="43.530440" lon="5.510990">
						<ele>224</ele>
						<time>2026-05-01T10:41:54Z</time>
					</trkpt>
					<trkpt lat="43.530480" lon="5.510990">
						<ele>225</ele>
						<time>2026-05-01T10:41:59Z</time>
					</trkpt>
					<trkpt lat="43.530490" lon="5.511060">
						<ele>225</ele>
						<time>2026-05-01T10:42:06Z</time>
					</trkpt>
					<trkpt lat="43.531170" lon="5.510180">
						<ele>231</ele>
						<time>2026-05-01T10:44:10Z</time>
					</trkpt>
					<trkpt lat="43.531460" lon="5.510020">
						<ele>224</ele>
						<time>2026-05-01T10:44:52Z</time>
					</trkpt>
					<trkpt lat="43.531670" lon="5.509730">
						<ele>222</ele>
						<time>2026-05-01T10:45:32Z</time>
					</trkpt>
					<trkpt lat="43.531860" lon="5.509620">
						<ele>222</ele>
						<time>2026-05-01T10:45:59Z</time>
					</trkpt>
					<trkpt lat="43.532080" lon="5.509380">
						<ele>222</ele>
						<time>2026-05-01T10:46:36Z</time>
					</trkpt>
					<trkpt lat="43.532520" lon="5.509230">
						<ele>218</ele>
						<time>2026-05-01T10:47:37Z</time>
					</trkpt>
					<trkpt lat="43.532590" lon="5.509150">
						<ele>220</ele>
						<time>2026-05-01T10:47:49Z</time>
					</trkpt>
					<trkpt lat="43.532700" lon="5.509110">
						<ele>224</ele>
						<time>2026-05-01T10:48:04Z</time>
					</trkpt>
					<trkpt lat="43.532820" lon="5.509270">
						<ele>225</ele>
						<time>2026-05-01T10:48:27Z</time>
					</trkpt>
					<trkpt lat="43.532950" lon="5.509350">
						<ele>228</ele>
						<time>2026-05-01T10:48:46Z</time>
					</trkpt>
					<trkpt lat="43.533020" lon="5.509540">
						<ele>229</ele>
						<time>2026-05-01T10:49:06Z</time>
					</trkpt>
					<trkpt lat="43.533000" lon="5.509800">
						<ele>229</ele>
						<time>2026-05-01T10:49:31Z</time>
					</trkpt>
					<trkpt lat="43.533050" lon="5.510100">
						<ele>230</ele>
						<time>2026-05-01T10:50:01Z</time>
					</trkpt>
					<trkpt lat="43.533200" lon="5.510200">
						<ele>234</ele>
						<time>2026-05-01T10:50:23Z</time>
					</trkpt>
					<trkpt lat="43.533280" lon="5.510530">
						<ele>238</ele>
						<time>2026-05-01T10:50:57Z</time>
					</trkpt>
					<trkpt lat="43.533060" lon="5.510950">
						<ele>237</ele>
						<time>2026-05-01T10:51:47Z</time>
					</trkpt>
					<trkpt lat="43.533120" lon="5.511540">
						<ele>243</ele>
						<time>2026-05-01T10:52:45Z</time>
					</trkpt>
					<trkpt lat="43.533070" lon="5.511850">
						<ele>246</ele>
						<time>2026-05-01T10:53:16Z</time>
					</trkpt>
					<trkpt lat="43.532970" lon="5.511920">
						<ele>246</ele>
						<time>2026-05-01T10:53:31Z</time>
					</trkpt>
					<trkpt lat="43.532850" lon="5.511910">
						<ele>243</ele>
						<time>2026-05-01T10:53:47Z</time>
					</trkpt>
					<trkpt lat="43.532760" lon="5.511950">
						<ele>242</ele>
						<time>2026-05-01T10:53:59Z</time>
					</trkpt>
					<trkpt lat="43.532680" lon="5.512000">
						<ele>242</ele>
						<time>2026-05-01T10:54:11Z</time>
					</trkpt>
					<trkpt lat="43.532650" lon="5.512070">
						<ele>242</ele>
						<time>2026-05-01T10:54:19Z</time>
					</trkpt>
					<trkpt lat="43.532660" lon="5.512510">
						<ele>250</ele>
						<time>2026-05-01T10:55:01Z</time>
					</trkpt>
					<trkpt lat="43.532760" lon="5.512650">
						<ele>252</ele>
						<time>2026-05-01T10:55:20Z</time>
					</trkpt>
					<trkpt lat="43.532700" lon="5.512890">
						<ele>252</ele>
						<time>2026-05-01T10:55:45Z</time>
					</trkpt>
					<trkpt lat="43.532750" lon="5.513170">
						<ele>254</ele>
						<time>2026-05-01T10:56:13Z</time>
					</trkpt>
					<trkpt lat="43.532830" lon="5.513210">
						<ele>255</ele>
						<time>2026-05-01T10:56:24Z</time>
					</trkpt>
					<trkpt lat="43.532990" lon="5.513190">
						<ele>258</ele>
						<time>2026-05-01T10:56:46Z</time>
					</trkpt>
					<trkpt lat="43.533150" lon="5.513270">
						<ele>260</ele>
						<time>2026-05-01T10:57:08Z</time>
					</trkpt>
					<trkpt lat="43.533500" lon="5.513350">
						<ele>265</ele>
						<time>2026-05-01T10:57:56Z</time>
					</trkpt>
					<trkpt lat="43.533730" lon="5.513510">
						<ele>266</ele>
						<time>2026-05-01T10:58:30Z</time>
					</trkpt>
					<trkpt lat="43.533870" lon="5.513750">
						<ele>265</ele>
						<time>2026-05-01T10:59:00Z</time>
					</trkpt>
					<trkpt lat="43.534220" lon="5.513950">
						<ele>266</ele>
						<time>2026-05-01T10:59:50Z</time>
					</trkpt>
					<trkpt lat="43.534240" lon="5.514100">
						<ele>264</ele>
						<time>2026-05-01T11:00:05Z</time>
					</trkpt>
					<trkpt lat="43.534020" lon="5.514380">
						<ele>260</ele>
						<time>2026-05-01T11:00:45Z</time>
					</trkpt>
					<trkpt lat="43.534010" lon="5.514480">
						<ele>258</ele>
						<time>2026-05-01T11:00:55Z</time>
					</trkpt>
					<trkpt lat="43.534080" lon="5.514570">
						<ele>258</ele>
						<time>2026-05-01T11:01:08Z</time>
					</trkpt>
					<trkpt lat="43.534060" lon="5.514560">
						<ele>258</ele>
						<time>2026-05-01T11:01:11Z</time>
					</trkpt>
					<trkpt lat="43.533930" lon="5.514570">
						<ele>257</ele>
						<time>2026-05-01T11:01:28Z</time>
					</trkpt>
					<trkpt lat="43.533830" lon="5.514630">
						<ele>256</ele>
						<time>2026-05-01T11:01:42Z</time>
					</trkpt>
					<trkpt lat="43.533690" lon="5.514530">
						<ele>256</ele>
						<time>2026-05-01T11:02:03Z</time>
					</trkpt>
					<trkpt lat="43.533480" lon="5.514500">
						<ele>256</ele>
						<time>2026-05-01T11:02:32Z</time>
					</trkpt>
					<trkpt lat="43.533370" lon="5.514440">
						<ele>256</ele>
						<time>2026-05-01T11:02:47Z</time>
					</trkpt>
					<trkpt lat="43.533180" lon="5.514450">
						<ele>254</ele>
						<time>2026-05-01T11:03:13Z</time>
					</trkpt>
					<trkpt lat="43.532970" lon="5.514390">
						<ele>252</ele>
						<time>2026-05-01T11:03:41Z</time>
					</trkpt>
					<trkpt lat="43.532940" lon="5.514350">
						<ele>253</ele>
						<time>2026-05-01T11:03:47Z</time>
					</trkpt>
					<trkpt lat="43.532850" lon="5.514370">
						<ele>251</ele>
						<time>2026-05-01T11:03:59Z</time>
					</trkpt>
					<trkpt lat="43.532800" lon="5.514340">
						<ele>251</ele>
						<time>2026-05-01T11:04:06Z</time>
					</trkpt>
					<trkpt lat="43.532710" lon="5.514350">
						<ele>250</ele>
						<time>2026-05-01T11:04:19Z</time>
					</trkpt>
					<trkpt lat="43.532680" lon="5.514410">
						<ele>249</ele>
						<time>2026-05-01T11:04:26Z</time>
					</trkpt>
					<trkpt lat="43.532610" lon="5.514340">
						<ele>249</ele>
						<time>2026-05-01T11:04:37Z</time>
					</trkpt>
					<trkpt lat="43.532510" lon="5.514520">
						<ele>247</ele>
						<time>2026-05-01T11:04:59Z</time>
					</trkpt>
					<trkpt lat="43.532620" lon="5.514660">
						<ele>247</ele>
						<time>2026-05-01T11:05:19Z</time>
					</trkpt>
					<trkpt lat="43.532630" lon="5.514730">
						<ele>247</ele>
						<time>2026-05-01T11:05:26Z</time>
					</trkpt>
					<trkpt lat="43.532760" lon="5.514790">
						<ele>247</ele>
						<time>2026-05-01T11:05:44Z</time>
					</trkpt>
					<trkpt lat="43.532620" lon="5.514760">
						<ele>247</ele>
						<time>2026-05-01T11:06:03Z</time>
					</trkpt>
					<trkpt lat="43.532560" lon="5.514840">
						<ele>246</ele>
						<time>2026-05-01T11:06:14Z</time>
					</trkpt>
					<trkpt lat="43.532810" lon="5.515140">
						<ele>245</ele>
						<time>2026-05-01T11:06:58Z</time>
					</trkpt>
					<trkpt lat="43.533080" lon="5.515090">
						<ele>245</ele>
						<time>2026-05-01T11:07:35Z</time>
					</trkpt>
					<trkpt lat="43.533200" lon="5.515110">
						<ele>245</ele>
						<time>2026-05-01T11:07:51Z</time>
					</trkpt>
					<trkpt lat="43.533340" lon="5.515060">
						<ele>246</ele>
						<time>2026-05-01T11:08:10Z</time>
					</trkpt>
					<trkpt lat="43.533380" lon="5.514970">
						<ele>248</ele>
						<time>2026-05-01T11:08:20Z</time>
					</trkpt>
					<trkpt lat="43.533490" lon="5.514990">
						<ele>248</ele>
						<time>2026-05-01T11:08:35Z</time>
					</trkpt>
					<trkpt lat="43.533680" lon="5.515120">
						<ele>247</ele>
						<time>2026-05-01T11:09:04Z</time>
					</trkpt>
					<trkpt lat="43.533740" lon="5.515110">
						<ele>248</ele>
						<time>2026-05-01T11:09:12Z</time>
					</trkpt>
					<trkpt lat="43.533820" lon="5.515020">
						<ele>250</ele>
						<time>2026-05-01T11:09:25Z</time>
					</trkpt>
					<trkpt lat="43.534020" lon="5.515180">
						<ele>248</ele>
						<time>2026-05-01T11:09:56Z</time>
					</trkpt>
					<trkpt lat="43.534130" lon="5.515400">
						<ele>245</ele>
						<time>2026-05-01T11:10:22Z</time>
					</trkpt>
					<trkpt lat="43.534380" lon="5.515480">
						<ele>247</ele>
						<time>2026-05-01T11:10:56Z</time>
					</trkpt>
					<trkpt lat="43.534590" lon="5.515680">
						<ele>245</ele>
						<time>2026-05-01T11:11:30Z</time>
					</trkpt>
					<trkpt lat="43.534810" lon="5.515630">
						<ele>250</ele>
						<time>2026-05-01T11:12:00Z</time>
					</trkpt>
					<trkpt lat="43.534870" lon="5.515650">
						<ele>250</ele>
						<time>2026-05-01T11:12:08Z</time>
					</trkpt>
					<trkpt lat="43.535150" lon="5.515900">
						<ele>250</ele>
						<time>2026-05-01T11:12:53Z</time>
					</trkpt>
					<trkpt lat="43.535180" lon="5.515990">
						<ele>251</ele>
						<time>2026-05-01T11:13:02Z</time>
					</trkpt>
					<trkpt lat="43.535090" lon="5.516140">
						<ele>250</ele>
						<time>2026-05-01T11:13:21Z</time>
					</trkpt>
					<trkpt lat="43.534530" lon="5.516290">
						<ele>243</ele>
						<time>2026-05-01T11:14:37Z</time>
					</trkpt>
					<trkpt lat="43.534200" lon="5.516290">
						<ele>239</ele>
						<time>2026-05-01T11:15:21Z</time>
					</trkpt>
					<trkpt lat="43.534100" lon="5.516380">
						<ele>239</ele>
						<time>2026-05-01T11:15:37Z</time>
					</trkpt>
					<trkpt lat="43.534050" lon="5.516490">
						<ele>239</ele>
						<time>2026-05-01T11:15:50Z</time>
					</trkpt>
					<trkpt lat="43.534120" lon="5.516610">
						<ele>240</ele>
						<time>2026-05-01T11:16:05Z</time>
					</trkpt>
					<trkpt lat="43.534110" lon="5.516770">
						<ele>241</ele>
						<time>2026-05-01T11:16:20Z</time>
					</trkpt>
					<trkpt lat="43.534190" lon="5.516990">
						<ele>242</ele>
						<time>2026-05-01T11:16:44Z</time>
					</trkpt>
					<trkpt lat="43.534400" lon="5.517090">
						<ele>244</ele>
						<time>2026-05-01T11:17:14Z</time>
					</trkpt>
					<trkpt lat="43.534630" lon="5.517340">
						<ele>246</ele>
						<time>2026-05-01T11:17:53Z</time>
					</trkpt>
					<trkpt lat="43.534760" lon="5.517300">
						<ele>247</ele>
						<time>2026-05-01T11:18:11Z</time>
					</trkpt>
					<trkpt lat="43.534790" lon="5.517370">
						<ele>247</ele>
						<time>2026-05-01T11:18:19Z</time>
					</trkpt>
					<trkpt lat="43.534640" lon="5.517690">
						<ele>248</ele>
						<time>2026-05-01T11:18:55Z</time>
					</trkpt>
					<trkpt lat="43.534560" lon="5.517700">
						<ele>247</ele>
						<time>2026-05-01T11:19:06Z</time>
					</trkpt>
					<trkpt lat="43.534440" lon="5.517630">
						<ele>246</ele>
						<time>2026-05-01T11:19:24Z</time>
					</trkpt>
					<trkpt lat="43.534120" lon="5.517920">
						<ele>247</ele>
						<time>2026-05-01T11:20:15Z</time>
					</trkpt>
					<trkpt lat="43.533970" lon="5.517960">
						<ele>246</ele>
						<time>2026-05-01T11:20:35Z</time>
					</trkpt>
					<trkpt lat="43.533820" lon="5.517940">
						<ele>245</ele>
						<time>2026-05-01T11:20:55Z</time>
					</trkpt>
					<trkpt lat="43.533790" lon="5.518160">
						<ele>246</ele>
						<time>2026-05-01T11:21:17Z</time>
					</trkpt>
					<trkpt lat="43.534070" lon="5.518350">
						<ele>252</ele>
						<time>2026-05-01T11:21:58Z</time>
					</trkpt>
					<trkpt lat="43.534250" lon="5.518390">
						<ele>254</ele>
						<time>2026-05-01T11:22:23Z</time>
					</trkpt>
					<trkpt lat="43.534620" lon="5.518610">
						<ele>258</ele>
						<time>2026-05-01T11:23:17Z</time>
					</trkpt>
					<trkpt lat="43.534800" lon="5.518800">
						<ele>262</ele>
						<time>2026-05-01T11:23:47Z</time>
					</trkpt>
					<trkpt lat="43.535040" lon="5.518940">
						<ele>266</ele>
						<time>2026-05-01T11:24:22Z</time>
					</trkpt>
					<trkpt lat="43.535210" lon="5.519110">
						<ele>269</ele>
						<time>2026-05-01T11:24:50Z</time>
					</trkpt>
					<trkpt lat="43.535560" lon="5.519250">
						<ele>271</ele>
						<time>2026-05-01T11:25:38Z</time>
					</trkpt>
					<trkpt lat="43.535670" lon="5.519550">
						<ele>273</ele>
						<time>2026-05-01T11:26:11Z</time>
					</trkpt>
					<trkpt lat="43.535640" lon="5.519960">
						<ele>275</ele>
						<time>2026-05-01T11:26:51Z</time>
					</trkpt>
					<trkpt lat="43.535690" lon="5.520170">
						<ele>275</ele>
						<time>2026-05-01T11:27:12Z</time>
					</trkpt>
					<trkpt lat="43.536220" lon="5.520250">
						<ele>283</ele>
						<time>2026-05-01T11:28:23Z</time>
					</trkpt>
					<trkpt lat="43.536440" lon="5.520380">
						<ele>288</ele>
						<time>2026-05-01T11:28:55Z</time>
					</trkpt>
					<trkpt lat="43.536570" lon="5.520710">
						<ele>292</ele>
						<time>2026-05-01T11:29:31Z</time>
					</trkpt>
					<trkpt lat="43.536530" lon="5.521060">
						<ele>290</ele>
						<time>2026-05-01T11:30:06Z</time>
					</trkpt>
					<trkpt lat="43.536590" lon="5.521150">
						<ele>291</ele>
						<time>2026-05-01T11:30:18Z</time>
					</trkpt>
					<trkpt lat="43.536710" lon="5.521150">
						<ele>294</ele>
						<time>2026-05-01T11:30:34Z</time>
					</trkpt>
					<trkpt lat="43.536930" lon="5.520950">
						<ele>301</ele>
						<time>2026-05-01T11:31:09Z</time>
					</trkpt>
					<trkpt lat="43.537120" lon="5.520680">
						<ele>304</ele>
						<time>2026-05-01T11:31:45Z</time>
					</trkpt>
					<trkpt lat="43.537240" lon="5.520630">
						<ele>307</ele>
						<time>2026-05-01T11:32:02Z</time>
					</trkpt>
					<trkpt lat="43.537520" lon="5.520780">
						<ele>315</ele>
						<time>2026-05-01T11:32:42Z</time>
					</trkpt>
					<trkpt lat="43.537700" lon="5.520840">
						<ele>318</ele>
						<time>2026-05-01T11:33:07Z</time>
					</trkpt>
					<trkpt lat="43.537870" lon="5.520830">
						<ele>320</ele>
						<time>2026-05-01T11:33:29Z</time>
					</trkpt>
					<trkpt lat="43.537990" lon="5.520890">
						<ele>322</ele>
						<time>2026-05-01T11:33:46Z</time>
					</trkpt>
					<trkpt lat="43.538040" lon="5.520990">
						<ele>324</ele>
						<time>2026-05-01T11:33:58Z</time>
					</trkpt>
					<trkpt lat="43.538020" lon="5.521400">
						<ele>328</ele>
						<time>2026-05-01T11:34:38Z</time>
					</trkpt>
					<trkpt lat="43.538320" lon="5.521400">
						<ele>335</ele>
						<time>2026-05-01T11:35:18Z</time>
					</trkpt>
					<trkpt lat="43.538670" lon="5.521720">
						<ele>340</ele>
						<time>2026-05-01T11:36:14Z</time>
					</trkpt>
					<trkpt lat="43.538820" lon="5.521790">
						<ele>340</ele>
						<time>2026-05-01T11:36:35Z</time>
					</trkpt>
					<trkpt lat="43.538910" lon="5.521790">
						<ele>341</ele>
						<time>2026-05-01T11:36:47Z</time>
					</trkpt>
					<trkpt lat="43.539030" lon="5.521680">
						<ele>340</ele>
						<time>2026-05-01T11:37:06Z</time>
					</trkpt>
					<trkpt lat="43.539150" lon="5.521670">
						<ele>340</ele>
						<time>2026-05-01T11:37:22Z</time>
					</trkpt>
					<trkpt lat="43.539360" lon="5.521550">
						<ele>341</ele>
						<time>2026-05-01T11:37:53Z</time>
					</trkpt>
					<trkpt lat="43.539570" lon="5.521350">
						<ele>342</ele>
						<time>2026-05-01T11:38:27Z</time>
					</trkpt>
					<trkpt lat="43.539700" lon="5.521130">
						<ele>343</ele>
						<time>2026-05-01T11:38:54Z</time>
					</trkpt>
					<trkpt lat="43.539720" lon="5.521020">
						<ele>343</ele>
						<time>2026-05-01T11:39:05Z</time>
					</trkpt>
					<trkpt lat="43.539690" lon="5.520940">
						<ele>342</ele>
						<time>2026-05-01T11:39:14Z</time>
					</trkpt>
					<trkpt lat="43.539530" lon="5.520760">
						<ele>340</ele>
						<time>2026-05-01T11:39:41Z</time>
					</trkpt>
					<trkpt lat="43.539470" lon="5.520560">
						<ele>340</ele>
						<time>2026-05-01T11:40:02Z</time>
					</trkpt>
					<trkpt lat="43.539250" lon="5.520310">
						<ele>338</ele>
						<time>2026-05-01T11:40:40Z</time>
					</trkpt>
					<trkpt lat="43.539230" lon="5.520170">
						<ele>338</ele>
						<time>2026-05-01T11:40:54Z</time>
					</trkpt>
					<trkpt lat="43.539260" lon="5.520050">
						<ele>339</ele>
						<time>2026-05-01T11:41:06Z</time>
					</trkpt>
					<trkpt lat="43.539570" lon="5.519770">
						<ele>340</ele>
						<time>2026-05-01T11:41:56Z</time>
					</trkpt>
					<trkpt lat="43.539970" lon="5.519590">
						<ele>340</ele>
						<time>2026-05-01T11:42:52Z</time>
					</trkpt>
					<trkpt lat="43.540150" lon="5.519450">
						<ele>340</ele>
						<time>2026-05-01T11:43:20Z</time>
					</trkpt>
					<trkpt lat="43.540300" lon="5.519270">
						<ele>340</ele>
						<time>2026-05-01T11:43:46Z</time>
					</trkpt>
					<trkpt lat="43.540470" lon="5.518890">
						<ele>340</ele>
						<time>2026-05-01T11:44:29Z</time>
					</trkpt>
					<trkpt lat="43.540280" lon="5.518490">
						<ele>338</ele>
						<time>2026-05-01T11:45:16Z</time>
					</trkpt>
					<trkpt lat="43.539900" lon="5.518490">
						<ele>335</ele>
						<time>2026-05-01T11:46:06Z</time>
					</trkpt>
					<trkpt lat="43.539630" lon="5.518330">
						<ele>331</ele>
						<time>2026-05-01T11:46:46Z</time>
					</trkpt>
					<trkpt lat="43.539460" lon="5.517770">
						<ele>332</ele>
						<time>2026-05-01T11:47:44Z</time>
					</trkpt>
					<trkpt lat="43.539330" lon="5.517540">
						<ele>332</ele>
						<time>2026-05-01T11:48:13Z</time>
					</trkpt>
					<trkpt lat="43.539280" lon="5.517360">
						<ele>334</ele>
						<time>2026-05-01T11:48:31Z</time>
					</trkpt>
					<trkpt lat="43.539170" lon="5.517230">
						<ele>335</ele>
						<time>2026-05-01T11:48:50Z</time>
					</trkpt>
					<trkpt lat="43.539040" lon="5.517140">
						<ele>335</ele>
						<time>2026-05-01T11:49:10Z</time>
					</trkpt>
					<trkpt lat="43.538860" lon="5.517110">
						<ele>332</ele>
						<time>2026-05-01T11:49:34Z</time>
					</trkpt>
					<trkpt lat="43.538320" lon="5.516790">
						<ele>331</ele>
						<time>2026-05-01T11:50:53Z</time>
					</trkpt>
					<trkpt lat="43.538160" lon="5.516760">
						<ele>328</ele>
						<time>2026-05-01T11:51:14Z</time>
					</trkpt>
					<trkpt lat="43.538070" lon="5.516690">
						<ele>327</ele>
						<time>2026-05-01T11:51:28Z</time>
					</trkpt>
					<trkpt lat="43.537990" lon="5.516560">
						<ele>327</ele>
						<time>2026-05-01T11:51:44Z</time>
					</trkpt>
					<trkpt lat="43.537960" lon="5.516240">
						<ele>330</ele>
						<time>2026-05-01T11:52:16Z</time>
					</trkpt>
					<trkpt lat="43.537840" lon="5.515920">
						<ele>332</ele>
						<time>2026-05-01T11:52:50Z</time>
					</trkpt>
					<trkpt lat="43.537550" lon="5.515590">
						<ele>329</ele>
						<time>2026-05-01T11:53:41Z</time>
					</trkpt>
					<trkpt lat="43.537110" lon="5.514710">
						<ele>325</ele>
						<time>2026-05-01T11:55:24Z</time>
					</trkpt>
					<trkpt lat="43.537090" lon="5.514550">
						<ele>325</ele>
						<time>2026-05-01T11:55:40Z</time>
					</trkpt>
					<trkpt lat="43.537160" lon="5.514330">
						<ele>328</ele>
						<time>2026-05-01T11:56:03Z</time>
					</trkpt>
					<trkpt lat="43.537360" lon="5.514220">
						<ele>333</ele>
						<time>2026-05-01T11:56:32Z</time>
					</trkpt>
					<trkpt lat="43.537420" lon="5.514160">
						<ele>335</ele>
						<time>2026-05-01T11:56:42Z</time>
					</trkpt>
					<trkpt lat="43.537430" lon="5.514080">
						<ele>335</ele>
						<time>2026-05-01T11:56:49Z</time>
					</trkpt>
					<trkpt lat="43.537330" lon="5.513870">
						<ele>334</ele>
						<time>2026-05-01T11:57:14Z</time>
					</trkpt>
					<trkpt lat="43.536940" lon="5.513570">
						<ele>325</ele>
						<time>2026-05-01T11:58:13Z</time>
					</trkpt>
					<trkpt lat="43.536830" lon="5.513440">
						<ele>323</ele>
						<time>2026-05-01T11:58:33Z</time>
					</trkpt>
					<trkpt lat="43.536720" lon="5.513070">
						<ele>320</ele>
						<time>2026-05-01T11:59:11Z</time>
					</trkpt>
					<trkpt lat="43.536720" lon="5.512660">
						<ele>320</ele>
						<time>2026-05-01T11:59:51Z</time>
					</trkpt>
					<trkpt lat="43.536790" lon="5.512150">
						<ele>319</ele>
						<time>2026-05-01T12:00:41Z</time>
					</trkpt>
					<trkpt lat="43.536880" lon="5.512000">
						<ele>321</ele>
						<time>2026-05-01T12:01:00Z</time>
					</trkpt>
					<trkpt lat="43.537190" lon="5.511840">
						<ele>328</ele>
						<time>2026-05-01T12:01:44Z</time>
					</trkpt>
					<trkpt lat="43.537370" lon="5.511690">
						<ele>332</ele>
						<time>2026-05-01T12:02:12Z</time>
					</trkpt>
					<trkpt lat="43.537450" lon="5.511450">
						<ele>334</ele>
						<time>2026-05-01T12:02:38Z</time>
					</trkpt>
					<trkpt lat="43.537410" lon="5.511370">
						<ele>334</ele>
						<time>2026-05-01T12:02:47Z</time>
					</trkpt>
					<trkpt lat="43.537200" lon="5.511220">
						<ele>329</ele>
						<time>2026-05-01T12:03:19Z</time>
					</trkpt>
					<trkpt lat="43.537020" lon="5.510940">
						<ele>326</ele>
						<time>2026-05-01T12:03:55Z</time>
					</trkpt>
					<trkpt lat="43.537040" lon="5.510720">
						<ele>329</ele>
						<time>2026-05-01T12:04:16Z</time>
					</trkpt>
					<trkpt lat="43.537120" lon="5.510640">
						<ele>331</ele>
						<time>2026-05-01T12:04:30Z</time>
					</trkpt>
					<trkpt lat="43.537060" lon="5.510490">
						<ele>332</ele>
						<time>2026-05-01T12:04:46Z</time>
					</trkpt>
					<trkpt lat="43.537140" lon="5.510270">
						<ele>336</ele>
						<time>2026-05-01T12:05:10Z</time>
					</trkpt>
					<trkpt lat="43.536920" lon="5.509610">
						<ele>337</ele>
						<time>2026-05-01T12:06:20Z</time>
					</trkpt>
					<trkpt lat="43.537070" lon="5.509250">
						<ele>339</ele>
						<time>2026-05-01T12:07:00Z</time>
					</trkpt>
					<trkpt lat="43.537110" lon="5.508740">
						<ele>339</ele>
						<time>2026-05-01T12:07:50Z</time>
					</trkpt>
					<trkpt lat="43.537070" lon="5.508130">
						<ele>339</ele>
						<time>2026-05-01T12:08:49Z</time>
					</trkpt>
					<trkpt lat="43.536840" lon="5.507640">
						<ele>339</ele>
						<time>2026-05-01T12:09:46Z</time>
					</trkpt>
					<trkpt lat="43.536620" lon="5.507410">
						<ele>338</ele>
						<time>2026-05-01T12:10:23Z</time>
					</trkpt>
					<trkpt lat="43.536250" lon="5.506880">
						<ele>335</ele>
						<time>2026-05-01T12:11:34Z</time>
					</trkpt>
					<trkpt lat="43.536160" lon="5.506690">
						<ele>336</ele>
						<time>2026-05-01T12:11:56Z</time>
					</trkpt>
					<trkpt lat="43.536110" lon="5.506510">
						<ele>336</ele>
						<time>2026-05-01T12:12:14Z</time>
					</trkpt>
					<trkpt lat="43.536210" lon="5.506330">
						<ele>339</ele>
						<time>2026-05-01T12:12:36Z</time>
					</trkpt>
					<trkpt lat="43.536230" lon="5.506120">
						<ele>341</ele>
						<time>2026-05-01T12:12:57Z</time>
					</trkpt>
					<trkpt lat="43.536240" lon="5.505930">
						<ele>343</ele>
						<time>2026-05-01T12:13:15Z</time>
					</trkpt>
					<trkpt lat="43.536170" lon="5.505670">
						<ele>344</ele>
						<time>2026-05-01T12:13:42Z</time>
					</trkpt>
					<trkpt lat="43.536050" lon="5.505380">
						<ele>345</ele>
						<time>2026-05-01T12:14:14Z</time>
					</trkpt>
					<trkpt lat="43.536010" lon="5.505160">
						<ele>346</ele>
						<time>2026-05-01T12:14:36Z</time>
					</trkpt>
					<trkpt lat="43.535890" lon="5.505010">
						<ele>346</ele>
						<time>2026-05-01T12:14:58Z</time>
					</trkpt>
					<trkpt lat="43.535820" lon="5.504800">
						<ele>347</ele>
						<time>2026-05-01T12:15:20Z</time>
					</trkpt>
					<trkpt lat="43.535790" lon="5.504570">
						<ele>348</ele>
						<time>2026-05-01T12:15:43Z</time>
					</trkpt>
					<trkpt lat="43.535770" lon="5.504400">
						<ele>349</ele>
						<time>2026-05-01T12:16:00Z</time>
					</trkpt>
					<trkpt lat="43.535710" lon="5.504080">
						<ele>351</ele>
						<time>2026-05-01T12:16:32Z</time>
					</trkpt>
					<trkpt lat="43.535640" lon="5.503800">
						<ele>352</ele>
						<time>2026-05-01T12:17:00Z</time>
					</trkpt>
					<trkpt lat="43.535610" lon="5.503550">
						<ele>353</ele>
						<time>2026-05-01T12:17:25Z</time>
					</trkpt>
					<trkpt lat="43.535610" lon="5.503310">
						<ele>354</ele>
						<time>2026-05-01T12:17:48Z</time>
					</trkpt>
					<trkpt lat="43.535650" lon="5.502990">
						<ele>355</ele>
						<time>2026-05-01T12:18:19Z</time>
					</trkpt>
					<trkpt lat="43.535800" lon="5.502730">
						<ele>356</ele>
						<time>2026-05-01T12:18:52Z</time>
					</trkpt>
					<trkpt lat="43.535890" lon="5.502470">
						<ele>357</ele>
						<time>2026-05-01T12:19:19Z</time>
					</trkpt>
					<trkpt lat="43.536010" lon="5.502270">
						<ele>357</ele>
						<time>2026-05-01T12:19:45Z</time>
					</trkpt>
					<trkpt lat="43.536110" lon="5.502100">
						<ele>357</ele>
						<time>2026-05-01T12:20:06Z</time>
					</trkpt>
					<trkpt lat="43.536240" lon="5.501900">
						<ele>357</ele>
						<time>2026-05-01T12:20:32Z</time>
					</trkpt>
					<trkpt lat="43.536420" lon="5.501760">
						<ele>357</ele>
						<time>2026-05-01T12:20:59Z</time>
					</trkpt>
					<trkpt lat="43.536530" lon="5.501910">
						<ele>357</ele>
						<time>2026-05-01T12:21:20Z</time>
					</trkpt>
					<trkpt lat="43.536740" lon="5.502000">
						<ele>358</ele>
						<time>2026-05-01T12:21:49Z</time>
					</trkpt>
					<trkpt lat="43.536940" lon="5.501990">
						<ele>358</ele>
						<time>2026-05-01T12:22:16Z</time>
					</trkpt>
					<trkpt lat="43.537140" lon="5.502060">
						<ele>359</ele>
						<time>2026-05-01T12:22:43Z</time>
					</trkpt>
					<trkpt lat="43.537320" lon="5.502190">
						<ele>359</ele>
						<time>2026-05-01T12:23:11Z</time>
					</trkpt>
					<trkpt lat="43.537560" lon="5.502200">
						<ele>360</ele>
						<time>2026-05-01T12:23:43Z</time>
					</trkpt>
					<trkpt lat="43.537780" lon="5.502280">
						<ele>360</ele>
						<time>2026-05-01T12:24:13Z</time>
					</trkpt>
					<trkpt lat="43.537970" lon="5.502220">
						<ele>360</ele>
						<time>2026-05-01T12:24:39Z</time>
					</trkpt>
					<trkpt lat="43.538220" lon="5.502260">
						<ele>361</ele>
						<time>2026-05-01T12:25:13Z</time>
					</trkpt>
					<trkpt lat="43.538520" lon="5.502280">
						<ele>361</ele>
						<time>2026-05-01T12:25:53Z</time>
					</trkpt>
					<trkpt lat="43.538640" lon="5.502140">
						<ele>360</ele>
						<time>2026-05-01T12:26:14Z</time>
					</trkpt>
					<trkpt lat="43.538730" lon="5.501990">
						<ele>360</ele>
						<time>2026-05-01T12:26:32Z</time>
					</trkpt>
					<trkpt lat="43.538930" lon="5.501830">
						<ele>359</ele>
						<time>2026-05-01T12:27:03Z</time>
					</trkpt>
					<trkpt lat="43.539130" lon="5.501720">
						<ele>358</ele>
						<time>2026-05-01T12:27:32Z</time>
					</trkpt>
					<trkpt lat="43.539320" lon="5.501820">
						<ele>358</ele>
						<time>2026-05-01T12:27:59Z</time>
					</trkpt>
					<trkpt lat="43.539520" lon="5.502010">
						<ele>357</ele>
						<time>2026-05-01T12:28:32Z</time>
					</trkpt>
					<trkpt lat="43.539730" lon="5.502170">
						<ele>357</ele>
						<time>2026-05-01T12:29:04Z</time>
					</trkpt>
					<trkpt lat="43.539880" lon="5.502390">
						<ele>357</ele>
						<time>2026-05-01T12:29:33Z</time>
					</trkpt>
					<trkpt lat="43.540110" lon="5.502580">
						<ele>356</ele>
						<time>2026-05-01T12:30:09Z</time>
					</trkpt>
					<trkpt lat="43.540230" lon="5.502750">
						<ele>356</ele>
						<time>2026-05-01T12:30:32Z</time>
					</trkpt>
					<trkpt lat="43.540310" lon="5.502920">
						<ele>356</ele>
						<time>2026-05-01T12:30:51Z</time>
					</trkpt>
					<trkpt lat="43.540430" lon="5.503150">
						<ele>357</ele>
						<time>2026-05-01T12:31:19Z</time>
					</trkpt>
					<trkpt lat="43.540630" lon="5.503060">
						<ele>356</ele>
						<time>2026-05-01T12:31:47Z</time>
					</trkpt>
					<trkpt lat="43.540720" lon="5.502920">
						<ele>354</ele>
						<time>2026-05-01T12:32:05Z</time>
					</trkpt>
					<trkpt lat="43.540870" lon="5.502850">
						<ele>353</ele>
						<time>2026-05-01T12:32:26Z</time>
					</trkpt>
					<trkpt lat="43.541100" lon="5.502810">
						<ele>353</ele>
						<time>2026-05-01T12:32:57Z</time>
					</trkpt>
					</trkseg>
				</trk>
			</gpx>