<?xml version="1.0" encoding="UTF-8"?>
<gpx xmlns="http://www.topografix.com/GPX/1/1" xmlns:xsi="http://www.w3.org/2001/XMLSchema-instance" version="1.1" creator="phpGPX/1.3.0" xsi:schemaLocation="http://www.topografix.com/GPX/1/1 http://www.topografix.com/GPX/1/1/gpx.xsd">
  <metadata>
    <time>2026-05-11T18:38:59+00:00</time>
  </metadata>
  <trk>
    <name>Boucle inter-villages</name>
    <trkseg>
      <trkpt lat="43.72311" lon="6.62808">
        <ele>963</ele>
        <time>2026-05-11T18:39:00+00:00</time>
      </trkpt>
      <trkpt lat="43.72315" lon="6.62813">
        <ele>964</ele>
        <time>2026-05-11T18:39:01+00:00</time>
      </trkpt>
      <trkpt lat="43.7232" lon="6.6282">
        <ele>964</ele>
        <time>2026-05-11T18:39:02+00:00</time>
      </trkpt>
      <trkpt lat="43.72321" lon="6.62831">
        <ele>964</ele>
        <time>2026-05-11T18:39:03+00:00</time>
      </trkpt>
      <trkpt lat="43.72321" lon="6.62831">
        <ele>964</ele>
        <time>2026-05-11T18:39:04+00:00</time>
      </trkpt>
      <trkpt lat="43.72317" lon="6.62835">
        <ele>964</ele>
        <time>2026-05-11T18:39:05+00:00</time>
      </trkpt>
      <trkpt lat="43.72317" lon="6.6284">
        <ele>964</ele>
        <time>2026-05-11T18:39:06+00:00</time>
      </trkpt>
      <trkpt lat="43.72318" lon="6.62845">
        <ele>964</ele>
        <time>2026-05-11T18:39:07+00:00</time>
      </trkpt>
      <trkpt lat="43.72321" lon="6.62848">
        <ele>965</ele>
        <time>2026-05-11T18:39:08+00:00</time>
      </trkpt>
      <trkpt lat="43.72323" lon="6.6285">
        <ele>965</ele>
        <time>2026-05-11T18:39:09+00:00</time>
      </trkpt>
      <trkpt lat="43.7233" lon="6.62863">
        <ele>966</ele>
        <time>2026-05-11T18:39:10+00:00</time>
      </trkpt>
      <trkpt lat="43.72331" lon="6.62864">
        <ele>966</ele>
        <time>2026-05-11T18:39:11+00:00</time>
      </trkpt>
      <trkpt lat="43.72335" lon="6.62871">
        <ele>966</ele>
        <time>2026-05-11T18:39:12+00:00</time>
      </trkpt>
      <trkpt lat="43.72338" lon="6.62874">
        <ele>966</ele>
        <time>2026-05-11T18:39:13+00:00</time>
      </trkpt>
      <trkpt lat="43.72344" lon="6.62879">
        <ele>967</ele>
        <time>2026-05-11T18:39:14+00:00</time>
      </trkpt>
      <trkpt lat="43.72344" lon="6.62879">
        <ele>967</ele>
        <time>2026-05-11T18:39:15+00:00</time>
      </trkpt>
      <trkpt lat="43.72343" lon="6.62887">
        <ele>967</ele>
        <time>2026-05-11T18:39:16+00:00</time>
      </trkpt>
      <trkpt lat="43.72344" lon="6.62891">
        <ele>967</ele>
        <time>2026-05-11T18:39:17+00:00</time>
      </trkpt>
      <trkpt lat="43.72349" lon="6.629">
        <ele>967</ele>
        <time>2026-05-11T18:39:18+00:00</time>
      </trkpt>
      <trkpt lat="43.72369" lon="6.62942">
        <ele>969</ele>
        <time>2026-05-11T18:39:19+00:00</time>
      </trkpt>
      <trkpt lat="43.72377" lon="6.62972">
        <ele>971</ele>
        <time>2026-05-11T18:39:20+00:00</time>
      </trkpt>
      <trkpt lat="43.72375" lon="6.62982">
        <ele>971</ele>
        <time>2026-05-11T18:39:21+00:00</time>
      </trkpt>
      <trkpt lat="43.72383" lon="6.63015">
        <ele>973</ele>
        <time>2026-05-11T18:39:22+00:00</time>
      </trkpt>
      <trkpt lat="43.72399" lon="6.63034">
        <ele>973</ele>
        <time>2026-05-11T18:39:23+00:00</time>
      </trkpt>
      <trkpt lat="43.7241" lon="6.63037">
        <ele>973</ele>
        <time>2026-05-11T18:39:24+00:00</time>
      </trkpt>
      <trkpt lat="43.72428" lon="6.63042">
        <ele>974</ele>
        <time>2026-05-11T18:39:25+00:00</time>
      </trkpt>
      <trkpt lat="43.72449" lon="6.63057">
        <ele>977</ele>
        <time>2026-05-11T18:39:26+00:00</time>
      </trkpt>
      <trkpt lat="43.72505" lon="6.63117">
        <ele>988</ele>
        <time>2026-05-11T18:39:27+00:00</time>
      </trkpt>
      <trkpt lat="43.72549" lon="6.63151">
        <ele>995</ele>
        <time>2026-05-11T18:39:28+00:00</time>
      </trkpt>
      <trkpt lat="43.72594" lon="6.63197">
        <ele>1003</ele>
        <time>2026-05-11T18:39:29+00:00</time>
      </trkpt>
      <trkpt lat="43.72611" lon="6.63221">
        <ele>1006</ele>
        <time>2026-05-11T18:39:30+00:00</time>
      </trkpt>
      <trkpt lat="43.72628" lon="6.63262">
        <ele>1011</ele>
        <time>2026-05-11T18:39:31+00:00</time>
      </trkpt>
      <trkpt lat="43.72651" lon="6.63294">
        <ele>1016</ele>
        <time>2026-05-11T18:39:32+00:00</time>
      </trkpt>
      <trkpt lat="43.72657" lon="6.63298">
        <ele>1016</ele>
        <time>2026-05-11T18:39:33+00:00</time>
      </trkpt>
      <trkpt lat="43.7267" lon="6.63298">
        <ele>1017</ele>
        <time>2026-05-11T18:39:34+00:00</time>
      </trkpt>
      <trkpt lat="43.72664" lon="6.63299">
        <ele>1016</ele>
        <time>2026-05-11T18:39:35+00:00</time>
      </trkpt>
      <trkpt lat="43.72679" lon="6.63299">
        <ele>1017</ele>
        <time>2026-05-11T18:39:36+00:00</time>
      </trkpt>
      <trkpt lat="43.72706" lon="6.63288">
        <ele>1018</ele>
        <time>2026-05-11T18:39:37+00:00</time>
      </trkpt>
      <trkpt lat="43.7274" lon="6.63274">
        <ele>1019</ele>
        <time>2026-05-11T18:39:38+00:00</time>
      </trkpt>
      <trkpt lat="43.72769" lon="6.63252">
        <ele>1018</ele>
        <time>2026-05-11T18:39:39+00:00</time>
      </trkpt>
      <trkpt lat="43.72798" lon="6.6325">
        <ele>1019</ele>
        <time>2026-05-11T18:39:40+00:00</time>
      </trkpt>
      <trkpt lat="43.72808" lon="6.63253">
        <ele>1020</ele>
        <time>2026-05-11T18:39:41+00:00</time>
      </trkpt>
      <trkpt lat="43.72819" lon="6.63252">
        <ele>1021</ele>
        <time>2026-05-11T18:39:42+00:00</time>
      </trkpt>
      <trkpt lat="43.72837" lon="6.63264">
        <ele>1023</ele>
        <time>2026-05-11T18:39:43+00:00</time>
      </trkpt>
      <trkpt lat="43.7285" lon="6.63284">
        <ele>1027</ele>
        <time>2026-05-11T18:39:44+00:00</time>
      </trkpt>
      <trkpt lat="43.72889" lon="6.63315">
        <ele>1034</ele>
        <time>2026-05-11T18:39:45+00:00</time>
      </trkpt>
      <trkpt lat="43.72898" lon="6.63344">
        <ele>1040</ele>
        <time>2026-05-11T18:39:46+00:00</time>
      </trkpt>
      <trkpt lat="43.72905" lon="6.63353">
        <ele>1043</ele>
        <time>2026-05-11T18:39:47+00:00</time>
      </trkpt>
      <trkpt lat="43.72916" lon="6.63363">
        <ele>1046</ele>
        <time>2026-05-11T18:39:48+00:00</time>
      </trkpt>
      <trkpt lat="43.72923" lon="6.6337">
        <ele>1048</ele>
        <time>2026-05-11T18:39:49+00:00</time>
      </trkpt>
      <trkpt lat="43.72934" lon="6.63395">
        <ele>1054</ele>
        <time>2026-05-11T18:39:50+00:00</time>
      </trkpt>
      <trkpt lat="43.72953" lon="6.63421">
        <ele>1059</ele>
        <time>2026-05-11T18:39:51+00:00</time>
      </trkpt>
      <trkpt lat="43.72986" lon="6.63451">
        <ele>1064</ele>
        <time>2026-05-11T18:39:52+00:00</time>
      </trkpt>
      <trkpt lat="43.72993" lon="6.63484">
        <ele>1069</ele>
        <time>2026-05-11T18:39:53+00:00</time>
      </trkpt>
      <trkpt lat="43.73018" lon="6.6354">
        <ele>1076</ele>
        <time>2026-05-11T18:39:54+00:00</time>
      </trkpt>
      <trkpt lat="43.73026" lon="6.63548">
        <ele>1078</ele>
        <time>2026-05-11T18:39:55+00:00</time>
      </trkpt>
      <trkpt lat="43.73022" lon="6.63547">
        <ele>1077</ele>
        <time>2026-05-11T18:39:56+00:00</time>
      </trkpt>
      <trkpt lat="43.7304" lon="6.63527">
        <ele>1078</ele>
        <time>2026-05-11T18:39:57+00:00</time>
      </trkpt>
      <trkpt lat="43.73057" lon="6.63486">
        <ele>1075</ele>
        <time>2026-05-11T18:39:58+00:00</time>
      </trkpt>
      <trkpt lat="43.73082" lon="6.63454">
        <ele>1074</ele>
        <time>2026-05-11T18:39:59+00:00</time>
      </trkpt>
      <trkpt lat="43.7309" lon="6.63431">
        <ele>1072</ele>
        <time>2026-05-11T18:40:00+00:00</time>
      </trkpt>
      <trkpt lat="43.73098" lon="6.63372">
        <ele>1068</ele>
        <time>2026-05-11T18:40:01+00:00</time>
      </trkpt>
      <trkpt lat="43.73113" lon="6.63318">
        <ele>1065</ele>
        <time>2026-05-11T18:40:02+00:00</time>
      </trkpt>
      <trkpt lat="43.73123" lon="6.6317">
        <ele>1057</ele>
        <time>2026-05-11T18:40:03+00:00</time>
      </trkpt>
      <trkpt lat="43.73128" lon="6.63147">
        <ele>1056</ele>
        <time>2026-05-11T18:40:04+00:00</time>
      </trkpt>
      <trkpt lat="43.73139" lon="6.63125">
        <ele>1056</ele>
        <time>2026-05-11T18:40:05+00:00</time>
      </trkpt>
      <trkpt lat="43.73177" lon="6.63074">
        <ele>1054</ele>
        <time>2026-05-11T18:40:06+00:00</time>
      </trkpt>
      <trkpt lat="43.7319" lon="6.63028">
        <ele>1050</ele>
        <time>2026-05-11T18:40:07+00:00</time>
      </trkpt>
      <trkpt lat="43.73198" lon="6.63018">
        <ele>1049</ele>
        <time>2026-05-11T18:40:08+00:00</time>
      </trkpt>
      <trkpt lat="43.73207" lon="6.62992">
        <ele>1047</ele>
        <time>2026-05-11T18:40:09+00:00</time>
      </trkpt>
      <trkpt lat="43.73226" lon="6.62917">
        <ele>1041</ele>
        <time>2026-05-11T18:40:10+00:00</time>
      </trkpt>
      <trkpt lat="43.73216" lon="6.62874">
        <ele>1035</ele>
        <time>2026-05-11T18:40:11+00:00</time>
      </trkpt>
      <trkpt lat="43.73217" lon="6.62863">
        <ele>1034</ele>
        <time>2026-05-11T18:40:12+00:00</time>
      </trkpt>
      <trkpt lat="43.73249" lon="6.6279">
        <ele>1026</ele>
        <time>2026-05-11T18:40:13+00:00</time>
      </trkpt>
      <trkpt lat="43.73259" lon="6.62779">
        <ele>1024</ele>
        <time>2026-05-11T18:40:14+00:00</time>
      </trkpt>
      <trkpt lat="43.73288" lon="6.62763">
        <ele>1021</ele>
        <time>2026-05-11T18:40:15+00:00</time>
      </trkpt>
      <trkpt lat="43.73299" lon="6.62744">
        <ele>1018</ele>
        <time>2026-05-11T18:40:16+00:00</time>
      </trkpt>
      <trkpt lat="43.73303" lon="6.62727">
        <ele>1015</ele>
        <time>2026-05-11T18:40:17+00:00</time>
      </trkpt>
      <trkpt lat="43.73321" lon="6.62703">
        <ele>1013</ele>
        <time>2026-05-11T18:40:18+00:00</time>
      </trkpt>
      <trkpt lat="43.73334" lon="6.6267">
        <ele>1009</ele>
        <time>2026-05-11T18:40:19+00:00</time>
      </trkpt>
      <trkpt lat="43.73366" lon="6.62653">
        <ele>1006</ele>
        <time>2026-05-11T18:40:20+00:00</time>
      </trkpt>
      <trkpt lat="43.73374" lon="6.62657">
        <ele>1006</ele>
        <time>2026-05-11T18:40:21+00:00</time>
      </trkpt>
      <trkpt lat="43.73373" lon="6.62649">
        <ele>1006</ele>
        <time>2026-05-11T18:40:22+00:00</time>
      </trkpt>
      <trkpt lat="43.73386" lon="6.62631">
        <ele>1004</ele>
        <time>2026-05-11T18:40:23+00:00</time>
      </trkpt>
      <trkpt lat="43.73394" lon="6.62613">
        <ele>1004</ele>
        <time>2026-05-11T18:40:24+00:00</time>
      </trkpt>
      <trkpt lat="43.73389" lon="6.62614">
        <ele>1003</ele>
        <time>2026-05-11T18:40:25+00:00</time>
      </trkpt>
      <trkpt lat="43.73384" lon="6.62614">
        <ele>1003</ele>
        <time>2026-05-11T18:40:26+00:00</time>
      </trkpt>
      <trkpt lat="43.7338" lon="6.62609">
        <ele>1002</ele>
        <time>2026-05-11T18:40:27+00:00</time>
      </trkpt>
      <trkpt lat="43.73376" lon="6.626">
        <ele>1001</ele>
        <time>2026-05-11T18:40:28+00:00</time>
      </trkpt>
      <trkpt lat="43.73366" lon="6.62563">
        <ele>997</ele>
        <time>2026-05-11T18:40:29+00:00</time>
      </trkpt>
      <trkpt lat="43.73355" lon="6.62549">
        <ele>994</ele>
        <time>2026-05-11T18:40:30+00:00</time>
      </trkpt>
      <trkpt lat="43.73354" lon="6.62547">
        <ele>994</ele>
        <time>2026-05-11T18:40:31+00:00</time>
      </trkpt>
      <trkpt lat="43.73354" lon="6.62543">
        <ele>993</ele>
        <time>2026-05-11T18:40:32+00:00</time>
      </trkpt>
      <trkpt lat="43.73355" lon="6.62539">
        <ele>993</ele>
        <time>2026-05-11T18:40:33+00:00</time>
      </trkpt>
      <trkpt lat="43.73357" lon="6.6253">
        <ele>992</ele>
        <time>2026-05-11T18:40:34+00:00</time>
      </trkpt>
      <trkpt lat="43.73357" lon="6.62525">
        <ele>992</ele>
        <time>2026-05-11T18:40:35+00:00</time>
      </trkpt>
      <trkpt lat="43.73355" lon="6.62523">
        <ele>991</ele>
        <time>2026-05-11T18:40:36+00:00</time>
      </trkpt>
      <trkpt lat="43.73351" lon="6.62529">
        <ele>991</ele>
        <time>2026-05-11T18:40:37+00:00</time>
      </trkpt>
      <trkpt lat="43.73348" lon="6.62529">
        <ele>991</ele>
        <time>2026-05-11T18:40:38+00:00</time>
      </trkpt>
      <trkpt lat="43.73344" lon="6.62521">
        <ele>990</ele>
        <time>2026-05-11T18:40:39+00:00</time>
      </trkpt>
      <trkpt lat="43.7334" lon="6.62504">
        <ele>987</ele>
        <time>2026-05-11T18:40:40+00:00</time>
      </trkpt>
      <trkpt lat="43.73337" lon="6.625">
        <ele>986</ele>
        <time>2026-05-11T18:40:41+00:00</time>
      </trkpt>
      <trkpt lat="43.73337" lon="6.62498">
        <ele>986</ele>
        <time>2026-05-11T18:40:42+00:00</time>
      </trkpt>
      <trkpt lat="43.73335" lon="6.62499">
        <ele>986</ele>
        <time>2026-05-11T18:40:43+00:00</time>
      </trkpt>
      <trkpt lat="43.7333" lon="6.62498">
        <ele>985</ele>
        <time>2026-05-11T18:40:44+00:00</time>
      </trkpt>
      <trkpt lat="43.73325" lon="6.62486">
        <ele>983</ele>
        <time>2026-05-11T18:40:45+00:00</time>
      </trkpt>
      <trkpt lat="43.73309" lon="6.62464">
        <ele>978</ele>
        <time>2026-05-11T18:40:46+00:00</time>
      </trkpt>
      <trkpt lat="43.73305" lon="6.62456">
        <ele>976</ele>
        <time>2026-05-11T18:40:47+00:00</time>
      </trkpt>
      <trkpt lat="43.73304" lon="6.62452">
        <ele>976</ele>
        <time>2026-05-11T18:40:48+00:00</time>
      </trkpt>
      <trkpt lat="43.73301" lon="6.6244">
        <ele>974</ele>
        <time>2026-05-11T18:40:49+00:00</time>
      </trkpt>
      <trkpt lat="43.73298" lon="6.62425">
        <ele>972</ele>
        <time>2026-05-11T18:40:50+00:00</time>
      </trkpt>
      <trkpt lat="43.73293" lon="6.62416">
        <ele>970</ele>
        <time>2026-05-11T18:40:51+00:00</time>
      </trkpt>
      <trkpt lat="43.73289" lon="6.62407">
        <ele>969</ele>
        <time>2026-05-11T18:40:52+00:00</time>
      </trkpt>
      <trkpt lat="43.73287" lon="6.62399">
        <ele>967</ele>
        <time>2026-05-11T18:40:53+00:00</time>
      </trkpt>
      <trkpt lat="43.73286" lon="6.6239">
        <ele>966</ele>
        <time>2026-05-11T18:40:54+00:00</time>
      </trkpt>
      <trkpt lat="43.73284" lon="6.62382">
        <ele>965</ele>
        <time>2026-05-11T18:40:55+00:00</time>
      </trkpt>
      <trkpt lat="43.73276" lon="6.62354">
        <ele>962</ele>
        <time>2026-05-11T18:40:56+00:00</time>
      </trkpt>
      <trkpt lat="43.73269" lon="6.6234">
        <ele>960</ele>
        <time>2026-05-11T18:40:57+00:00</time>
      </trkpt>
      <trkpt lat="43.73265" lon="6.62332">
        <ele>959</ele>
        <time>2026-05-11T18:40:58+00:00</time>
      </trkpt>
      <trkpt lat="43.73247" lon="6.62304">
        <ele>959</ele>
        <time>2026-05-11T18:40:59+00:00</time>
      </trkpt>
      <trkpt lat="43.73234" lon="6.62288">
        <ele>958</ele>
        <time>2026-05-11T18:41:00+00:00</time>
      </trkpt>
      <trkpt lat="43.73232" lon="6.62283">
        <ele>958</ele>
        <time>2026-05-11T18:41:01+00:00</time>
      </trkpt>
      <trkpt lat="43.73214" lon="6.62262">
        <ele>958</ele>
        <time>2026-05-11T18:41:02+00:00</time>
      </trkpt>
      <trkpt lat="43.73212" lon="6.62257">
        <ele>958</ele>
        <time>2026-05-11T18:41:03+00:00</time>
      </trkpt>
      <trkpt lat="43.7321" lon="6.62254">
        <ele>958</ele>
        <time>2026-05-11T18:41:04+00:00</time>
      </trkpt>
      <trkpt lat="43.73201" lon="6.6224">
        <ele>959</ele>
        <time>2026-05-11T18:41:05+00:00</time>
      </trkpt>
      <trkpt lat="43.73193" lon="6.62237">
        <ele>959</ele>
        <time>2026-05-11T18:41:06+00:00</time>
      </trkpt>
      <trkpt lat="43.73188" lon="6.62233">
        <ele>959</ele>
        <time>2026-05-11T18:41:07+00:00</time>
      </trkpt>
      <trkpt lat="43.73187" lon="6.62226">
        <ele>959</ele>
        <time>2026-05-11T18:41:08+00:00</time>
      </trkpt>
      <trkpt lat="43.73177" lon="6.62216">
        <ele>959</ele>
        <time>2026-05-11T18:41:09+00:00</time>
      </trkpt>
      <trkpt lat="43.73168" lon="6.62201">
        <ele>959</ele>
        <time>2026-05-11T18:41:10+00:00</time>
      </trkpt>
      <trkpt lat="43.73162" lon="6.62188">
        <ele>960</ele>
        <time>2026-05-11T18:41:11+00:00</time>
      </trkpt>
      <trkpt lat="43.73161" lon="6.62176">
        <ele>960</ele>
        <time>2026-05-11T18:41:12+00:00</time>
      </trkpt>
      <trkpt lat="43.73155" lon="6.62171">
        <ele>960</ele>
        <time>2026-05-11T18:41:13+00:00</time>
      </trkpt>
      <trkpt lat="43.73139" lon="6.62157">
        <ele>961</ele>
        <time>2026-05-11T18:41:14+00:00</time>
      </trkpt>
      <trkpt lat="43.73128" lon="6.62146">
        <ele>961</ele>
        <time>2026-05-11T18:41:15+00:00</time>
      </trkpt>
      <trkpt lat="43.73104" lon="6.62125">
        <ele>960</ele>
        <time>2026-05-11T18:41:16+00:00</time>
      </trkpt>
      <trkpt lat="43.73097" lon="6.62118">
        <ele>960</ele>
        <time>2026-05-11T18:41:17+00:00</time>
      </trkpt>
      <trkpt lat="43.73075" lon="6.62096">
        <ele>960</ele>
        <time>2026-05-11T18:41:18+00:00</time>
      </trkpt>
      <trkpt lat="43.73054" lon="6.62077">
        <ele>959</ele>
        <time>2026-05-11T18:41:19+00:00</time>
      </trkpt>
      <trkpt lat="43.72991" lon="6.62016">
        <ele>954</ele>
        <time>2026-05-11T18:41:20+00:00</time>
      </trkpt>
      <trkpt lat="43.72906" lon="6.61833">
        <ele>949</ele>
        <time>2026-05-11T18:41:21+00:00</time>
      </trkpt>
      <trkpt lat="43.72888" lon="6.61793">
        <ele>950</ele>
        <time>2026-05-11T18:41:22+00:00</time>
      </trkpt>
      <trkpt lat="43.72885" lon="6.61787">
        <ele>950</ele>
        <time>2026-05-11T18:41:23+00:00</time>
      </trkpt>
      <trkpt lat="43.72878" lon="6.61773">
        <ele>950</ele>
        <time>2026-05-11T18:41:24+00:00</time>
      </trkpt>
      <trkpt lat="43.72858" lon="6.61774">
        <ele>949</ele>
        <time>2026-05-11T18:41:25+00:00</time>
      </trkpt>
      <trkpt lat="43.72842" lon="6.61766">
        <ele>949</ele>
        <time>2026-05-11T18:41:26+00:00</time>
      </trkpt>
      <trkpt lat="43.72824" lon="6.61757">
        <ele>949</ele>
        <time>2026-05-11T18:41:27+00:00</time>
      </trkpt>
      <trkpt lat="43.72805" lon="6.61751">
        <ele>948</ele>
        <time>2026-05-11T18:41:28+00:00</time>
      </trkpt>
      <trkpt lat="43.72786" lon="6.61777">
        <ele>947</ele>
        <time>2026-05-11T18:41:29+00:00</time>
      </trkpt>
      <trkpt lat="43.72761" lon="6.61804">
        <ele>945</ele>
        <time>2026-05-11T18:41:30+00:00</time>
      </trkpt>
      <trkpt lat="43.72739" lon="6.6183">
        <ele>943</ele>
        <time>2026-05-11T18:41:31+00:00</time>
      </trkpt>
      <trkpt lat="43.72716" lon="6.61841">
        <ele>942</ele>
        <time>2026-05-11T18:41:32+00:00</time>
      </trkpt>
      <trkpt lat="43.72682" lon="6.61853">
        <ele>939</ele>
        <time>2026-05-11T18:41:33+00:00</time>
      </trkpt>
      <trkpt lat="43.72644" lon="6.61869">
        <ele>937</ele>
        <time>2026-05-11T18:41:34+00:00</time>
      </trkpt>
      <trkpt lat="43.72617" lon="6.61888">
        <ele>936</ele>
        <time>2026-05-11T18:41:35+00:00</time>
      </trkpt>
      <trkpt lat="43.72589" lon="6.61912">
        <ele>936</ele>
        <time>2026-05-11T18:41:36+00:00</time>
      </trkpt>
      <trkpt lat="43.72588" lon="6.61958">
        <ele>936</ele>
        <time>2026-05-11T18:41:37+00:00</time>
      </trkpt>
      <trkpt lat="43.72588" lon="6.62">
        <ele>935</ele>
        <time>2026-05-11T18:41:38+00:00</time>
      </trkpt>
      <trkpt lat="43.72582" lon="6.62029">
        <ele>936</ele>
        <time>2026-05-11T18:41:39+00:00</time>
      </trkpt>
      <trkpt lat="43.72561" lon="6.6206">
        <ele>937</ele>
        <time>2026-05-11T18:41:40+00:00</time>
      </trkpt>
      <trkpt lat="43.7255" lon="6.62096">
        <ele>939</ele>
        <time>2026-05-11T18:41:41+00:00</time>
      </trkpt>
      <trkpt lat="43.72545" lon="6.62134">
        <ele>941</ele>
        <time>2026-05-11T18:41:42+00:00</time>
      </trkpt>
      <trkpt lat="43.72544" lon="6.6215">
        <ele>942</ele>
        <time>2026-05-11T18:41:43+00:00</time>
      </trkpt>
      <trkpt lat="43.72539" lon="6.62152">
        <ele>942</ele>
        <time>2026-05-11T18:41:44+00:00</time>
      </trkpt>
      <trkpt lat="43.72517" lon="6.62157">
        <ele>941</ele>
        <time>2026-05-11T18:41:45+00:00</time>
      </trkpt>
      <trkpt lat="43.72495" lon="6.62156">
        <ele>940</ele>
        <time>2026-05-11T18:41:46+00:00</time>
      </trkpt>
      <trkpt lat="43.72473" lon="6.62153">
        <ele>940</ele>
        <time>2026-05-11T18:41:47+00:00</time>
      </trkpt>
      <trkpt lat="43.72444" lon="6.62146">
        <ele>940</ele>
        <time>2026-05-11T18:41:48+00:00</time>
      </trkpt>
      <trkpt lat="43.72418" lon="6.62135">
        <ele>940</ele>
        <time>2026-05-11T18:41:49+00:00</time>
      </trkpt>
      <trkpt lat="43.72394" lon="6.62133">
        <ele>940</ele>
        <time>2026-05-11T18:41:50+00:00</time>
      </trkpt>
      <trkpt lat="43.72383" lon="6.62135">
        <ele>940</ele>
        <time>2026-05-11T18:41:51+00:00</time>
      </trkpt>
      <trkpt lat="43.72365" lon="6.62142">
        <ele>941</ele>
        <time>2026-05-11T18:41:52+00:00</time>
      </trkpt>
      <trkpt lat="43.72349" lon="6.62151">
        <ele>941</ele>
        <time>2026-05-11T18:41:53+00:00</time>
      </trkpt>
      <trkpt lat="43.72333" lon="6.62168">
        <ele>942</ele>
        <time>2026-05-11T18:41:54+00:00</time>
      </trkpt>
      <trkpt lat="43.72333" lon="6.62169">
        <ele>942</ele>
        <time>2026-05-11T18:41:55+00:00</time>
      </trkpt>
      <trkpt lat="43.72339" lon="6.62184">
        <ele>942</ele>
        <time>2026-05-11T18:41:56+00:00</time>
      </trkpt>
      <trkpt lat="43.72373" lon="6.62262">
        <ele>942</ele>
        <time>2026-05-11T18:41:57+00:00</time>
      </trkpt>
      <trkpt lat="43.72425" lon="6.62398">
        <ele>946</ele>
        <time>2026-05-11T18:41:58+00:00</time>
      </trkpt>
      <trkpt lat="43.72454" lon="6.62463">
        <ele>948</ele>
        <time>2026-05-11T18:41:59+00:00</time>
      </trkpt>
      <trkpt lat="43.72457" lon="6.62468">
        <ele>949</ele>
        <time>2026-05-11T18:42:00+00:00</time>
      </trkpt>
      <trkpt lat="43.7246" lon="6.62469">
        <ele>949</ele>
        <time>2026-05-11T18:42:01+00:00</time>
      </trkpt>
      <trkpt lat="43.72462" lon="6.62471">
        <ele>949</ele>
        <time>2026-05-11T18:42:02+00:00</time>
      </trkpt>
      <trkpt lat="43.72461" lon="6.6248">
        <ele>949</ele>
        <time>2026-05-11T18:42:03+00:00</time>
      </trkpt>
      <trkpt lat="43.72462" lon="6.62494">
        <ele>949</ele>
        <time>2026-05-11T18:42:04+00:00</time>
      </trkpt>
      <trkpt lat="43.72484" lon="6.62579">
        <ele>953</ele>
        <time>2026-05-11T18:42:05+00:00</time>
      </trkpt>
      <trkpt lat="43.72491" lon="6.62617">
        <ele>955</ele>
        <time>2026-05-11T18:42:06+00:00</time>
      </trkpt>
      <trkpt lat="43.72508" lon="6.62711">
        <ele>957</ele>
        <time>2026-05-11T18:42:07+00:00</time>
      </trkpt>
      <trkpt lat="43.7251" lon="6.62725">
        <ele>957</ele>
        <time>2026-05-11T18:42:08+00:00</time>
      </trkpt>
      <trkpt lat="43.7251" lon="6.62738">
        <ele>957</ele>
        <time>2026-05-11T18:42:09+00:00</time>
      </trkpt>
      <trkpt lat="43.72509" lon="6.62749">
        <ele>957</ele>
        <time>2026-05-11T18:42:10+00:00</time>
      </trkpt>
      <trkpt lat="43.72504" lon="6.6276">
        <ele>957</ele>
        <time>2026-05-11T18:42:11+00:00</time>
      </trkpt>
      <trkpt lat="43.72493" lon="6.62775">
        <ele>958</ele>
        <time>2026-05-11T18:42:12+00:00</time>
      </trkpt>
      <trkpt lat="43.72489" lon="6.62781">
        <ele>959</ele>
        <time>2026-05-11T18:42:13+00:00</time>
      </trkpt>
      <trkpt lat="43.72454" lon="6.62824">
        <ele>962</ele>
        <time>2026-05-11T18:42:14+00:00</time>
      </trkpt>
      <trkpt lat="43.72444" lon="6.6284">
        <ele>964</ele>
        <time>2026-05-11T18:42:15+00:00</time>
      </trkpt>
      <trkpt lat="43.72433" lon="6.62863">
        <ele>965</ele>
        <time>2026-05-11T18:42:16+00:00</time>
      </trkpt>
      <trkpt lat="43.72431" lon="6.62867">
        <ele>965</ele>
        <time>2026-05-11T18:42:17+00:00</time>
      </trkpt>
      <trkpt lat="43.72424" lon="6.62889">
        <ele>967</ele>
        <time>2026-05-11T18:42:18+00:00</time>
      </trkpt>
      <trkpt lat="43.72422" lon="6.629">
        <ele>967</ele>
        <time>2026-05-11T18:42:19+00:00</time>
      </trkpt>
      <trkpt lat="43.72422" lon="6.62902">
        <ele>967</ele>
        <time>2026-05-11T18:42:20+00:00</time>
      </trkpt>
      <trkpt lat="43.72419" lon="6.62905">
        <ele>967</ele>
        <time>2026-05-11T18:42:21+00:00</time>
      </trkpt>
      <trkpt lat="43.72413" lon="6.62908">
        <ele>967</ele>
        <time>2026-05-11T18:42:22+00:00</time>
      </trkpt>
      <trkpt lat="43.72412" lon="6.62909">
        <ele>968</ele>
        <time>2026-05-11T18:42:23+00:00</time>
      </trkpt>
      <trkpt lat="43.72413" lon="6.62908">
        <ele>967</ele>
        <time>2026-05-11T18:42:24+00:00</time>
      </trkpt>
      <trkpt lat="43.72396" lon="6.62903">
        <ele>967</ele>
        <time>2026-05-11T18:42:25+00:00</time>
      </trkpt>
      <trkpt lat="43.72375" lon="6.62897">
        <ele>967</ele>
        <time>2026-05-11T18:42:26+00:00</time>
      </trkpt>
      <trkpt lat="43.72351" lon="6.62883">
        <ele>967</ele>
        <time>2026-05-11T18:42:27+00:00</time>
      </trkpt>
      <trkpt lat="43.72344" lon="6.62879">
        <ele>967</ele>
        <time>2026-05-11T18:42:28+00:00</time>
      </trkpt>
      <trkpt lat="43.72335" lon="6.62871">
        <ele>966</ele>
        <time>2026-05-11T18:42:29+00:00</time>
      </trkpt>
      <trkpt lat="43.7233" lon="6.62863">
        <ele>966</ele>
        <time>2026-05-11T18:42:30+00:00</time>
      </trkpt>
      <trkpt lat="43.72321" lon="6.62848">
        <ele>965</ele>
        <time>2026-05-11T18:42:31+00:00</time>
      </trkpt>
      <trkpt lat="43.72318" lon="6.62845">
        <ele>964</ele>
        <time>2026-05-11T18:42:32+00:00</time>
      </trkpt>
      <trkpt lat="43.72317" lon="6.6284">
        <ele>964</ele>
        <time>2026-05-11T18:42:33+00:00</time>
      </trkpt>
      <trkpt lat="43.72311" lon="6.62831">
        <ele>963</ele>
        <time>2026-05-11T18:42:34+00:00</time>
      </trkpt>
      <trkpt lat="43.72308" lon="6.62822">
        <ele>963</ele>
        <time>2026-05-11T18:42:35+00:00</time>
      </trkpt>
      <trkpt lat="43.7231" lon="6.62824">
        <ele>963</ele>
        <time>2026-05-11T18:42:36+00:00</time>
      </trkpt>
      <trkpt lat="43.72311" lon="6.62808">
        <ele>963</ele>
        <time>2026-05-11T18:42:37+00:00</time>
      </trkpt>
    </trkseg>
  </trk>
</gpx>
