<?xml version="1.0" encoding="UTF-8" ?>
<gpx version="1.1" xmlns:xsi="http://www.w3.org/2001/XMLSchema-instance"
    xmlns="http://www.topografix.com/GPX/1/1"
    xsi:schemaLocation="http://www.topografix.com/GPX/1/1 http://www.topografix.com/GPX/1/1/gpx.xsd"
    creator="Openrunner - https://www.openrunner.com" >	<trk>
	                   <name>Boucle Chemin de la Paroisse à Zola via La Cause-20616006</name>
						<trkseg>
					<trkpt lat="43.522110" lon="5.506020">
						<ele>183</ele>
						<time>2026-05-01T09:41:41Z</time>
					</trkpt>
					<trkpt lat="43.523460" lon="5.506680">
						<ele>195</ele>
						<time>2026-05-01T09:44:52Z</time>
					</trkpt>
					<trkpt lat="43.523790" lon="5.506620">
						<ele>204</ele>
						<time>2026-05-01T09:45:37Z</time>
					</trkpt>
					<trkpt lat="43.523860" lon="5.506330">
						<ele>206</ele>
						<time>2026-05-01T09:46:06Z</time>
					</trkpt>
					<trkpt lat="43.524590" lon="5.505390">
						<ele>222</ele>
						<time>2026-05-01T09:48:19Z</time>
					</trkpt>
					<trkpt lat="43.525130" lon="5.506450">
						<ele>245</ele>
						<time>2026-05-01T09:50:25Z</time>
					</trkpt>
					<trkpt lat="43.526000" lon="5.506510">
						<ele>267</ele>
						<time>2026-05-01T09:52:21Z</time>
					</trkpt>
					<trkpt lat="43.526760" lon="5.507150">
						<ele>275</ele>
						<time>2026-05-01T09:54:20Z</time>
					</trkpt>
					<trkpt lat="43.527600" lon="5.507520">
						<ele>276</ele>
						<time>2026-05-01T09:56:18Z</time>
					</trkpt>
					<trkpt lat="43.527890" lon="5.508120">
						<ele>254</ele>
						<time>2026-05-01T09:57:27Z</time>
					</trkpt>
					<trkpt lat="43.528480" lon="5.508100">
						<ele>262</ele>
						<time>2026-05-01T09:58:46Z</time>
					</trkpt>
					<trkpt lat="43.528680" lon="5.508570">
						<ele>249</ele>
						<time>2026-05-01T09:59:39Z</time>
					</trkpt>
					<trkpt lat="43.528910" lon="5.509070">
						<ele>239</ele>
						<time>2026-05-01T10:00:36Z</time>
					</trkpt>
					<trkpt lat="43.528760" lon="5.509390">
						<ele>229</ele>
						<time>2026-05-01T10:01:13Z</time>
					</trkpt>
					<trkpt lat="43.529080" lon="5.510220">
						<ele>218</ele>
						<time>2026-05-01T10:02:44Z</time>
					</trkpt>
					<trkpt lat="43.529420" lon="5.510890">
						<ele>215</ele>
						<time>2026-05-01T10:04:03Z</time>
					</trkpt>
					<trkpt lat="43.529910" lon="5.511230">
						<ele>217</ele>
						<time>2026-05-01T10:05:16Z</time>
					</trkpt>
					<trkpt lat="43.530650" lon="5.510930">
						<ele>226</ele>
						<time>2026-05-01T10:06:59Z</time>
					</trkpt>
					<trkpt lat="43.531250" lon="5.510090">
						<ele>230</ele>
						<time>2026-05-01T10:08:53Z</time>
					</trkpt>
					<trkpt lat="43.531890" lon="5.509540">
						<ele>222</ele>
						<time>2026-05-01T10:10:34Z</time>
					</trkpt>
					<trkpt lat="43.532250" lon="5.509250">
						<ele>221</ele>
						<time>2026-05-01T10:11:29Z</time>
					</trkpt>
					<trkpt lat="43.532620" lon="5.509200">
						<ele>221</ele>
						<time>2026-05-01T10:12:19Z</time>
					</trkpt>
					<trkpt lat="43.532750" lon="5.508900">
						<ele>229</ele>
						<time>2026-05-01T10:12:53Z</time>
					</trkpt>
					<trkpt lat="43.532540" lon="5.508600">
						<ele>232</ele>
						<time>2026-05-01T10:13:33Z</time>
					</trkpt>
					<trkpt lat="43.531720" lon="5.508640">
						<ele>241</ele>
						<time>2026-05-01T10:15:23Z</time>
					</trkpt>
					<trkpt lat="43.530750" lon="5.507830">
						<ele>265</ele>
						<time>2026-05-01T10:17:54Z</time>
					</trkpt>
					<trkpt lat="43.530490" lon="5.507480">
						<ele>273</ele>
						<time>2026-05-01T10:18:43Z</time>
					</trkpt>
					<trkpt lat="43.530070" lon="5.507400">
						<ele>277</ele>
						<time>2026-05-01T10:19:39Z</time>
					</trkpt>
					<trkpt lat="43.529710" lon="5.507160">
						<ele>284</ele>
						<time>2026-05-01T10:20:32Z</time>
					</trkpt>
					<trkpt lat="43.529340" lon="5.507470">
						<ele>281</ele>
						<time>2026-05-01T10:21:30Z</time>
					</trkpt>
					<trkpt lat="43.529170" lon="5.507130">
						<ele>286</ele>
						<time>2026-05-01T10:22:10Z</time>
					</trkpt>
					<trkpt lat="43.528710" lon="5.506630">
						<ele>292</ele>
						<time>2026-05-01T10:23:28Z</time>
					</trkpt>
					<trkpt lat="43.528760" lon="5.506280">
						<ele>295</ele>
						<time>2026-05-01T10:24:03Z</time>
					</trkpt>
					<trkpt lat="43.528350" lon="5.505760">
						<ele>288</ele>
						<time>2026-05-01T10:25:17Z</time>
					</trkpt>
					<trkpt lat="43.527870" lon="5.504890">
						<ele>276</ele>
						<time>2026-05-01T10:27:03Z</time>
					</trkpt>
					<trkpt lat="43.527790" lon="5.504620">
						<ele>272</ele>
						<time>2026-05-01T10:27:31Z</time>
					</trkpt>
					<trkpt lat="43.527740" lon="5.504040">
						<ele>269</ele>
						<time>2026-05-01T10:28:28Z</time>
					</trkpt>
					<trkpt lat="43.527190" lon="5.504560">
						<ele>254</ele>
						<time>2026-05-01T10:29:57Z</time>
					</trkpt>
					<trkpt lat="43.526880" lon="5.504210">
						<ele>246</ele>
						<time>2026-05-01T10:30:50Z</time>
					</trkpt>
					<trkpt lat="43.526640" lon="5.504360">
						<ele>242</ele>
						<time>2026-05-01T10:31:25Z</time>
					</trkpt>
					<trkpt lat="43.525090" lon="5.504210">
						<ele>220</ele>
						<time>2026-05-01T10:34:53Z</time>
					</trkpt>
					<trkpt lat="43.524790" lon="5.504010">
						<ele>216</ele>
						<time>2026-05-01T10:35:37Z</time>
					</trkpt>
					<trkpt lat="43.524510" lon="5.504160">
						<ele>213</ele>
						<time>2026-05-01T10:36:17Z</time>
					</trkpt>
					<trkpt lat="43.524380" lon="5.504490">
						<ele>212</ele>
						<time>2026-05-01T10:36:54Z</time>
					</trkpt>
					<trkpt lat="43.524130" lon="5.504860">
						<ele>208</ele>
						<time>2026-05-01T10:37:42Z</time>
					</trkpt>
					<trkpt lat="43.524040" lon="5.505410">
						<ele>209</ele>
						<time>2026-05-01T10:38:37Z</time>
					</trkpt>
					<trkpt lat="43.523700" lon="5.506630">
						<ele>201</ele>
						<time>2026-05-01T10:40:44Z</time>
					</trkpt>
					</trkseg>
				</trk>
			</gpx>