<?xml version="1.0" encoding="UTF-8"?>
<gpx xmlns="http://www.topografix.com/GPX/1/1" xmlns:xsi="http://www.w3.org/2001/XMLSchema-instance" version="1.1" creator="phpGPX/1.3.0" xsi:schemaLocation="http://www.topografix.com/GPX/1/1 http://www.topografix.com/GPX/1/1/gpx.xsd">
  <metadata>
    <time>2026-05-11T18:36:58+00:00</time>
  </metadata>
  <trk>
    <name>Capu Di A Veta depuis Calvi</name>
    <trkseg>
      <trkpt lat="42.56504" lon="8.75629">
        <ele>5</ele>
        <time>2026-05-11T18:36:59+00:00</time>
      </trkpt>
      <trkpt lat="42.56452" lon="8.75613">
        <ele>4</ele>
        <time>2026-05-11T18:37:00+00:00</time>
      </trkpt>
      <trkpt lat="42.56362" lon="8.75566">
        <ele>4</ele>
        <time>2026-05-11T18:37:01+00:00</time>
      </trkpt>
      <trkpt lat="42.56312" lon="8.75574">
        <ele>2</ele>
        <time>2026-05-11T18:37:02+00:00</time>
      </trkpt>
      <trkpt lat="42.5628" lon="8.75587">
        <ele>2</ele>
        <time>2026-05-11T18:37:03+00:00</time>
      </trkpt>
      <trkpt lat="42.56286" lon="8.75625">
        <ele>1</ele>
        <time>2026-05-11T18:37:04+00:00</time>
      </trkpt>
      <trkpt lat="42.56274" lon="8.75631">
        <ele>1</ele>
        <time>2026-05-11T18:37:05+00:00</time>
      </trkpt>
      <trkpt lat="42.56278" lon="8.75628">
        <ele>1</ele>
        <time>2026-05-11T18:37:06+00:00</time>
      </trkpt>
      <trkpt lat="42.56274" lon="8.75626">
        <ele>1</ele>
        <time>2026-05-11T18:37:07+00:00</time>
      </trkpt>
      <trkpt lat="42.56266" lon="8.75604">
        <ele>2</ele>
        <time>2026-05-11T18:37:08+00:00</time>
      </trkpt>
      <trkpt lat="42.56226" lon="8.75621">
        <ele>1</ele>
        <time>2026-05-11T18:37:09+00:00</time>
      </trkpt>
      <trkpt lat="42.56119" lon="8.7569">
        <ele>1</ele>
        <time>2026-05-11T18:37:10+00:00</time>
      </trkpt>
      <trkpt lat="42.56035" lon="8.75758">
        <ele>2</ele>
        <time>2026-05-11T18:37:11+00:00</time>
      </trkpt>
      <trkpt lat="42.56023" lon="8.75752">
        <ele>2</ele>
        <time>2026-05-11T18:37:12+00:00</time>
      </trkpt>
      <trkpt lat="42.56006" lon="8.75766">
        <ele>2</ele>
        <time>2026-05-11T18:37:13+00:00</time>
      </trkpt>
      <trkpt lat="42.55991" lon="8.75764">
        <ele>3</ele>
        <time>2026-05-11T18:37:14+00:00</time>
      </trkpt>
      <trkpt lat="42.55976" lon="8.75718">
        <ele>3</ele>
        <time>2026-05-11T18:37:15+00:00</time>
      </trkpt>
      <trkpt lat="42.55943" lon="8.75689">
        <ele>3</ele>
        <time>2026-05-11T18:37:16+00:00</time>
      </trkpt>
      <trkpt lat="42.5593" lon="8.75689">
        <ele>4</ele>
        <time>2026-05-11T18:37:17+00:00</time>
      </trkpt>
      <trkpt lat="42.5592" lon="8.75698">
        <ele>4</ele>
        <time>2026-05-11T18:37:18+00:00</time>
      </trkpt>
      <trkpt lat="42.5591" lon="8.75684">
        <ele>4</ele>
        <time>2026-05-11T18:37:19+00:00</time>
      </trkpt>
      <trkpt lat="42.55773" lon="8.75619">
        <ele>2</ele>
        <time>2026-05-11T18:37:20+00:00</time>
      </trkpt>
      <trkpt lat="42.55725" lon="8.756">
        <ele>3</ele>
        <time>2026-05-11T18:37:21+00:00</time>
      </trkpt>
      <trkpt lat="42.55652" lon="8.75535">
        <ele>6</ele>
        <time>2026-05-11T18:37:22+00:00</time>
      </trkpt>
      <trkpt lat="42.55556" lon="8.75501">
        <ele>6</ele>
        <time>2026-05-11T18:37:23+00:00</time>
      </trkpt>
      <trkpt lat="42.55568" lon="8.75464">
        <ele>7</ele>
        <time>2026-05-11T18:37:24+00:00</time>
      </trkpt>
      <trkpt lat="42.55585" lon="8.75453">
        <ele>8</ele>
        <time>2026-05-11T18:37:25+00:00</time>
      </trkpt>
      <trkpt lat="42.55598" lon="8.75424">
        <ele>9</ele>
        <time>2026-05-11T18:37:26+00:00</time>
      </trkpt>
      <trkpt lat="42.55609" lon="8.75386">
        <ele>9</ele>
        <time>2026-05-11T18:37:27+00:00</time>
      </trkpt>
      <trkpt lat="42.55628" lon="8.75255">
        <ele>12</ele>
        <time>2026-05-11T18:37:28+00:00</time>
      </trkpt>
      <trkpt lat="42.5565" lon="8.75208">
        <ele>16</ele>
        <time>2026-05-11T18:37:29+00:00</time>
      </trkpt>
      <trkpt lat="42.55694" lon="8.75164">
        <ele>18</ele>
        <time>2026-05-11T18:37:30+00:00</time>
      </trkpt>
      <trkpt lat="42.55722" lon="8.75142">
        <ele>17</ele>
        <time>2026-05-11T18:37:31+00:00</time>
      </trkpt>
      <trkpt lat="42.55795" lon="8.75144">
        <ele>16</ele>
        <time>2026-05-11T18:37:32+00:00</time>
      </trkpt>
      <trkpt lat="42.5586" lon="8.75184">
        <ele>14</ele>
        <time>2026-05-11T18:37:33+00:00</time>
      </trkpt>
      <trkpt lat="42.55883" lon="8.75185">
        <ele>13</ele>
        <time>2026-05-11T18:37:34+00:00</time>
      </trkpt>
      <trkpt lat="42.55906" lon="8.75171">
        <ele>13</ele>
        <time>2026-05-11T18:37:35+00:00</time>
      </trkpt>
      <trkpt lat="42.55918" lon="8.75175">
        <ele>13</ele>
        <time>2026-05-11T18:37:36+00:00</time>
      </trkpt>
      <trkpt lat="42.55925" lon="8.75163">
        <ele>13</ele>
        <time>2026-05-11T18:37:37+00:00</time>
      </trkpt>
      <trkpt lat="42.55922" lon="8.75153">
        <ele>13</ele>
        <time>2026-05-11T18:37:38+00:00</time>
      </trkpt>
      <trkpt lat="42.55911" lon="8.75148">
        <ele>14</ele>
        <time>2026-05-11T18:37:39+00:00</time>
      </trkpt>
      <trkpt lat="42.55887" lon="8.75083">
        <ele>17</ele>
        <time>2026-05-11T18:37:40+00:00</time>
      </trkpt>
      <trkpt lat="42.55876" lon="8.75023">
        <ele>21</ele>
        <time>2026-05-11T18:37:41+00:00</time>
      </trkpt>
      <trkpt lat="42.55873" lon="8.74979">
        <ele>23</ele>
        <time>2026-05-11T18:37:42+00:00</time>
      </trkpt>
      <trkpt lat="42.55902" lon="8.74968">
        <ele>23</ele>
        <time>2026-05-11T18:37:43+00:00</time>
      </trkpt>
      <trkpt lat="42.55907" lon="8.7493">
        <ele>25</ele>
        <time>2026-05-11T18:37:44+00:00</time>
      </trkpt>
      <trkpt lat="42.55936" lon="8.74906">
        <ele>24</ele>
        <time>2026-05-11T18:37:45+00:00</time>
      </trkpt>
      <trkpt lat="42.55937" lon="8.7489">
        <ele>25</ele>
        <time>2026-05-11T18:37:46+00:00</time>
      </trkpt>
      <trkpt lat="42.55913" lon="8.74821">
        <ele>31</ele>
        <time>2026-05-11T18:37:47+00:00</time>
      </trkpt>
      <trkpt lat="42.55926" lon="8.74784">
        <ele>31</ele>
        <time>2026-05-11T18:37:48+00:00</time>
      </trkpt>
      <trkpt lat="42.55922" lon="8.74763">
        <ele>33</ele>
        <time>2026-05-11T18:37:49+00:00</time>
      </trkpt>
      <trkpt lat="42.55905" lon="8.74719">
        <ele>37</ele>
        <time>2026-05-11T18:37:50+00:00</time>
      </trkpt>
      <trkpt lat="42.55908" lon="8.74699">
        <ele>38</ele>
        <time>2026-05-11T18:37:51+00:00</time>
      </trkpt>
      <trkpt lat="42.55886" lon="8.74631">
        <ele>44</ele>
        <time>2026-05-11T18:37:52+00:00</time>
      </trkpt>
      <trkpt lat="42.55862" lon="8.74461">
        <ele>57</ele>
        <time>2026-05-11T18:37:53+00:00</time>
      </trkpt>
      <trkpt lat="42.55849" lon="8.74449">
        <ele>59</ele>
        <time>2026-05-11T18:37:54+00:00</time>
      </trkpt>
      <trkpt lat="42.5584" lon="8.74408">
        <ele>62</ele>
        <time>2026-05-11T18:37:55+00:00</time>
      </trkpt>
      <trkpt lat="42.55788" lon="8.74301">
        <ele>75</ele>
        <time>2026-05-11T18:37:56+00:00</time>
      </trkpt>
      <trkpt lat="42.55777" lon="8.74287">
        <ele>77</ele>
        <time>2026-05-11T18:37:57+00:00</time>
      </trkpt>
      <trkpt lat="42.55769" lon="8.74265">
        <ele>81</ele>
        <time>2026-05-11T18:37:58+00:00</time>
      </trkpt>
      <trkpt lat="42.55759" lon="8.74207">
        <ele>91</ele>
        <time>2026-05-11T18:37:59+00:00</time>
      </trkpt>
      <trkpt lat="42.55764" lon="8.74191">
        <ele>93</ele>
        <time>2026-05-11T18:38:00+00:00</time>
      </trkpt>
      <trkpt lat="42.55764" lon="8.74171">
        <ele>96</ele>
        <time>2026-05-11T18:38:01+00:00</time>
      </trkpt>
      <trkpt lat="42.55761" lon="8.74157">
        <ele>99</ele>
        <time>2026-05-11T18:38:02+00:00</time>
      </trkpt>
      <trkpt lat="42.55755" lon="8.7415">
        <ele>101</ele>
        <time>2026-05-11T18:38:03+00:00</time>
      </trkpt>
      <trkpt lat="42.55758" lon="8.74124">
        <ele>107</ele>
        <time>2026-05-11T18:38:04+00:00</time>
      </trkpt>
      <trkpt lat="42.55722" lon="8.7407">
        <ele>120</ele>
        <time>2026-05-11T18:38:05+00:00</time>
      </trkpt>
      <trkpt lat="42.5571" lon="8.74066">
        <ele>121</ele>
        <time>2026-05-11T18:38:06+00:00</time>
      </trkpt>
      <trkpt lat="42.55679" lon="8.74023">
        <ele>131</ele>
        <time>2026-05-11T18:38:07+00:00</time>
      </trkpt>
      <trkpt lat="42.55642" lon="8.74036">
        <ele>134</ele>
        <time>2026-05-11T18:38:08+00:00</time>
      </trkpt>
      <trkpt lat="42.55627" lon="8.74024">
        <ele>140</ele>
        <time>2026-05-11T18:38:09+00:00</time>
      </trkpt>
      <trkpt lat="42.55607" lon="8.74032">
        <ele>144</ele>
        <time>2026-05-11T18:38:10+00:00</time>
      </trkpt>
      <trkpt lat="42.55589" lon="8.74027">
        <ele>149</ele>
        <time>2026-05-11T18:38:11+00:00</time>
      </trkpt>
      <trkpt lat="42.55579" lon="8.74006">
        <ele>155</ele>
        <time>2026-05-11T18:38:12+00:00</time>
      </trkpt>
      <trkpt lat="42.55541" lon="8.73969">
        <ele>164</ele>
        <time>2026-05-11T18:38:13+00:00</time>
      </trkpt>
      <trkpt lat="42.55515" lon="8.73898">
        <ele>177</ele>
        <time>2026-05-11T18:38:14+00:00</time>
      </trkpt>
      <trkpt lat="42.55501" lon="8.73881">
        <ele>180</ele>
        <time>2026-05-11T18:38:15+00:00</time>
      </trkpt>
      <trkpt lat="42.55493" lon="8.73845">
        <ele>185</ele>
        <time>2026-05-11T18:38:16+00:00</time>
      </trkpt>
      <trkpt lat="42.55467" lon="8.73819">
        <ele>188</ele>
        <time>2026-05-11T18:38:17+00:00</time>
      </trkpt>
      <trkpt lat="42.55454" lon="8.73791">
        <ele>190</ele>
        <time>2026-05-11T18:38:18+00:00</time>
      </trkpt>
      <trkpt lat="42.55447" lon="8.73763">
        <ele>193</ele>
        <time>2026-05-11T18:38:19+00:00</time>
      </trkpt>
      <trkpt lat="42.55427" lon="8.73737">
        <ele>194</ele>
        <time>2026-05-11T18:38:20+00:00</time>
      </trkpt>
      <trkpt lat="42.55391" lon="8.73704">
        <ele>199</ele>
        <time>2026-05-11T18:38:21+00:00</time>
      </trkpt>
      <trkpt lat="42.55357" lon="8.73708">
        <ele>204</ele>
        <time>2026-05-11T18:38:22+00:00</time>
      </trkpt>
      <trkpt lat="42.55337" lon="8.73705">
        <ele>207</ele>
        <time>2026-05-11T18:38:23+00:00</time>
      </trkpt>
      <trkpt lat="42.55298" lon="8.73681">
        <ele>214</ele>
        <time>2026-05-11T18:38:24+00:00</time>
      </trkpt>
      <trkpt lat="42.55273" lon="8.73676">
        <ele>217</ele>
        <time>2026-05-11T18:38:25+00:00</time>
      </trkpt>
      <trkpt lat="42.55241" lon="8.73714">
        <ele>215</ele>
        <time>2026-05-11T18:38:26+00:00</time>
      </trkpt>
      <trkpt lat="42.55246" lon="8.73729">
        <ele>214</ele>
        <time>2026-05-11T18:38:27+00:00</time>
      </trkpt>
      <trkpt lat="42.55245" lon="8.73703">
        <ele>216</ele>
        <time>2026-05-11T18:38:28+00:00</time>
      </trkpt>
      <trkpt lat="42.55261" lon="8.73677">
        <ele>217</ele>
        <time>2026-05-11T18:38:29+00:00</time>
      </trkpt>
      <trkpt lat="42.55241" lon="8.73667">
        <ele>219</ele>
        <time>2026-05-11T18:38:30+00:00</time>
      </trkpt>
      <trkpt lat="42.55217" lon="8.73634">
        <ele>217</ele>
        <time>2026-05-11T18:38:31+00:00</time>
      </trkpt>
      <trkpt lat="42.55206" lon="8.73607">
        <ele>216</ele>
        <time>2026-05-11T18:38:32+00:00</time>
      </trkpt>
      <trkpt lat="42.5519" lon="8.73604">
        <ele>215</ele>
        <time>2026-05-11T18:38:33+00:00</time>
      </trkpt>
      <trkpt lat="42.55178" lon="8.7369">
        <ele>215</ele>
        <time>2026-05-11T18:38:34+00:00</time>
      </trkpt>
      <trkpt lat="42.55147" lon="8.73743">
        <ele>216</ele>
        <time>2026-05-11T18:38:35+00:00</time>
      </trkpt>
      <trkpt lat="42.55139" lon="8.73732">
        <ele>218</ele>
        <time>2026-05-11T18:38:36+00:00</time>
      </trkpt>
      <trkpt lat="42.55109" lon="8.73648">
        <ele>222</ele>
        <time>2026-05-11T18:38:37+00:00</time>
      </trkpt>
      <trkpt lat="42.551" lon="8.73636">
        <ele>223</ele>
        <time>2026-05-11T18:38:38+00:00</time>
      </trkpt>
      <trkpt lat="42.55101" lon="8.73614">
        <ele>222</ele>
        <time>2026-05-11T18:38:39+00:00</time>
      </trkpt>
      <trkpt lat="42.5509" lon="8.73598">
        <ele>223</ele>
        <time>2026-05-11T18:38:40+00:00</time>
      </trkpt>
      <trkpt lat="42.55063" lon="8.73577">
        <ele>225</ele>
        <time>2026-05-11T18:38:41+00:00</time>
      </trkpt>
      <trkpt lat="42.55056" lon="8.73566">
        <ele>224</ele>
        <time>2026-05-11T18:38:42+00:00</time>
      </trkpt>
      <trkpt lat="42.55046" lon="8.73532">
        <ele>222</ele>
        <time>2026-05-11T18:38:43+00:00</time>
      </trkpt>
      <trkpt lat="42.5505" lon="8.73521">
        <ele>221</ele>
        <time>2026-05-11T18:38:44+00:00</time>
      </trkpt>
      <trkpt lat="42.55047" lon="8.73514">
        <ele>221</ele>
        <time>2026-05-11T18:38:45+00:00</time>
      </trkpt>
      <trkpt lat="42.5504" lon="8.73517">
        <ele>222</ele>
        <time>2026-05-11T18:38:46+00:00</time>
      </trkpt>
      <trkpt lat="42.55009" lon="8.73512">
        <ele>224</ele>
        <time>2026-05-11T18:38:47+00:00</time>
      </trkpt>
      <trkpt lat="42.54992" lon="8.73517">
        <ele>224</ele>
        <time>2026-05-11T18:38:48+00:00</time>
      </trkpt>
      <trkpt lat="42.54989" lon="8.73531">
        <ele>225</ele>
        <time>2026-05-11T18:38:49+00:00</time>
      </trkpt>
      <trkpt lat="42.55002" lon="8.73556">
        <ele>228</ele>
        <time>2026-05-11T18:38:50+00:00</time>
      </trkpt>
      <trkpt lat="42.55005" lon="8.73579">
        <ele>229</ele>
        <time>2026-05-11T18:38:51+00:00</time>
      </trkpt>
      <trkpt lat="42.55001" lon="8.73657">
        <ele>237</ele>
        <time>2026-05-11T18:38:52+00:00</time>
      </trkpt>
      <trkpt lat="42.55003" lon="8.73699">
        <ele>239</ele>
        <time>2026-05-11T18:38:53+00:00</time>
      </trkpt>
      <trkpt lat="42.55009" lon="8.7372">
        <ele>239</ele>
        <time>2026-05-11T18:38:54+00:00</time>
      </trkpt>
      <trkpt lat="42.55001" lon="8.7373">
        <ele>241</ele>
        <time>2026-05-11T18:38:55+00:00</time>
      </trkpt>
      <trkpt lat="42.54991" lon="8.7373">
        <ele>240</ele>
        <time>2026-05-11T18:38:56+00:00</time>
      </trkpt>
      <trkpt lat="42.5498" lon="8.73724">
        <ele>239</ele>
        <time>2026-05-11T18:38:57+00:00</time>
      </trkpt>
      <trkpt lat="42.54974" lon="8.73715">
        <ele>238</ele>
        <time>2026-05-11T18:38:58+00:00</time>
      </trkpt>
      <trkpt lat="42.5497" lon="8.7372">
        <ele>238</ele>
        <time>2026-05-11T18:38:59+00:00</time>
      </trkpt>
      <trkpt lat="42.54969" lon="8.73757">
        <ele>241</ele>
        <time>2026-05-11T18:39:00+00:00</time>
      </trkpt>
      <trkpt lat="42.54979" lon="8.73782">
        <ele>242</ele>
        <time>2026-05-11T18:39:01+00:00</time>
      </trkpt>
      <trkpt lat="42.5497" lon="8.73804">
        <ele>243</ele>
        <time>2026-05-11T18:39:02+00:00</time>
      </trkpt>
      <trkpt lat="42.54971" lon="8.73818">
        <ele>244</ele>
        <time>2026-05-11T18:39:03+00:00</time>
      </trkpt>
      <trkpt lat="42.5495" lon="8.73833">
        <ele>246</ele>
        <time>2026-05-11T18:39:04+00:00</time>
      </trkpt>
      <trkpt lat="42.5494" lon="8.73832">
        <ele>246</ele>
        <time>2026-05-11T18:39:05+00:00</time>
      </trkpt>
      <trkpt lat="42.54933" lon="8.73825">
        <ele>246</ele>
        <time>2026-05-11T18:39:06+00:00</time>
      </trkpt>
      <trkpt lat="42.54919" lon="8.73833">
        <ele>248</ele>
        <time>2026-05-11T18:39:07+00:00</time>
      </trkpt>
      <trkpt lat="42.54898" lon="8.73831">
        <ele>246</ele>
        <time>2026-05-11T18:39:08+00:00</time>
      </trkpt>
      <trkpt lat="42.54893" lon="8.73836">
        <ele>245</ele>
        <time>2026-05-11T18:39:09+00:00</time>
      </trkpt>
      <trkpt lat="42.54886" lon="8.73859">
        <ele>244</ele>
        <time>2026-05-11T18:39:10+00:00</time>
      </trkpt>
      <trkpt lat="42.54873" lon="8.73873">
        <ele>243</ele>
        <time>2026-05-11T18:39:11+00:00</time>
      </trkpt>
      <trkpt lat="42.54865" lon="8.73874">
        <ele>242</ele>
        <time>2026-05-11T18:39:12+00:00</time>
      </trkpt>
      <trkpt lat="42.5486" lon="8.73891">
        <ele>241</ele>
        <time>2026-05-11T18:39:13+00:00</time>
      </trkpt>
      <trkpt lat="42.54865" lon="8.73918">
        <ele>241</ele>
        <time>2026-05-11T18:39:14+00:00</time>
      </trkpt>
      <trkpt lat="42.5485" lon="8.73937">
        <ele>240</ele>
        <time>2026-05-11T18:39:15+00:00</time>
      </trkpt>
      <trkpt lat="42.54847" lon="8.73948">
        <ele>239</ele>
        <time>2026-05-11T18:39:16+00:00</time>
      </trkpt>
      <trkpt lat="42.54814" lon="8.73972">
        <ele>241</ele>
        <time>2026-05-11T18:39:17+00:00</time>
      </trkpt>
      <trkpt lat="42.54807" lon="8.73964">
        <ele>241</ele>
        <time>2026-05-11T18:39:18+00:00</time>
      </trkpt>
      <trkpt lat="42.54801" lon="8.73965">
        <ele>242</ele>
        <time>2026-05-11T18:39:19+00:00</time>
      </trkpt>
      <trkpt lat="42.5477" lon="8.73988">
        <ele>246</ele>
        <time>2026-05-11T18:39:20+00:00</time>
      </trkpt>
      <trkpt lat="42.5476" lon="8.7398">
        <ele>247</ele>
        <time>2026-05-11T18:39:21+00:00</time>
      </trkpt>
      <trkpt lat="42.54752" lon="8.73985">
        <ele>249</ele>
        <time>2026-05-11T18:39:22+00:00</time>
      </trkpt>
      <trkpt lat="42.54742" lon="8.74001">
        <ele>250</ele>
        <time>2026-05-11T18:39:23+00:00</time>
      </trkpt>
      <trkpt lat="42.54738" lon="8.7402">
        <ele>250</ele>
        <time>2026-05-11T18:39:24+00:00</time>
      </trkpt>
      <trkpt lat="42.54726" lon="8.74032">
        <ele>250</ele>
        <time>2026-05-11T18:39:25+00:00</time>
      </trkpt>
      <trkpt lat="42.54717" lon="8.74023">
        <ele>251</ele>
        <time>2026-05-11T18:39:26+00:00</time>
      </trkpt>
      <trkpt lat="42.54702" lon="8.7403">
        <ele>252</ele>
        <time>2026-05-11T18:39:27+00:00</time>
      </trkpt>
      <trkpt lat="42.54687" lon="8.74047">
        <ele>253</ele>
        <time>2026-05-11T18:39:28+00:00</time>
      </trkpt>
      <trkpt lat="42.54653" lon="8.74067">
        <ele>255</ele>
        <time>2026-05-11T18:39:29+00:00</time>
      </trkpt>
      <trkpt lat="42.54635" lon="8.74061">
        <ele>255</ele>
        <time>2026-05-11T18:39:30+00:00</time>
      </trkpt>
      <trkpt lat="42.54609" lon="8.74068">
        <ele>256</ele>
        <time>2026-05-11T18:39:31+00:00</time>
      </trkpt>
      <trkpt lat="42.54585" lon="8.74054">
        <ele>256</ele>
        <time>2026-05-11T18:39:32+00:00</time>
      </trkpt>
      <trkpt lat="42.54576" lon="8.74058">
        <ele>256</ele>
        <time>2026-05-11T18:39:33+00:00</time>
      </trkpt>
      <trkpt lat="42.54552" lon="8.74058">
        <ele>257</ele>
        <time>2026-05-11T18:39:34+00:00</time>
      </trkpt>
      <trkpt lat="42.5451" lon="8.74049">
        <ele>257</ele>
        <time>2026-05-11T18:39:35+00:00</time>
      </trkpt>
      <trkpt lat="42.54494" lon="8.74055">
        <ele>257</ele>
        <time>2026-05-11T18:39:36+00:00</time>
      </trkpt>
      <trkpt lat="42.54482" lon="8.7403">
        <ele>256</ele>
        <time>2026-05-11T18:39:37+00:00</time>
      </trkpt>
      <trkpt lat="42.54466" lon="8.74023">
        <ele>256</ele>
        <time>2026-05-11T18:39:38+00:00</time>
      </trkpt>
      <trkpt lat="42.54457" lon="8.74024">
        <ele>256</ele>
        <time>2026-05-11T18:39:39+00:00</time>
      </trkpt>
      <trkpt lat="42.54441" lon="8.74011">
        <ele>256</ele>
        <time>2026-05-11T18:39:40+00:00</time>
      </trkpt>
      <trkpt lat="42.54423" lon="8.74006">
        <ele>255</ele>
        <time>2026-05-11T18:39:41+00:00</time>
      </trkpt>
      <trkpt lat="42.54416" lon="8.74013">
        <ele>256</ele>
        <time>2026-05-11T18:39:42+00:00</time>
      </trkpt>
      <trkpt lat="42.54418" lon="8.74029">
        <ele>257</ele>
        <time>2026-05-11T18:39:43+00:00</time>
      </trkpt>
      <trkpt lat="42.5441" lon="8.74039">
        <ele>258</ele>
        <time>2026-05-11T18:39:44+00:00</time>
      </trkpt>
      <trkpt lat="42.54399" lon="8.74042">
        <ele>259</ele>
        <time>2026-05-11T18:39:45+00:00</time>
      </trkpt>
      <trkpt lat="42.54382" lon="8.74077">
        <ele>262</ele>
        <time>2026-05-11T18:39:46+00:00</time>
      </trkpt>
      <trkpt lat="42.54371" lon="8.74078">
        <ele>262</ele>
        <time>2026-05-11T18:39:47+00:00</time>
      </trkpt>
      <trkpt lat="42.54365" lon="8.74084">
        <ele>262</ele>
        <time>2026-05-11T18:39:48+00:00</time>
      </trkpt>
      <trkpt lat="42.54356" lon="8.74066">
        <ele>261</ele>
        <time>2026-05-11T18:39:49+00:00</time>
      </trkpt>
      <trkpt lat="42.54344" lon="8.74062">
        <ele>261</ele>
        <time>2026-05-11T18:39:50+00:00</time>
      </trkpt>
      <trkpt lat="42.54341" lon="8.74043">
        <ele>260</ele>
        <time>2026-05-11T18:39:51+00:00</time>
      </trkpt>
      <trkpt lat="42.54327" lon="8.74025">
        <ele>260</ele>
        <time>2026-05-11T18:39:52+00:00</time>
      </trkpt>
      <trkpt lat="42.54309" lon="8.74032">
        <ele>261</ele>
        <time>2026-05-11T18:39:53+00:00</time>
      </trkpt>
      <trkpt lat="42.54292" lon="8.7403">
        <ele>262</ele>
        <time>2026-05-11T18:39:54+00:00</time>
      </trkpt>
      <trkpt lat="42.54275" lon="8.74036">
        <ele>263</ele>
        <time>2026-05-11T18:39:55+00:00</time>
      </trkpt>
      <trkpt lat="42.54256" lon="8.74036">
        <ele>264</ele>
        <time>2026-05-11T18:39:56+00:00</time>
      </trkpt>
      <trkpt lat="42.5424" lon="8.74027">
        <ele>265</ele>
        <time>2026-05-11T18:39:57+00:00</time>
      </trkpt>
      <trkpt lat="42.5421" lon="8.74028">
        <ele>265</ele>
        <time>2026-05-11T18:39:58+00:00</time>
      </trkpt>
      <trkpt lat="42.54179" lon="8.74017">
        <ele>266</ele>
        <time>2026-05-11T18:39:59+00:00</time>
      </trkpt>
      <trkpt lat="42.54161" lon="8.74002">
        <ele>267</ele>
        <time>2026-05-11T18:40:00+00:00</time>
      </trkpt>
      <trkpt lat="42.54144" lon="8.73997">
        <ele>267</ele>
        <time>2026-05-11T18:40:01+00:00</time>
      </trkpt>
      <trkpt lat="42.54119" lon="8.73996">
        <ele>267</ele>
        <time>2026-05-11T18:40:02+00:00</time>
      </trkpt>
      <trkpt lat="42.54103" lon="8.73986">
        <ele>267</ele>
        <time>2026-05-11T18:40:03+00:00</time>
      </trkpt>
      <trkpt lat="42.54085" lon="8.73983">
        <ele>267</ele>
        <time>2026-05-11T18:40:04+00:00</time>
      </trkpt>
      <trkpt lat="42.54075" lon="8.73986">
        <ele>268</ele>
        <time>2026-05-11T18:40:05+00:00</time>
      </trkpt>
      <trkpt lat="42.54058" lon="8.73966">
        <ele>269</ele>
        <time>2026-05-11T18:40:06+00:00</time>
      </trkpt>
      <trkpt lat="42.54029" lon="8.73952">
        <ele>272</ele>
        <time>2026-05-11T18:40:07+00:00</time>
      </trkpt>
      <trkpt lat="42.53996" lon="8.73942">
        <ele>275</ele>
        <time>2026-05-11T18:40:08+00:00</time>
      </trkpt>
      <trkpt lat="42.53978" lon="8.73909">
        <ele>275</ele>
        <time>2026-05-11T18:40:09+00:00</time>
      </trkpt>
      <trkpt lat="42.53962" lon="8.73897">
        <ele>273</ele>
        <time>2026-05-11T18:40:10+00:00</time>
      </trkpt>
      <trkpt lat="42.5395" lon="8.7388">
        <ele>271</ele>
        <time>2026-05-11T18:40:11+00:00</time>
      </trkpt>
      <trkpt lat="42.53944" lon="8.73877">
        <ele>271</ele>
        <time>2026-05-11T18:40:12+00:00</time>
      </trkpt>
      <trkpt lat="42.53934" lon="8.73879">
        <ele>272</ele>
        <time>2026-05-11T18:40:13+00:00</time>
      </trkpt>
      <trkpt lat="42.53935" lon="8.73875">
        <ele>271</ele>
        <time>2026-05-11T18:40:14+00:00</time>
      </trkpt>
      <trkpt lat="42.53917" lon="8.73879">
        <ele>272</ele>
        <time>2026-05-11T18:40:15+00:00</time>
      </trkpt>
      <trkpt lat="42.53848" lon="8.73867">
        <ele>277</ele>
        <time>2026-05-11T18:40:16+00:00</time>
      </trkpt>
      <trkpt lat="42.53823" lon="8.73878">
        <ele>282</ele>
        <time>2026-05-11T18:40:17+00:00</time>
      </trkpt>
      <trkpt lat="42.53814" lon="8.73888">
        <ele>286</ele>
        <time>2026-05-11T18:40:18+00:00</time>
      </trkpt>
      <trkpt lat="42.53764" lon="8.73992">
        <ele>305</ele>
        <time>2026-05-11T18:40:19+00:00</time>
      </trkpt>
      <trkpt lat="42.53768" lon="8.73985">
        <ele>304</ele>
        <time>2026-05-11T18:40:20+00:00</time>
      </trkpt>
      <trkpt lat="42.53765" lon="8.73992">
        <ele>305</ele>
        <time>2026-05-11T18:40:21+00:00</time>
      </trkpt>
      <trkpt lat="42.53751" lon="8.7396">
        <ele>310</ele>
        <time>2026-05-11T18:40:22+00:00</time>
      </trkpt>
      <trkpt lat="42.5372" lon="8.73944">
        <ele>324</ele>
        <time>2026-05-11T18:40:23+00:00</time>
      </trkpt>
      <trkpt lat="42.53705" lon="8.73924">
        <ele>332</ele>
        <time>2026-05-11T18:40:24+00:00</time>
      </trkpt>
      <trkpt lat="42.53681" lon="8.73926">
        <ele>343</ele>
        <time>2026-05-11T18:40:25+00:00</time>
      </trkpt>
      <trkpt lat="42.53675" lon="8.73921">
        <ele>346</ele>
        <time>2026-05-11T18:40:26+00:00</time>
      </trkpt>
      <trkpt lat="42.53664" lon="8.73905">
        <ele>351</ele>
        <time>2026-05-11T18:40:27+00:00</time>
      </trkpt>
      <trkpt lat="42.53665" lon="8.7387">
        <ele>348</ele>
        <time>2026-05-11T18:40:28+00:00</time>
      </trkpt>
      <trkpt lat="42.53657" lon="8.73842">
        <ele>350</ele>
        <time>2026-05-11T18:40:29+00:00</time>
      </trkpt>
      <trkpt lat="42.53628" lon="8.73788">
        <ele>366</ele>
        <time>2026-05-11T18:40:30+00:00</time>
      </trkpt>
      <trkpt lat="42.53598" lon="8.73744">
        <ele>383</ele>
        <time>2026-05-11T18:40:31+00:00</time>
      </trkpt>
      <trkpt lat="42.53585" lon="8.73727">
        <ele>391</ele>
        <time>2026-05-11T18:40:32+00:00</time>
      </trkpt>
      <trkpt lat="42.53573" lon="8.73729">
        <ele>391</ele>
        <time>2026-05-11T18:40:33+00:00</time>
      </trkpt>
      <trkpt lat="42.53544" lon="8.73784">
        <ele>390</ele>
        <time>2026-05-11T18:40:34+00:00</time>
      </trkpt>
      <trkpt lat="42.5351" lon="8.73828">
        <ele>392</ele>
        <time>2026-05-11T18:40:35+00:00</time>
      </trkpt>
      <trkpt lat="42.53501" lon="8.73859">
        <ele>399</ele>
        <time>2026-05-11T18:40:36+00:00</time>
      </trkpt>
      <trkpt lat="42.53458" lon="8.73919">
        <ele>399</ele>
        <time>2026-05-11T18:40:37+00:00</time>
      </trkpt>
      <trkpt lat="42.53457" lon="8.73936">
        <ele>404</ele>
        <time>2026-05-11T18:40:38+00:00</time>
      </trkpt>
      <trkpt lat="42.53438" lon="8.73953">
        <ele>404</ele>
        <time>2026-05-11T18:40:39+00:00</time>
      </trkpt>
      <trkpt lat="42.53435" lon="8.73964">
        <ele>406</ele>
        <time>2026-05-11T18:40:40+00:00</time>
      </trkpt>
      <trkpt lat="42.53437" lon="8.73977">
        <ele>412</ele>
        <time>2026-05-11T18:40:41+00:00</time>
      </trkpt>
      <trkpt lat="42.53403" lon="8.7402">
        <ele>416</ele>
        <time>2026-05-11T18:40:42+00:00</time>
      </trkpt>
      <trkpt lat="42.53402" lon="8.74029">
        <ele>418</ele>
        <time>2026-05-11T18:40:43+00:00</time>
      </trkpt>
      <trkpt lat="42.53398" lon="8.7403">
        <ele>418</ele>
        <time>2026-05-11T18:40:44+00:00</time>
      </trkpt>
      <trkpt lat="42.53385" lon="8.74065">
        <ele>424</ele>
        <time>2026-05-11T18:40:45+00:00</time>
      </trkpt>
      <trkpt lat="42.53386" lon="8.74083">
        <ele>429</ele>
        <time>2026-05-11T18:40:46+00:00</time>
      </trkpt>
      <trkpt lat="42.53357" lon="8.74142">
        <ele>437</ele>
        <time>2026-05-11T18:40:47+00:00</time>
      </trkpt>
      <trkpt lat="42.53359" lon="8.74152">
        <ele>439</ele>
        <time>2026-05-11T18:40:48+00:00</time>
      </trkpt>
      <trkpt lat="42.53353" lon="8.74178">
        <ele>445</ele>
        <time>2026-05-11T18:40:49+00:00</time>
      </trkpt>
      <trkpt lat="42.53344" lon="8.74191">
        <ele>449</ele>
        <time>2026-05-11T18:40:50+00:00</time>
      </trkpt>
      <trkpt lat="42.53338" lon="8.74192">
        <ele>450</ele>
        <time>2026-05-11T18:40:51+00:00</time>
      </trkpt>
      <trkpt lat="42.53337" lon="8.74198">
        <ele>452</ele>
        <time>2026-05-11T18:40:52+00:00</time>
      </trkpt>
      <trkpt lat="42.53335" lon="8.74195">
        <ele>452</ele>
        <time>2026-05-11T18:40:53+00:00</time>
      </trkpt>
      <trkpt lat="42.53309" lon="8.74209">
        <ele>459</ele>
        <time>2026-05-11T18:40:54+00:00</time>
      </trkpt>
      <trkpt lat="42.53309" lon="8.74225">
        <ele>463</ele>
        <time>2026-05-11T18:40:55+00:00</time>
      </trkpt>
      <trkpt lat="42.53286" lon="8.74269">
        <ele>473</ele>
        <time>2026-05-11T18:40:56+00:00</time>
      </trkpt>
      <trkpt lat="42.53278" lon="8.74301">
        <ele>476</ele>
        <time>2026-05-11T18:40:57+00:00</time>
      </trkpt>
      <trkpt lat="42.53247" lon="8.74327">
        <ele>489</ele>
        <time>2026-05-11T18:40:58+00:00</time>
      </trkpt>
      <trkpt lat="42.53239" lon="8.74349">
        <ele>491</ele>
        <time>2026-05-11T18:40:59+00:00</time>
      </trkpt>
      <trkpt lat="42.53234" lon="8.74352">
        <ele>493</ele>
        <time>2026-05-11T18:41:00+00:00</time>
      </trkpt>
      <trkpt lat="42.53226" lon="8.74349">
        <ele>498</ele>
        <time>2026-05-11T18:41:01+00:00</time>
      </trkpt>
      <trkpt lat="42.53215" lon="8.74351">
        <ele>503</ele>
        <time>2026-05-11T18:41:02+00:00</time>
      </trkpt>
      <trkpt lat="42.53212" lon="8.74358">
        <ele>504</ele>
        <time>2026-05-11T18:41:03+00:00</time>
      </trkpt>
      <trkpt lat="42.53203" lon="8.74361">
        <ele>509</ele>
        <time>2026-05-11T18:41:04+00:00</time>
      </trkpt>
      <trkpt lat="42.53187" lon="8.74388">
        <ele>518</ele>
        <time>2026-05-11T18:41:05+00:00</time>
      </trkpt>
      <trkpt lat="42.53179" lon="8.74385">
        <ele>523</ele>
        <time>2026-05-11T18:41:06+00:00</time>
      </trkpt>
      <trkpt lat="42.53166" lon="8.74396">
        <ele>532</ele>
        <time>2026-05-11T18:41:07+00:00</time>
      </trkpt>
      <trkpt lat="42.53161" lon="8.74392">
        <ele>534</ele>
        <time>2026-05-11T18:41:08+00:00</time>
      </trkpt>
      <trkpt lat="42.53145" lon="8.74397">
        <ele>544</ele>
        <time>2026-05-11T18:41:09+00:00</time>
      </trkpt>
      <trkpt lat="42.53135" lon="8.7441">
        <ele>550</ele>
        <time>2026-05-11T18:41:10+00:00</time>
      </trkpt>
      <trkpt lat="42.53125" lon="8.74413">
        <ele>556</ele>
        <time>2026-05-11T18:41:11+00:00</time>
      </trkpt>
      <trkpt lat="42.53097" lon="8.74395">
        <ele>572</ele>
        <time>2026-05-11T18:41:12+00:00</time>
      </trkpt>
      <trkpt lat="42.53081" lon="8.74399">
        <ele>581</ele>
        <time>2026-05-11T18:41:13+00:00</time>
      </trkpt>
      <trkpt lat="42.53075" lon="8.74394">
        <ele>585</ele>
        <time>2026-05-11T18:41:14+00:00</time>
      </trkpt>
      <trkpt lat="42.53066" lon="8.74408">
        <ele>591</ele>
        <time>2026-05-11T18:41:15+00:00</time>
      </trkpt>
      <trkpt lat="42.53053" lon="8.74408">
        <ele>599</ele>
        <time>2026-05-11T18:41:16+00:00</time>
      </trkpt>
      <trkpt lat="42.5305" lon="8.74403">
        <ele>601</ele>
        <time>2026-05-11T18:41:17+00:00</time>
      </trkpt>
      <trkpt lat="42.53035" lon="8.74423">
        <ele>611</ele>
        <time>2026-05-11T18:41:18+00:00</time>
      </trkpt>
      <trkpt lat="42.53031" lon="8.74415">
        <ele>614</ele>
        <time>2026-05-11T18:41:19+00:00</time>
      </trkpt>
      <trkpt lat="42.53024" lon="8.74421">
        <ele>618</ele>
        <time>2026-05-11T18:41:20+00:00</time>
      </trkpt>
      <trkpt lat="42.53014" lon="8.74422">
        <ele>624</ele>
        <time>2026-05-11T18:41:21+00:00</time>
      </trkpt>
      <trkpt lat="42.52989" lon="8.7441">
        <ele>641</ele>
        <time>2026-05-11T18:41:22+00:00</time>
      </trkpt>
      <trkpt lat="42.52963" lon="8.74416">
        <ele>658</ele>
        <time>2026-05-11T18:41:23+00:00</time>
      </trkpt>
      <trkpt lat="42.52942" lon="8.74431">
        <ele>669</ele>
        <time>2026-05-11T18:41:24+00:00</time>
      </trkpt>
      <trkpt lat="42.52911" lon="8.74423">
        <ele>685</ele>
        <time>2026-05-11T18:41:25+00:00</time>
      </trkpt>
      <trkpt lat="42.52904" lon="8.7441">
        <ele>682</ele>
        <time>2026-05-11T18:41:26+00:00</time>
      </trkpt>
      <trkpt lat="42.52917" lon="8.7439">
        <ele>683</ele>
        <time>2026-05-11T18:41:27+00:00</time>
      </trkpt>
      <trkpt lat="42.52921" lon="8.74391">
        <ele>681</ele>
        <time>2026-05-11T18:41:28+00:00</time>
      </trkpt>
      <trkpt lat="42.52926" lon="8.74383">
        <ele>677</ele>
        <time>2026-05-11T18:41:29+00:00</time>
      </trkpt>
      <trkpt lat="42.52931" lon="8.74383">
        <ele>674</ele>
        <time>2026-05-11T18:41:30+00:00</time>
      </trkpt>
      <trkpt lat="42.52937" lon="8.74388">
        <ele>671</ele>
        <time>2026-05-11T18:41:31+00:00</time>
      </trkpt>
      <trkpt lat="42.52934" lon="8.74396">
        <ele>674</ele>
        <time>2026-05-11T18:41:32+00:00</time>
      </trkpt>
      <trkpt lat="42.52933" lon="8.7439">
        <ele>673</ele>
        <time>2026-05-11T18:41:33+00:00</time>
      </trkpt>
      <trkpt lat="42.52928" lon="8.7441">
        <ele>680</ele>
        <time>2026-05-11T18:41:34+00:00</time>
      </trkpt>
      <trkpt lat="42.52936" lon="8.74431">
        <ele>673</ele>
        <time>2026-05-11T18:41:35+00:00</time>
      </trkpt>
      <trkpt lat="42.52956" lon="8.74418">
        <ele>662</ele>
        <time>2026-05-11T18:41:36+00:00</time>
      </trkpt>
      <trkpt lat="42.52988" lon="8.74408">
        <ele>641</ele>
        <time>2026-05-11T18:41:37+00:00</time>
      </trkpt>
      <trkpt lat="42.52998" lon="8.74417">
        <ele>635</ele>
        <time>2026-05-11T18:41:38+00:00</time>
      </trkpt>
      <trkpt lat="42.53018" lon="8.74424">
        <ele>622</ele>
        <time>2026-05-11T18:41:39+00:00</time>
      </trkpt>
      <trkpt lat="42.53034" lon="8.74412">
        <ele>612</ele>
        <time>2026-05-11T18:41:40+00:00</time>
      </trkpt>
      <trkpt lat="42.53041" lon="8.74416">
        <ele>607</ele>
        <time>2026-05-11T18:41:41+00:00</time>
      </trkpt>
      <trkpt lat="42.53047" lon="8.74413">
        <ele>603</ele>
        <time>2026-05-11T18:41:42+00:00</time>
      </trkpt>
      <trkpt lat="42.53055" lon="8.74416">
        <ele>598</ele>
        <time>2026-05-11T18:41:43+00:00</time>
      </trkpt>
      <trkpt lat="42.53069" lon="8.74402">
        <ele>589</ele>
        <time>2026-05-11T18:41:44+00:00</time>
      </trkpt>
      <trkpt lat="42.53072" lon="8.74392">
        <ele>587</ele>
        <time>2026-05-11T18:41:45+00:00</time>
      </trkpt>
      <trkpt lat="42.53085" lon="8.74399">
        <ele>579</ele>
        <time>2026-05-11T18:41:46+00:00</time>
      </trkpt>
      <trkpt lat="42.53095" lon="8.74398">
        <ele>573</ele>
        <time>2026-05-11T18:41:47+00:00</time>
      </trkpt>
      <trkpt lat="42.53118" lon="8.74413">
        <ele>560</ele>
        <time>2026-05-11T18:41:48+00:00</time>
      </trkpt>
      <trkpt lat="42.5313" lon="8.74412">
        <ele>553</ele>
        <time>2026-05-11T18:41:49+00:00</time>
      </trkpt>
      <trkpt lat="42.53143" lon="8.74397">
        <ele>545</ele>
        <time>2026-05-11T18:41:50+00:00</time>
      </trkpt>
      <trkpt lat="42.53145" lon="8.744">
        <ele>544</ele>
        <time>2026-05-11T18:41:51+00:00</time>
      </trkpt>
      <trkpt lat="42.53154" lon="8.74395">
        <ele>539</ele>
        <time>2026-05-11T18:41:52+00:00</time>
      </trkpt>
      <trkpt lat="42.53163" lon="8.74396">
        <ele>533</ele>
        <time>2026-05-11T18:41:53+00:00</time>
      </trkpt>
      <trkpt lat="42.53176" lon="8.74387">
        <ele>525</ele>
        <time>2026-05-11T18:41:54+00:00</time>
      </trkpt>
      <trkpt lat="42.53192" lon="8.74383">
        <ele>515</ele>
        <time>2026-05-11T18:41:55+00:00</time>
      </trkpt>
      <trkpt lat="42.53199" lon="8.74361">
        <ele>511</ele>
        <time>2026-05-11T18:41:56+00:00</time>
      </trkpt>
      <trkpt lat="42.53215" lon="8.74356">
        <ele>503</ele>
        <time>2026-05-11T18:41:57+00:00</time>
      </trkpt>
      <trkpt lat="42.53214" lon="8.74351">
        <ele>504</ele>
        <time>2026-05-11T18:41:58+00:00</time>
      </trkpt>
      <trkpt lat="42.53228" lon="8.74346">
        <ele>497</ele>
        <time>2026-05-11T18:41:59+00:00</time>
      </trkpt>
      <trkpt lat="42.53237" lon="8.74351">
        <ele>492</ele>
        <time>2026-05-11T18:42:00+00:00</time>
      </trkpt>
      <trkpt lat="42.53257" lon="8.74311">
        <ele>483</ele>
        <time>2026-05-11T18:42:01+00:00</time>
      </trkpt>
      <trkpt lat="42.53278" lon="8.74298">
        <ele>476</ele>
        <time>2026-05-11T18:42:02+00:00</time>
      </trkpt>
      <trkpt lat="42.53288" lon="8.74262">
        <ele>472</ele>
        <time>2026-05-11T18:42:03+00:00</time>
      </trkpt>
      <trkpt lat="42.5331" lon="8.7423">
        <ele>464</ele>
        <time>2026-05-11T18:42:04+00:00</time>
      </trkpt>
      <trkpt lat="42.53311" lon="8.74213">
        <ele>460</ele>
        <time>2026-05-11T18:42:05+00:00</time>
      </trkpt>
      <trkpt lat="42.53332" lon="8.74194">
        <ele>452</ele>
        <time>2026-05-11T18:42:06+00:00</time>
      </trkpt>
      <trkpt lat="42.53345" lon="8.7419">
        <ele>448</ele>
        <time>2026-05-11T18:42:07+00:00</time>
      </trkpt>
      <trkpt lat="42.53356" lon="8.74173">
        <ele>444</ele>
        <time>2026-05-11T18:42:08+00:00</time>
      </trkpt>
      <trkpt lat="42.53367" lon="8.74129">
        <ele>434</ele>
        <time>2026-05-11T18:42:09+00:00</time>
      </trkpt>
      <trkpt lat="42.53375" lon="8.74121">
        <ele>433</ele>
        <time>2026-05-11T18:42:10+00:00</time>
      </trkpt>
      <trkpt lat="42.53389" lon="8.74089">
        <ele>430</ele>
        <time>2026-05-11T18:42:11+00:00</time>
      </trkpt>
      <trkpt lat="42.53396" lon="8.74036">
        <ele>419</ele>
        <time>2026-05-11T18:42:12+00:00</time>
      </trkpt>
      <trkpt lat="42.53423" lon="8.73992">
        <ele>413</ele>
        <time>2026-05-11T18:42:13+00:00</time>
      </trkpt>
      <trkpt lat="42.53434" lon="8.73962">
        <ele>405</ele>
        <time>2026-05-11T18:42:14+00:00</time>
      </trkpt>
      <trkpt lat="42.53454" lon="8.73945">
        <ele>406</ele>
        <time>2026-05-11T18:42:15+00:00</time>
      </trkpt>
      <trkpt lat="42.53465" lon="8.73914">
        <ele>400</ele>
        <time>2026-05-11T18:42:16+00:00</time>
      </trkpt>
      <trkpt lat="42.53479" lon="8.73897">
        <ele>401</ele>
        <time>2026-05-11T18:42:17+00:00</time>
      </trkpt>
      <trkpt lat="42.53482" lon="8.73886">
        <ele>399</ele>
        <time>2026-05-11T18:42:18+00:00</time>
      </trkpt>
      <trkpt lat="42.53499" lon="8.73861">
        <ele>400</ele>
        <time>2026-05-11T18:42:19+00:00</time>
      </trkpt>
      <trkpt lat="42.53508" lon="8.73825">
        <ele>392</ele>
        <time>2026-05-11T18:42:20+00:00</time>
      </trkpt>
      <trkpt lat="42.53533" lon="8.73801">
        <ele>391</ele>
        <time>2026-05-11T18:42:21+00:00</time>
      </trkpt>
      <trkpt lat="42.53564" lon="8.73739">
        <ele>390</ele>
        <time>2026-05-11T18:42:22+00:00</time>
      </trkpt>
      <trkpt lat="42.53577" lon="8.7373">
        <ele>392</ele>
        <time>2026-05-11T18:42:23+00:00</time>
      </trkpt>
      <trkpt lat="42.5359" lon="8.73728">
        <ele>388</ele>
        <time>2026-05-11T18:42:24+00:00</time>
      </trkpt>
      <trkpt lat="42.53612" lon="8.73766">
        <ele>375</ele>
        <time>2026-05-11T18:42:25+00:00</time>
      </trkpt>
      <trkpt lat="42.53623" lon="8.73776">
        <ele>369</ele>
        <time>2026-05-11T18:42:26+00:00</time>
      </trkpt>
      <trkpt lat="42.53652" lon="8.73838">
        <ele>353</ele>
        <time>2026-05-11T18:42:27+00:00</time>
      </trkpt>
      <trkpt lat="42.53664" lon="8.73913">
        <ele>351</ele>
        <time>2026-05-11T18:42:28+00:00</time>
      </trkpt>
      <trkpt lat="42.53686" lon="8.7397">
        <ele>340</ele>
        <time>2026-05-11T18:42:29+00:00</time>
      </trkpt>
      <trkpt lat="42.53714" lon="8.74085">
        <ele>328</ele>
        <time>2026-05-11T18:42:30+00:00</time>
      </trkpt>
      <trkpt lat="42.53722" lon="8.74081">
        <ele>324</ele>
        <time>2026-05-11T18:42:31+00:00</time>
      </trkpt>
      <trkpt lat="42.53743" lon="8.74041">
        <ele>314</ele>
        <time>2026-05-11T18:42:32+00:00</time>
      </trkpt>
      <trkpt lat="42.53788" lon="8.73934">
        <ele>297</ele>
        <time>2026-05-11T18:42:33+00:00</time>
      </trkpt>
      <trkpt lat="42.5381" lon="8.73897">
        <ele>288</ele>
        <time>2026-05-11T18:42:34+00:00</time>
      </trkpt>
      <trkpt lat="42.53817" lon="8.73878">
        <ele>284</ele>
        <time>2026-05-11T18:42:35+00:00</time>
      </trkpt>
      <trkpt lat="42.53834" lon="8.7387">
        <ele>278</ele>
        <time>2026-05-11T18:42:36+00:00</time>
      </trkpt>
      <trkpt lat="42.53865" lon="8.73866">
        <ele>275</ele>
        <time>2026-05-11T18:42:37+00:00</time>
      </trkpt>
      <trkpt lat="42.53915" lon="8.73878">
        <ele>272</ele>
        <time>2026-05-11T18:42:38+00:00</time>
      </trkpt>
      <trkpt lat="42.53931" lon="8.73873">
        <ele>271</ele>
        <time>2026-05-11T18:42:39+00:00</time>
      </trkpt>
      <trkpt lat="42.53943" lon="8.73874">
        <ele>271</ele>
        <time>2026-05-11T18:42:40+00:00</time>
      </trkpt>
      <trkpt lat="42.5398" lon="8.73911">
        <ele>275</ele>
        <time>2026-05-11T18:42:41+00:00</time>
      </trkpt>
      <trkpt lat="42.53995" lon="8.73938">
        <ele>275</ele>
        <time>2026-05-11T18:42:42+00:00</time>
      </trkpt>
      <trkpt lat="42.54051" lon="8.73962">
        <ele>269</ele>
        <time>2026-05-11T18:42:43+00:00</time>
      </trkpt>
      <trkpt lat="42.54068" lon="8.73984">
        <ele>268</ele>
        <time>2026-05-11T18:42:44+00:00</time>
      </trkpt>
      <trkpt lat="42.54086" lon="8.73982">
        <ele>267</ele>
        <time>2026-05-11T18:42:45+00:00</time>
      </trkpt>
      <trkpt lat="42.5412" lon="8.73995">
        <ele>267</ele>
        <time>2026-05-11T18:42:46+00:00</time>
      </trkpt>
      <trkpt lat="42.54154" lon="8.73997">
        <ele>267</ele>
        <time>2026-05-11T18:42:47+00:00</time>
      </trkpt>
      <trkpt lat="42.54169" lon="8.7401">
        <ele>266</ele>
        <time>2026-05-11T18:42:48+00:00</time>
      </trkpt>
      <trkpt lat="42.54205" lon="8.74023">
        <ele>265</ele>
        <time>2026-05-11T18:42:49+00:00</time>
      </trkpt>
      <trkpt lat="42.54241" lon="8.74023">
        <ele>265</ele>
        <time>2026-05-11T18:42:50+00:00</time>
      </trkpt>
      <trkpt lat="42.54256" lon="8.74033">
        <ele>264</ele>
        <time>2026-05-11T18:42:51+00:00</time>
      </trkpt>
      <trkpt lat="42.54329" lon="8.74025">
        <ele>259</ele>
        <time>2026-05-11T18:42:52+00:00</time>
      </trkpt>
      <trkpt lat="42.54338" lon="8.74037">
        <ele>260</ele>
        <time>2026-05-11T18:42:53+00:00</time>
      </trkpt>
      <trkpt lat="42.54345" lon="8.7406">
        <ele>261</ele>
        <time>2026-05-11T18:42:54+00:00</time>
      </trkpt>
      <trkpt lat="42.54355" lon="8.74064">
        <ele>261</ele>
        <time>2026-05-11T18:42:55+00:00</time>
      </trkpt>
      <trkpt lat="42.54365" lon="8.74081">
        <ele>262</ele>
        <time>2026-05-11T18:42:56+00:00</time>
      </trkpt>
      <trkpt lat="42.54381" lon="8.74074">
        <ele>261</ele>
        <time>2026-05-11T18:42:57+00:00</time>
      </trkpt>
      <trkpt lat="42.54397" lon="8.74038">
        <ele>259</ele>
        <time>2026-05-11T18:42:58+00:00</time>
      </trkpt>
      <trkpt lat="42.54405" lon="8.74036">
        <ele>258</ele>
        <time>2026-05-11T18:42:59+00:00</time>
      </trkpt>
      <trkpt lat="42.54415" lon="8.74042">
        <ele>259</ele>
        <time>2026-05-11T18:43:00+00:00</time>
      </trkpt>
      <trkpt lat="42.54414" lon="8.74017">
        <ele>257</ele>
        <time>2026-05-11T18:43:01+00:00</time>
      </trkpt>
      <trkpt lat="42.54423" lon="8.74005">
        <ele>255</ele>
        <time>2026-05-11T18:43:02+00:00</time>
      </trkpt>
      <trkpt lat="42.54447" lon="8.74013">
        <ele>256</ele>
        <time>2026-05-11T18:43:03+00:00</time>
      </trkpt>
      <trkpt lat="42.54451" lon="8.74007">
        <ele>255</ele>
        <time>2026-05-11T18:43:04+00:00</time>
      </trkpt>
      <trkpt lat="42.54454" lon="8.74016">
        <ele>256</ele>
        <time>2026-05-11T18:43:05+00:00</time>
      </trkpt>
      <trkpt lat="42.54478" lon="8.7402">
        <ele>256</ele>
        <time>2026-05-11T18:43:06+00:00</time>
      </trkpt>
      <trkpt lat="42.54489" lon="8.7405">
        <ele>257</ele>
        <time>2026-05-11T18:43:07+00:00</time>
      </trkpt>
      <trkpt lat="42.54493" lon="8.74052">
        <ele>257</ele>
        <time>2026-05-11T18:43:08+00:00</time>
      </trkpt>
      <trkpt lat="42.54506" lon="8.74042">
        <ele>256</ele>
        <time>2026-05-11T18:43:09+00:00</time>
      </trkpt>
      <trkpt lat="42.54561" lon="8.74057">
        <ele>256</ele>
        <time>2026-05-11T18:43:10+00:00</time>
      </trkpt>
      <trkpt lat="42.54578" lon="8.74053">
        <ele>256</ele>
        <time>2026-05-11T18:43:11+00:00</time>
      </trkpt>
      <trkpt lat="42.54612" lon="8.74065">
        <ele>256</ele>
        <time>2026-05-11T18:43:12+00:00</time>
      </trkpt>
      <trkpt lat="42.54635" lon="8.74058">
        <ele>255</ele>
        <time>2026-05-11T18:43:13+00:00</time>
      </trkpt>
      <trkpt lat="42.54649" lon="8.74061">
        <ele>255</ele>
        <time>2026-05-11T18:43:14+00:00</time>
      </trkpt>
      <trkpt lat="42.54683" lon="8.74045">
        <ele>253</ele>
        <time>2026-05-11T18:43:15+00:00</time>
      </trkpt>
      <trkpt lat="42.54703" lon="8.74026">
        <ele>251</ele>
        <time>2026-05-11T18:43:16+00:00</time>
      </trkpt>
      <trkpt lat="42.54717" lon="8.74021">
        <ele>251</ele>
        <time>2026-05-11T18:43:17+00:00</time>
      </trkpt>
      <trkpt lat="42.54729" lon="8.74028">
        <ele>250</ele>
        <time>2026-05-11T18:43:18+00:00</time>
      </trkpt>
      <trkpt lat="42.54738" lon="8.74015">
        <ele>250</ele>
        <time>2026-05-11T18:43:19+00:00</time>
      </trkpt>
      <trkpt lat="42.54736" lon="8.74006">
        <ele>250</ele>
        <time>2026-05-11T18:43:20+00:00</time>
      </trkpt>
      <trkpt lat="42.54753" lon="8.73979">
        <ele>248</ele>
        <time>2026-05-11T18:43:21+00:00</time>
      </trkpt>
      <trkpt lat="42.54767" lon="8.73979">
        <ele>246</ele>
        <time>2026-05-11T18:43:22+00:00</time>
      </trkpt>
      <trkpt lat="42.54769" lon="8.73986">
        <ele>247</ele>
        <time>2026-05-11T18:43:23+00:00</time>
      </trkpt>
      <trkpt lat="42.54773" lon="8.73987">
        <ele>246</ele>
        <time>2026-05-11T18:43:24+00:00</time>
      </trkpt>
      <trkpt lat="42.54802" lon="8.73959">
        <ele>242</ele>
        <time>2026-05-11T18:43:25+00:00</time>
      </trkpt>
      <trkpt lat="42.54813" lon="8.73969">
        <ele>241</ele>
        <time>2026-05-11T18:43:26+00:00</time>
      </trkpt>
      <trkpt lat="42.54851" lon="8.73937">
        <ele>240</ele>
        <time>2026-05-11T18:43:27+00:00</time>
      </trkpt>
      <trkpt lat="42.54864" lon="8.73917">
        <ele>241</ele>
        <time>2026-05-11T18:43:28+00:00</time>
      </trkpt>
      <trkpt lat="42.54861" lon="8.73884">
        <ele>241</ele>
        <time>2026-05-11T18:43:29+00:00</time>
      </trkpt>
      <trkpt lat="42.54864" lon="8.7387">
        <ele>242</ele>
        <time>2026-05-11T18:43:30+00:00</time>
      </trkpt>
      <trkpt lat="42.54885" lon="8.73857">
        <ele>244</ele>
        <time>2026-05-11T18:43:31+00:00</time>
      </trkpt>
      <trkpt lat="42.54893" lon="8.73828">
        <ele>245</ele>
        <time>2026-05-11T18:43:32+00:00</time>
      </trkpt>
      <trkpt lat="42.54922" lon="8.73829">
        <ele>247</ele>
        <time>2026-05-11T18:43:33+00:00</time>
      </trkpt>
      <trkpt lat="42.54937" lon="8.73824">
        <ele>246</ele>
        <time>2026-05-11T18:43:34+00:00</time>
      </trkpt>
      <trkpt lat="42.5494" lon="8.7383">
        <ele>246</ele>
        <time>2026-05-11T18:43:35+00:00</time>
      </trkpt>
      <trkpt lat="42.54954" lon="8.73826">
        <ele>245</ele>
        <time>2026-05-11T18:43:36+00:00</time>
      </trkpt>
      <trkpt lat="42.5497" lon="8.73811">
        <ele>244</ele>
        <time>2026-05-11T18:43:37+00:00</time>
      </trkpt>
      <trkpt lat="42.54978" lon="8.73774">
        <ele>242</ele>
        <time>2026-05-11T18:43:38+00:00</time>
      </trkpt>
      <trkpt lat="42.54968" lon="8.73759">
        <ele>241</ele>
        <time>2026-05-11T18:43:39+00:00</time>
      </trkpt>
      <trkpt lat="42.54969" lon="8.73724">
        <ele>239</ele>
        <time>2026-05-11T18:43:40+00:00</time>
      </trkpt>
      <trkpt lat="42.54966" lon="8.73718">
        <ele>238</ele>
        <time>2026-05-11T18:43:41+00:00</time>
      </trkpt>
      <trkpt lat="42.54973" lon="8.73713">
        <ele>238</ele>
        <time>2026-05-11T18:43:42+00:00</time>
      </trkpt>
      <trkpt lat="42.54986" lon="8.73721">
        <ele>240</ele>
        <time>2026-05-11T18:43:43+00:00</time>
      </trkpt>
      <trkpt lat="42.54998" lon="8.7372">
        <ele>240</ele>
        <time>2026-05-11T18:43:44+00:00</time>
      </trkpt>
      <trkpt lat="42.55001" lon="8.73724">
        <ele>241</ele>
        <time>2026-05-11T18:43:45+00:00</time>
      </trkpt>
      <trkpt lat="42.55012" lon="8.7372">
        <ele>238</ele>
        <time>2026-05-11T18:43:46+00:00</time>
      </trkpt>
      <trkpt lat="42.54999" lon="8.73661">
        <ele>237</ele>
        <time>2026-05-11T18:43:47+00:00</time>
      </trkpt>
      <trkpt lat="42.55004" lon="8.73641">
        <ele>235</ele>
        <time>2026-05-11T18:43:48+00:00</time>
      </trkpt>
      <trkpt lat="42.55" lon="8.73612">
        <ele>233</ele>
        <time>2026-05-11T18:43:49+00:00</time>
      </trkpt>
      <trkpt lat="42.55005" lon="8.73583">
        <ele>230</ele>
        <time>2026-05-11T18:43:50+00:00</time>
      </trkpt>
      <trkpt lat="42.55004" lon="8.73564">
        <ele>228</ele>
        <time>2026-05-11T18:43:51+00:00</time>
      </trkpt>
      <trkpt lat="42.54988" lon="8.73527">
        <ele>225</ele>
        <time>2026-05-11T18:43:52+00:00</time>
      </trkpt>
      <trkpt lat="42.5499" lon="8.73514">
        <ele>224</ele>
        <time>2026-05-11T18:43:53+00:00</time>
      </trkpt>
      <trkpt lat="42.55008" lon="8.73507">
        <ele>224</ele>
        <time>2026-05-11T18:43:54+00:00</time>
      </trkpt>
      <trkpt lat="42.55039" lon="8.73515">
        <ele>222</ele>
        <time>2026-05-11T18:43:55+00:00</time>
      </trkpt>
      <trkpt lat="42.55049" lon="8.73514">
        <ele>221</ele>
        <time>2026-05-11T18:43:56+00:00</time>
      </trkpt>
      <trkpt lat="42.55043" lon="8.73537">
        <ele>223</ele>
        <time>2026-05-11T18:43:57+00:00</time>
      </trkpt>
      <trkpt lat="42.55055" lon="8.73553">
        <ele>223</ele>
        <time>2026-05-11T18:43:58+00:00</time>
      </trkpt>
      <trkpt lat="42.55056" lon="8.73567">
        <ele>225</ele>
        <time>2026-05-11T18:43:59+00:00</time>
      </trkpt>
      <trkpt lat="42.55062" lon="8.73569">
        <ele>224</ele>
        <time>2026-05-11T18:44:00+00:00</time>
      </trkpt>
      <trkpt lat="42.55065" lon="8.73576">
        <ele>225</ele>
        <time>2026-05-11T18:44:01+00:00</time>
      </trkpt>
      <trkpt lat="42.55087" lon="8.73587">
        <ele>224</ele>
        <time>2026-05-11T18:44:02+00:00</time>
      </trkpt>
      <trkpt lat="42.551" lon="8.73606">
        <ele>222</ele>
        <time>2026-05-11T18:44:03+00:00</time>
      </trkpt>
      <trkpt lat="42.55105" lon="8.7363">
        <ele>222</ele>
        <time>2026-05-11T18:44:04+00:00</time>
      </trkpt>
      <trkpt lat="42.55102" lon="8.73637">
        <ele>223</ele>
        <time>2026-05-11T18:44:05+00:00</time>
      </trkpt>
      <trkpt lat="42.55113" lon="8.73652">
        <ele>222</ele>
        <time>2026-05-11T18:44:06+00:00</time>
      </trkpt>
      <trkpt lat="42.55114" lon="8.73664">
        <ele>222</ele>
        <time>2026-05-11T18:44:07+00:00</time>
      </trkpt>
      <trkpt lat="42.55123" lon="8.73673">
        <ele>221</ele>
        <time>2026-05-11T18:44:08+00:00</time>
      </trkpt>
      <trkpt lat="42.55131" lon="8.73709">
        <ele>219</ele>
        <time>2026-05-11T18:44:09+00:00</time>
      </trkpt>
      <trkpt lat="42.55143" lon="8.7374">
        <ele>217</ele>
        <time>2026-05-11T18:44:10+00:00</time>
      </trkpt>
      <trkpt lat="42.55179" lon="8.73692">
        <ele>215</ele>
        <time>2026-05-11T18:44:11+00:00</time>
      </trkpt>
      <trkpt lat="42.55184" lon="8.73653">
        <ele>216</ele>
        <time>2026-05-11T18:44:12+00:00</time>
      </trkpt>
      <trkpt lat="42.55188" lon="8.73648">
        <ele>216</ele>
        <time>2026-05-11T18:44:13+00:00</time>
      </trkpt>
      <trkpt lat="42.5519" lon="8.73604">
        <ele>215</ele>
        <time>2026-05-11T18:44:14+00:00</time>
      </trkpt>
      <trkpt lat="42.55206" lon="8.73607">
        <ele>216</ele>
        <time>2026-05-11T18:44:15+00:00</time>
      </trkpt>
      <trkpt lat="42.55217" lon="8.73634">
        <ele>217</ele>
        <time>2026-05-11T18:44:16+00:00</time>
      </trkpt>
      <trkpt lat="42.55241" lon="8.73667">
        <ele>219</ele>
        <time>2026-05-11T18:44:17+00:00</time>
      </trkpt>
      <trkpt lat="42.55261" lon="8.73677">
        <ele>217</ele>
        <time>2026-05-11T18:44:18+00:00</time>
      </trkpt>
      <trkpt lat="42.55245" lon="8.73703">
        <ele>216</ele>
        <time>2026-05-11T18:44:19+00:00</time>
      </trkpt>
      <trkpt lat="42.55246" lon="8.73729">
        <ele>214</ele>
        <time>2026-05-11T18:44:20+00:00</time>
      </trkpt>
      <trkpt lat="42.55241" lon="8.73714">
        <ele>215</ele>
        <time>2026-05-11T18:44:21+00:00</time>
      </trkpt>
      <trkpt lat="42.55273" lon="8.73676">
        <ele>217</ele>
        <time>2026-05-11T18:44:22+00:00</time>
      </trkpt>
      <trkpt lat="42.55298" lon="8.73681">
        <ele>214</ele>
        <time>2026-05-11T18:44:23+00:00</time>
      </trkpt>
      <trkpt lat="42.55337" lon="8.73705">
        <ele>207</ele>
        <time>2026-05-11T18:44:24+00:00</time>
      </trkpt>
      <trkpt lat="42.55357" lon="8.73708">
        <ele>204</ele>
        <time>2026-05-11T18:44:25+00:00</time>
      </trkpt>
      <trkpt lat="42.55391" lon="8.73704">
        <ele>199</ele>
        <time>2026-05-11T18:44:26+00:00</time>
      </trkpt>
      <trkpt lat="42.55427" lon="8.73737">
        <ele>194</ele>
        <time>2026-05-11T18:44:27+00:00</time>
      </trkpt>
      <trkpt lat="42.55447" lon="8.73763">
        <ele>193</ele>
        <time>2026-05-11T18:44:28+00:00</time>
      </trkpt>
      <trkpt lat="42.55454" lon="8.73791">
        <ele>190</ele>
        <time>2026-05-11T18:44:29+00:00</time>
      </trkpt>
      <trkpt lat="42.55467" lon="8.73819">
        <ele>188</ele>
        <time>2026-05-11T18:44:30+00:00</time>
      </trkpt>
      <trkpt lat="42.55493" lon="8.73845">
        <ele>185</ele>
        <time>2026-05-11T18:44:31+00:00</time>
      </trkpt>
      <trkpt lat="42.55501" lon="8.73881">
        <ele>180</ele>
        <time>2026-05-11T18:44:32+00:00</time>
      </trkpt>
      <trkpt lat="42.55515" lon="8.73898">
        <ele>177</ele>
        <time>2026-05-11T18:44:33+00:00</time>
      </trkpt>
      <trkpt lat="42.55541" lon="8.73969">
        <ele>164</ele>
        <time>2026-05-11T18:44:34+00:00</time>
      </trkpt>
      <trkpt lat="42.55579" lon="8.74006">
        <ele>155</ele>
        <time>2026-05-11T18:44:35+00:00</time>
      </trkpt>
      <trkpt lat="42.55589" lon="8.74027">
        <ele>149</ele>
        <time>2026-05-11T18:44:36+00:00</time>
      </trkpt>
      <trkpt lat="42.55607" lon="8.74032">
        <ele>144</ele>
        <time>2026-05-11T18:44:37+00:00</time>
      </trkpt>
      <trkpt lat="42.55627" lon="8.74024">
        <ele>140</ele>
        <time>2026-05-11T18:44:38+00:00</time>
      </trkpt>
      <trkpt lat="42.55642" lon="8.74036">
        <ele>134</ele>
        <time>2026-05-11T18:44:39+00:00</time>
      </trkpt>
      <trkpt lat="42.55679" lon="8.74023">
        <ele>131</ele>
        <time>2026-05-11T18:44:40+00:00</time>
      </trkpt>
      <trkpt lat="42.5571" lon="8.74066">
        <ele>121</ele>
        <time>2026-05-11T18:44:41+00:00</time>
      </trkpt>
      <trkpt lat="42.55722" lon="8.7407">
        <ele>120</ele>
        <time>2026-05-11T18:44:42+00:00</time>
      </trkpt>
      <trkpt lat="42.55758" lon="8.74124">
        <ele>107</ele>
        <time>2026-05-11T18:44:43+00:00</time>
      </trkpt>
      <trkpt lat="42.55755" lon="8.7415">
        <ele>101</ele>
        <time>2026-05-11T18:44:44+00:00</time>
      </trkpt>
      <trkpt lat="42.55761" lon="8.74157">
        <ele>99</ele>
        <time>2026-05-11T18:44:45+00:00</time>
      </trkpt>
      <trkpt lat="42.55764" lon="8.74171">
        <ele>96</ele>
        <time>2026-05-11T18:44:46+00:00</time>
      </trkpt>
      <trkpt lat="42.55764" lon="8.74191">
        <ele>93</ele>
        <time>2026-05-11T18:44:47+00:00</time>
      </trkpt>
      <trkpt lat="42.55759" lon="8.74207">
        <ele>91</ele>
        <time>2026-05-11T18:44:48+00:00</time>
      </trkpt>
      <trkpt lat="42.55769" lon="8.74265">
        <ele>81</ele>
        <time>2026-05-11T18:44:49+00:00</time>
      </trkpt>
      <trkpt lat="42.55777" lon="8.74287">
        <ele>77</ele>
        <time>2026-05-11T18:44:50+00:00</time>
      </trkpt>
      <trkpt lat="42.55788" lon="8.74301">
        <ele>75</ele>
        <time>2026-05-11T18:44:51+00:00</time>
      </trkpt>
      <trkpt lat="42.5584" lon="8.74408">
        <ele>62</ele>
        <time>2026-05-11T18:44:52+00:00</time>
      </trkpt>
      <trkpt lat="42.55849" lon="8.74449">
        <ele>59</ele>
        <time>2026-05-11T18:44:53+00:00</time>
      </trkpt>
      <trkpt lat="42.55862" lon="8.74461">
        <ele>57</ele>
        <time>2026-05-11T18:44:54+00:00</time>
      </trkpt>
      <trkpt lat="42.55886" lon="8.74631">
        <ele>44</ele>
        <time>2026-05-11T18:44:55+00:00</time>
      </trkpt>
      <trkpt lat="42.55908" lon="8.74699">
        <ele>38</ele>
        <time>2026-05-11T18:44:56+00:00</time>
      </trkpt>
      <trkpt lat="42.55905" lon="8.74719">
        <ele>37</ele>
        <time>2026-05-11T18:44:57+00:00</time>
      </trkpt>
      <trkpt lat="42.55922" lon="8.74763">
        <ele>33</ele>
        <time>2026-05-11T18:44:58+00:00</time>
      </trkpt>
      <trkpt lat="42.55926" lon="8.74784">
        <ele>31</ele>
        <time>2026-05-11T18:44:59+00:00</time>
      </trkpt>
      <trkpt lat="42.55913" lon="8.74821">
        <ele>31</ele>
        <time>2026-05-11T18:45:00+00:00</time>
      </trkpt>
      <trkpt lat="42.55937" lon="8.7489">
        <ele>25</ele>
        <time>2026-05-11T18:45:01+00:00</time>
      </trkpt>
      <trkpt lat="42.55936" lon="8.74906">
        <ele>24</ele>
        <time>2026-05-11T18:45:02+00:00</time>
      </trkpt>
      <trkpt lat="42.55907" lon="8.7493">
        <ele>25</ele>
        <time>2026-05-11T18:45:03+00:00</time>
      </trkpt>
      <trkpt lat="42.55902" lon="8.74968">
        <ele>23</ele>
        <time>2026-05-11T18:45:04+00:00</time>
      </trkpt>
      <trkpt lat="42.55873" lon="8.74979">
        <ele>23</ele>
        <time>2026-05-11T18:45:05+00:00</time>
      </trkpt>
      <trkpt lat="42.55876" lon="8.75023">
        <ele>21</ele>
        <time>2026-05-11T18:45:06+00:00</time>
      </trkpt>
      <trkpt lat="42.55887" lon="8.75083">
        <ele>17</ele>
        <time>2026-05-11T18:45:07+00:00</time>
      </trkpt>
      <trkpt lat="42.55911" lon="8.75148">
        <ele>14</ele>
        <time>2026-05-11T18:45:08+00:00</time>
      </trkpt>
      <trkpt lat="42.55922" lon="8.75153">
        <ele>13</ele>
        <time>2026-05-11T18:45:09+00:00</time>
      </trkpt>
      <trkpt lat="42.55925" lon="8.75163">
        <ele>13</ele>
        <time>2026-05-11T18:45:10+00:00</time>
      </trkpt>
      <trkpt lat="42.55918" lon="8.75175">
        <ele>13</ele>
        <time>2026-05-11T18:45:11+00:00</time>
      </trkpt>
      <trkpt lat="42.55906" lon="8.75171">
        <ele>13</ele>
        <time>2026-05-11T18:45:12+00:00</time>
      </trkpt>
      <trkpt lat="42.55883" lon="8.75185">
        <ele>13</ele>
        <time>2026-05-11T18:45:13+00:00</time>
      </trkpt>
      <trkpt lat="42.5586" lon="8.75184">
        <ele>14</ele>
        <time>2026-05-11T18:45:14+00:00</time>
      </trkpt>
      <trkpt lat="42.55795" lon="8.75144">
        <ele>16</ele>
        <time>2026-05-11T18:45:15+00:00</time>
      </trkpt>
      <trkpt lat="42.55722" lon="8.75142">
        <ele>17</ele>
        <time>2026-05-11T18:45:16+00:00</time>
      </trkpt>
      <trkpt lat="42.55694" lon="8.75164">
        <ele>18</ele>
        <time>2026-05-11T18:45:17+00:00</time>
      </trkpt>
      <trkpt lat="42.5565" lon="8.75208">
        <ele>16</ele>
        <time>2026-05-11T18:45:18+00:00</time>
      </trkpt>
      <trkpt lat="42.55628" lon="8.75255">
        <ele>12</ele>
        <time>2026-05-11T18:45:19+00:00</time>
      </trkpt>
      <trkpt lat="42.55609" lon="8.75386">
        <ele>9</ele>
        <time>2026-05-11T18:45:20+00:00</time>
      </trkpt>
      <trkpt lat="42.55598" lon="8.75424">
        <ele>9</ele>
        <time>2026-05-11T18:45:21+00:00</time>
      </trkpt>
      <trkpt lat="42.55585" lon="8.75453">
        <ele>8</ele>
        <time>2026-05-11T18:45:22+00:00</time>
      </trkpt>
      <trkpt lat="42.55568" lon="8.75464">
        <ele>7</ele>
        <time>2026-05-11T18:45:23+00:00</time>
      </trkpt>
      <trkpt lat="42.55556" lon="8.75501">
        <ele>6</ele>
        <time>2026-05-11T18:45:24+00:00</time>
      </trkpt>
      <trkpt lat="42.55652" lon="8.75535">
        <ele>6</ele>
        <time>2026-05-11T18:45:25+00:00</time>
      </trkpt>
      <trkpt lat="42.55725" lon="8.756">
        <ele>3</ele>
        <time>2026-05-11T18:45:26+00:00</time>
      </trkpt>
      <trkpt lat="42.55773" lon="8.75619">
        <ele>2</ele>
        <time>2026-05-11T18:45:27+00:00</time>
      </trkpt>
      <trkpt lat="42.5591" lon="8.75684">
        <ele>4</ele>
        <time>2026-05-11T18:45:28+00:00</time>
      </trkpt>
      <trkpt lat="42.5592" lon="8.75698">
        <ele>4</ele>
        <time>2026-05-11T18:45:29+00:00</time>
      </trkpt>
      <trkpt lat="42.5593" lon="8.75689">
        <ele>4</ele>
        <time>2026-05-11T18:45:30+00:00</time>
      </trkpt>
      <trkpt lat="42.55943" lon="8.75689">
        <ele>3</ele>
        <time>2026-05-11T18:45:31+00:00</time>
      </trkpt>
      <trkpt lat="42.55976" lon="8.75718">
        <ele>3</ele>
        <time>2026-05-11T18:45:32+00:00</time>
      </trkpt>
      <trkpt lat="42.55991" lon="8.75764">
        <ele>3</ele>
        <time>2026-05-11T18:45:33+00:00</time>
      </trkpt>
      <trkpt lat="42.56006" lon="8.75766">
        <ele>2</ele>
        <time>2026-05-11T18:45:34+00:00</time>
      </trkpt>
      <trkpt lat="42.56023" lon="8.75752">
        <ele>2</ele>
        <time>2026-05-11T18:45:35+00:00</time>
      </trkpt>
      <trkpt lat="42.56035" lon="8.75758">
        <ele>2</ele>
        <time>2026-05-11T18:45:36+00:00</time>
      </trkpt>
      <trkpt lat="42.56119" lon="8.7569">
        <ele>1</ele>
        <time>2026-05-11T18:45:37+00:00</time>
      </trkpt>
      <trkpt lat="42.56226" lon="8.75621">
        <ele>1</ele>
        <time>2026-05-11T18:45:38+00:00</time>
      </trkpt>
      <trkpt lat="42.56266" lon="8.75604">
        <ele>2</ele>
        <time>2026-05-11T18:45:39+00:00</time>
      </trkpt>
      <trkpt lat="42.56274" lon="8.75626">
        <ele>1</ele>
        <time>2026-05-11T18:45:40+00:00</time>
      </trkpt>
      <trkpt lat="42.56278" lon="8.75628">
        <ele>1</ele>
        <time>2026-05-11T18:45:41+00:00</time>
      </trkpt>
      <trkpt lat="42.56274" lon="8.75631">
        <ele>1</ele>
        <time>2026-05-11T18:45:42+00:00</time>
      </trkpt>
      <trkpt lat="42.56286" lon="8.75625">
        <ele>1</ele>
        <time>2026-05-11T18:45:43+00:00</time>
      </trkpt>
      <trkpt lat="42.5628" lon="8.75587">
        <ele>2</ele>
        <time>2026-05-11T18:45:44+00:00</time>
      </trkpt>
      <trkpt lat="42.56312" lon="8.75574">
        <ele>2</ele>
        <time>2026-05-11T18:45:45+00:00</time>
      </trkpt>
      <trkpt lat="42.56353" lon="8.75566">
        <ele>3</ele>
        <time>2026-05-11T18:45:46+00:00</time>
      </trkpt>
      <trkpt lat="42.56452" lon="8.75613">
        <ele>4</ele>
        <time>2026-05-11T18:45:47+00:00</time>
      </trkpt>
      <trkpt lat="42.56504" lon="8.75629">
        <ele>5</ele>
        <time>2026-05-11T18:45:48+00:00</time>
      </trkpt>
    </trkseg>
  </trk>
</gpx>
