<?xml version="1.0" encoding="UTF-8"?>
<gpx xmlns="http://www.topografix.com/GPX/1/1" xmlns:xsi="http://www.w3.org/2001/XMLSchema-instance" version="1.1" creator="phpGPX/1.3.0" xsi:schemaLocation="http://www.topografix.com/GPX/1/1 http://www.topografix.com/GPX/1/1/gpx.xsd">
  <metadata>
    <time>2026-05-14T12:50:22+00:00</time>
  </metadata>
  <trk>
    <name>E Trè Pievi - Costa Verde</name>
    <trkseg>
      <trkpt lat="42.34965" lon="9.41824">
        <ele>778</ele>
        <time>2026-05-14T12:50:23+00:00</time>
      </trkpt>
      <trkpt lat="42.34995" lon="9.41746">
        <ele>780</ele>
        <time>2026-05-14T12:50:24+00:00</time>
      </trkpt>
      <trkpt lat="42.35009" lon="9.41741">
        <ele>783</ele>
        <time>2026-05-14T12:50:25+00:00</time>
      </trkpt>
      <trkpt lat="42.35025" lon="9.41747">
        <ele>788</ele>
        <time>2026-05-14T12:50:26+00:00</time>
      </trkpt>
      <trkpt lat="42.35028" lon="9.41751">
        <ele>789</ele>
        <time>2026-05-14T12:50:27+00:00</time>
      </trkpt>
      <trkpt lat="42.35025" lon="9.41786">
        <ele>791</ele>
        <time>2026-05-14T12:50:28+00:00</time>
      </trkpt>
      <trkpt lat="42.3503" lon="9.41816">
        <ele>795</ele>
        <time>2026-05-14T12:50:29+00:00</time>
      </trkpt>
      <trkpt lat="42.35025" lon="9.41854">
        <ele>797</ele>
        <time>2026-05-14T12:50:30+00:00</time>
      </trkpt>
      <trkpt lat="42.35031" lon="9.41874">
        <ele>801</ele>
        <time>2026-05-14T12:50:31+00:00</time>
      </trkpt>
      <trkpt lat="42.35035" lon="9.419">
        <ele>805</ele>
        <time>2026-05-14T12:50:32+00:00</time>
      </trkpt>
      <trkpt lat="42.35033" lon="9.41905">
        <ele>805</ele>
        <time>2026-05-14T12:50:33+00:00</time>
      </trkpt>
      <trkpt lat="42.35005" lon="9.41915">
        <ele>799</ele>
        <time>2026-05-14T12:50:34+00:00</time>
      </trkpt>
      <trkpt lat="42.34989" lon="9.4193">
        <ele>796</ele>
        <time>2026-05-14T12:50:35+00:00</time>
      </trkpt>
      <trkpt lat="42.34991" lon="9.41958">
        <ele>796</ele>
        <time>2026-05-14T12:50:36+00:00</time>
      </trkpt>
      <trkpt lat="42.34995" lon="9.41956">
        <ele>797</ele>
        <time>2026-05-14T12:50:37+00:00</time>
      </trkpt>
      <trkpt lat="42.34999" lon="9.41945">
        <ele>798</ele>
        <time>2026-05-14T12:50:38+00:00</time>
      </trkpt>
      <trkpt lat="42.35001" lon="9.41945">
        <ele>799</ele>
        <time>2026-05-14T12:50:39+00:00</time>
      </trkpt>
      <trkpt lat="42.35008" lon="9.41947">
        <ele>800</ele>
        <time>2026-05-14T12:50:40+00:00</time>
      </trkpt>
      <trkpt lat="42.35015" lon="9.41963">
        <ele>803</ele>
        <time>2026-05-14T12:50:41+00:00</time>
      </trkpt>
      <trkpt lat="42.35018" lon="9.41965">
        <ele>803</ele>
        <time>2026-05-14T12:50:42+00:00</time>
      </trkpt>
      <trkpt lat="42.35031" lon="9.41961">
        <ele>807</ele>
        <time>2026-05-14T12:50:43+00:00</time>
      </trkpt>
      <trkpt lat="42.3505" lon="9.41947">
        <ele>811</ele>
        <time>2026-05-14T12:50:44+00:00</time>
      </trkpt>
      <trkpt lat="42.35066" lon="9.41941">
        <ele>815</ele>
        <time>2026-05-14T12:50:45+00:00</time>
      </trkpt>
      <trkpt lat="42.35072" lon="9.41941">
        <ele>817</ele>
        <time>2026-05-14T12:50:46+00:00</time>
      </trkpt>
      <trkpt lat="42.35097" lon="9.41949">
        <ele>825</ele>
        <time>2026-05-14T12:50:47+00:00</time>
      </trkpt>
      <trkpt lat="42.35099" lon="9.41956">
        <ele>826</ele>
        <time>2026-05-14T12:50:48+00:00</time>
      </trkpt>
      <trkpt lat="42.35095" lon="9.41957">
        <ele>825</ele>
        <time>2026-05-14T12:50:49+00:00</time>
      </trkpt>
      <trkpt lat="42.35092" lon="9.41961">
        <ele>824</ele>
        <time>2026-05-14T12:50:50+00:00</time>
      </trkpt>
      <trkpt lat="42.35092" lon="9.41976">
        <ele>825</ele>
        <time>2026-05-14T12:50:51+00:00</time>
      </trkpt>
      <trkpt lat="42.35102" lon="9.41972">
        <ele>828</ele>
        <time>2026-05-14T12:50:52+00:00</time>
      </trkpt>
      <trkpt lat="42.3511" lon="9.41972">
        <ele>831</ele>
        <time>2026-05-14T12:50:53+00:00</time>
      </trkpt>
      <trkpt lat="42.35113" lon="9.41962">
        <ele>832</ele>
        <time>2026-05-14T12:50:54+00:00</time>
      </trkpt>
      <trkpt lat="42.35117" lon="9.41957">
        <ele>833</ele>
        <time>2026-05-14T12:50:55+00:00</time>
      </trkpt>
      <trkpt lat="42.3512" lon="9.41957">
        <ele>834</ele>
        <time>2026-05-14T12:50:56+00:00</time>
      </trkpt>
      <trkpt lat="42.3512" lon="9.41964">
        <ele>835</ele>
        <time>2026-05-14T12:50:57+00:00</time>
      </trkpt>
      <trkpt lat="42.35129" lon="9.41975">
        <ele>839</ele>
        <time>2026-05-14T12:50:58+00:00</time>
      </trkpt>
      <trkpt lat="42.3514" lon="9.41973">
        <ele>843</ele>
        <time>2026-05-14T12:50:59+00:00</time>
      </trkpt>
      <trkpt lat="42.35152" lon="9.41975">
        <ele>847</ele>
        <time>2026-05-14T12:51:00+00:00</time>
      </trkpt>
      <trkpt lat="42.35163" lon="9.41969">
        <ele>851</ele>
        <time>2026-05-14T12:51:01+00:00</time>
      </trkpt>
      <trkpt lat="42.35173" lon="9.41954">
        <ele>853</ele>
        <time>2026-05-14T12:51:02+00:00</time>
      </trkpt>
      <trkpt lat="42.35173" lon="9.41933">
        <ele>852</ele>
        <time>2026-05-14T12:51:03+00:00</time>
      </trkpt>
      <trkpt lat="42.3518" lon="9.41933">
        <ele>854</ele>
        <time>2026-05-14T12:51:04+00:00</time>
      </trkpt>
      <trkpt lat="42.35185" lon="9.41936">
        <ele>856</ele>
        <time>2026-05-14T12:51:05+00:00</time>
      </trkpt>
      <trkpt lat="42.35188" lon="9.41932">
        <ele>856</ele>
        <time>2026-05-14T12:51:06+00:00</time>
      </trkpt>
      <trkpt lat="42.35193" lon="9.41934">
        <ele>858</ele>
        <time>2026-05-14T12:51:07+00:00</time>
      </trkpt>
      <trkpt lat="42.35203" lon="9.41927">
        <ele>861</ele>
        <time>2026-05-14T12:51:08+00:00</time>
      </trkpt>
      <trkpt lat="42.35211" lon="9.41927">
        <ele>864</ele>
        <time>2026-05-14T12:51:09+00:00</time>
      </trkpt>
      <trkpt lat="42.3522" lon="9.41931">
        <ele>867</ele>
        <time>2026-05-14T12:51:10+00:00</time>
      </trkpt>
      <trkpt lat="42.35228" lon="9.41928">
        <ele>869</ele>
        <time>2026-05-14T12:51:11+00:00</time>
      </trkpt>
      <trkpt lat="42.35233" lon="9.41932">
        <ele>872</ele>
        <time>2026-05-14T12:51:12+00:00</time>
      </trkpt>
      <trkpt lat="42.35238" lon="9.4193">
        <ele>873</ele>
        <time>2026-05-14T12:51:13+00:00</time>
      </trkpt>
      <trkpt lat="42.35243" lon="9.41917">
        <ele>873</ele>
        <time>2026-05-14T12:51:14+00:00</time>
      </trkpt>
      <trkpt lat="42.35245" lon="9.41898">
        <ele>871</ele>
        <time>2026-05-14T12:51:15+00:00</time>
      </trkpt>
      <trkpt lat="42.35247" lon="9.41898">
        <ele>872</ele>
        <time>2026-05-14T12:51:16+00:00</time>
      </trkpt>
      <trkpt lat="42.35247" lon="9.41905">
        <ele>873</ele>
        <time>2026-05-14T12:51:17+00:00</time>
      </trkpt>
      <trkpt lat="42.3525" lon="9.41905">
        <ele>874</ele>
        <time>2026-05-14T12:51:18+00:00</time>
      </trkpt>
      <trkpt lat="42.35269" lon="9.41893">
        <ele>878</ele>
        <time>2026-05-14T12:51:19+00:00</time>
      </trkpt>
      <trkpt lat="42.35274" lon="9.41877">
        <ele>877</ele>
        <time>2026-05-14T12:51:20+00:00</time>
      </trkpt>
      <trkpt lat="42.35273" lon="9.41873">
        <ele>876</ele>
        <time>2026-05-14T12:51:21+00:00</time>
      </trkpt>
      <trkpt lat="42.35276" lon="9.41871">
        <ele>877</ele>
        <time>2026-05-14T12:51:22+00:00</time>
      </trkpt>
      <trkpt lat="42.3528" lon="9.41854">
        <ele>875</ele>
        <time>2026-05-14T12:51:23+00:00</time>
      </trkpt>
      <trkpt lat="42.35283" lon="9.41851">
        <ele>876</ele>
        <time>2026-05-14T12:51:24+00:00</time>
      </trkpt>
      <trkpt lat="42.3529" lon="9.41869">
        <ele>880</ele>
        <time>2026-05-14T12:51:25+00:00</time>
      </trkpt>
      <trkpt lat="42.35293" lon="9.41864">
        <ele>880</ele>
        <time>2026-05-14T12:51:26+00:00</time>
      </trkpt>
      <trkpt lat="42.35296" lon="9.41865">
        <ele>881</ele>
        <time>2026-05-14T12:51:27+00:00</time>
      </trkpt>
      <trkpt lat="42.353" lon="9.41876">
        <ele>884</ele>
        <time>2026-05-14T12:51:28+00:00</time>
      </trkpt>
      <trkpt lat="42.35302" lon="9.41872">
        <ele>884</ele>
        <time>2026-05-14T12:51:29+00:00</time>
      </trkpt>
      <trkpt lat="42.35306" lon="9.41873">
        <ele>885</ele>
        <time>2026-05-14T12:51:30+00:00</time>
      </trkpt>
      <trkpt lat="42.35315" lon="9.41886">
        <ele>890</ele>
        <time>2026-05-14T12:51:31+00:00</time>
      </trkpt>
      <trkpt lat="42.35317" lon="9.41896">
        <ele>893</ele>
        <time>2026-05-14T12:51:32+00:00</time>
      </trkpt>
      <trkpt lat="42.35324" lon="9.41902">
        <ele>896</ele>
        <time>2026-05-14T12:51:33+00:00</time>
      </trkpt>
      <trkpt lat="42.35334" lon="9.41888">
        <ele>896</ele>
        <time>2026-05-14T12:51:34+00:00</time>
      </trkpt>
      <trkpt lat="42.35337" lon="9.41889">
        <ele>897</ele>
        <time>2026-05-14T12:51:35+00:00</time>
      </trkpt>
      <trkpt lat="42.35342" lon="9.41885">
        <ele>898</ele>
        <time>2026-05-14T12:51:36+00:00</time>
      </trkpt>
      <trkpt lat="42.3535" lon="9.41885">
        <ele>900</ele>
        <time>2026-05-14T12:51:37+00:00</time>
      </trkpt>
      <trkpt lat="42.35356" lon="9.41888">
        <ele>903</ele>
        <time>2026-05-14T12:51:38+00:00</time>
      </trkpt>
      <trkpt lat="42.35364" lon="9.41884">
        <ele>904</ele>
        <time>2026-05-14T12:51:39+00:00</time>
      </trkpt>
      <trkpt lat="42.3537" lon="9.41888">
        <ele>907</ele>
        <time>2026-05-14T12:51:40+00:00</time>
      </trkpt>
      <trkpt lat="42.35389" lon="9.41889">
        <ele>913</ele>
        <time>2026-05-14T12:51:41+00:00</time>
      </trkpt>
      <trkpt lat="42.35395" lon="9.41892">
        <ele>916</ele>
        <time>2026-05-14T12:51:42+00:00</time>
      </trkpt>
      <trkpt lat="42.35399" lon="9.41889">
        <ele>916</ele>
        <time>2026-05-14T12:51:43+00:00</time>
      </trkpt>
      <trkpt lat="42.35404" lon="9.41891">
        <ele>918</ele>
        <time>2026-05-14T12:51:44+00:00</time>
      </trkpt>
      <trkpt lat="42.35423" lon="9.41885">
        <ele>922</ele>
        <time>2026-05-14T12:51:45+00:00</time>
      </trkpt>
      <trkpt lat="42.35436" lon="9.41897">
        <ele>928</ele>
        <time>2026-05-14T12:51:46+00:00</time>
      </trkpt>
      <trkpt lat="42.35445" lon="9.41898">
        <ele>931</ele>
        <time>2026-05-14T12:51:47+00:00</time>
      </trkpt>
      <trkpt lat="42.35455" lon="9.41913">
        <ele>937</ele>
        <time>2026-05-14T12:51:48+00:00</time>
      </trkpt>
      <trkpt lat="42.35462" lon="9.41915">
        <ele>939</ele>
        <time>2026-05-14T12:51:49+00:00</time>
      </trkpt>
      <trkpt lat="42.35465" lon="9.41923">
        <ele>942</ele>
        <time>2026-05-14T12:51:50+00:00</time>
      </trkpt>
      <trkpt lat="42.35469" lon="9.41923">
        <ele>943</ele>
        <time>2026-05-14T12:51:51+00:00</time>
      </trkpt>
      <trkpt lat="42.35475" lon="9.41928">
        <ele>946</ele>
        <time>2026-05-14T12:51:52+00:00</time>
      </trkpt>
      <trkpt lat="42.3549" lon="9.41925">
        <ele>949</ele>
        <time>2026-05-14T12:51:53+00:00</time>
      </trkpt>
      <trkpt lat="42.35499" lon="9.41917">
        <ele>948</ele>
        <time>2026-05-14T12:51:54+00:00</time>
      </trkpt>
      <trkpt lat="42.35499" lon="9.41913">
        <ele>947</ele>
        <time>2026-05-14T12:51:55+00:00</time>
      </trkpt>
      <trkpt lat="42.35508" lon="9.41904">
        <ele>947</ele>
        <time>2026-05-14T12:51:56+00:00</time>
      </trkpt>
      <trkpt lat="42.35509" lon="9.41895">
        <ele>946</ele>
        <time>2026-05-14T12:51:57+00:00</time>
      </trkpt>
      <trkpt lat="42.35513" lon="9.41897">
        <ele>948</ele>
        <time>2026-05-14T12:51:58+00:00</time>
      </trkpt>
      <trkpt lat="42.35525" lon="9.41877">
        <ele>947</ele>
        <time>2026-05-14T12:51:59+00:00</time>
      </trkpt>
      <trkpt lat="42.35536" lon="9.41894">
        <ele>953</ele>
        <time>2026-05-14T12:52:00+00:00</time>
      </trkpt>
      <trkpt lat="42.35555" lon="9.4189">
        <ele>958</ele>
        <time>2026-05-14T12:52:01+00:00</time>
      </trkpt>
      <trkpt lat="42.35555" lon="9.41884">
        <ele>957</ele>
        <time>2026-05-14T12:52:02+00:00</time>
      </trkpt>
      <trkpt lat="42.35557" lon="9.41883">
        <ele>958</ele>
        <time>2026-05-14T12:52:03+00:00</time>
      </trkpt>
      <trkpt lat="42.3556" lon="9.41886">
        <ele>959</ele>
        <time>2026-05-14T12:52:04+00:00</time>
      </trkpt>
      <trkpt lat="42.35562" lon="9.41884">
        <ele>959</ele>
        <time>2026-05-14T12:52:05+00:00</time>
      </trkpt>
      <trkpt lat="42.35574" lon="9.41889">
        <ele>963</ele>
        <time>2026-05-14T12:52:06+00:00</time>
      </trkpt>
      <trkpt lat="42.35586" lon="9.41902">
        <ele>968</ele>
        <time>2026-05-14T12:52:07+00:00</time>
      </trkpt>
      <trkpt lat="42.35606" lon="9.41907">
        <ele>972</ele>
        <time>2026-05-14T12:52:08+00:00</time>
      </trkpt>
      <trkpt lat="42.35622" lon="9.41907">
        <ele>975</ele>
        <time>2026-05-14T12:52:09+00:00</time>
      </trkpt>
      <trkpt lat="42.35635" lon="9.41916">
        <ele>979</ele>
        <time>2026-05-14T12:52:10+00:00</time>
      </trkpt>
      <trkpt lat="42.35637" lon="9.41913">
        <ele>979</ele>
        <time>2026-05-14T12:52:11+00:00</time>
      </trkpt>
      <trkpt lat="42.3564" lon="9.41914">
        <ele>979</ele>
        <time>2026-05-14T12:52:12+00:00</time>
      </trkpt>
      <trkpt lat="42.35645" lon="9.41913">
        <ele>980</ele>
        <time>2026-05-14T12:52:13+00:00</time>
      </trkpt>
      <trkpt lat="42.35647" lon="9.4191">
        <ele>981</ele>
        <time>2026-05-14T12:52:14+00:00</time>
      </trkpt>
      <trkpt lat="42.35652" lon="9.4191">
        <ele>982</ele>
        <time>2026-05-14T12:52:15+00:00</time>
      </trkpt>
      <trkpt lat="42.35657" lon="9.41916">
        <ele>983</ele>
        <time>2026-05-14T12:52:16+00:00</time>
      </trkpt>
      <trkpt lat="42.35661" lon="9.41917">
        <ele>984</ele>
        <time>2026-05-14T12:52:17+00:00</time>
      </trkpt>
      <trkpt lat="42.35704" lon="9.41918">
        <ele>986</ele>
        <time>2026-05-14T12:52:18+00:00</time>
      </trkpt>
      <trkpt lat="42.35689" lon="9.41965">
        <ele>988</ele>
        <time>2026-05-14T12:52:19+00:00</time>
      </trkpt>
      <trkpt lat="42.35677" lon="9.41984">
        <ele>991</ele>
        <time>2026-05-14T12:52:20+00:00</time>
      </trkpt>
      <trkpt lat="42.3567" lon="9.42005">
        <ele>995</ele>
        <time>2026-05-14T12:52:21+00:00</time>
      </trkpt>
      <trkpt lat="42.35658" lon="9.42016">
        <ele>997</ele>
        <time>2026-05-14T12:52:22+00:00</time>
      </trkpt>
      <trkpt lat="42.35644" lon="9.42036">
        <ele>999</ele>
        <time>2026-05-14T12:52:23+00:00</time>
      </trkpt>
      <trkpt lat="42.35596" lon="9.42128">
        <ele>1018</ele>
        <time>2026-05-14T12:52:24+00:00</time>
      </trkpt>
      <trkpt lat="42.35562" lon="9.42165">
        <ele>1026</ele>
        <time>2026-05-14T12:52:25+00:00</time>
      </trkpt>
      <trkpt lat="42.35551" lon="9.42188">
        <ele>1025</ele>
        <time>2026-05-14T12:52:26+00:00</time>
      </trkpt>
      <trkpt lat="42.35524" lon="9.42293">
        <ele>1029</ele>
        <time>2026-05-14T12:52:27+00:00</time>
      </trkpt>
      <trkpt lat="42.35519" lon="9.42338">
        <ele>1032</ele>
        <time>2026-05-14T12:52:28+00:00</time>
      </trkpt>
      <trkpt lat="42.35521" lon="9.4236">
        <ele>1032</ele>
        <time>2026-05-14T12:52:29+00:00</time>
      </trkpt>
      <trkpt lat="42.35545" lon="9.4242">
        <ele>1029</ele>
        <time>2026-05-14T12:52:30+00:00</time>
      </trkpt>
      <trkpt lat="42.35544" lon="9.4246">
        <ele>1032</ele>
        <time>2026-05-14T12:52:31+00:00</time>
      </trkpt>
      <trkpt lat="42.35547" lon="9.42499">
        <ele>1036</ele>
        <time>2026-05-14T12:52:32+00:00</time>
      </trkpt>
      <trkpt lat="42.35541" lon="9.42546">
        <ele>1041</ele>
        <time>2026-05-14T12:52:33+00:00</time>
      </trkpt>
      <trkpt lat="42.35523" lon="9.42607">
        <ele>1055</ele>
        <time>2026-05-14T12:52:34+00:00</time>
      </trkpt>
      <trkpt lat="42.3552" lon="9.42624">
        <ele>1060</ele>
        <time>2026-05-14T12:52:35+00:00</time>
      </trkpt>
      <trkpt lat="42.35521" lon="9.4264">
        <ele>1062</ele>
        <time>2026-05-14T12:52:36+00:00</time>
      </trkpt>
      <trkpt lat="42.35518" lon="9.42665">
        <ele>1069</ele>
        <time>2026-05-14T12:52:37+00:00</time>
      </trkpt>
      <trkpt lat="42.35504" lon="9.42686">
        <ele>1086</ele>
        <time>2026-05-14T12:52:38+00:00</time>
      </trkpt>
      <trkpt lat="42.35496" lon="9.42754">
        <ele>1118</ele>
        <time>2026-05-14T12:52:39+00:00</time>
      </trkpt>
      <trkpt lat="42.35496" lon="9.42844">
        <ele>1151</ele>
        <time>2026-05-14T12:52:40+00:00</time>
      </trkpt>
      <trkpt lat="42.3548" lon="9.42934">
        <ele>1176</ele>
        <time>2026-05-14T12:52:41+00:00</time>
      </trkpt>
      <trkpt lat="42.35475" lon="9.4303">
        <ele>1202</ele>
        <time>2026-05-14T12:52:42+00:00</time>
      </trkpt>
      <trkpt lat="42.35447" lon="9.43093">
        <ele>1203</ele>
        <time>2026-05-14T12:52:43+00:00</time>
      </trkpt>
      <trkpt lat="42.35423" lon="9.43133">
        <ele>1193</ele>
        <time>2026-05-14T12:52:44+00:00</time>
      </trkpt>
      <trkpt lat="42.35393" lon="9.43127">
        <ele>1190</ele>
        <time>2026-05-14T12:52:45+00:00</time>
      </trkpt>
      <trkpt lat="42.35334" lon="9.43146">
        <ele>1184</ele>
        <time>2026-05-14T12:52:46+00:00</time>
      </trkpt>
      <trkpt lat="42.35282" lon="9.43187">
        <ele>1181</ele>
        <time>2026-05-14T12:52:47+00:00</time>
      </trkpt>
      <trkpt lat="42.35209" lon="9.43221">
        <ele>1178</ele>
        <time>2026-05-14T12:52:48+00:00</time>
      </trkpt>
      <trkpt lat="42.35183" lon="9.43247">
        <ele>1181</ele>
        <time>2026-05-14T12:52:49+00:00</time>
      </trkpt>
      <trkpt lat="42.35154" lon="9.43281">
        <ele>1181</ele>
        <time>2026-05-14T12:52:50+00:00</time>
      </trkpt>
      <trkpt lat="42.35138" lon="9.43291">
        <ele>1181</ele>
        <time>2026-05-14T12:52:51+00:00</time>
      </trkpt>
      <trkpt lat="42.35123" lon="9.43304">
        <ele>1183</ele>
        <time>2026-05-14T12:52:52+00:00</time>
      </trkpt>
      <trkpt lat="42.35105" lon="9.43307">
        <ele>1184</ele>
        <time>2026-05-14T12:52:53+00:00</time>
      </trkpt>
      <trkpt lat="42.351" lon="9.43312">
        <ele>1185</ele>
        <time>2026-05-14T12:52:54+00:00</time>
      </trkpt>
      <trkpt lat="42.35092" lon="9.43313">
        <ele>1185</ele>
        <time>2026-05-14T12:52:55+00:00</time>
      </trkpt>
      <trkpt lat="42.35085" lon="9.43319">
        <ele>1187</ele>
        <time>2026-05-14T12:52:56+00:00</time>
      </trkpt>
      <trkpt lat="42.3508" lon="9.43318">
        <ele>1187</ele>
        <time>2026-05-14T12:52:57+00:00</time>
      </trkpt>
      <trkpt lat="42.35073" lon="9.43321">
        <ele>1189</ele>
        <time>2026-05-14T12:52:58+00:00</time>
      </trkpt>
      <trkpt lat="42.35071" lon="9.43325">
        <ele>1191</ele>
        <time>2026-05-14T12:52:59+00:00</time>
      </trkpt>
      <trkpt lat="42.3506" lon="9.43331">
        <ele>1194</ele>
        <time>2026-05-14T12:53:00+00:00</time>
      </trkpt>
      <trkpt lat="42.35047" lon="9.43331">
        <ele>1197</ele>
        <time>2026-05-14T12:53:01+00:00</time>
      </trkpt>
      <trkpt lat="42.35043" lon="9.43334">
        <ele>1198</ele>
        <time>2026-05-14T12:53:02+00:00</time>
      </trkpt>
      <trkpt lat="42.35021" lon="9.43334">
        <ele>1203</ele>
        <time>2026-05-14T12:53:03+00:00</time>
      </trkpt>
      <trkpt lat="42.35018" lon="9.43332">
        <ele>1203</ele>
        <time>2026-05-14T12:53:04+00:00</time>
      </trkpt>
      <trkpt lat="42.3501" lon="9.43334">
        <ele>1205</ele>
        <time>2026-05-14T12:53:05+00:00</time>
      </trkpt>
      <trkpt lat="42.35" lon="9.4333">
        <ele>1206</ele>
        <time>2026-05-14T12:53:06+00:00</time>
      </trkpt>
      <trkpt lat="42.34967" lon="9.43336">
        <ele>1206</ele>
        <time>2026-05-14T12:53:07+00:00</time>
      </trkpt>
      <trkpt lat="42.34943" lon="9.4335">
        <ele>1204</ele>
        <time>2026-05-14T12:53:08+00:00</time>
      </trkpt>
      <trkpt lat="42.3494" lon="9.43354">
        <ele>1203</ele>
        <time>2026-05-14T12:53:09+00:00</time>
      </trkpt>
      <trkpt lat="42.34932" lon="9.43356">
        <ele>1202</ele>
        <time>2026-05-14T12:53:10+00:00</time>
      </trkpt>
      <trkpt lat="42.34919" lon="9.43354">
        <ele>1203</ele>
        <time>2026-05-14T12:53:11+00:00</time>
      </trkpt>
      <trkpt lat="42.34916" lon="9.43356">
        <ele>1202</ele>
        <time>2026-05-14T12:53:12+00:00</time>
      </trkpt>
      <trkpt lat="42.34916" lon="9.43359">
        <ele>1201</ele>
        <time>2026-05-14T12:53:13+00:00</time>
      </trkpt>
      <trkpt lat="42.34912" lon="9.43356">
        <ele>1201</ele>
        <time>2026-05-14T12:53:14+00:00</time>
      </trkpt>
      <trkpt lat="42.34907" lon="9.43356">
        <ele>1201</ele>
        <time>2026-05-14T12:53:15+00:00</time>
      </trkpt>
      <trkpt lat="42.34906" lon="9.43361">
        <ele>1199</ele>
        <time>2026-05-14T12:53:16+00:00</time>
      </trkpt>
      <trkpt lat="42.34903" lon="9.43359">
        <ele>1199</ele>
        <time>2026-05-14T12:53:17+00:00</time>
      </trkpt>
      <trkpt lat="42.34896" lon="9.4336">
        <ele>1198</ele>
        <time>2026-05-14T12:53:18+00:00</time>
      </trkpt>
      <trkpt lat="42.349" lon="9.43368">
        <ele>1197</ele>
        <time>2026-05-14T12:53:19+00:00</time>
      </trkpt>
      <trkpt lat="42.34892" lon="9.43366">
        <ele>1197</ele>
        <time>2026-05-14T12:53:20+00:00</time>
      </trkpt>
      <trkpt lat="42.34875" lon="9.43367">
        <ele>1194</ele>
        <time>2026-05-14T12:53:21+00:00</time>
      </trkpt>
      <trkpt lat="42.34851" lon="9.43374">
        <ele>1190</ele>
        <time>2026-05-14T12:53:22+00:00</time>
      </trkpt>
      <trkpt lat="42.34834" lon="9.43384">
        <ele>1187</ele>
        <time>2026-05-14T12:53:23+00:00</time>
      </trkpt>
      <trkpt lat="42.34824" lon="9.43386">
        <ele>1187</ele>
        <time>2026-05-14T12:53:24+00:00</time>
      </trkpt>
      <trkpt lat="42.3481" lon="9.43384">
        <ele>1188</ele>
        <time>2026-05-14T12:53:25+00:00</time>
      </trkpt>
      <trkpt lat="42.34795" lon="9.4339">
        <ele>1188</ele>
        <time>2026-05-14T12:53:26+00:00</time>
      </trkpt>
      <trkpt lat="42.34782" lon="9.43389">
        <ele>1189</ele>
        <time>2026-05-14T12:53:27+00:00</time>
      </trkpt>
      <trkpt lat="42.34774" lon="9.43395">
        <ele>1189</ele>
        <time>2026-05-14T12:53:28+00:00</time>
      </trkpt>
      <trkpt lat="42.34756" lon="9.43393">
        <ele>1190</ele>
        <time>2026-05-14T12:53:29+00:00</time>
      </trkpt>
      <trkpt lat="42.34754" lon="9.43396">
        <ele>1191</ele>
        <time>2026-05-14T12:53:30+00:00</time>
      </trkpt>
      <trkpt lat="42.34746" lon="9.43396">
        <ele>1192</ele>
        <time>2026-05-14T12:53:31+00:00</time>
      </trkpt>
      <trkpt lat="42.34737" lon="9.43401">
        <ele>1194</ele>
        <time>2026-05-14T12:53:32+00:00</time>
      </trkpt>
      <trkpt lat="42.34703" lon="9.43399">
        <ele>1201</ele>
        <time>2026-05-14T12:53:33+00:00</time>
      </trkpt>
      <trkpt lat="42.34683" lon="9.43446">
        <ele>1207</ele>
        <time>2026-05-14T12:53:34+00:00</time>
      </trkpt>
      <trkpt lat="42.34672" lon="9.43456">
        <ele>1210</ele>
        <time>2026-05-14T12:53:35+00:00</time>
      </trkpt>
      <trkpt lat="42.3465" lon="9.43492">
        <ele>1209</ele>
        <time>2026-05-14T12:53:36+00:00</time>
      </trkpt>
      <trkpt lat="42.34645" lon="9.43504">
        <ele>1207</ele>
        <time>2026-05-14T12:53:37+00:00</time>
      </trkpt>
      <trkpt lat="42.34631" lon="9.4351">
        <ele>1205</ele>
        <time>2026-05-14T12:53:38+00:00</time>
      </trkpt>
      <trkpt lat="42.34603" lon="9.43508">
        <ele>1206</ele>
        <time>2026-05-14T12:53:39+00:00</time>
      </trkpt>
      <trkpt lat="42.34601" lon="9.43506">
        <ele>1207</ele>
        <time>2026-05-14T12:53:40+00:00</time>
      </trkpt>
      <trkpt lat="42.34601" lon="9.4351">
        <ele>1206</ele>
        <time>2026-05-14T12:53:41+00:00</time>
      </trkpt>
      <trkpt lat="42.34588" lon="9.43526">
        <ele>1201</ele>
        <time>2026-05-14T12:53:42+00:00</time>
      </trkpt>
      <trkpt lat="42.34583" lon="9.43543">
        <ele>1195</ele>
        <time>2026-05-14T12:53:43+00:00</time>
      </trkpt>
      <trkpt lat="42.34579" lon="9.43549">
        <ele>1192</ele>
        <time>2026-05-14T12:53:44+00:00</time>
      </trkpt>
      <trkpt lat="42.34578" lon="9.43562">
        <ele>1188</ele>
        <time>2026-05-14T12:53:45+00:00</time>
      </trkpt>
      <trkpt lat="42.34563" lon="9.43573">
        <ele>1180</ele>
        <time>2026-05-14T12:53:46+00:00</time>
      </trkpt>
      <trkpt lat="42.34559" lon="9.43582">
        <ele>1177</ele>
        <time>2026-05-14T12:53:47+00:00</time>
      </trkpt>
      <trkpt lat="42.34554" lon="9.43578">
        <ele>1176</ele>
        <time>2026-05-14T12:53:48+00:00</time>
      </trkpt>
      <trkpt lat="42.34548" lon="9.43578">
        <ele>1174</ele>
        <time>2026-05-14T12:53:49+00:00</time>
      </trkpt>
      <trkpt lat="42.34546" lon="9.43581">
        <ele>1173</ele>
        <time>2026-05-14T12:53:50+00:00</time>
      </trkpt>
      <trkpt lat="42.34542" lon="9.43574">
        <ele>1174</ele>
        <time>2026-05-14T12:53:51+00:00</time>
      </trkpt>
      <trkpt lat="42.34539" lon="9.43574">
        <ele>1173</ele>
        <time>2026-05-14T12:53:52+00:00</time>
      </trkpt>
      <trkpt lat="42.34525" lon="9.43588">
        <ele>1166</ele>
        <time>2026-05-14T12:53:53+00:00</time>
      </trkpt>
      <trkpt lat="42.34517" lon="9.43608">
        <ele>1161</ele>
        <time>2026-05-14T12:53:54+00:00</time>
      </trkpt>
      <trkpt lat="42.34506" lon="9.43661">
        <ele>1154</ele>
        <time>2026-05-14T12:53:55+00:00</time>
      </trkpt>
      <trkpt lat="42.34498" lon="9.43674">
        <ele>1152</ele>
        <time>2026-05-14T12:53:56+00:00</time>
      </trkpt>
      <trkpt lat="42.34496" lon="9.43683">
        <ele>1149</ele>
        <time>2026-05-14T12:53:57+00:00</time>
      </trkpt>
      <trkpt lat="42.34489" lon="9.43695">
        <ele>1145</ele>
        <time>2026-05-14T12:53:58+00:00</time>
      </trkpt>
      <trkpt lat="42.34486" lon="9.43695">
        <ele>1144</ele>
        <time>2026-05-14T12:53:59+00:00</time>
      </trkpt>
      <trkpt lat="42.34474" lon="9.43711">
        <ele>1139</ele>
        <time>2026-05-14T12:54:00+00:00</time>
      </trkpt>
      <trkpt lat="42.34469" lon="9.43727">
        <ele>1137</ele>
        <time>2026-05-14T12:54:01+00:00</time>
      </trkpt>
      <trkpt lat="42.34458" lon="9.43734">
        <ele>1135</ele>
        <time>2026-05-14T12:54:02+00:00</time>
      </trkpt>
      <trkpt lat="42.34443" lon="9.43758">
        <ele>1132</ele>
        <time>2026-05-14T12:54:03+00:00</time>
      </trkpt>
      <trkpt lat="42.34435" lon="9.43767">
        <ele>1130</ele>
        <time>2026-05-14T12:54:04+00:00</time>
      </trkpt>
      <trkpt lat="42.34423" lon="9.43773">
        <ele>1128</ele>
        <time>2026-05-14T12:54:05+00:00</time>
      </trkpt>
      <trkpt lat="42.34415" lon="9.4377">
        <ele>1128</ele>
        <time>2026-05-14T12:54:06+00:00</time>
      </trkpt>
      <trkpt lat="42.34414" lon="9.43763">
        <ele>1129</ele>
        <time>2026-05-14T12:54:07+00:00</time>
      </trkpt>
      <trkpt lat="42.34402" lon="9.43768">
        <ele>1123</ele>
        <time>2026-05-14T12:54:08+00:00</time>
      </trkpt>
      <trkpt lat="42.34393" lon="9.43769">
        <ele>1120</ele>
        <time>2026-05-14T12:54:09+00:00</time>
      </trkpt>
      <trkpt lat="42.34376" lon="9.43787">
        <ele>1112</ele>
        <time>2026-05-14T12:54:10+00:00</time>
      </trkpt>
      <trkpt lat="42.34369" lon="9.43788">
        <ele>1110</ele>
        <time>2026-05-14T12:54:11+00:00</time>
      </trkpt>
      <trkpt lat="42.34364" lon="9.43794">
        <ele>1109</ele>
        <time>2026-05-14T12:54:12+00:00</time>
      </trkpt>
      <trkpt lat="42.34349" lon="9.43799">
        <ele>1105</ele>
        <time>2026-05-14T12:54:13+00:00</time>
      </trkpt>
      <trkpt lat="42.34337" lon="9.43807">
        <ele>1103</ele>
        <time>2026-05-14T12:54:14+00:00</time>
      </trkpt>
      <trkpt lat="42.34328" lon="9.43836">
        <ele>1104</ele>
        <time>2026-05-14T12:54:15+00:00</time>
      </trkpt>
      <trkpt lat="42.34326" lon="9.43858">
        <ele>1099</ele>
        <time>2026-05-14T12:54:16+00:00</time>
      </trkpt>
      <trkpt lat="42.34323" lon="9.43867">
        <ele>1096</ele>
        <time>2026-05-14T12:54:17+00:00</time>
      </trkpt>
      <trkpt lat="42.34323" lon="9.43889">
        <ele>1093</ele>
        <time>2026-05-14T12:54:18+00:00</time>
      </trkpt>
      <trkpt lat="42.34317" lon="9.43905">
        <ele>1088</ele>
        <time>2026-05-14T12:54:19+00:00</time>
      </trkpt>
      <trkpt lat="42.34314" lon="9.43923">
        <ele>1084</ele>
        <time>2026-05-14T12:54:20+00:00</time>
      </trkpt>
      <trkpt lat="42.34307" lon="9.43933">
        <ele>1080</ele>
        <time>2026-05-14T12:54:21+00:00</time>
      </trkpt>
      <trkpt lat="42.34305" lon="9.43949">
        <ele>1076</ele>
        <time>2026-05-14T12:54:22+00:00</time>
      </trkpt>
      <trkpt lat="42.34291" lon="9.43976">
        <ele>1070</ele>
        <time>2026-05-14T12:54:23+00:00</time>
      </trkpt>
      <trkpt lat="42.34288" lon="9.43978">
        <ele>1069</ele>
        <time>2026-05-14T12:54:24+00:00</time>
      </trkpt>
      <trkpt lat="42.34286" lon="9.43991">
        <ele>1067</ele>
        <time>2026-05-14T12:54:25+00:00</time>
      </trkpt>
      <trkpt lat="42.34277" lon="9.44015">
        <ele>1062</ele>
        <time>2026-05-14T12:54:26+00:00</time>
      </trkpt>
      <trkpt lat="42.34266" lon="9.4402">
        <ele>1062</ele>
        <time>2026-05-14T12:54:27+00:00</time>
      </trkpt>
      <trkpt lat="42.34261" lon="9.44026">
        <ele>1062</ele>
        <time>2026-05-14T12:54:28+00:00</time>
      </trkpt>
      <trkpt lat="42.3426" lon="9.44043">
        <ele>1058</ele>
        <time>2026-05-14T12:54:29+00:00</time>
      </trkpt>
      <trkpt lat="42.34258" lon="9.44046">
        <ele>1058</ele>
        <time>2026-05-14T12:54:30+00:00</time>
      </trkpt>
      <trkpt lat="42.34259" lon="9.44054">
        <ele>1056</ele>
        <time>2026-05-14T12:54:31+00:00</time>
      </trkpt>
      <trkpt lat="42.34254" lon="9.44057">
        <ele>1057</ele>
        <time>2026-05-14T12:54:32+00:00</time>
      </trkpt>
      <trkpt lat="42.34251" lon="9.44069">
        <ele>1055</ele>
        <time>2026-05-14T12:54:33+00:00</time>
      </trkpt>
      <trkpt lat="42.34248" lon="9.44069">
        <ele>1055</ele>
        <time>2026-05-14T12:54:34+00:00</time>
      </trkpt>
      <trkpt lat="42.34241" lon="9.44078">
        <ele>1052</ele>
        <time>2026-05-14T12:54:35+00:00</time>
      </trkpt>
      <trkpt lat="42.34232" lon="9.44075">
        <ele>1051</ele>
        <time>2026-05-14T12:54:36+00:00</time>
      </trkpt>
      <trkpt lat="42.34222" lon="9.44078">
        <ele>1049</ele>
        <time>2026-05-14T12:54:37+00:00</time>
      </trkpt>
      <trkpt lat="42.34216" lon="9.44089">
        <ele>1046</ele>
        <time>2026-05-14T12:54:38+00:00</time>
      </trkpt>
      <trkpt lat="42.34204" lon="9.44103">
        <ele>1043</ele>
        <time>2026-05-14T12:54:39+00:00</time>
      </trkpt>
      <trkpt lat="42.34191" lon="9.44145">
        <ele>1039</ele>
        <time>2026-05-14T12:54:40+00:00</time>
      </trkpt>
      <trkpt lat="42.34185" lon="9.44156">
        <ele>1039</ele>
        <time>2026-05-14T12:54:41+00:00</time>
      </trkpt>
      <trkpt lat="42.3418" lon="9.44213">
        <ele>1032</ele>
        <time>2026-05-14T12:54:42+00:00</time>
      </trkpt>
      <trkpt lat="42.34167" lon="9.44237">
        <ele>1031</ele>
        <time>2026-05-14T12:54:43+00:00</time>
      </trkpt>
      <trkpt lat="42.34157" lon="9.44267">
        <ele>1021</ele>
        <time>2026-05-14T12:54:44+00:00</time>
      </trkpt>
      <trkpt lat="42.34148" lon="9.4428">
        <ele>1014</ele>
        <time>2026-05-14T12:54:45+00:00</time>
      </trkpt>
      <trkpt lat="42.34136" lon="9.44306">
        <ele>1004</ele>
        <time>2026-05-14T12:54:46+00:00</time>
      </trkpt>
      <trkpt lat="42.3413" lon="9.44342">
        <ele>994</ele>
        <time>2026-05-14T12:54:47+00:00</time>
      </trkpt>
      <trkpt lat="42.34127" lon="9.44345">
        <ele>993</ele>
        <time>2026-05-14T12:54:48+00:00</time>
      </trkpt>
      <trkpt lat="42.34119" lon="9.44337">
        <ele>994</ele>
        <time>2026-05-14T12:54:49+00:00</time>
      </trkpt>
      <trkpt lat="42.34117" lon="9.44338">
        <ele>993</ele>
        <time>2026-05-14T12:54:50+00:00</time>
      </trkpt>
      <trkpt lat="42.34112" lon="9.44344">
        <ele>991</ele>
        <time>2026-05-14T12:54:51+00:00</time>
      </trkpt>
      <trkpt lat="42.34108" lon="9.44345">
        <ele>990</ele>
        <time>2026-05-14T12:54:52+00:00</time>
      </trkpt>
      <trkpt lat="42.34086" lon="9.44383">
        <ele>983</ele>
        <time>2026-05-14T12:54:53+00:00</time>
      </trkpt>
      <trkpt lat="42.34083" lon="9.44377">
        <ele>984</ele>
        <time>2026-05-14T12:54:54+00:00</time>
      </trkpt>
      <trkpt lat="42.34082" lon="9.44394">
        <ele>982</ele>
        <time>2026-05-14T12:54:55+00:00</time>
      </trkpt>
      <trkpt lat="42.34085" lon="9.44432">
        <ele>978</ele>
        <time>2026-05-14T12:54:56+00:00</time>
      </trkpt>
      <trkpt lat="42.34081" lon="9.44471">
        <ele>973</ele>
        <time>2026-05-14T12:54:57+00:00</time>
      </trkpt>
      <trkpt lat="42.34088" lon="9.44483">
        <ele>970</ele>
        <time>2026-05-14T12:54:58+00:00</time>
      </trkpt>
      <trkpt lat="42.34076" lon="9.44502">
        <ele>968</ele>
        <time>2026-05-14T12:54:59+00:00</time>
      </trkpt>
      <trkpt lat="42.34067" lon="9.4451">
        <ele>965</ele>
        <time>2026-05-14T12:55:00+00:00</time>
      </trkpt>
      <trkpt lat="42.34063" lon="9.44473">
        <ele>968</ele>
        <time>2026-05-14T12:55:01+00:00</time>
      </trkpt>
      <trkpt lat="42.34071" lon="9.44449">
        <ele>973</ele>
        <time>2026-05-14T12:55:02+00:00</time>
      </trkpt>
      <trkpt lat="42.34072" lon="9.44385">
        <ele>980</ele>
        <time>2026-05-14T12:55:03+00:00</time>
      </trkpt>
      <trkpt lat="42.3407" lon="9.44373">
        <ele>981</ele>
        <time>2026-05-14T12:55:04+00:00</time>
      </trkpt>
      <trkpt lat="42.34076" lon="9.4434">
        <ele>986</ele>
        <time>2026-05-14T12:55:05+00:00</time>
      </trkpt>
      <trkpt lat="42.3407" lon="9.4432">
        <ele>987</ele>
        <time>2026-05-14T12:55:06+00:00</time>
      </trkpt>
      <trkpt lat="42.34036" lon="9.44289">
        <ele>981</ele>
        <time>2026-05-14T12:55:07+00:00</time>
      </trkpt>
      <trkpt lat="42.34015" lon="9.44256">
        <ele>975</ele>
        <time>2026-05-14T12:55:08+00:00</time>
      </trkpt>
      <trkpt lat="42.34024" lon="9.44238">
        <ele>977</ele>
        <time>2026-05-14T12:55:09+00:00</time>
      </trkpt>
      <trkpt lat="42.34032" lon="9.44211">
        <ele>978</ele>
        <time>2026-05-14T12:55:10+00:00</time>
      </trkpt>
      <trkpt lat="42.34036" lon="9.4418">
        <ele>977</ele>
        <time>2026-05-14T12:55:11+00:00</time>
      </trkpt>
      <trkpt lat="42.34035" lon="9.44171">
        <ele>976</ele>
        <time>2026-05-14T12:55:12+00:00</time>
      </trkpt>
      <trkpt lat="42.34038" lon="9.44163">
        <ele>977</ele>
        <time>2026-05-14T12:55:13+00:00</time>
      </trkpt>
      <trkpt lat="42.34034" lon="9.44125">
        <ele>972</ele>
        <time>2026-05-14T12:55:14+00:00</time>
      </trkpt>
      <trkpt lat="42.34037" lon="9.44106">
        <ele>973</ele>
        <time>2026-05-14T12:55:15+00:00</time>
      </trkpt>
      <trkpt lat="42.3404" lon="9.44103">
        <ele>975</ele>
        <time>2026-05-14T12:55:16+00:00</time>
      </trkpt>
      <trkpt lat="42.34022" lon="9.4405">
        <ele>966</ele>
        <time>2026-05-14T12:55:17+00:00</time>
      </trkpt>
      <trkpt lat="42.34012" lon="9.44036">
        <ele>961</ele>
        <time>2026-05-14T12:55:18+00:00</time>
      </trkpt>
      <trkpt lat="42.34009" lon="9.44012">
        <ele>962</ele>
        <time>2026-05-14T12:55:19+00:00</time>
      </trkpt>
      <trkpt lat="42.3401" lon="9.43995">
        <ele>962</ele>
        <time>2026-05-14T12:55:20+00:00</time>
      </trkpt>
      <trkpt lat="42.34018" lon="9.43962">
        <ele>961</ele>
        <time>2026-05-14T12:55:21+00:00</time>
      </trkpt>
      <trkpt lat="42.34018" lon="9.43943">
        <ele>958</ele>
        <time>2026-05-14T12:55:22+00:00</time>
      </trkpt>
      <trkpt lat="42.34023" lon="9.43938">
        <ele>960</ele>
        <time>2026-05-14T12:55:23+00:00</time>
      </trkpt>
      <trkpt lat="42.34026" lon="9.43938">
        <ele>962</ele>
        <time>2026-05-14T12:55:24+00:00</time>
      </trkpt>
      <trkpt lat="42.34028" lon="9.43934">
        <ele>962</ele>
        <time>2026-05-14T12:55:25+00:00</time>
      </trkpt>
      <trkpt lat="42.34025" lon="9.43932">
        <ele>960</ele>
        <time>2026-05-14T12:55:26+00:00</time>
      </trkpt>
      <trkpt lat="42.34026" lon="9.43923">
        <ele>959</ele>
        <time>2026-05-14T12:55:27+00:00</time>
      </trkpt>
      <trkpt lat="42.34032" lon="9.43903">
        <ele>959</ele>
        <time>2026-05-14T12:55:28+00:00</time>
      </trkpt>
      <trkpt lat="42.34055" lon="9.4386">
        <ele>962</ele>
        <time>2026-05-14T12:55:29+00:00</time>
      </trkpt>
      <trkpt lat="42.34062" lon="9.43827">
        <ele>962</ele>
        <time>2026-05-14T12:55:30+00:00</time>
      </trkpt>
      <trkpt lat="42.34059" lon="9.43819">
        <ele>961</ele>
        <time>2026-05-14T12:55:31+00:00</time>
      </trkpt>
      <trkpt lat="42.34051" lon="9.4381">
        <ele>958</ele>
        <time>2026-05-14T12:55:32+00:00</time>
      </trkpt>
      <trkpt lat="42.34013" lon="9.43783">
        <ele>943</ele>
        <time>2026-05-14T12:55:33+00:00</time>
      </trkpt>
      <trkpt lat="42.34001" lon="9.43764">
        <ele>939</ele>
        <time>2026-05-14T12:55:34+00:00</time>
      </trkpt>
      <trkpt lat="42.33996" lon="9.43743">
        <ele>938</ele>
        <time>2026-05-14T12:55:35+00:00</time>
      </trkpt>
      <trkpt lat="42.33996" lon="9.43735">
        <ele>938</ele>
        <time>2026-05-14T12:55:36+00:00</time>
      </trkpt>
      <trkpt lat="42.34005" lon="9.43731">
        <ele>942</ele>
        <time>2026-05-14T12:55:37+00:00</time>
      </trkpt>
      <trkpt lat="42.34016" lon="9.4372">
        <ele>946</ele>
        <time>2026-05-14T12:55:38+00:00</time>
      </trkpt>
      <trkpt lat="42.3402" lon="9.437">
        <ele>947</ele>
        <time>2026-05-14T12:55:39+00:00</time>
      </trkpt>
      <trkpt lat="42.34027" lon="9.43685">
        <ele>949</ele>
        <time>2026-05-14T12:55:40+00:00</time>
      </trkpt>
      <trkpt lat="42.34022" lon="9.4368">
        <ele>947</ele>
        <time>2026-05-14T12:55:41+00:00</time>
      </trkpt>
      <trkpt lat="42.34022" lon="9.43676">
        <ele>947</ele>
        <time>2026-05-14T12:55:42+00:00</time>
      </trkpt>
      <trkpt lat="42.34028" lon="9.43673">
        <ele>949</ele>
        <time>2026-05-14T12:55:43+00:00</time>
      </trkpt>
      <trkpt lat="42.34031" lon="9.43662">
        <ele>951</ele>
        <time>2026-05-14T12:55:44+00:00</time>
      </trkpt>
      <trkpt lat="42.34026" lon="9.43651">
        <ele>952</ele>
        <time>2026-05-14T12:55:45+00:00</time>
      </trkpt>
      <trkpt lat="42.34014" lon="9.43646">
        <ele>949</ele>
        <time>2026-05-14T12:55:46+00:00</time>
      </trkpt>
      <trkpt lat="42.34005" lon="9.43638">
        <ele>947</ele>
        <time>2026-05-14T12:55:47+00:00</time>
      </trkpt>
      <trkpt lat="42.34007" lon="9.43633">
        <ele>949</ele>
        <time>2026-05-14T12:55:48+00:00</time>
      </trkpt>
      <trkpt lat="42.34005" lon="9.43625">
        <ele>950</ele>
        <time>2026-05-14T12:55:49+00:00</time>
      </trkpt>
      <trkpt lat="42.34017" lon="9.43628">
        <ele>953</ele>
        <time>2026-05-14T12:55:50+00:00</time>
      </trkpt>
      <trkpt lat="42.34007" lon="9.43612">
        <ele>953</ele>
        <time>2026-05-14T12:55:51+00:00</time>
      </trkpt>
      <trkpt lat="42.34003" lon="9.43584">
        <ele>958</ele>
        <time>2026-05-14T12:55:52+00:00</time>
      </trkpt>
      <trkpt lat="42.34003" lon="9.43575">
        <ele>959</ele>
        <time>2026-05-14T12:55:53+00:00</time>
      </trkpt>
      <trkpt lat="42.34005" lon="9.43576">
        <ele>960</ele>
        <time>2026-05-14T12:55:54+00:00</time>
      </trkpt>
      <trkpt lat="42.34007" lon="9.43568">
        <ele>962</ele>
        <time>2026-05-14T12:55:55+00:00</time>
      </trkpt>
      <trkpt lat="42.34005" lon="9.43547">
        <ele>964</ele>
        <time>2026-05-14T12:55:56+00:00</time>
      </trkpt>
      <trkpt lat="42.34008" lon="9.4354">
        <ele>967</ele>
        <time>2026-05-14T12:55:57+00:00</time>
      </trkpt>
      <trkpt lat="42.34012" lon="9.43511">
        <ele>974</ele>
        <time>2026-05-14T12:55:58+00:00</time>
      </trkpt>
      <trkpt lat="42.34012" lon="9.43479">
        <ele>978</ele>
        <time>2026-05-14T12:55:59+00:00</time>
      </trkpt>
      <trkpt lat="42.34016" lon="9.43468">
        <ele>981</ele>
        <time>2026-05-14T12:56:00+00:00</time>
      </trkpt>
      <trkpt lat="42.34011" lon="9.43456">
        <ele>980</ele>
        <time>2026-05-14T12:56:01+00:00</time>
      </trkpt>
      <trkpt lat="42.34011" lon="9.43448">
        <ele>981</ele>
        <time>2026-05-14T12:56:02+00:00</time>
      </trkpt>
      <trkpt lat="42.34004" lon="9.4343">
        <ele>978</ele>
        <time>2026-05-14T12:56:03+00:00</time>
      </trkpt>
      <trkpt lat="42.34001" lon="9.43413">
        <ele>979</ele>
        <time>2026-05-14T12:56:04+00:00</time>
      </trkpt>
      <trkpt lat="42.33996" lon="9.43406">
        <ele>980</ele>
        <time>2026-05-14T12:56:05+00:00</time>
      </trkpt>
      <trkpt lat="42.33992" lon="9.4339">
        <ele>986</ele>
        <time>2026-05-14T12:56:06+00:00</time>
      </trkpt>
      <trkpt lat="42.33989" lon="9.43387">
        <ele>986</ele>
        <time>2026-05-14T12:56:07+00:00</time>
      </trkpt>
      <trkpt lat="42.33984" lon="9.43388">
        <ele>986</ele>
        <time>2026-05-14T12:56:08+00:00</time>
      </trkpt>
      <trkpt lat="42.33977" lon="9.43385">
        <ele>986</ele>
        <time>2026-05-14T12:56:09+00:00</time>
      </trkpt>
      <trkpt lat="42.33966" lon="9.43388">
        <ele>984</ele>
        <time>2026-05-14T12:56:10+00:00</time>
      </trkpt>
      <trkpt lat="42.33952" lon="9.43388">
        <ele>983</ele>
        <time>2026-05-14T12:56:11+00:00</time>
      </trkpt>
      <trkpt lat="42.33946" lon="9.43392">
        <ele>981</ele>
        <time>2026-05-14T12:56:12+00:00</time>
      </trkpt>
      <trkpt lat="42.33929" lon="9.4339">
        <ele>980</ele>
        <time>2026-05-14T12:56:13+00:00</time>
      </trkpt>
      <trkpt lat="42.33923" lon="9.43392">
        <ele>979</ele>
        <time>2026-05-14T12:56:14+00:00</time>
      </trkpt>
      <trkpt lat="42.33918" lon="9.43407">
        <ele>971</ele>
        <time>2026-05-14T12:56:15+00:00</time>
      </trkpt>
      <trkpt lat="42.33907" lon="9.43413">
        <ele>967</ele>
        <time>2026-05-14T12:56:16+00:00</time>
      </trkpt>
      <trkpt lat="42.33912" lon="9.43417">
        <ele>966</ele>
        <time>2026-05-14T12:56:17+00:00</time>
      </trkpt>
      <trkpt lat="42.33909" lon="9.43421">
        <ele>964</ele>
        <time>2026-05-14T12:56:18+00:00</time>
      </trkpt>
      <trkpt lat="42.339" lon="9.43425">
        <ele>962</ele>
        <time>2026-05-14T12:56:19+00:00</time>
      </trkpt>
      <trkpt lat="42.3389" lon="9.43422">
        <ele>961</ele>
        <time>2026-05-14T12:56:20+00:00</time>
      </trkpt>
      <trkpt lat="42.3387" lon="9.43424">
        <ele>958</ele>
        <time>2026-05-14T12:56:21+00:00</time>
      </trkpt>
      <trkpt lat="42.33867" lon="9.43423">
        <ele>958</ele>
        <time>2026-05-14T12:56:22+00:00</time>
      </trkpt>
      <trkpt lat="42.33838" lon="9.43377">
        <ele>970</ele>
        <time>2026-05-14T12:56:23+00:00</time>
      </trkpt>
      <trkpt lat="42.33832" lon="9.43373">
        <ele>970</ele>
        <time>2026-05-14T12:56:24+00:00</time>
      </trkpt>
      <trkpt lat="42.33822" lon="9.43374">
        <ele>966</ele>
        <time>2026-05-14T12:56:25+00:00</time>
      </trkpt>
      <trkpt lat="42.33799" lon="9.43365">
        <ele>960</ele>
        <time>2026-05-14T12:56:26+00:00</time>
      </trkpt>
      <trkpt lat="42.33785" lon="9.43349">
        <ele>960</ele>
        <time>2026-05-14T12:56:27+00:00</time>
      </trkpt>
      <trkpt lat="42.33779" lon="9.43345">
        <ele>959</ele>
        <time>2026-05-14T12:56:28+00:00</time>
      </trkpt>
      <trkpt lat="42.33762" lon="9.43341">
        <ele>953</ele>
        <time>2026-05-14T12:56:29+00:00</time>
      </trkpt>
      <trkpt lat="42.33752" lon="9.43329">
        <ele>953</ele>
        <time>2026-05-14T12:56:30+00:00</time>
      </trkpt>
      <trkpt lat="42.33745" lon="9.43328">
        <ele>950</ele>
        <time>2026-05-14T12:56:31+00:00</time>
      </trkpt>
      <trkpt lat="42.33742" lon="9.43325">
        <ele>950</ele>
        <time>2026-05-14T12:56:32+00:00</time>
      </trkpt>
      <trkpt lat="42.33737" lon="9.43299">
        <ele>953</ele>
        <time>2026-05-14T12:56:33+00:00</time>
      </trkpt>
      <trkpt lat="42.33739" lon="9.43292">
        <ele>956</ele>
        <time>2026-05-14T12:56:34+00:00</time>
      </trkpt>
      <trkpt lat="42.33738" lon="9.43263">
        <ele>961</ele>
        <time>2026-05-14T12:56:35+00:00</time>
      </trkpt>
      <trkpt lat="42.33728" lon="9.43249">
        <ele>961</ele>
        <time>2026-05-14T12:56:36+00:00</time>
      </trkpt>
      <trkpt lat="42.33724" lon="9.43236">
        <ele>963</ele>
        <time>2026-05-14T12:56:37+00:00</time>
      </trkpt>
      <trkpt lat="42.3371" lon="9.4323">
        <ele>960</ele>
        <time>2026-05-14T12:56:38+00:00</time>
      </trkpt>
      <trkpt lat="42.33701" lon="9.43218">
        <ele>961</ele>
        <time>2026-05-14T12:56:39+00:00</time>
      </trkpt>
      <trkpt lat="42.3369" lon="9.43216">
        <ele>957</ele>
        <time>2026-05-14T12:56:40+00:00</time>
      </trkpt>
      <trkpt lat="42.33683" lon="9.43212">
        <ele>956</ele>
        <time>2026-05-14T12:56:41+00:00</time>
      </trkpt>
      <trkpt lat="42.33676" lon="9.43201">
        <ele>957</ele>
        <time>2026-05-14T12:56:42+00:00</time>
      </trkpt>
      <trkpt lat="42.33669" lon="9.43172">
        <ele>963</ele>
        <time>2026-05-14T12:56:43+00:00</time>
      </trkpt>
      <trkpt lat="42.33656" lon="9.4315">
        <ele>965</ele>
        <time>2026-05-14T12:56:44+00:00</time>
      </trkpt>
      <trkpt lat="42.33646" lon="9.43148">
        <ele>962</ele>
        <time>2026-05-14T12:56:45+00:00</time>
      </trkpt>
      <trkpt lat="42.33633" lon="9.43135">
        <ele>960</ele>
        <time>2026-05-14T12:56:46+00:00</time>
      </trkpt>
      <trkpt lat="42.33629" lon="9.43134">
        <ele>959</ele>
        <time>2026-05-14T12:56:47+00:00</time>
      </trkpt>
      <trkpt lat="42.33621" lon="9.43118">
        <ele>960</ele>
        <time>2026-05-14T12:56:48+00:00</time>
      </trkpt>
      <trkpt lat="42.33618" lon="9.4309">
        <ele>965</ele>
        <time>2026-05-14T12:56:49+00:00</time>
      </trkpt>
      <trkpt lat="42.33622" lon="9.4307">
        <ele>971</ele>
        <time>2026-05-14T12:56:50+00:00</time>
      </trkpt>
      <trkpt lat="42.33618" lon="9.43058">
        <ele>971</ele>
        <time>2026-05-14T12:56:51+00:00</time>
      </trkpt>
      <trkpt lat="42.33617" lon="9.4304">
        <ele>974</ele>
        <time>2026-05-14T12:56:52+00:00</time>
      </trkpt>
      <trkpt lat="42.33619" lon="9.43018">
        <ele>979</ele>
        <time>2026-05-14T12:56:53+00:00</time>
      </trkpt>
      <trkpt lat="42.33626" lon="9.42993">
        <ele>988</ele>
        <time>2026-05-14T12:56:54+00:00</time>
      </trkpt>
      <trkpt lat="42.33621" lon="9.4296">
        <ele>993</ele>
        <time>2026-05-14T12:56:55+00:00</time>
      </trkpt>
      <trkpt lat="42.33616" lon="9.42955">
        <ele>992</ele>
        <time>2026-05-14T12:56:56+00:00</time>
      </trkpt>
      <trkpt lat="42.33613" lon="9.42947">
        <ele>992</ele>
        <time>2026-05-14T12:56:57+00:00</time>
      </trkpt>
      <trkpt lat="42.33612" lon="9.42929">
        <ele>996</ele>
        <time>2026-05-14T12:56:58+00:00</time>
      </trkpt>
      <trkpt lat="42.33604" lon="9.42919">
        <ele>996</ele>
        <time>2026-05-14T12:56:59+00:00</time>
      </trkpt>
      <trkpt lat="42.33586" lon="9.42912">
        <ele>992</ele>
        <time>2026-05-14T12:57:00+00:00</time>
      </trkpt>
      <trkpt lat="42.33579" lon="9.42902">
        <ele>994</ele>
        <time>2026-05-14T12:57:01+00:00</time>
      </trkpt>
      <trkpt lat="42.33571" lon="9.429">
        <ele>994</ele>
        <time>2026-05-14T12:57:02+00:00</time>
      </trkpt>
      <trkpt lat="42.33557" lon="9.42899">
        <ele>993</ele>
        <time>2026-05-14T12:57:03+00:00</time>
      </trkpt>
      <trkpt lat="42.33547" lon="9.42902">
        <ele>991</ele>
        <time>2026-05-14T12:57:04+00:00</time>
      </trkpt>
      <trkpt lat="42.33528" lon="9.42897">
        <ele>991</ele>
        <time>2026-05-14T12:57:05+00:00</time>
      </trkpt>
      <trkpt lat="42.33515" lon="9.42899">
        <ele>989</ele>
        <time>2026-05-14T12:57:06+00:00</time>
      </trkpt>
      <trkpt lat="42.33508" lon="9.42898">
        <ele>989</ele>
        <time>2026-05-14T12:57:07+00:00</time>
      </trkpt>
      <trkpt lat="42.33496" lon="9.42891">
        <ele>991</ele>
        <time>2026-05-14T12:57:08+00:00</time>
      </trkpt>
      <trkpt lat="42.33476" lon="9.42898">
        <ele>987</ele>
        <time>2026-05-14T12:57:09+00:00</time>
      </trkpt>
      <trkpt lat="42.33451" lon="9.429">
        <ele>985</ele>
        <time>2026-05-14T12:57:10+00:00</time>
      </trkpt>
      <trkpt lat="42.33401" lon="9.42886">
        <ele>992</ele>
        <time>2026-05-14T12:57:11+00:00</time>
      </trkpt>
      <trkpt lat="42.33382" lon="9.42891">
        <ele>991</ele>
        <time>2026-05-14T12:57:12+00:00</time>
      </trkpt>
      <trkpt lat="42.33365" lon="9.42903">
        <ele>988</ele>
        <time>2026-05-14T12:57:13+00:00</time>
      </trkpt>
      <trkpt lat="42.33361" lon="9.42912">
        <ele>985</ele>
        <time>2026-05-14T12:57:14+00:00</time>
      </trkpt>
      <trkpt lat="42.33343" lon="9.42929">
        <ele>980</ele>
        <time>2026-05-14T12:57:15+00:00</time>
      </trkpt>
      <trkpt lat="42.3332" lon="9.4294">
        <ele>976</ele>
        <time>2026-05-14T12:57:16+00:00</time>
      </trkpt>
      <trkpt lat="42.33315" lon="9.42945">
        <ele>973</ele>
        <time>2026-05-14T12:57:17+00:00</time>
      </trkpt>
      <trkpt lat="42.33304" lon="9.42948">
        <ele>971</ele>
        <time>2026-05-14T12:57:18+00:00</time>
      </trkpt>
      <trkpt lat="42.33273" lon="9.42927">
        <ele>975</ele>
        <time>2026-05-14T12:57:19+00:00</time>
      </trkpt>
      <trkpt lat="42.33261" lon="9.4291">
        <ele>979</ele>
        <time>2026-05-14T12:57:20+00:00</time>
      </trkpt>
      <trkpt lat="42.33254" lon="9.42905">
        <ele>979</ele>
        <time>2026-05-14T12:57:21+00:00</time>
      </trkpt>
      <trkpt lat="42.33234" lon="9.42879">
        <ele>978</ele>
        <time>2026-05-14T12:57:22+00:00</time>
      </trkpt>
      <trkpt lat="42.33219" lon="9.42864">
        <ele>976</ele>
        <time>2026-05-14T12:57:23+00:00</time>
      </trkpt>
      <trkpt lat="42.3319" lon="9.42845">
        <ele>970</ele>
        <time>2026-05-14T12:57:24+00:00</time>
      </trkpt>
      <trkpt lat="42.33161" lon="9.42818">
        <ele>960</ele>
        <time>2026-05-14T12:57:25+00:00</time>
      </trkpt>
      <trkpt lat="42.33175" lon="9.42814">
        <ele>964</ele>
        <time>2026-05-14T12:57:26+00:00</time>
      </trkpt>
      <trkpt lat="42.33185" lon="9.42814">
        <ele>967</ele>
        <time>2026-05-14T12:57:27+00:00</time>
      </trkpt>
      <trkpt lat="42.33195" lon="9.42807">
        <ele>969</ele>
        <time>2026-05-14T12:57:28+00:00</time>
      </trkpt>
      <trkpt lat="42.33229" lon="9.42815">
        <ele>983</ele>
        <time>2026-05-14T12:57:29+00:00</time>
      </trkpt>
      <trkpt lat="42.33235" lon="9.42814">
        <ele>985</ele>
        <time>2026-05-14T12:57:30+00:00</time>
      </trkpt>
      <trkpt lat="42.3324" lon="9.42808">
        <ele>986</ele>
        <time>2026-05-14T12:57:31+00:00</time>
      </trkpt>
      <trkpt lat="42.33251" lon="9.42814">
        <ele>991</ele>
        <time>2026-05-14T12:57:32+00:00</time>
      </trkpt>
      <trkpt lat="42.33257" lon="9.42814">
        <ele>993</ele>
        <time>2026-05-14T12:57:33+00:00</time>
      </trkpt>
      <trkpt lat="42.33269" lon="9.42811">
        <ele>997</ele>
        <time>2026-05-14T12:57:34+00:00</time>
      </trkpt>
      <trkpt lat="42.33274" lon="9.42806">
        <ele>998</ele>
        <time>2026-05-14T12:57:35+00:00</time>
      </trkpt>
      <trkpt lat="42.3328" lon="9.42804">
        <ele>1000</ele>
        <time>2026-05-14T12:57:36+00:00</time>
      </trkpt>
      <trkpt lat="42.33292" lon="9.42803">
        <ele>1004</ele>
        <time>2026-05-14T12:57:37+00:00</time>
      </trkpt>
      <trkpt lat="42.33294" lon="9.42805">
        <ele>1005</ele>
        <time>2026-05-14T12:57:38+00:00</time>
      </trkpt>
      <trkpt lat="42.33301" lon="9.42801">
        <ele>1008</ele>
        <time>2026-05-14T12:57:39+00:00</time>
      </trkpt>
      <trkpt lat="42.33308" lon="9.42801">
        <ele>1010</ele>
        <time>2026-05-14T12:57:40+00:00</time>
      </trkpt>
      <trkpt lat="42.33314" lon="9.42793">
        <ele>1013</ele>
        <time>2026-05-14T12:57:41+00:00</time>
      </trkpt>
      <trkpt lat="42.33325" lon="9.428">
        <ele>1017</ele>
        <time>2026-05-14T12:57:42+00:00</time>
      </trkpt>
      <trkpt lat="42.33329" lon="9.42793">
        <ele>1019</ele>
        <time>2026-05-14T12:57:43+00:00</time>
      </trkpt>
      <trkpt lat="42.33342" lon="9.42783">
        <ele>1021</ele>
        <time>2026-05-14T12:57:44+00:00</time>
      </trkpt>
      <trkpt lat="42.33354" lon="9.42766">
        <ele>1023</ele>
        <time>2026-05-14T12:57:45+00:00</time>
      </trkpt>
      <trkpt lat="42.33367" lon="9.42757">
        <ele>1025</ele>
        <time>2026-05-14T12:57:46+00:00</time>
      </trkpt>
      <trkpt lat="42.33374" lon="9.42754">
        <ele>1025</ele>
        <time>2026-05-14T12:57:47+00:00</time>
      </trkpt>
      <trkpt lat="42.33398" lon="9.42754">
        <ele>1027</ele>
        <time>2026-05-14T12:57:48+00:00</time>
      </trkpt>
      <trkpt lat="42.33402" lon="9.4276">
        <ele>1026</ele>
        <time>2026-05-14T12:57:49+00:00</time>
      </trkpt>
      <trkpt lat="42.33424" lon="9.42773">
        <ele>1024</ele>
        <time>2026-05-14T12:57:50+00:00</time>
      </trkpt>
      <trkpt lat="42.33439" lon="9.42779">
        <ele>1022</ele>
        <time>2026-05-14T12:57:51+00:00</time>
      </trkpt>
      <trkpt lat="42.33448" lon="9.4278">
        <ele>1021</ele>
        <time>2026-05-14T12:57:52+00:00</time>
      </trkpt>
      <trkpt lat="42.3346" lon="9.42789">
        <ele>1019</ele>
        <time>2026-05-14T12:57:53+00:00</time>
      </trkpt>
      <trkpt lat="42.33492" lon="9.428">
        <ele>1017</ele>
        <time>2026-05-14T12:57:54+00:00</time>
      </trkpt>
      <trkpt lat="42.33509" lon="9.4281">
        <ele>1016</ele>
        <time>2026-05-14T12:57:55+00:00</time>
      </trkpt>
      <trkpt lat="42.33527" lon="9.42813">
        <ele>1016</ele>
        <time>2026-05-14T12:57:56+00:00</time>
      </trkpt>
      <trkpt lat="42.33552" lon="9.42822">
        <ele>1016</ele>
        <time>2026-05-14T12:57:57+00:00</time>
      </trkpt>
      <trkpt lat="42.33564" lon="9.4283">
        <ele>1018</ele>
        <time>2026-05-14T12:57:58+00:00</time>
      </trkpt>
      <trkpt lat="42.33585" lon="9.42831">
        <ele>1018</ele>
        <time>2026-05-14T12:57:59+00:00</time>
      </trkpt>
      <trkpt lat="42.33596" lon="9.42836">
        <ele>1018</ele>
        <time>2026-05-14T12:58:00+00:00</time>
      </trkpt>
      <trkpt lat="42.33615" lon="9.4284">
        <ele>1016</ele>
        <time>2026-05-14T12:58:01+00:00</time>
      </trkpt>
      <trkpt lat="42.33633" lon="9.4285">
        <ele>1015</ele>
        <time>2026-05-14T12:58:02+00:00</time>
      </trkpt>
      <trkpt lat="42.33639" lon="9.42851">
        <ele>1015</ele>
        <time>2026-05-14T12:58:03+00:00</time>
      </trkpt>
      <trkpt lat="42.33651" lon="9.4286">
        <ele>1015</ele>
        <time>2026-05-14T12:58:04+00:00</time>
      </trkpt>
      <trkpt lat="42.33661" lon="9.42874">
        <ele>1016</ele>
        <time>2026-05-14T12:58:05+00:00</time>
      </trkpt>
      <trkpt lat="42.33686" lon="9.42891">
        <ele>1020</ele>
        <time>2026-05-14T12:58:06+00:00</time>
      </trkpt>
      <trkpt lat="42.3372" lon="9.4293">
        <ele>1031</ele>
        <time>2026-05-14T12:58:07+00:00</time>
      </trkpt>
      <trkpt lat="42.33736" lon="9.42933">
        <ele>1034</ele>
        <time>2026-05-14T12:58:08+00:00</time>
      </trkpt>
      <trkpt lat="42.33744" lon="9.42941">
        <ele>1036</ele>
        <time>2026-05-14T12:58:09+00:00</time>
      </trkpt>
      <trkpt lat="42.3375" lon="9.42941">
        <ele>1038</ele>
        <time>2026-05-14T12:58:10+00:00</time>
      </trkpt>
      <trkpt lat="42.33756" lon="9.42946">
        <ele>1039</ele>
        <time>2026-05-14T12:58:11+00:00</time>
      </trkpt>
      <trkpt lat="42.3377" lon="9.42949">
        <ele>1042</ele>
        <time>2026-05-14T12:58:12+00:00</time>
      </trkpt>
      <trkpt lat="42.33777" lon="9.42958">
        <ele>1044</ele>
        <time>2026-05-14T12:58:13+00:00</time>
      </trkpt>
      <trkpt lat="42.33797" lon="9.42972">
        <ele>1050</ele>
        <time>2026-05-14T12:58:14+00:00</time>
      </trkpt>
      <trkpt lat="42.33799" lon="9.42976">
        <ele>1051</ele>
        <time>2026-05-14T12:58:15+00:00</time>
      </trkpt>
      <trkpt lat="42.33814" lon="9.4298">
        <ele>1055</ele>
        <time>2026-05-14T12:58:16+00:00</time>
      </trkpt>
      <trkpt lat="42.33831" lon="9.42978">
        <ele>1060</ele>
        <time>2026-05-14T12:58:17+00:00</time>
      </trkpt>
      <trkpt lat="42.3385" lon="9.4297">
        <ele>1063</ele>
        <time>2026-05-14T12:58:18+00:00</time>
      </trkpt>
      <trkpt lat="42.33861" lon="9.42962">
        <ele>1063</ele>
        <time>2026-05-14T12:58:19+00:00</time>
      </trkpt>
      <trkpt lat="42.33867" lon="9.4296">
        <ele>1064</ele>
        <time>2026-05-14T12:58:20+00:00</time>
      </trkpt>
      <trkpt lat="42.33881" lon="9.42961">
        <ele>1067</ele>
        <time>2026-05-14T12:58:21+00:00</time>
      </trkpt>
      <trkpt lat="42.33891" lon="9.42971">
        <ele>1073</ele>
        <time>2026-05-14T12:58:22+00:00</time>
      </trkpt>
      <trkpt lat="42.33893" lon="9.42975">
        <ele>1074</ele>
        <time>2026-05-14T12:58:23+00:00</time>
      </trkpt>
      <trkpt lat="42.33892" lon="9.42981">
        <ele>1076</ele>
        <time>2026-05-14T12:58:24+00:00</time>
      </trkpt>
      <trkpt lat="42.33901" lon="9.42988">
        <ele>1081</ele>
        <time>2026-05-14T12:58:25+00:00</time>
      </trkpt>
      <trkpt lat="42.33905" lon="9.42995">
        <ele>1085</ele>
        <time>2026-05-14T12:58:26+00:00</time>
      </trkpt>
      <trkpt lat="42.33912" lon="9.43018">
        <ele>1089</ele>
        <time>2026-05-14T12:58:27+00:00</time>
      </trkpt>
      <trkpt lat="42.33912" lon="9.43022">
        <ele>1089</ele>
        <time>2026-05-14T12:58:28+00:00</time>
      </trkpt>
      <trkpt lat="42.33909" lon="9.43024">
        <ele>1088</ele>
        <time>2026-05-14T12:58:29+00:00</time>
      </trkpt>
      <trkpt lat="42.33919" lon="9.43046">
        <ele>1091</ele>
        <time>2026-05-14T12:58:30+00:00</time>
      </trkpt>
      <trkpt lat="42.33938" lon="9.43071">
        <ele>1093</ele>
        <time>2026-05-14T12:58:31+00:00</time>
      </trkpt>
      <trkpt lat="42.3394" lon="9.43073">
        <ele>1094</ele>
        <time>2026-05-14T12:58:32+00:00</time>
      </trkpt>
      <trkpt lat="42.33944" lon="9.43072">
        <ele>1094</ele>
        <time>2026-05-14T12:58:33+00:00</time>
      </trkpt>
      <trkpt lat="42.33947" lon="9.43085">
        <ele>1095</ele>
        <time>2026-05-14T12:58:34+00:00</time>
      </trkpt>
      <trkpt lat="42.3395" lon="9.43085">
        <ele>1096</ele>
        <time>2026-05-14T12:58:35+00:00</time>
      </trkpt>
      <trkpt lat="42.33953" lon="9.43092">
        <ele>1095</ele>
        <time>2026-05-14T12:58:36+00:00</time>
      </trkpt>
      <trkpt lat="42.33973" lon="9.43106">
        <ele>1095</ele>
        <time>2026-05-14T12:58:37+00:00</time>
      </trkpt>
      <trkpt lat="42.33984" lon="9.4311">
        <ele>1096</ele>
        <time>2026-05-14T12:58:38+00:00</time>
      </trkpt>
      <trkpt lat="42.33989" lon="9.43115">
        <ele>1096</ele>
        <time>2026-05-14T12:58:39+00:00</time>
      </trkpt>
      <trkpt lat="42.34001" lon="9.43115">
        <ele>1097</ele>
        <time>2026-05-14T12:58:40+00:00</time>
      </trkpt>
      <trkpt lat="42.34008" lon="9.43119">
        <ele>1097</ele>
        <time>2026-05-14T12:58:41+00:00</time>
      </trkpt>
      <trkpt lat="42.3402" lon="9.43117">
        <ele>1098</ele>
        <time>2026-05-14T12:58:42+00:00</time>
      </trkpt>
      <trkpt lat="42.34031" lon="9.43112">
        <ele>1098</ele>
        <time>2026-05-14T12:58:43+00:00</time>
      </trkpt>
      <trkpt lat="42.34038" lon="9.43111">
        <ele>1099</ele>
        <time>2026-05-14T12:58:44+00:00</time>
      </trkpt>
      <trkpt lat="42.34038" lon="9.43113">
        <ele>1098</ele>
        <time>2026-05-14T12:58:45+00:00</time>
      </trkpt>
      <trkpt lat="42.34037" lon="9.43108">
        <ele>1099</ele>
        <time>2026-05-14T12:58:46+00:00</time>
      </trkpt>
      <trkpt lat="42.34055" lon="9.43096">
        <ele>1101</ele>
        <time>2026-05-14T12:58:47+00:00</time>
      </trkpt>
      <trkpt lat="42.34061" lon="9.43086">
        <ele>1102</ele>
        <time>2026-05-14T12:58:48+00:00</time>
      </trkpt>
      <trkpt lat="42.34069" lon="9.43083">
        <ele>1102</ele>
        <time>2026-05-14T12:58:49+00:00</time>
      </trkpt>
      <trkpt lat="42.34076" lon="9.43074">
        <ele>1098</ele>
        <time>2026-05-14T12:58:50+00:00</time>
      </trkpt>
      <trkpt lat="42.34082" lon="9.43072">
        <ele>1097</ele>
        <time>2026-05-14T12:58:51+00:00</time>
      </trkpt>
      <trkpt lat="42.3409" lon="9.43073">
        <ele>1099</ele>
        <time>2026-05-14T12:58:52+00:00</time>
      </trkpt>
      <trkpt lat="42.34107" lon="9.43062">
        <ele>1097</ele>
        <time>2026-05-14T12:58:53+00:00</time>
      </trkpt>
      <trkpt lat="42.34117" lon="9.43059">
        <ele>1098</ele>
        <time>2026-05-14T12:58:54+00:00</time>
      </trkpt>
      <trkpt lat="42.34122" lon="9.4306">
        <ele>1099</ele>
        <time>2026-05-14T12:58:55+00:00</time>
      </trkpt>
      <trkpt lat="42.34129" lon="9.43054">
        <ele>1098</ele>
        <time>2026-05-14T12:58:56+00:00</time>
      </trkpt>
      <trkpt lat="42.34133" lon="9.43043">
        <ele>1094</ele>
        <time>2026-05-14T12:58:57+00:00</time>
      </trkpt>
      <trkpt lat="42.34143" lon="9.43036">
        <ele>1093</ele>
        <time>2026-05-14T12:58:58+00:00</time>
      </trkpt>
      <trkpt lat="42.34145" lon="9.4303">
        <ele>1091</ele>
        <time>2026-05-14T12:58:59+00:00</time>
      </trkpt>
      <trkpt lat="42.34166" lon="9.43026">
        <ele>1093</ele>
        <time>2026-05-14T12:59:00+00:00</time>
      </trkpt>
      <trkpt lat="42.34175" lon="9.4301">
        <ele>1086</ele>
        <time>2026-05-14T12:59:01+00:00</time>
      </trkpt>
      <trkpt lat="42.34176" lon="9.43003">
        <ele>1083</ele>
        <time>2026-05-14T12:59:02+00:00</time>
      </trkpt>
      <trkpt lat="42.34181" lon="9.42999">
        <ele>1082</ele>
        <time>2026-05-14T12:59:03+00:00</time>
      </trkpt>
      <trkpt lat="42.3419" lon="9.42968">
        <ele>1069</ele>
        <time>2026-05-14T12:59:04+00:00</time>
      </trkpt>
      <trkpt lat="42.34199" lon="9.42954">
        <ele>1064</ele>
        <time>2026-05-14T12:59:05+00:00</time>
      </trkpt>
      <trkpt lat="42.34202" lon="9.4294">
        <ele>1058</ele>
        <time>2026-05-14T12:59:06+00:00</time>
      </trkpt>
      <trkpt lat="42.34216" lon="9.4292">
        <ele>1052</ele>
        <time>2026-05-14T12:59:07+00:00</time>
      </trkpt>
      <trkpt lat="42.34218" lon="9.42909">
        <ele>1049</ele>
        <time>2026-05-14T12:59:08+00:00</time>
      </trkpt>
      <trkpt lat="42.3422" lon="9.42906">
        <ele>1048</ele>
        <time>2026-05-14T12:59:09+00:00</time>
      </trkpt>
      <trkpt lat="42.34225" lon="9.42909">
        <ele>1049</ele>
        <time>2026-05-14T12:59:10+00:00</time>
      </trkpt>
      <trkpt lat="42.34231" lon="9.42909">
        <ele>1050</ele>
        <time>2026-05-14T12:59:11+00:00</time>
      </trkpt>
      <trkpt lat="42.34229" lon="9.429">
        <ele>1048</ele>
        <time>2026-05-14T12:59:12+00:00</time>
      </trkpt>
      <trkpt lat="42.34227" lon="9.429">
        <ele>1048</ele>
        <time>2026-05-14T12:59:13+00:00</time>
      </trkpt>
      <trkpt lat="42.34228" lon="9.42888">
        <ele>1045</ele>
        <time>2026-05-14T12:59:14+00:00</time>
      </trkpt>
      <trkpt lat="42.34234" lon="9.42881">
        <ele>1044</ele>
        <time>2026-05-14T12:59:15+00:00</time>
      </trkpt>
      <trkpt lat="42.34234" lon="9.42872">
        <ele>1042</ele>
        <time>2026-05-14T12:59:16+00:00</time>
      </trkpt>
      <trkpt lat="42.34231" lon="9.42865">
        <ele>1040</ele>
        <time>2026-05-14T12:59:17+00:00</time>
      </trkpt>
      <trkpt lat="42.34235" lon="9.4286">
        <ele>1039</ele>
        <time>2026-05-14T12:59:18+00:00</time>
      </trkpt>
      <trkpt lat="42.34236" lon="9.42853">
        <ele>1038</ele>
        <time>2026-05-14T12:59:19+00:00</time>
      </trkpt>
      <trkpt lat="42.3424" lon="9.42849">
        <ele>1038</ele>
        <time>2026-05-14T12:59:20+00:00</time>
      </trkpt>
      <trkpt lat="42.34248" lon="9.42819">
        <ele>1034</ele>
        <time>2026-05-14T12:59:21+00:00</time>
      </trkpt>
      <trkpt lat="42.34255" lon="9.42814">
        <ele>1030</ele>
        <time>2026-05-14T12:59:22+00:00</time>
      </trkpt>
      <trkpt lat="42.34249" lon="9.42801">
        <ele>1031</ele>
        <time>2026-05-14T12:59:23+00:00</time>
      </trkpt>
      <trkpt lat="42.34236" lon="9.42806">
        <ele>1028</ele>
        <time>2026-05-14T12:59:24+00:00</time>
      </trkpt>
      <trkpt lat="42.34231" lon="9.42804">
        <ele>1026</ele>
        <time>2026-05-14T12:59:25+00:00</time>
      </trkpt>
      <trkpt lat="42.34224" lon="9.42809">
        <ele>1025</ele>
        <time>2026-05-14T12:59:26+00:00</time>
      </trkpt>
      <trkpt lat="42.34227" lon="9.42797">
        <ele>1023</ele>
        <time>2026-05-14T12:59:27+00:00</time>
      </trkpt>
      <trkpt lat="42.34231" lon="9.42794">
        <ele>1024</ele>
        <time>2026-05-14T12:59:28+00:00</time>
      </trkpt>
      <trkpt lat="42.34234" lon="9.42785">
        <ele>1023</ele>
        <time>2026-05-14T12:59:29+00:00</time>
      </trkpt>
      <trkpt lat="42.34233" lon="9.42778">
        <ele>1021</ele>
        <time>2026-05-14T12:59:30+00:00</time>
      </trkpt>
      <trkpt lat="42.34239" lon="9.42772">
        <ele>1022</ele>
        <time>2026-05-14T12:59:31+00:00</time>
      </trkpt>
      <trkpt lat="42.34244" lon="9.42758">
        <ele>1021</ele>
        <time>2026-05-14T12:59:32+00:00</time>
      </trkpt>
      <trkpt lat="42.34261" lon="9.42729">
        <ele>1011</ele>
        <time>2026-05-14T12:59:33+00:00</time>
      </trkpt>
      <trkpt lat="42.34276" lon="9.4269">
        <ele>999</ele>
        <time>2026-05-14T12:59:34+00:00</time>
      </trkpt>
      <trkpt lat="42.34276" lon="9.42681">
        <ele>997</ele>
        <time>2026-05-14T12:59:35+00:00</time>
      </trkpt>
      <trkpt lat="42.34274" lon="9.4268">
        <ele>998</ele>
        <time>2026-05-14T12:59:36+00:00</time>
      </trkpt>
      <trkpt lat="42.34278" lon="9.42662">
        <ele>994</ele>
        <time>2026-05-14T12:59:37+00:00</time>
      </trkpt>
      <trkpt lat="42.34275" lon="9.42649">
        <ele>993</ele>
        <time>2026-05-14T12:59:38+00:00</time>
      </trkpt>
      <trkpt lat="42.34276" lon="9.42615">
        <ele>987</ele>
        <time>2026-05-14T12:59:39+00:00</time>
      </trkpt>
      <trkpt lat="42.34281" lon="9.42575">
        <ele>977</ele>
        <time>2026-05-14T12:59:40+00:00</time>
      </trkpt>
      <trkpt lat="42.34288" lon="9.4256">
        <ele>971</ele>
        <time>2026-05-14T12:59:41+00:00</time>
      </trkpt>
      <trkpt lat="42.34286" lon="9.42558">
        <ele>970</ele>
        <time>2026-05-14T12:59:42+00:00</time>
      </trkpt>
      <trkpt lat="42.34283" lon="9.42559">
        <ele>971</ele>
        <time>2026-05-14T12:59:43+00:00</time>
      </trkpt>
      <trkpt lat="42.34284" lon="9.42551">
        <ele>968</ele>
        <time>2026-05-14T12:59:44+00:00</time>
      </trkpt>
      <trkpt lat="42.34279" lon="9.42555">
        <ele>970</ele>
        <time>2026-05-14T12:59:45+00:00</time>
      </trkpt>
      <trkpt lat="42.34278" lon="9.42552">
        <ele>969</ele>
        <time>2026-05-14T12:59:46+00:00</time>
      </trkpt>
      <trkpt lat="42.34281" lon="9.42547">
        <ele>967</ele>
        <time>2026-05-14T12:59:47+00:00</time>
      </trkpt>
      <trkpt lat="42.34281" lon="9.42543">
        <ele>965</ele>
        <time>2026-05-14T12:59:48+00:00</time>
      </trkpt>
      <trkpt lat="42.34276" lon="9.42545">
        <ele>967</ele>
        <time>2026-05-14T12:59:49+00:00</time>
      </trkpt>
      <trkpt lat="42.34279" lon="9.42532">
        <ele>961</ele>
        <time>2026-05-14T12:59:50+00:00</time>
      </trkpt>
      <trkpt lat="42.34268" lon="9.42536">
        <ele>964</ele>
        <time>2026-05-14T12:59:51+00:00</time>
      </trkpt>
      <trkpt lat="42.34266" lon="9.42531">
        <ele>962</ele>
        <time>2026-05-14T12:59:52+00:00</time>
      </trkpt>
      <trkpt lat="42.34274" lon="9.4252">
        <ele>957</ele>
        <time>2026-05-14T12:59:53+00:00</time>
      </trkpt>
      <trkpt lat="42.34263" lon="9.42516">
        <ele>957</ele>
        <time>2026-05-14T12:59:54+00:00</time>
      </trkpt>
      <trkpt lat="42.34252" lon="9.42521">
        <ele>961</ele>
        <time>2026-05-14T12:59:55+00:00</time>
      </trkpt>
      <trkpt lat="42.34258" lon="9.42506">
        <ele>954</ele>
        <time>2026-05-14T12:59:56+00:00</time>
      </trkpt>
      <trkpt lat="42.34264" lon="9.42498">
        <ele>950</ele>
        <time>2026-05-14T12:59:57+00:00</time>
      </trkpt>
      <trkpt lat="42.3426" lon="9.42497">
        <ele>951</ele>
        <time>2026-05-14T12:59:58+00:00</time>
      </trkpt>
      <trkpt lat="42.34239" lon="9.42514">
        <ele>954</ele>
        <time>2026-05-14T12:59:59+00:00</time>
      </trkpt>
      <trkpt lat="42.34254" lon="9.42475">
        <ele>946</ele>
        <time>2026-05-14T13:00:00+00:00</time>
      </trkpt>
      <trkpt lat="42.34265" lon="9.42454">
        <ele>937</ele>
        <time>2026-05-14T13:00:01+00:00</time>
      </trkpt>
      <trkpt lat="42.34276" lon="9.42445">
        <ele>931</ele>
        <time>2026-05-14T13:00:02+00:00</time>
      </trkpt>
      <trkpt lat="42.34272" lon="9.42435">
        <ele>929</ele>
        <time>2026-05-14T13:00:03+00:00</time>
      </trkpt>
      <trkpt lat="42.34279" lon="9.42422">
        <ele>923</ele>
        <time>2026-05-14T13:00:04+00:00</time>
      </trkpt>
      <trkpt lat="42.34281" lon="9.42404">
        <ele>917</ele>
        <time>2026-05-14T13:00:05+00:00</time>
      </trkpt>
      <trkpt lat="42.34281" lon="9.42393">
        <ele>913</ele>
        <time>2026-05-14T13:00:06+00:00</time>
      </trkpt>
      <trkpt lat="42.34277" lon="9.4239">
        <ele>914</ele>
        <time>2026-05-14T13:00:07+00:00</time>
      </trkpt>
      <trkpt lat="42.34275" lon="9.42384">
        <ele>913</ele>
        <time>2026-05-14T13:00:08+00:00</time>
      </trkpt>
      <trkpt lat="42.3428" lon="9.4236">
        <ele>904</ele>
        <time>2026-05-14T13:00:09+00:00</time>
      </trkpt>
      <trkpt lat="42.34277" lon="9.42354">
        <ele>903</ele>
        <time>2026-05-14T13:00:10+00:00</time>
      </trkpt>
      <trkpt lat="42.34278" lon="9.42351">
        <ele>902</ele>
        <time>2026-05-14T13:00:11+00:00</time>
      </trkpt>
      <trkpt lat="42.3427" lon="9.42339">
        <ele>901</ele>
        <time>2026-05-14T13:00:12+00:00</time>
      </trkpt>
      <trkpt lat="42.34274" lon="9.42328">
        <ele>896</ele>
        <time>2026-05-14T13:00:13+00:00</time>
      </trkpt>
      <trkpt lat="42.34271" lon="9.42318">
        <ele>895</ele>
        <time>2026-05-14T13:00:14+00:00</time>
      </trkpt>
      <trkpt lat="42.34275" lon="9.42311">
        <ele>891</ele>
        <time>2026-05-14T13:00:15+00:00</time>
      </trkpt>
      <trkpt lat="42.34267" lon="9.42311">
        <ele>894</ele>
        <time>2026-05-14T13:00:16+00:00</time>
      </trkpt>
      <trkpt lat="42.34267" lon="9.42309">
        <ele>894</ele>
        <time>2026-05-14T13:00:17+00:00</time>
      </trkpt>
      <trkpt lat="42.34274" lon="9.42298">
        <ele>888</ele>
        <time>2026-05-14T13:00:18+00:00</time>
      </trkpt>
      <trkpt lat="42.34266" lon="9.42295">
        <ele>890</ele>
        <time>2026-05-14T13:00:19+00:00</time>
      </trkpt>
      <trkpt lat="42.34271" lon="9.42284">
        <ele>885</ele>
        <time>2026-05-14T13:00:20+00:00</time>
      </trkpt>
      <trkpt lat="42.34256" lon="9.42284">
        <ele>891</ele>
        <time>2026-05-14T13:00:21+00:00</time>
      </trkpt>
      <trkpt lat="42.34259" lon="9.42278">
        <ele>888</ele>
        <time>2026-05-14T13:00:22+00:00</time>
      </trkpt>
      <trkpt lat="42.34258" lon="9.42275">
        <ele>887</ele>
        <time>2026-05-14T13:00:23+00:00</time>
      </trkpt>
      <trkpt lat="42.34252" lon="9.42275">
        <ele>890</ele>
        <time>2026-05-14T13:00:24+00:00</time>
      </trkpt>
      <trkpt lat="42.3425" lon="9.42272">
        <ele>890</ele>
        <time>2026-05-14T13:00:25+00:00</time>
      </trkpt>
      <trkpt lat="42.34259" lon="9.42259">
        <ele>882</ele>
        <time>2026-05-14T13:00:26+00:00</time>
      </trkpt>
      <trkpt lat="42.34265" lon="9.42255">
        <ele>879</ele>
        <time>2026-05-14T13:00:27+00:00</time>
      </trkpt>
      <trkpt lat="42.34265" lon="9.42252">
        <ele>878</ele>
        <time>2026-05-14T13:00:28+00:00</time>
      </trkpt>
      <trkpt lat="42.34251" lon="9.4225">
        <ele>883</ele>
        <time>2026-05-14T13:00:29+00:00</time>
      </trkpt>
      <trkpt lat="42.34244" lon="9.42245">
        <ele>878</ele>
        <time>2026-05-14T13:00:30+00:00</time>
      </trkpt>
      <trkpt lat="42.3424" lon="9.42245">
        <ele>876</ele>
        <time>2026-05-14T13:00:31+00:00</time>
      </trkpt>
      <trkpt lat="42.34238" lon="9.42241">
        <ele>874</ele>
        <time>2026-05-14T13:00:32+00:00</time>
      </trkpt>
      <trkpt lat="42.34232" lon="9.42244">
        <ele>872</ele>
        <time>2026-05-14T13:00:33+00:00</time>
      </trkpt>
      <trkpt lat="42.34231" lon="9.42234">
        <ele>868</ele>
        <time>2026-05-14T13:00:34+00:00</time>
      </trkpt>
      <trkpt lat="42.34233" lon="9.42229">
        <ele>867</ele>
        <time>2026-05-14T13:00:35+00:00</time>
      </trkpt>
      <trkpt lat="42.34231" lon="9.42225">
        <ele>865</ele>
        <time>2026-05-14T13:00:36+00:00</time>
      </trkpt>
      <trkpt lat="42.34227" lon="9.42224">
        <ele>863</ele>
        <time>2026-05-14T13:00:37+00:00</time>
      </trkpt>
      <trkpt lat="42.34228" lon="9.42216">
        <ele>861</ele>
        <time>2026-05-14T13:00:38+00:00</time>
      </trkpt>
      <trkpt lat="42.3423" lon="9.42215">
        <ele>861</ele>
        <time>2026-05-14T13:00:39+00:00</time>
      </trkpt>
      <trkpt lat="42.34225" lon="9.42209">
        <ele>857</ele>
        <time>2026-05-14T13:00:40+00:00</time>
      </trkpt>
      <trkpt lat="42.34222" lon="9.42195">
        <ele>851</ele>
        <time>2026-05-14T13:00:41+00:00</time>
      </trkpt>
      <trkpt lat="42.34219" lon="9.42192">
        <ele>849</ele>
        <time>2026-05-14T13:00:42+00:00</time>
      </trkpt>
      <trkpt lat="42.34226" lon="9.42182">
        <ele>848</ele>
        <time>2026-05-14T13:00:43+00:00</time>
      </trkpt>
      <trkpt lat="42.34229" lon="9.42181">
        <ele>849</ele>
        <time>2026-05-14T13:00:44+00:00</time>
      </trkpt>
      <trkpt lat="42.34238" lon="9.42184">
        <ele>853</ele>
        <time>2026-05-14T13:00:45+00:00</time>
      </trkpt>
      <trkpt lat="42.34242" lon="9.42188">
        <ele>856</ele>
        <time>2026-05-14T13:00:46+00:00</time>
      </trkpt>
      <trkpt lat="42.34247" lon="9.42184">
        <ele>856</ele>
        <time>2026-05-14T13:00:47+00:00</time>
      </trkpt>
      <trkpt lat="42.34279" lon="9.42181">
        <ele>852</ele>
        <time>2026-05-14T13:00:48+00:00</time>
      </trkpt>
      <trkpt lat="42.34293" lon="9.42176">
        <ele>849</ele>
        <time>2026-05-14T13:00:49+00:00</time>
      </trkpt>
      <trkpt lat="42.34323" lon="9.4218">
        <ele>846</ele>
        <time>2026-05-14T13:00:50+00:00</time>
      </trkpt>
      <trkpt lat="42.34324" lon="9.42178">
        <ele>846</ele>
        <time>2026-05-14T13:00:51+00:00</time>
      </trkpt>
      <trkpt lat="42.34321" lon="9.42169">
        <ele>845</ele>
        <time>2026-05-14T13:00:52+00:00</time>
      </trkpt>
      <trkpt lat="42.34316" lon="9.42168">
        <ele>845</ele>
        <time>2026-05-14T13:00:53+00:00</time>
      </trkpt>
      <trkpt lat="42.3431" lon="9.4216">
        <ele>843</ele>
        <time>2026-05-14T13:00:54+00:00</time>
      </trkpt>
      <trkpt lat="42.343" lon="9.42158">
        <ele>843</ele>
        <time>2026-05-14T13:00:55+00:00</time>
      </trkpt>
      <trkpt lat="42.34291" lon="9.4215">
        <ele>841</ele>
        <time>2026-05-14T13:00:56+00:00</time>
      </trkpt>
      <trkpt lat="42.34285" lon="9.42137">
        <ele>836</ele>
        <time>2026-05-14T13:00:57+00:00</time>
      </trkpt>
      <trkpt lat="42.34267" lon="9.42127">
        <ele>834</ele>
        <time>2026-05-14T13:00:58+00:00</time>
      </trkpt>
      <trkpt lat="42.34258" lon="9.42114">
        <ele>830</ele>
        <time>2026-05-14T13:00:59+00:00</time>
      </trkpt>
      <trkpt lat="42.3425" lon="9.42108">
        <ele>829</ele>
        <time>2026-05-14T13:01:00+00:00</time>
      </trkpt>
      <trkpt lat="42.34242" lon="9.42092">
        <ele>822</ele>
        <time>2026-05-14T13:01:01+00:00</time>
      </trkpt>
      <trkpt lat="42.34228" lon="9.42074">
        <ele>814</ele>
        <time>2026-05-14T13:01:02+00:00</time>
      </trkpt>
      <trkpt lat="42.34228" lon="9.4207">
        <ele>812</ele>
        <time>2026-05-14T13:01:03+00:00</time>
      </trkpt>
      <trkpt lat="42.34232" lon="9.42065">
        <ele>811</ele>
        <time>2026-05-14T13:01:04+00:00</time>
      </trkpt>
      <trkpt lat="42.34229" lon="9.42061">
        <ele>809</ele>
        <time>2026-05-14T13:01:05+00:00</time>
      </trkpt>
      <trkpt lat="42.3423" lon="9.42052">
        <ele>807</ele>
        <time>2026-05-14T13:01:06+00:00</time>
      </trkpt>
      <trkpt lat="42.34223" lon="9.4204">
        <ele>802</ele>
        <time>2026-05-14T13:01:07+00:00</time>
      </trkpt>
      <trkpt lat="42.34218" lon="9.42023">
        <ele>796</ele>
        <time>2026-05-14T13:01:08+00:00</time>
      </trkpt>
      <trkpt lat="42.3422" lon="9.42004">
        <ele>790</ele>
        <time>2026-05-14T13:01:09+00:00</time>
      </trkpt>
      <trkpt lat="42.34215" lon="9.41998">
        <ele>788</ele>
        <time>2026-05-14T13:01:10+00:00</time>
      </trkpt>
      <trkpt lat="42.34207" lon="9.41978">
        <ele>782</ele>
        <time>2026-05-14T13:01:11+00:00</time>
      </trkpt>
      <trkpt lat="42.34202" lon="9.41974">
        <ele>781</ele>
        <time>2026-05-14T13:01:12+00:00</time>
      </trkpt>
      <trkpt lat="42.34194" lon="9.4196">
        <ele>777</ele>
        <time>2026-05-14T13:01:13+00:00</time>
      </trkpt>
      <trkpt lat="42.34187" lon="9.41953">
        <ele>776</ele>
        <time>2026-05-14T13:01:14+00:00</time>
      </trkpt>
      <trkpt lat="42.34182" lon="9.41954">
        <ele>776</ele>
        <time>2026-05-14T13:01:15+00:00</time>
      </trkpt>
      <trkpt lat="42.34181" lon="9.4195">
        <ele>775</ele>
        <time>2026-05-14T13:01:16+00:00</time>
      </trkpt>
      <trkpt lat="42.34185" lon="9.41942">
        <ele>773</ele>
        <time>2026-05-14T13:01:17+00:00</time>
      </trkpt>
      <trkpt lat="42.34194" lon="9.41939">
        <ele>771</ele>
        <time>2026-05-14T13:01:18+00:00</time>
      </trkpt>
      <trkpt lat="42.34202" lon="9.41946">
        <ele>773</ele>
        <time>2026-05-14T13:01:19+00:00</time>
      </trkpt>
      <trkpt lat="42.34211" lon="9.41947">
        <ele>773</ele>
        <time>2026-05-14T13:01:20+00:00</time>
      </trkpt>
      <trkpt lat="42.34218" lon="9.41953">
        <ele>775</ele>
        <time>2026-05-14T13:01:21+00:00</time>
      </trkpt>
      <trkpt lat="42.34223" lon="9.41952">
        <ele>774</ele>
        <time>2026-05-14T13:01:22+00:00</time>
      </trkpt>
      <trkpt lat="42.34225" lon="9.41955">
        <ele>775</ele>
        <time>2026-05-14T13:01:23+00:00</time>
      </trkpt>
      <trkpt lat="42.3423" lon="9.41955">
        <ele>775</ele>
        <time>2026-05-14T13:01:24+00:00</time>
      </trkpt>
      <trkpt lat="42.3424" lon="9.41964">
        <ele>777</ele>
        <time>2026-05-14T13:01:25+00:00</time>
      </trkpt>
      <trkpt lat="42.3424" lon="9.41958">
        <ele>775</ele>
        <time>2026-05-14T13:01:26+00:00</time>
      </trkpt>
      <trkpt lat="42.34232" lon="9.4195">
        <ele>773</ele>
        <time>2026-05-14T13:01:27+00:00</time>
      </trkpt>
      <trkpt lat="42.34227" lon="9.41934">
        <ele>768</ele>
        <time>2026-05-14T13:01:28+00:00</time>
      </trkpt>
      <trkpt lat="42.34218" lon="9.41925">
        <ele>766</ele>
        <time>2026-05-14T13:01:29+00:00</time>
      </trkpt>
      <trkpt lat="42.34212" lon="9.41905">
        <ele>761</ele>
        <time>2026-05-14T13:01:30+00:00</time>
      </trkpt>
      <trkpt lat="42.342" lon="9.41882">
        <ele>756</ele>
        <time>2026-05-14T13:01:31+00:00</time>
      </trkpt>
      <trkpt lat="42.34198" lon="9.41884">
        <ele>756</ele>
        <time>2026-05-14T13:01:32+00:00</time>
      </trkpt>
      <trkpt lat="42.34196" lon="9.41882">
        <ele>756</ele>
        <time>2026-05-14T13:01:33+00:00</time>
      </trkpt>
      <trkpt lat="42.34176" lon="9.41837">
        <ele>749</ele>
        <time>2026-05-14T13:01:34+00:00</time>
      </trkpt>
      <trkpt lat="42.3417" lon="9.4182">
        <ele>747</ele>
        <time>2026-05-14T13:01:35+00:00</time>
      </trkpt>
      <trkpt lat="42.34173" lon="9.4179">
        <ele>741</ele>
        <time>2026-05-14T13:01:36+00:00</time>
      </trkpt>
      <trkpt lat="42.34162" lon="9.41744">
        <ele>734</ele>
        <time>2026-05-14T13:01:37+00:00</time>
      </trkpt>
      <trkpt lat="42.3415" lon="9.41717">
        <ele>728</ele>
        <time>2026-05-14T13:01:38+00:00</time>
      </trkpt>
      <trkpt lat="42.34144" lon="9.41718">
        <ele>728</ele>
        <time>2026-05-14T13:01:39+00:00</time>
      </trkpt>
      <trkpt lat="42.34145" lon="9.41715">
        <ele>727</ele>
        <time>2026-05-14T13:01:40+00:00</time>
      </trkpt>
      <trkpt lat="42.34142" lon="9.41708">
        <ele>726</ele>
        <time>2026-05-14T13:01:41+00:00</time>
      </trkpt>
      <trkpt lat="42.34133" lon="9.41697">
        <ele>725</ele>
        <time>2026-05-14T13:01:42+00:00</time>
      </trkpt>
      <trkpt lat="42.34134" lon="9.41693">
        <ele>724</ele>
        <time>2026-05-14T13:01:43+00:00</time>
      </trkpt>
      <trkpt lat="42.34157" lon="9.41705">
        <ele>725</ele>
        <time>2026-05-14T13:01:44+00:00</time>
      </trkpt>
      <trkpt lat="42.34165" lon="9.41713">
        <ele>726</ele>
        <time>2026-05-14T13:01:45+00:00</time>
      </trkpt>
      <trkpt lat="42.3418" lon="9.41718">
        <ele>722</ele>
        <time>2026-05-14T13:01:46+00:00</time>
      </trkpt>
      <trkpt lat="42.34184" lon="9.41723">
        <ele>722</ele>
        <time>2026-05-14T13:01:47+00:00</time>
      </trkpt>
      <trkpt lat="42.34188" lon="9.41724">
        <ele>721</ele>
        <time>2026-05-14T13:01:48+00:00</time>
      </trkpt>
      <trkpt lat="42.34198" lon="9.41734">
        <ele>720</ele>
        <time>2026-05-14T13:01:49+00:00</time>
      </trkpt>
      <trkpt lat="42.34206" lon="9.41749">
        <ele>722</ele>
        <time>2026-05-14T13:01:50+00:00</time>
      </trkpt>
      <trkpt lat="42.34212" lon="9.41752">
        <ele>720</ele>
        <time>2026-05-14T13:01:51+00:00</time>
      </trkpt>
      <trkpt lat="42.34245" lon="9.41791">
        <ele>721</ele>
        <time>2026-05-14T13:01:52+00:00</time>
      </trkpt>
      <trkpt lat="42.34263" lon="9.41798">
        <ele>717</ele>
        <time>2026-05-14T13:01:53+00:00</time>
      </trkpt>
      <trkpt lat="42.34269" lon="9.41797">
        <ele>715</ele>
        <time>2026-05-14T13:01:54+00:00</time>
      </trkpt>
      <trkpt lat="42.3428" lon="9.41801">
        <ele>712</ele>
        <time>2026-05-14T13:01:55+00:00</time>
      </trkpt>
      <trkpt lat="42.34307" lon="9.41824">
        <ele>711</ele>
        <time>2026-05-14T13:01:56+00:00</time>
      </trkpt>
      <trkpt lat="42.34313" lon="9.41821">
        <ele>708</ele>
        <time>2026-05-14T13:01:57+00:00</time>
      </trkpt>
      <trkpt lat="42.34313" lon="9.41817">
        <ele>706</ele>
        <time>2026-05-14T13:01:58+00:00</time>
      </trkpt>
      <trkpt lat="42.34327" lon="9.4184">
        <ele>709</ele>
        <time>2026-05-14T13:01:59+00:00</time>
      </trkpt>
      <trkpt lat="42.34329" lon="9.41842">
        <ele>709</ele>
        <time>2026-05-14T13:02:00+00:00</time>
      </trkpt>
      <trkpt lat="42.34338" lon="9.41842">
        <ele>707</ele>
        <time>2026-05-14T13:02:01+00:00</time>
      </trkpt>
      <trkpt lat="42.34349" lon="9.41854">
        <ele>708</ele>
        <time>2026-05-14T13:02:02+00:00</time>
      </trkpt>
      <trkpt lat="42.34349" lon="9.41849">
        <ele>706</ele>
        <time>2026-05-14T13:02:03+00:00</time>
      </trkpt>
      <trkpt lat="42.34365" lon="9.41818">
        <ele>691</ele>
        <time>2026-05-14T13:02:04+00:00</time>
      </trkpt>
      <trkpt lat="42.34373" lon="9.41809">
        <ele>686</ele>
        <time>2026-05-14T13:02:05+00:00</time>
      </trkpt>
      <trkpt lat="42.34378" lon="9.41809">
        <ele>684</ele>
        <time>2026-05-14T13:02:06+00:00</time>
      </trkpt>
      <trkpt lat="42.34392" lon="9.41811">
        <ele>681</ele>
        <time>2026-05-14T13:02:07+00:00</time>
      </trkpt>
      <trkpt lat="42.34434" lon="9.41832">
        <ele>679</ele>
        <time>2026-05-14T13:02:08+00:00</time>
      </trkpt>
      <trkpt lat="42.34454" lon="9.41837">
        <ele>678</ele>
        <time>2026-05-14T13:02:09+00:00</time>
      </trkpt>
      <trkpt lat="42.34462" lon="9.41835">
        <ele>676</ele>
        <time>2026-05-14T13:02:10+00:00</time>
      </trkpt>
      <trkpt lat="42.34473" lon="9.41842">
        <ele>678</ele>
        <time>2026-05-14T13:02:11+00:00</time>
      </trkpt>
      <trkpt lat="42.34499" lon="9.41842">
        <ele>674</ele>
        <time>2026-05-14T13:02:12+00:00</time>
      </trkpt>
      <trkpt lat="42.34513" lon="9.41837">
        <ele>672</ele>
        <time>2026-05-14T13:02:13+00:00</time>
      </trkpt>
      <trkpt lat="42.34541" lon="9.41854">
        <ele>677</ele>
        <time>2026-05-14T13:02:14+00:00</time>
      </trkpt>
      <trkpt lat="42.34549" lon="9.41855">
        <ele>676</ele>
        <time>2026-05-14T13:02:15+00:00</time>
      </trkpt>
      <trkpt lat="42.34559" lon="9.41861">
        <ele>677</ele>
        <time>2026-05-14T13:02:16+00:00</time>
      </trkpt>
      <trkpt lat="42.34581" lon="9.41868">
        <ele>675</ele>
        <time>2026-05-14T13:02:17+00:00</time>
      </trkpt>
      <trkpt lat="42.34587" lon="9.41875">
        <ele>676</ele>
        <time>2026-05-14T13:02:18+00:00</time>
      </trkpt>
      <trkpt lat="42.3459" lon="9.41874">
        <ele>677</ele>
        <time>2026-05-14T13:02:19+00:00</time>
      </trkpt>
      <trkpt lat="42.34594" lon="9.41877">
        <ele>678</ele>
        <time>2026-05-14T13:02:20+00:00</time>
      </trkpt>
      <trkpt lat="42.34601" lon="9.41873">
        <ele>680</ele>
        <time>2026-05-14T13:02:21+00:00</time>
      </trkpt>
      <trkpt lat="42.34599" lon="9.41863">
        <ele>679</ele>
        <time>2026-05-14T13:02:22+00:00</time>
      </trkpt>
      <trkpt lat="42.34604" lon="9.41851">
        <ele>680</ele>
        <time>2026-05-14T13:02:23+00:00</time>
      </trkpt>
      <trkpt lat="42.34611" lon="9.41845">
        <ele>682</ele>
        <time>2026-05-14T13:02:24+00:00</time>
      </trkpt>
      <trkpt lat="42.34613" lon="9.41845">
        <ele>683</ele>
        <time>2026-05-14T13:02:25+00:00</time>
      </trkpt>
      <trkpt lat="42.34615" lon="9.41851">
        <ele>683</ele>
        <time>2026-05-14T13:02:26+00:00</time>
      </trkpt>
      <trkpt lat="42.34612" lon="9.41852">
        <ele>683</ele>
        <time>2026-05-14T13:02:27+00:00</time>
      </trkpt>
      <trkpt lat="42.34614" lon="9.4186">
        <ele>683</ele>
        <time>2026-05-14T13:02:28+00:00</time>
      </trkpt>
      <trkpt lat="42.34619" lon="9.41864">
        <ele>685</ele>
        <time>2026-05-14T13:02:29+00:00</time>
      </trkpt>
      <trkpt lat="42.34626" lon="9.4186">
        <ele>687</ele>
        <time>2026-05-14T13:02:30+00:00</time>
      </trkpt>
      <trkpt lat="42.34626" lon="9.41866">
        <ele>687</ele>
        <time>2026-05-14T13:02:31+00:00</time>
      </trkpt>
      <trkpt lat="42.34633" lon="9.41867">
        <ele>688</ele>
        <time>2026-05-14T13:02:32+00:00</time>
      </trkpt>
      <trkpt lat="42.34632" lon="9.41862">
        <ele>688</ele>
        <time>2026-05-14T13:02:33+00:00</time>
      </trkpt>
      <trkpt lat="42.34639" lon="9.41853">
        <ele>690</ele>
        <time>2026-05-14T13:02:34+00:00</time>
      </trkpt>
      <trkpt lat="42.34642" lon="9.41841">
        <ele>692</ele>
        <time>2026-05-14T13:02:35+00:00</time>
      </trkpt>
      <trkpt lat="42.34644" lon="9.41841">
        <ele>692</ele>
        <time>2026-05-14T13:02:36+00:00</time>
      </trkpt>
      <trkpt lat="42.34645" lon="9.41848">
        <ele>692</ele>
        <time>2026-05-14T13:02:37+00:00</time>
      </trkpt>
      <trkpt lat="42.34652" lon="9.41847">
        <ele>695</ele>
        <time>2026-05-14T13:02:38+00:00</time>
      </trkpt>
      <trkpt lat="42.34657" lon="9.41843">
        <ele>696</ele>
        <time>2026-05-14T13:02:39+00:00</time>
      </trkpt>
      <trkpt lat="42.3467" lon="9.41849">
        <ele>700</ele>
        <time>2026-05-14T13:02:40+00:00</time>
      </trkpt>
      <trkpt lat="42.34673" lon="9.41848">
        <ele>701</ele>
        <time>2026-05-14T13:02:41+00:00</time>
      </trkpt>
      <trkpt lat="42.34679" lon="9.41836">
        <ele>704</ele>
        <time>2026-05-14T13:02:42+00:00</time>
      </trkpt>
      <trkpt lat="42.34696" lon="9.4185">
        <ele>709</ele>
        <time>2026-05-14T13:02:43+00:00</time>
      </trkpt>
      <trkpt lat="42.34699" lon="9.4186">
        <ele>709</ele>
        <time>2026-05-14T13:02:44+00:00</time>
      </trkpt>
      <trkpt lat="42.34703" lon="9.41861">
        <ele>711</ele>
        <time>2026-05-14T13:02:45+00:00</time>
      </trkpt>
      <trkpt lat="42.34709" lon="9.41839">
        <ele>715</ele>
        <time>2026-05-14T13:02:46+00:00</time>
      </trkpt>
      <trkpt lat="42.34715" lon="9.41834">
        <ele>717</ele>
        <time>2026-05-14T13:02:47+00:00</time>
      </trkpt>
      <trkpt lat="42.34727" lon="9.41834">
        <ele>722</ele>
        <time>2026-05-14T13:02:48+00:00</time>
      </trkpt>
      <trkpt lat="42.3473" lon="9.41831">
        <ele>723</ele>
        <time>2026-05-14T13:02:49+00:00</time>
      </trkpt>
      <trkpt lat="42.34726" lon="9.41826">
        <ele>722</ele>
        <time>2026-05-14T13:02:50+00:00</time>
      </trkpt>
      <trkpt lat="42.3473" lon="9.41818">
        <ele>724</ele>
        <time>2026-05-14T13:02:51+00:00</time>
      </trkpt>
      <trkpt lat="42.34736" lon="9.41813">
        <ele>726</ele>
        <time>2026-05-14T13:02:52+00:00</time>
      </trkpt>
      <trkpt lat="42.34736" lon="9.41802">
        <ele>727</ele>
        <time>2026-05-14T13:02:53+00:00</time>
      </trkpt>
      <trkpt lat="42.34752" lon="9.41783">
        <ele>733</ele>
        <time>2026-05-14T13:02:54+00:00</time>
      </trkpt>
      <trkpt lat="42.34749" lon="9.41781">
        <ele>732</ele>
        <time>2026-05-14T13:02:55+00:00</time>
      </trkpt>
      <trkpt lat="42.34751" lon="9.41777">
        <ele>733</ele>
        <time>2026-05-14T13:02:56+00:00</time>
      </trkpt>
      <trkpt lat="42.34766" lon="9.41775">
        <ele>734</ele>
        <time>2026-05-14T13:02:57+00:00</time>
      </trkpt>
      <trkpt lat="42.34766" lon="9.41771">
        <ele>734</ele>
        <time>2026-05-14T13:02:58+00:00</time>
      </trkpt>
      <trkpt lat="42.34772" lon="9.41772">
        <ele>735</ele>
        <time>2026-05-14T13:02:59+00:00</time>
      </trkpt>
      <trkpt lat="42.34777" lon="9.41776">
        <ele>735</ele>
        <time>2026-05-14T13:03:00+00:00</time>
      </trkpt>
      <trkpt lat="42.34784" lon="9.4179">
        <ele>736</ele>
        <time>2026-05-14T13:03:01+00:00</time>
      </trkpt>
      <trkpt lat="42.34802" lon="9.41795">
        <ele>739</ele>
        <time>2026-05-14T13:03:02+00:00</time>
      </trkpt>
      <trkpt lat="42.34813" lon="9.41801">
        <ele>742</ele>
        <time>2026-05-14T13:03:03+00:00</time>
      </trkpt>
      <trkpt lat="42.34832" lon="9.41801">
        <ele>745</ele>
        <time>2026-05-14T13:03:04+00:00</time>
      </trkpt>
      <trkpt lat="42.3484" lon="9.41804">
        <ele>747</ele>
        <time>2026-05-14T13:03:05+00:00</time>
      </trkpt>
      <trkpt lat="42.34847" lon="9.41811">
        <ele>750</ele>
        <time>2026-05-14T13:03:06+00:00</time>
      </trkpt>
      <trkpt lat="42.34848" lon="9.41816">
        <ele>751</ele>
        <time>2026-05-14T13:03:07+00:00</time>
      </trkpt>
      <trkpt lat="42.3486" lon="9.41828">
        <ele>756</ele>
        <time>2026-05-14T13:03:08+00:00</time>
      </trkpt>
      <trkpt lat="42.34878" lon="9.41834">
        <ele>761</ele>
        <time>2026-05-14T13:03:09+00:00</time>
      </trkpt>
      <trkpt lat="42.34864" lon="9.4185">
        <ele>759</ele>
        <time>2026-05-14T13:03:10+00:00</time>
      </trkpt>
      <trkpt lat="42.34864" lon="9.41856">
        <ele>759</ele>
        <time>2026-05-14T13:03:11+00:00</time>
      </trkpt>
      <trkpt lat="42.34882" lon="9.41858">
        <ele>764</ele>
        <time>2026-05-14T13:03:12+00:00</time>
      </trkpt>
      <trkpt lat="42.34889" lon="9.41862">
        <ele>766</ele>
        <time>2026-05-14T13:03:13+00:00</time>
      </trkpt>
      <trkpt lat="42.34904" lon="9.41864">
        <ele>770</ele>
        <time>2026-05-14T13:03:14+00:00</time>
      </trkpt>
      <trkpt lat="42.34911" lon="9.41859">
        <ele>771</ele>
        <time>2026-05-14T13:03:15+00:00</time>
      </trkpt>
      <trkpt lat="42.34913" lon="9.41862">
        <ele>772</ele>
        <time>2026-05-14T13:03:16+00:00</time>
      </trkpt>
      <trkpt lat="42.3495" lon="9.41838">
        <ele>776</ele>
        <time>2026-05-14T13:03:17+00:00</time>
      </trkpt>
    </trkseg>
  </trk>
</gpx>
