<?xml version="1.0" encoding="UTF-8" ?>
<gpx version="1.1" xmlns:xsi="http://www.w3.org/2001/XMLSchema-instance"
    xmlns="http://www.topografix.com/GPX/1/1"
    xsi:schemaLocation="http://www.topografix.com/GPX/1/1 http://www.topografix.com/GPX/1/1/gpx.xsd"
    creator="Openrunner - https://www.openrunner.com" >	<trk>
	                   <name>Entre Montaiguet et Malouesse-23213959</name>
						<trkseg>
					<trkpt lat="43.489200" lon="5.467920">
						<ele>303</ele>
						<time>2026-05-01T09:41:39Z</time>
					</trkpt>
					<trkpt lat="43.489120" lon="5.467800">
						<ele>303</ele>
						<time>2026-05-01T09:41:55Z</time>
					</trkpt>
					<trkpt lat="43.489090" lon="5.467530">
						<ele>303</ele>
						<time>2026-05-01T09:42:21Z</time>
					</trkpt>
					<trkpt lat="43.488990" lon="5.467230">
						<ele>303</ele>
						<time>2026-05-01T09:42:53Z</time>
					</trkpt>
					<trkpt lat="43.488920" lon="5.467110">
						<ele>303</ele>
						<time>2026-05-01T09:43:08Z</time>
					</trkpt>
					<trkpt lat="43.488840" lon="5.467040">
						<ele>304</ele>
						<time>2026-05-01T09:43:21Z</time>
					</trkpt>
					<trkpt lat="43.488610" lon="5.466910">
						<ele>304</ele>
						<time>2026-05-01T09:43:54Z</time>
					</trkpt>
					<trkpt lat="43.488480" lon="5.466790">
						<ele>305</ele>
						<time>2026-05-01T09:44:15Z</time>
					</trkpt>
					<trkpt lat="43.488380" lon="5.466640">
						<ele>307</ele>
						<time>2026-05-01T09:44:35Z</time>
					</trkpt>
					<trkpt lat="43.487920" lon="5.465800">
						<ele>303</ele>
						<time>2026-05-01T09:46:16Z</time>
					</trkpt>
					<trkpt lat="43.487840" lon="5.465680">
						<ele>302</ele>
						<time>2026-05-01T09:46:32Z</time>
					</trkpt>
					<trkpt lat="43.487770" lon="5.465580">
						<ele>302</ele>
						<time>2026-05-01T09:46:46Z</time>
					</trkpt>
					<trkpt lat="43.487630" lon="5.465370">
						<ele>301</ele>
						<time>2026-05-01T09:47:13Z</time>
					</trkpt>
					<trkpt lat="43.487530" lon="5.465130">
						<ele>301</ele>
						<time>2026-05-01T09:47:40Z</time>
					</trkpt>
					<trkpt lat="43.487340" lon="5.464710">
						<ele>299</ele>
						<time>2026-05-01T09:48:28Z</time>
					</trkpt>
					<trkpt lat="43.487180" lon="5.464450">
						<ele>297</ele>
						<time>2026-05-01T09:49:01Z</time>
					</trkpt>
					<trkpt lat="43.487040" lon="5.464270">
						<ele>296</ele>
						<time>2026-05-01T09:49:27Z</time>
					</trkpt>
					<trkpt lat="43.486810" lon="5.464080">
						<ele>294</ele>
						<time>2026-05-01T09:50:02Z</time>
					</trkpt>
					<trkpt lat="43.486600" lon="5.463930">
						<ele>294</ele>
						<time>2026-05-01T09:50:34Z</time>
					</trkpt>
					<trkpt lat="43.486310" lon="5.463790">
						<ele>295</ele>
						<time>2026-05-01T09:51:15Z</time>
					</trkpt>
					<trkpt lat="43.485920" lon="5.463460">
						<ele>299</ele>
						<time>2026-05-01T09:52:16Z</time>
					</trkpt>
					<trkpt lat="43.485720" lon="5.463310">
						<ele>300</ele>
						<time>2026-05-01T09:52:46Z</time>
					</trkpt>
					<trkpt lat="43.485400" lon="5.463000">
						<ele>298</ele>
						<time>2026-05-01T09:53:39Z</time>
					</trkpt>
					<trkpt lat="43.485160" lon="5.462820">
						<ele>297</ele>
						<time>2026-05-01T09:54:15Z</time>
					</trkpt>
					<trkpt lat="43.484440" lon="5.462150">
						<ele>294</ele>
						<time>2026-05-01T09:56:11Z</time>
					</trkpt>
					<trkpt lat="43.484070" lon="5.461800">
						<ele>294</ele>
						<time>2026-05-01T09:57:11Z</time>
					</trkpt>
					<trkpt lat="43.483440" lon="5.460920">
						<ele>297</ele>
						<time>2026-05-01T09:59:11Z</time>
					</trkpt>
					<trkpt lat="43.482970" lon="5.460820">
						<ele>295</ele>
						<time>2026-05-01T10:00:14Z</time>
					</trkpt>
					<trkpt lat="43.482370" lon="5.460240">
						<ele>292</ele>
						<time>2026-05-01T10:01:52Z</time>
					</trkpt>
					<trkpt lat="43.482560" lon="5.459950">
						<ele>298</ele>
						<time>2026-05-01T10:02:30Z</time>
					</trkpt>
					<trkpt lat="43.482540" lon="5.459580">
						<ele>298</ele>
						<time>2026-05-01T10:03:06Z</time>
					</trkpt>
					<trkpt lat="43.482250" lon="5.459010">
						<ele>295</ele>
						<time>2026-05-01T10:04:13Z</time>
					</trkpt>
					<trkpt lat="43.482230" lon="5.458980">
						<ele>295</ele>
						<time>2026-05-01T10:04:17Z</time>
					</trkpt>
					<trkpt lat="43.482200" lon="5.458840">
						<ele>295</ele>
						<time>2026-05-01T10:04:31Z</time>
					</trkpt>
					<trkpt lat="43.482170" lon="5.458750">
						<ele>295</ele>
						<time>2026-05-01T10:04:41Z</time>
					</trkpt>
					<trkpt lat="43.482030" lon="5.458540">
						<ele>295</ele>
						<time>2026-05-01T10:05:08Z</time>
					</trkpt>
					<trkpt lat="43.481950" lon="5.458430">
						<ele>295</ele>
						<time>2026-05-01T10:05:23Z</time>
					</trkpt>
					<trkpt lat="43.481890" lon="5.458330">
						<ele>295</ele>
						<time>2026-05-01T10:05:36Z</time>
					</trkpt>
					<trkpt lat="43.481770" lon="5.458210">
						<ele>295</ele>
						<time>2026-05-01T10:05:56Z</time>
					</trkpt>
					<trkpt lat="43.481890" lon="5.458260">
						<ele>295</ele>
						<time>2026-05-01T10:06:12Z</time>
					</trkpt>
					<trkpt lat="43.481970" lon="5.458260">
						<ele>295</ele>
						<time>2026-05-01T10:06:23Z</time>
					</trkpt>
					<trkpt lat="43.482030" lon="5.458230">
						<ele>295</ele>
						<time>2026-05-01T10:06:32Z</time>
					</trkpt>
					<trkpt lat="43.482090" lon="5.458190">
						<ele>294</ele>
						<time>2026-05-01T10:06:40Z</time>
					</trkpt>
					<trkpt lat="43.482280" lon="5.457980">
						<ele>293</ele>
						<time>2026-05-01T10:07:13Z</time>
					</trkpt>
					<trkpt lat="43.482470" lon="5.457790">
						<ele>291</ele>
						<time>2026-05-01T10:07:44Z</time>
					</trkpt>
					<trkpt lat="43.482610" lon="5.457690">
						<ele>290</ele>
						<time>2026-05-01T10:08:05Z</time>
					</trkpt>
					<trkpt lat="43.482700" lon="5.457580">
						<ele>288</ele>
						<time>2026-05-01T10:08:21Z</time>
					</trkpt>
					<trkpt lat="43.482730" lon="5.457520">
						<ele>288</ele>
						<time>2026-05-01T10:08:28Z</time>
					</trkpt>
					<trkpt lat="43.482800" lon="5.457380">
						<ele>286</ele>
						<time>2026-05-01T10:08:45Z</time>
					</trkpt>
					<trkpt lat="43.483140" lon="5.457060">
						<ele>282</ele>
						<time>2026-05-01T10:09:40Z</time>
					</trkpt>
					<trkpt lat="43.483330" lon="5.456860">
						<ele>281</ele>
						<time>2026-05-01T10:10:12Z</time>
					</trkpt>
					<trkpt lat="43.483470" lon="5.456750">
						<ele>280</ele>
						<time>2026-05-01T10:10:33Z</time>
					</trkpt>
					<trkpt lat="43.483640" lon="5.456640">
						<ele>281</ele>
						<time>2026-05-01T10:10:58Z</time>
					</trkpt>
					<trkpt lat="43.484250" lon="5.456390">
						<ele>287</ele>
						<time>2026-05-01T10:12:23Z</time>
					</trkpt>
					<trkpt lat="43.484410" lon="5.456340">
						<ele>289</ele>
						<time>2026-05-01T10:12:45Z</time>
					</trkpt>
					<trkpt lat="43.484810" lon="5.456260">
						<ele>294</ele>
						<time>2026-05-01T10:13:39Z</time>
					</trkpt>
					<trkpt lat="43.485090" lon="5.456150">
						<ele>297</ele>
						<time>2026-05-01T10:14:18Z</time>
					</trkpt>
					<trkpt lat="43.485220" lon="5.456070">
						<ele>298</ele>
						<time>2026-05-01T10:14:37Z</time>
					</trkpt>
					<trkpt lat="43.485410" lon="5.455900">
						<ele>300</ele>
						<time>2026-05-01T10:15:07Z</time>
					</trkpt>
					<trkpt lat="43.485620" lon="5.455660">
						<ele>300</ele>
						<time>2026-05-01T10:15:44Z</time>
					</trkpt>
					<trkpt lat="43.485710" lon="5.455510">
						<ele>299</ele>
						<time>2026-05-01T10:16:02Z</time>
					</trkpt>
					<trkpt lat="43.485660" lon="5.455340">
						<ele>299</ele>
						<time>2026-05-01T10:16:20Z</time>
					</trkpt>
					<trkpt lat="43.485550" lon="5.455180">
						<ele>298</ele>
						<time>2026-05-01T10:16:42Z</time>
					</trkpt>
					<trkpt lat="43.485440" lon="5.455080">
						<ele>298</ele>
						<time>2026-05-01T10:16:59Z</time>
					</trkpt>
					<trkpt lat="43.484890" lon="5.454670">
						<ele>297</ele>
						<time>2026-05-01T10:18:23Z</time>
					</trkpt>
					<trkpt lat="43.484720" lon="5.454580">
						<ele>297</ele>
						<time>2026-05-01T10:18:47Z</time>
					</trkpt>
					<trkpt lat="43.484540" lon="5.454520">
						<ele>297</ele>
						<time>2026-05-01T10:19:12Z</time>
					</trkpt>
					<trkpt lat="43.484390" lon="5.454450">
						<ele>297</ele>
						<time>2026-05-01T10:19:33Z</time>
					</trkpt>
					<trkpt lat="43.484300" lon="5.454360">
						<ele>297</ele>
						<time>2026-05-01T10:19:48Z</time>
					</trkpt>
					<trkpt lat="43.484160" lon="5.454200">
						<ele>297</ele>
						<time>2026-05-01T10:20:12Z</time>
					</trkpt>
					<trkpt lat="43.484140" lon="5.454110">
						<ele>297</ele>
						<time>2026-05-01T10:20:21Z</time>
					</trkpt>
					<trkpt lat="43.483730" lon="5.453940">
						<ele>302</ele>
						<time>2026-05-01T10:21:18Z</time>
					</trkpt>
					<trkpt lat="43.483490" lon="5.453920">
						<ele>305</ele>
						<time>2026-05-01T10:21:50Z</time>
					</trkpt>
					<trkpt lat="43.483210" lon="5.453970">
						<ele>307</ele>
						<time>2026-05-01T10:22:28Z</time>
					</trkpt>
					<trkpt lat="43.482970" lon="5.454040">
						<ele>308</ele>
						<time>2026-05-01T10:23:01Z</time>
					</trkpt>
					<trkpt lat="43.482810" lon="5.454010">
						<ele>309</ele>
						<time>2026-05-01T10:23:22Z</time>
					</trkpt>
					<trkpt lat="43.482580" lon="5.454000">
						<ele>310</ele>
						<time>2026-05-01T10:23:53Z</time>
					</trkpt>
					<trkpt lat="43.482470" lon="5.453980">
						<ele>311</ele>
						<time>2026-05-01T10:24:08Z</time>
					</trkpt>
					<trkpt lat="43.482300" lon="5.453830">
						<ele>311</ele>
						<time>2026-05-01T10:24:35Z</time>
					</trkpt>
					<trkpt lat="43.481850" lon="5.453590">
						<ele>313</ele>
						<time>2026-05-01T10:25:39Z</time>
					</trkpt>
					<trkpt lat="43.481790" lon="5.453560">
						<ele>313</ele>
						<time>2026-05-01T10:25:47Z</time>
					</trkpt>
					<trkpt lat="43.481580" lon="5.453300">
						<ele>313</ele>
						<time>2026-05-01T10:26:25Z</time>
					</trkpt>
					<trkpt lat="43.481400" lon="5.453130">
						<ele>312</ele>
						<time>2026-05-01T10:26:54Z</time>
					</trkpt>
					<trkpt lat="43.481480" lon="5.453000">
						<ele>312</ele>
						<time>2026-05-01T10:27:11Z</time>
					</trkpt>
					<trkpt lat="43.481320" lon="5.453060">
						<ele>311</ele>
						<time>2026-05-01T10:27:33Z</time>
					</trkpt>
					<trkpt lat="43.481220" lon="5.452970">
						<ele>310</ele>
						<time>2026-05-01T10:27:49Z</time>
					</trkpt>
					<trkpt lat="43.481010" lon="5.452750">
						<ele>309</ele>
						<time>2026-05-01T10:28:24Z</time>
					</trkpt>
					<trkpt lat="43.480840" lon="5.452740">
						<ele>308</ele>
						<time>2026-05-01T10:28:47Z</time>
					</trkpt>
					<trkpt lat="43.480610" lon="5.452650">
						<ele>308</ele>
						<time>2026-05-01T10:29:19Z</time>
					</trkpt>
					<trkpt lat="43.480390" lon="5.452500">
						<ele>307</ele>
						<time>2026-05-01T10:29:51Z</time>
					</trkpt>
					<trkpt lat="43.480210" lon="5.452360">
						<ele>307</ele>
						<time>2026-05-01T10:30:19Z</time>
					</trkpt>
					<trkpt lat="43.480150" lon="5.452310">
						<ele>307</ele>
						<time>2026-05-01T10:30:28Z</time>
					</trkpt>
					<trkpt lat="43.480020" lon="5.452130">
						<ele>308</ele>
						<time>2026-05-01T10:30:53Z</time>
					</trkpt>
					<trkpt lat="43.480080" lon="5.452040">
						<ele>308</ele>
						<time>2026-05-01T10:31:05Z</time>
					</trkpt>
					<trkpt lat="43.480210" lon="5.451870">
						<ele>308</ele>
						<time>2026-05-01T10:31:29Z</time>
					</trkpt>
					<trkpt lat="43.480630" lon="5.451260">
						<ele>306</ele>
						<time>2026-05-01T10:32:50Z</time>
					</trkpt>
					<trkpt lat="43.480820" lon="5.451010">
						<ele>305</ele>
						<time>2026-05-01T10:33:25Z</time>
					</trkpt>
					<trkpt lat="43.480850" lon="5.450970">
						<ele>305</ele>
						<time>2026-05-01T10:33:31Z</time>
					</trkpt>
					<trkpt lat="43.480890" lon="5.450930">
						<ele>305</ele>
						<time>2026-05-01T10:33:37Z</time>
					</trkpt>
					<trkpt lat="43.481010" lon="5.450710">
						<ele>305</ele>
						<time>2026-05-01T10:34:04Z</time>
					</trkpt>
					<trkpt lat="43.481360" lon="5.450270">
						<ele>305</ele>
						<time>2026-05-01T10:35:07Z</time>
					</trkpt>
					<trkpt lat="43.481580" lon="5.449920">
						<ele>305</ele>
						<time>2026-05-01T10:35:52Z</time>
					</trkpt>
					<trkpt lat="43.481900" lon="5.449470">
						<ele>308</ele>
						<time>2026-05-01T10:36:53Z</time>
					</trkpt>
					<trkpt lat="43.482020" lon="5.449330">
						<ele>309</ele>
						<time>2026-05-01T10:37:14Z</time>
					</trkpt>
					<trkpt lat="43.482140" lon="5.449170">
						<ele>309</ele>
						<time>2026-05-01T10:37:36Z</time>
					</trkpt>
					<trkpt lat="43.482210" lon="5.449090">
						<ele>309</ele>
						<time>2026-05-01T10:37:48Z</time>
					</trkpt>
					<trkpt lat="43.482310" lon="5.448920">
						<ele>310</ele>
						<time>2026-05-01T10:38:10Z</time>
					</trkpt>
					<trkpt lat="43.482400" lon="5.448770">
						<ele>310</ele>
						<time>2026-05-01T10:38:28Z</time>
					</trkpt>
					<trkpt lat="43.482520" lon="5.448670">
						<ele>310</ele>
						<time>2026-05-01T10:38:47Z</time>
					</trkpt>
					<trkpt lat="43.482590" lon="5.448490">
						<ele>309</ele>
						<time>2026-05-01T10:39:07Z</time>
					</trkpt>
					<trkpt lat="43.482790" lon="5.448250">
						<ele>309</ele>
						<time>2026-05-01T10:39:42Z</time>
					</trkpt>
					<trkpt lat="43.482920" lon="5.448070">
						<ele>309</ele>
						<time>2026-05-01T10:40:07Z</time>
					</trkpt>
					<trkpt lat="43.483120" lon="5.447780">
						<ele>308</ele>
						<time>2026-05-01T10:40:46Z</time>
					</trkpt>
					<trkpt lat="43.483340" lon="5.447520">
						<ele>307</ele>
						<time>2026-05-01T10:41:24Z</time>
					</trkpt>
					<trkpt lat="43.483490" lon="5.447240">
						<ele>306</ele>
						<time>2026-05-01T10:41:58Z</time>
					</trkpt>
					<trkpt lat="43.483800" lon="5.446870">
						<ele>304</ele>
						<time>2026-05-01T10:42:53Z</time>
					</trkpt>
					<trkpt lat="43.483960" lon="5.446610">
						<ele>303</ele>
						<time>2026-05-01T10:43:26Z</time>
					</trkpt>
					<trkpt lat="43.484040" lon="5.446550">
						<ele>303</ele>
						<time>2026-05-01T10:43:38Z</time>
					</trkpt>
					<trkpt lat="43.484150" lon="5.446520">
						<ele>302</ele>
						<time>2026-05-01T10:43:53Z</time>
					</trkpt>
					<trkpt lat="43.484310" lon="5.446500">
						<ele>302</ele>
						<time>2026-05-01T10:44:14Z</time>
					</trkpt>
					<trkpt lat="43.484510" lon="5.446520">
						<ele>300</ele>
						<time>2026-05-01T10:44:41Z</time>
					</trkpt>
					<trkpt lat="43.484630" lon="5.446590">
						<ele>299</ele>
						<time>2026-05-01T10:44:58Z</time>
					</trkpt>
					<trkpt lat="43.484780" lon="5.446730">
						<ele>298</ele>
						<time>2026-05-01T10:45:23Z</time>
					</trkpt>
					<trkpt lat="43.485040" lon="5.446910">
						<ele>296</ele>
						<time>2026-05-01T10:46:01Z</time>
					</trkpt>
					<trkpt lat="43.485090" lon="5.446970">
						<ele>295</ele>
						<time>2026-05-01T10:46:10Z</time>
					</trkpt>
					<trkpt lat="43.485150" lon="5.447070">
						<ele>294</ele>
						<time>2026-05-01T10:46:23Z</time>
					</trkpt>
					<trkpt lat="43.485230" lon="5.447270">
						<ele>292</ele>
						<time>2026-05-01T10:46:45Z</time>
					</trkpt>
					<trkpt lat="43.485290" lon="5.447320">
						<ele>291</ele>
						<time>2026-05-01T10:46:54Z</time>
					</trkpt>
					<trkpt lat="43.485460" lon="5.447410">
						<ele>287</ele>
						<time>2026-05-01T10:47:19Z</time>
					</trkpt>
					<trkpt lat="43.485530" lon="5.447520">
						<ele>285</ele>
						<time>2026-05-01T10:47:33Z</time>
					</trkpt>
					<trkpt lat="43.485560" lon="5.447710">
						<ele>286</ele>
						<time>2026-05-01T10:47:52Z</time>
					</trkpt>
					<trkpt lat="43.485600" lon="5.447770">
						<ele>286</ele>
						<time>2026-05-01T10:48:00Z</time>
					</trkpt>
					<trkpt lat="43.485670" lon="5.447800">
						<ele>286</ele>
						<time>2026-05-01T10:48:09Z</time>
					</trkpt>
					<trkpt lat="43.485750" lon="5.447780">
						<ele>285</ele>
						<time>2026-05-01T10:48:20Z</time>
					</trkpt>
					<trkpt lat="43.486120" lon="5.447610">
						<ele>281</ele>
						<time>2026-05-01T10:49:12Z</time>
					</trkpt>
					<trkpt lat="43.486260" lon="5.447600">
						<ele>280</ele>
						<time>2026-05-01T10:49:31Z</time>
					</trkpt>
					<trkpt lat="43.486410" lon="5.447620">
						<ele>279</ele>
						<time>2026-05-01T10:49:51Z</time>
					</trkpt>
					<trkpt lat="43.486540" lon="5.447680">
						<ele>278</ele>
						<time>2026-05-01T10:50:09Z</time>
					</trkpt>
					<trkpt lat="43.486670" lon="5.447800">
						<ele>277</ele>
						<time>2026-05-01T10:50:30Z</time>
					</trkpt>
					<trkpt lat="43.486820" lon="5.447990">
						<ele>274</ele>
						<time>2026-05-01T10:50:57Z</time>
					</trkpt>
					<trkpt lat="43.487260" lon="5.448340">
						<ele>264</ele>
						<time>2026-05-01T10:52:05Z</time>
					</trkpt>
					<trkpt lat="43.487440" lon="5.448430">
						<ele>261</ele>
						<time>2026-05-01T10:52:31Z</time>
					</trkpt>
					<trkpt lat="43.487740" lon="5.448510">
						<ele>259</ele>
						<time>2026-05-01T10:53:12Z</time>
					</trkpt>
					<trkpt lat="43.487730" lon="5.448620">
						<ele>260</ele>
						<time>2026-05-01T10:53:22Z</time>
					</trkpt>
					<trkpt lat="43.487760" lon="5.448810">
						<ele>261</ele>
						<time>2026-05-01T10:53:41Z</time>
					</trkpt>
					<trkpt lat="43.487800" lon="5.448930">
						<ele>261</ele>
						<time>2026-05-01T10:53:54Z</time>
					</trkpt>
					<trkpt lat="43.487730" lon="5.449100">
						<ele>262</ele>
						<time>2026-05-01T10:54:13Z</time>
					</trkpt>
					<trkpt lat="43.487690" lon="5.449270">
						<ele>262</ele>
						<time>2026-05-01T10:54:30Z</time>
					</trkpt>
					<trkpt lat="43.487680" lon="5.449440">
						<ele>263</ele>
						<time>2026-05-01T10:54:47Z</time>
					</trkpt>
					<trkpt lat="43.487640" lon="5.449510">
						<ele>264</ele>
						<time>2026-05-01T10:54:55Z</time>
					</trkpt>
					<trkpt lat="43.487580" lon="5.449530">
						<ele>264</ele>
						<time>2026-05-01T10:55:03Z</time>
					</trkpt>
					<trkpt lat="43.487520" lon="5.449590">
						<ele>264</ele>
						<time>2026-05-01T10:55:13Z</time>
					</trkpt>
					<trkpt lat="43.487480" lon="5.449990">
						<ele>266</ele>
						<time>2026-05-01T10:55:52Z</time>
					</trkpt>
					<trkpt lat="43.487610" lon="5.449660">
						<ele>265</ele>
						<time>2026-05-01T10:56:29Z</time>
					</trkpt>
					<trkpt lat="43.487600" lon="5.449480">
						<ele>263</ele>
						<time>2026-05-01T10:56:46Z</time>
					</trkpt>
					<trkpt lat="43.487230" lon="5.449970">
						<ele>270</ele>
						<time>2026-05-01T10:57:55Z</time>
					</trkpt>
					<trkpt lat="43.486970" lon="5.450510">
						<ele>275</ele>
						<time>2026-05-01T10:58:58Z</time>
					</trkpt>
					<trkpt lat="43.486830" lon="5.450890">
						<ele>276</ele>
						<time>2026-05-01T10:59:39Z</time>
					</trkpt>
					<trkpt lat="43.486750" lon="5.451020">
						<ele>277</ele>
						<time>2026-05-01T10:59:55Z</time>
					</trkpt>
					<trkpt lat="43.486620" lon="5.451180">
						<ele>278</ele>
						<time>2026-05-01T11:00:19Z</time>
					</trkpt>
					<trkpt lat="43.486240" lon="5.451810">
						<ele>284</ele>
						<time>2026-05-01T11:01:38Z</time>
					</trkpt>
					<trkpt lat="43.486030" lon="5.452070">
						<ele>283</ele>
						<time>2026-05-01T11:02:16Z</time>
					</trkpt>
					<trkpt lat="43.485810" lon="5.452190">
						<ele>282</ele>
						<time>2026-05-01T11:02:47Z</time>
					</trkpt>
					<trkpt lat="43.485700" lon="5.452280">
						<ele>282</ele>
						<time>2026-05-01T11:03:04Z</time>
					</trkpt>
					<trkpt lat="43.485550" lon="5.452540">
						<ele>283</ele>
						<time>2026-05-01T11:03:36Z</time>
					</trkpt>
					<trkpt lat="43.485500" lon="5.452600">
						<ele>283</ele>
						<time>2026-05-01T11:03:45Z</time>
					</trkpt>
					<trkpt lat="43.485300" lon="5.452740">
						<ele>286</ele>
						<time>2026-05-01T11:04:15Z</time>
					</trkpt>
					<trkpt lat="43.485140" lon="5.452900">
						<ele>288</ele>
						<time>2026-05-01T11:04:41Z</time>
					</trkpt>
					<trkpt lat="43.485030" lon="5.453100">
						<ele>289</ele>
						<time>2026-05-01T11:05:06Z</time>
					</trkpt>
					<trkpt lat="43.484760" lon="5.453480">
						<ele>292</ele>
						<time>2026-05-01T11:05:57Z</time>
					</trkpt>
					<trkpt lat="43.484570" lon="5.453860">
						<ele>295</ele>
						<time>2026-05-01T11:06:42Z</time>
					</trkpt>
					<trkpt lat="43.484310" lon="5.453990">
						<ele>296</ele>
						<time>2026-05-01T11:07:19Z</time>
					</trkpt>
					<trkpt lat="43.484140" lon="5.454110">
						<ele>297</ele>
						<time>2026-05-01T11:07:44Z</time>
					</trkpt>
					<trkpt lat="43.484160" lon="5.454200">
						<ele>297</ele>
						<time>2026-05-01T11:07:53Z</time>
					</trkpt>
					<trkpt lat="43.484300" lon="5.454360">
						<ele>297</ele>
						<time>2026-05-01T11:08:18Z</time>
					</trkpt>
					<trkpt lat="43.484390" lon="5.454450">
						<ele>297</ele>
						<time>2026-05-01T11:08:33Z</time>
					</trkpt>
					<trkpt lat="43.484540" lon="5.454520">
						<ele>297</ele>
						<time>2026-05-01T11:08:54Z</time>
					</trkpt>
					<trkpt lat="43.484720" lon="5.454580">
						<ele>297</ele>
						<time>2026-05-01T11:09:18Z</time>
					</trkpt>
					<trkpt lat="43.484890" lon="5.454670">
						<ele>297</ele>
						<time>2026-05-01T11:09:43Z</time>
					</trkpt>
					<trkpt lat="43.485440" lon="5.455080">
						<ele>298</ele>
						<time>2026-05-01T11:11:06Z</time>
					</trkpt>
					<trkpt lat="43.485550" lon="5.455180">
						<ele>298</ele>
						<time>2026-05-01T11:11:24Z</time>
					</trkpt>
					<trkpt lat="43.485660" lon="5.455340">
						<ele>299</ele>
						<time>2026-05-01T11:11:45Z</time>
					</trkpt>
					<trkpt lat="43.485710" lon="5.455510">
						<ele>299</ele>
						<time>2026-05-01T11:12:03Z</time>
					</trkpt>
					<trkpt lat="43.485620" lon="5.455660">
						<ele>300</ele>
						<time>2026-05-01T11:12:22Z</time>
					</trkpt>
					<trkpt lat="43.485410" lon="5.455900">
						<ele>300</ele>
						<time>2026-05-01T11:12:58Z</time>
					</trkpt>
					<trkpt lat="43.485220" lon="5.456070">
						<ele>298</ele>
						<time>2026-05-01T11:13:28Z</time>
					</trkpt>
					<trkpt lat="43.485090" lon="5.456150">
						<ele>297</ele>
						<time>2026-05-01T11:13:47Z</time>
					</trkpt>
					<trkpt lat="43.484810" lon="5.456260">
						<ele>294</ele>
						<time>2026-05-01T11:14:26Z</time>
					</trkpt>
					<trkpt lat="43.484410" lon="5.456340">
						<ele>289</ele>
						<time>2026-05-01T11:15:20Z</time>
					</trkpt>
					<trkpt lat="43.484250" lon="5.456390">
						<ele>287</ele>
						<time>2026-05-01T11:15:42Z</time>
					</trkpt>
					<trkpt lat="43.483640" lon="5.456640">
						<ele>281</ele>
						<time>2026-05-01T11:17:07Z</time>
					</trkpt>
					<trkpt lat="43.483470" lon="5.456750">
						<ele>280</ele>
						<time>2026-05-01T11:17:32Z</time>
					</trkpt>
					<trkpt lat="43.483350" lon="5.456840">
						<ele>281</ele>
						<time>2026-05-01T11:17:50Z</time>
					</trkpt>
					<trkpt lat="43.483010" lon="5.457210">
						<ele>283</ele>
						<time>2026-05-01T11:18:48Z</time>
					</trkpt>
					<trkpt lat="43.483530" lon="5.457550">
						<ele>282</ele>
						<time>2026-05-01T11:20:05Z</time>
					</trkpt>
					<trkpt lat="43.483660" lon="5.457730">
						<ele>283</ele>
						<time>2026-05-01T11:20:29Z</time>
					</trkpt>
					<trkpt lat="43.483580" lon="5.458160">
						<ele>288</ele>
						<time>2026-05-01T11:21:12Z</time>
					</trkpt>
					<trkpt lat="43.483440" lon="5.458420">
						<ele>291</ele>
						<time>2026-05-01T11:21:44Z</time>
					</trkpt>
					<trkpt lat="43.483630" lon="5.458970">
						<ele>294</ele>
						<time>2026-05-01T11:22:43Z</time>
					</trkpt>
					<trkpt lat="43.483490" lon="5.459200">
						<ele>296</ele>
						<time>2026-05-01T11:23:12Z</time>
					</trkpt>
					<trkpt lat="43.483390" lon="5.459590">
						<ele>298</ele>
						<time>2026-05-01T11:23:52Z</time>
					</trkpt>
					<trkpt lat="43.483200" lon="5.459830">
						<ele>299</ele>
						<time>2026-05-01T11:24:26Z</time>
					</trkpt>
					<trkpt lat="43.483260" lon="5.460440">
						<ele>298</ele>
						<time>2026-05-01T11:25:26Z</time>
					</trkpt>
					<trkpt lat="43.483270" lon="5.460500">
						<ele>298</ele>
						<time>2026-05-01T11:25:32Z</time>
					</trkpt>
					<trkpt lat="43.483340" lon="5.460710">
						<ele>298</ele>
						<time>2026-05-01T11:25:54Z</time>
					</trkpt>
					<trkpt lat="43.483480" lon="5.460950">
						<ele>296</ele>
						<time>2026-05-01T11:26:24Z</time>
					</trkpt>
					<trkpt lat="43.483580" lon="5.461100">
						<ele>295</ele>
						<time>2026-05-01T11:26:44Z</time>
					</trkpt>
					<trkpt lat="43.483750" lon="5.461290">
						<ele>294</ele>
						<time>2026-05-01T11:27:13Z</time>
					</trkpt>
					<trkpt lat="43.484030" lon="5.461420">
						<ele>296</ele>
						<time>2026-05-01T11:27:52Z</time>
					</trkpt>
					<trkpt lat="43.484460" lon="5.461550">
						<ele>297</ele>
						<time>2026-05-01T11:28:51Z</time>
					</trkpt>
					<trkpt lat="43.484620" lon="5.461660">
						<ele>297</ele>
						<time>2026-05-01T11:29:15Z</time>
					</trkpt>
					<trkpt lat="43.484710" lon="5.461790">
						<ele>297</ele>
						<time>2026-05-01T11:29:32Z</time>
					</trkpt>
					<trkpt lat="43.484910" lon="5.462420">
						<ele>298</ele>
						<time>2026-05-01T11:30:39Z</time>
					</trkpt>
					<trkpt lat="43.484980" lon="5.462570">
						<ele>298</ele>
						<time>2026-05-01T11:30:56Z</time>
					</trkpt>
					<trkpt lat="43.485070" lon="5.462730">
						<ele>297</ele>
						<time>2026-05-01T11:31:16Z</time>
					</trkpt>
					<trkpt lat="43.485150" lon="5.462810">
						<ele>297</ele>
						<time>2026-05-01T11:31:29Z</time>
					</trkpt>
					<trkpt lat="43.485400" lon="5.463000">
						<ele>298</ele>
						<time>2026-05-01T11:32:07Z</time>
					</trkpt>
					<trkpt lat="43.485720" lon="5.463310">
						<ele>300</ele>
						<time>2026-05-01T11:32:59Z</time>
					</trkpt>
					<trkpt lat="43.485920" lon="5.463460">
						<ele>299</ele>
						<time>2026-05-01T11:33:30Z</time>
					</trkpt>
					<trkpt lat="43.486310" lon="5.463790">
						<ele>295</ele>
						<time>2026-05-01T11:34:31Z</time>
					</trkpt>
					<trkpt lat="43.486600" lon="5.463930">
						<ele>294</ele>
						<time>2026-05-01T11:35:12Z</time>
					</trkpt>
					<trkpt lat="43.486810" lon="5.464080">
						<ele>294</ele>
						<time>2026-05-01T11:35:43Z</time>
					</trkpt>
					<trkpt lat="43.487040" lon="5.464270">
						<ele>296</ele>
						<time>2026-05-01T11:36:19Z</time>
					</trkpt>
					<trkpt lat="43.487180" lon="5.464450">
						<ele>297</ele>
						<time>2026-05-01T11:36:45Z</time>
					</trkpt>
					<trkpt lat="43.487340" lon="5.464710">
						<ele>299</ele>
						<time>2026-05-01T11:37:18Z</time>
					</trkpt>
					<trkpt lat="43.487530" lon="5.465130">
						<ele>301</ele>
						<time>2026-05-01T11:38:06Z</time>
					</trkpt>
					<trkpt lat="43.487630" lon="5.465370">
						<ele>301</ele>
						<time>2026-05-01T11:38:32Z</time>
					</trkpt>
					<trkpt lat="43.487770" lon="5.465580">
						<ele>302</ele>
						<time>2026-05-01T11:39:00Z</time>
					</trkpt>
					<trkpt lat="43.487840" lon="5.465680">
						<ele>302</ele>
						<time>2026-05-01T11:39:13Z</time>
					</trkpt>
					<trkpt lat="43.487920" lon="5.465800">
						<ele>303</ele>
						<time>2026-05-01T11:39:29Z</time>
					</trkpt>
					<trkpt lat="43.488380" lon="5.466640">
						<ele>307</ele>
						<time>2026-05-01T11:41:11Z</time>
					</trkpt>
					<trkpt lat="43.488480" lon="5.466790">
						<ele>305</ele>
						<time>2026-05-01T11:41:31Z</time>
					</trkpt>
					<trkpt lat="43.488610" lon="5.466910">
						<ele>304</ele>
						<time>2026-05-01T11:41:52Z</time>
					</trkpt>
					<trkpt lat="43.488840" lon="5.467040">
						<ele>304</ele>
						<time>2026-05-01T11:42:25Z</time>
					</trkpt>
					<trkpt lat="43.488920" lon="5.467110">
						<ele>303</ele>
						<time>2026-05-01T11:42:38Z</time>
					</trkpt>
					<trkpt lat="43.488990" lon="5.467230">
						<ele>303</ele>
						<time>2026-05-01T11:42:52Z</time>
					</trkpt>
					<trkpt lat="43.489090" lon="5.467530">
						<ele>303</ele>
						<time>2026-05-01T11:43:24Z</time>
					</trkpt>
					<trkpt lat="43.489120" lon="5.467800">
						<ele>303</ele>
						<time>2026-05-01T11:43:51Z</time>
					</trkpt>
					<trkpt lat="43.489200" lon="5.467920">
						<ele>303</ele>
						<time>2026-05-01T11:44:07Z</time>
					</trkpt>
					<trkpt lat="43.489280" lon="5.468090">
						<ele>302</ele>
						<time>2026-05-01T11:44:26Z</time>
					</trkpt>
					<trkpt lat="43.489280" lon="5.468050">
						<ele>302</ele>
						<time>2026-05-01T11:44:30Z</time>
					</trkpt>
					<trkpt lat="43.489330" lon="5.467950">
						<ele>302</ele>
						<time>2026-05-01T11:44:42Z</time>
					</trkpt>
					<trkpt lat="43.489380" lon="5.467880">
						<ele>301</ele>
						<time>2026-05-01T11:44:51Z</time>
					</trkpt>
					</trkseg>
				</trk>
			</gpx>