<?xml version="1.0" encoding="UTF-8"?>
<gpx xmlns="http://www.topografix.com/GPX/1/1" xmlns:xsi="http://www.w3.org/2001/XMLSchema-instance" version="1.1" creator="phpGPX/1.3.0" xsi:schemaLocation="http://www.topografix.com/GPX/1/1 http://www.topografix.com/GPX/1/1/gpx.xsd">
  <metadata>
    <time>2026-05-14T10:01:36+00:00</time>
  </metadata>
  <trk>
    <name>Extrême Vertical d’Auris</name>
    <trkseg>
      <trkpt lat="45.02896" lon="6.08068">
        <ele>789</ele>
        <time>2026-05-14T10:01:37+00:00</time>
      </trkpt>
      <trkpt lat="45.02896" lon="6.08068">
        <ele>789</ele>
        <time>2026-05-14T10:01:38+00:00</time>
      </trkpt>
      <trkpt lat="45.02901" lon="6.08064">
        <ele>790</ele>
        <time>2026-05-14T10:01:39+00:00</time>
      </trkpt>
      <trkpt lat="45.0289" lon="6.08031">
        <ele>791</ele>
        <time>2026-05-14T10:01:40+00:00</time>
      </trkpt>
      <trkpt lat="45.02877" lon="6.07997">
        <ele>788</ele>
        <time>2026-05-14T10:01:41+00:00</time>
      </trkpt>
      <trkpt lat="45.02863" lon="6.07969">
        <ele>779</ele>
        <time>2026-05-14T10:01:42+00:00</time>
      </trkpt>
      <trkpt lat="45.02878" lon="6.07985">
        <ele>786</ele>
        <time>2026-05-14T10:01:43+00:00</time>
      </trkpt>
      <trkpt lat="45.02869" lon="6.07958">
        <ele>778</ele>
        <time>2026-05-14T10:01:44+00:00</time>
      </trkpt>
      <trkpt lat="45.02868" lon="6.07947">
        <ele>775</ele>
        <time>2026-05-14T10:01:45+00:00</time>
      </trkpt>
      <trkpt lat="45.02884" lon="6.07974">
        <ele>784</ele>
        <time>2026-05-14T10:01:46+00:00</time>
      </trkpt>
      <trkpt lat="45.02896" lon="6.07977">
        <ele>788</ele>
        <time>2026-05-14T10:01:47+00:00</time>
      </trkpt>
      <trkpt lat="45.02906" lon="6.07975">
        <ele>789</ele>
        <time>2026-05-14T10:01:48+00:00</time>
      </trkpt>
      <trkpt lat="45.02907" lon="6.07971">
        <ele>788</ele>
        <time>2026-05-14T10:01:49+00:00</time>
      </trkpt>
      <trkpt lat="45.02896" lon="6.07965">
        <ele>784</ele>
        <time>2026-05-14T10:01:50+00:00</time>
      </trkpt>
      <trkpt lat="45.02887" lon="6.07961">
        <ele>782</ele>
        <time>2026-05-14T10:01:51+00:00</time>
      </trkpt>
      <trkpt lat="45.02882" lon="6.07952">
        <ele>778</ele>
        <time>2026-05-14T10:01:52+00:00</time>
      </trkpt>
      <trkpt lat="45.02879" lon="6.07941">
        <ele>775</ele>
        <time>2026-05-14T10:01:53+00:00</time>
      </trkpt>
      <trkpt lat="45.02871" lon="6.07932">
        <ele>772</ele>
        <time>2026-05-14T10:01:54+00:00</time>
      </trkpt>
      <trkpt lat="45.02866" lon="6.07922">
        <ele>769</ele>
        <time>2026-05-14T10:01:55+00:00</time>
      </trkpt>
      <trkpt lat="45.02868" lon="6.07919">
        <ele>769</ele>
        <time>2026-05-14T10:01:56+00:00</time>
      </trkpt>
      <trkpt lat="45.02884" lon="6.07932">
        <ele>774</ele>
        <time>2026-05-14T10:01:57+00:00</time>
      </trkpt>
      <trkpt lat="45.02889" lon="6.0794">
        <ele>776</ele>
        <time>2026-05-14T10:01:58+00:00</time>
      </trkpt>
      <trkpt lat="45.02894" lon="6.07942">
        <ele>777</ele>
        <time>2026-05-14T10:01:59+00:00</time>
      </trkpt>
      <trkpt lat="45.02897" lon="6.07941">
        <ele>778</ele>
        <time>2026-05-14T10:02:00+00:00</time>
      </trkpt>
      <trkpt lat="45.02894" lon="6.07931">
        <ele>774</ele>
        <time>2026-05-14T10:02:01+00:00</time>
      </trkpt>
      <trkpt lat="45.02896" lon="6.07929">
        <ele>774</ele>
        <time>2026-05-14T10:02:02+00:00</time>
      </trkpt>
      <trkpt lat="45.02904" lon="6.07935">
        <ele>777</ele>
        <time>2026-05-14T10:02:03+00:00</time>
      </trkpt>
      <trkpt lat="45.02908" lon="6.07932">
        <ele>776</ele>
        <time>2026-05-14T10:02:04+00:00</time>
      </trkpt>
      <trkpt lat="45.02915" lon="6.07942">
        <ele>780</ele>
        <time>2026-05-14T10:02:05+00:00</time>
      </trkpt>
      <trkpt lat="45.02918" lon="6.07942">
        <ele>781</ele>
        <time>2026-05-14T10:02:06+00:00</time>
      </trkpt>
      <trkpt lat="45.02918" lon="6.07931">
        <ele>777</ele>
        <time>2026-05-14T10:02:07+00:00</time>
      </trkpt>
      <trkpt lat="45.02921" lon="6.07931">
        <ele>778</ele>
        <time>2026-05-14T10:02:08+00:00</time>
      </trkpt>
      <trkpt lat="45.02931" lon="6.07943">
        <ele>784</ele>
        <time>2026-05-14T10:02:09+00:00</time>
      </trkpt>
      <trkpt lat="45.02935" lon="6.07941">
        <ele>785</ele>
        <time>2026-05-14T10:02:10+00:00</time>
      </trkpt>
      <trkpt lat="45.02942" lon="6.07919">
        <ele>779</ele>
        <time>2026-05-14T10:02:11+00:00</time>
      </trkpt>
      <trkpt lat="45.02947" lon="6.07922">
        <ele>781</ele>
        <time>2026-05-14T10:02:12+00:00</time>
      </trkpt>
      <trkpt lat="45.02951" lon="6.07939">
        <ele>788</ele>
        <time>2026-05-14T10:02:13+00:00</time>
      </trkpt>
      <trkpt lat="45.02958" lon="6.07927">
        <ele>785</ele>
        <time>2026-05-14T10:02:14+00:00</time>
      </trkpt>
      <trkpt lat="45.02965" lon="6.07939">
        <ele>792</ele>
        <time>2026-05-14T10:02:15+00:00</time>
      </trkpt>
      <trkpt lat="45.02971" lon="6.07933">
        <ele>791</ele>
        <time>2026-05-14T10:02:16+00:00</time>
      </trkpt>
      <trkpt lat="45.02975" lon="6.07943">
        <ele>796</ele>
        <time>2026-05-14T10:02:17+00:00</time>
      </trkpt>
      <trkpt lat="45.02982" lon="6.07936">
        <ele>795</ele>
        <time>2026-05-14T10:02:18+00:00</time>
      </trkpt>
      <trkpt lat="45.02987" lon="6.07946">
        <ele>800</ele>
        <time>2026-05-14T10:02:19+00:00</time>
      </trkpt>
      <trkpt lat="45.02999" lon="6.07955">
        <ele>807</ele>
        <time>2026-05-14T10:02:20+00:00</time>
      </trkpt>
      <trkpt lat="45.03023" lon="6.0796">
        <ele>808</ele>
        <time>2026-05-14T10:02:21+00:00</time>
      </trkpt>
      <trkpt lat="45.03032" lon="6.07967">
        <ele>811</ele>
        <time>2026-05-14T10:02:22+00:00</time>
      </trkpt>
      <trkpt lat="45.0304" lon="6.07976">
        <ele>815</ele>
        <time>2026-05-14T10:02:23+00:00</time>
      </trkpt>
      <trkpt lat="45.03041" lon="6.0798">
        <ele>817</ele>
        <time>2026-05-14T10:02:24+00:00</time>
      </trkpt>
      <trkpt lat="45.03034" lon="6.07995">
        <ele>824</ele>
        <time>2026-05-14T10:02:25+00:00</time>
      </trkpt>
      <trkpt lat="45.0304" lon="6.07993">
        <ele>823</ele>
        <time>2026-05-14T10:02:26+00:00</time>
      </trkpt>
      <trkpt lat="45.0304" lon="6.08004">
        <ele>828</ele>
        <time>2026-05-14T10:02:27+00:00</time>
      </trkpt>
      <trkpt lat="45.03049" lon="6.08012">
        <ele>830</ele>
        <time>2026-05-14T10:02:28+00:00</time>
      </trkpt>
      <trkpt lat="45.03043" lon="6.08016">
        <ele>831</ele>
        <time>2026-05-14T10:02:29+00:00</time>
      </trkpt>
      <trkpt lat="45.03043" lon="6.08018">
        <ele>832</ele>
        <time>2026-05-14T10:02:30+00:00</time>
      </trkpt>
      <trkpt lat="45.03059" lon="6.08021">
        <ele>833</ele>
        <time>2026-05-14T10:02:31+00:00</time>
      </trkpt>
      <trkpt lat="45.03059" lon="6.08026">
        <ele>834</ele>
        <time>2026-05-14T10:02:32+00:00</time>
      </trkpt>
      <trkpt lat="45.03046" lon="6.08027">
        <ele>834</ele>
        <time>2026-05-14T10:02:33+00:00</time>
      </trkpt>
      <trkpt lat="45.03046" lon="6.08032">
        <ele>836</ele>
        <time>2026-05-14T10:02:34+00:00</time>
      </trkpt>
      <trkpt lat="45.03072" lon="6.08058">
        <ele>845</ele>
        <time>2026-05-14T10:02:35+00:00</time>
      </trkpt>
      <trkpt lat="45.03086" lon="6.08068">
        <ele>850</ele>
        <time>2026-05-14T10:02:36+00:00</time>
      </trkpt>
      <trkpt lat="45.03087" lon="6.08071">
        <ele>851</ele>
        <time>2026-05-14T10:02:37+00:00</time>
      </trkpt>
      <trkpt lat="45.03075" lon="6.08078">
        <ele>851</ele>
        <time>2026-05-14T10:02:38+00:00</time>
      </trkpt>
      <trkpt lat="45.03074" lon="6.0808">
        <ele>852</ele>
        <time>2026-05-14T10:02:39+00:00</time>
      </trkpt>
      <trkpt lat="45.03077" lon="6.08083">
        <ele>853</ele>
        <time>2026-05-14T10:02:40+00:00</time>
      </trkpt>
      <trkpt lat="45.03092" lon="6.08095">
        <ele>857</ele>
        <time>2026-05-14T10:02:41+00:00</time>
      </trkpt>
      <trkpt lat="45.03095" lon="6.08099">
        <ele>859</ele>
        <time>2026-05-14T10:02:42+00:00</time>
      </trkpt>
      <trkpt lat="45.03097" lon="6.08101">
        <ele>860</ele>
        <time>2026-05-14T10:02:43+00:00</time>
      </trkpt>
      <trkpt lat="45.03097" lon="6.0811">
        <ele>861</ele>
        <time>2026-05-14T10:02:44+00:00</time>
      </trkpt>
      <trkpt lat="45.03102" lon="6.08116">
        <ele>863</ele>
        <time>2026-05-14T10:02:45+00:00</time>
      </trkpt>
      <trkpt lat="45.03111" lon="6.08123">
        <ele>867</ele>
        <time>2026-05-14T10:02:46+00:00</time>
      </trkpt>
      <trkpt lat="45.03121" lon="6.08124">
        <ele>871</ele>
        <time>2026-05-14T10:02:47+00:00</time>
      </trkpt>
      <trkpt lat="45.03126" lon="6.08121">
        <ele>872</ele>
        <time>2026-05-14T10:02:48+00:00</time>
      </trkpt>
      <trkpt lat="45.03126" lon="6.08126">
        <ele>873</ele>
        <time>2026-05-14T10:02:49+00:00</time>
      </trkpt>
      <trkpt lat="45.03125" lon="6.08144">
        <ele>877</ele>
        <time>2026-05-14T10:02:50+00:00</time>
      </trkpt>
      <trkpt lat="45.03125" lon="6.08159">
        <ele>880</ele>
        <time>2026-05-14T10:02:51+00:00</time>
      </trkpt>
      <trkpt lat="45.03136" lon="6.08142">
        <ele>880</ele>
        <time>2026-05-14T10:02:52+00:00</time>
      </trkpt>
      <trkpt lat="45.03143" lon="6.08135">
        <ele>881</ele>
        <time>2026-05-14T10:02:53+00:00</time>
      </trkpt>
      <trkpt lat="45.03167" lon="6.08125">
        <ele>886</ele>
        <time>2026-05-14T10:02:54+00:00</time>
      </trkpt>
      <trkpt lat="45.03156" lon="6.08141">
        <ele>887</ele>
        <time>2026-05-14T10:02:55+00:00</time>
      </trkpt>
      <trkpt lat="45.03149" lon="6.08161">
        <ele>891</ele>
        <time>2026-05-14T10:02:56+00:00</time>
      </trkpt>
      <trkpt lat="45.03153" lon="6.08179">
        <ele>894</ele>
        <time>2026-05-14T10:02:57+00:00</time>
      </trkpt>
      <trkpt lat="45.03157" lon="6.08164">
        <ele>895</ele>
        <time>2026-05-14T10:02:58+00:00</time>
      </trkpt>
      <trkpt lat="45.03164" lon="6.08194">
        <ele>900</ele>
        <time>2026-05-14T10:02:59+00:00</time>
      </trkpt>
      <trkpt lat="45.03178" lon="6.08239">
        <ele>912</ele>
        <time>2026-05-14T10:03:00+00:00</time>
      </trkpt>
      <trkpt lat="45.032" lon="6.08268">
        <ele>920</ele>
        <time>2026-05-14T10:03:01+00:00</time>
      </trkpt>
      <trkpt lat="45.03214" lon="6.08281">
        <ele>924</ele>
        <time>2026-05-14T10:03:02+00:00</time>
      </trkpt>
      <trkpt lat="45.03227" lon="6.08296">
        <ele>927</ele>
        <time>2026-05-14T10:03:03+00:00</time>
      </trkpt>
      <trkpt lat="45.03236" lon="6.08311">
        <ele>926</ele>
        <time>2026-05-14T10:03:04+00:00</time>
      </trkpt>
      <trkpt lat="45.03247" lon="6.08322">
        <ele>928</ele>
        <time>2026-05-14T10:03:05+00:00</time>
      </trkpt>
      <trkpt lat="45.03261" lon="6.08343">
        <ele>926</ele>
        <time>2026-05-14T10:03:06+00:00</time>
      </trkpt>
      <trkpt lat="45.03303" lon="6.08373">
        <ele>936</ele>
        <time>2026-05-14T10:03:07+00:00</time>
      </trkpt>
      <trkpt lat="45.03305" lon="6.08371">
        <ele>938</ele>
        <time>2026-05-14T10:03:08+00:00</time>
      </trkpt>
      <trkpt lat="45.03273" lon="6.08293">
        <ele>957</ele>
        <time>2026-05-14T10:03:09+00:00</time>
      </trkpt>
      <trkpt lat="45.03264" lon="6.08278">
        <ele>959</ele>
        <time>2026-05-14T10:03:10+00:00</time>
      </trkpt>
      <trkpt lat="45.03244" lon="6.08235">
        <ele>962</ele>
        <time>2026-05-14T10:03:11+00:00</time>
      </trkpt>
      <trkpt lat="45.03246" lon="6.08232">
        <ele>963</ele>
        <time>2026-05-14T10:03:12+00:00</time>
      </trkpt>
      <trkpt lat="45.03289" lon="6.0826">
        <ele>981</ele>
        <time>2026-05-14T10:03:13+00:00</time>
      </trkpt>
      <trkpt lat="45.03312" lon="6.08279">
        <ele>984</ele>
        <time>2026-05-14T10:03:14+00:00</time>
      </trkpt>
      <trkpt lat="45.03336" lon="6.08293">
        <ele>991</ele>
        <time>2026-05-14T10:03:15+00:00</time>
      </trkpt>
      <trkpt lat="45.03363" lon="6.08315">
        <ele>1000</ele>
        <time>2026-05-14T10:03:16+00:00</time>
      </trkpt>
      <trkpt lat="45.03388" lon="6.0833">
        <ele>1007</ele>
        <time>2026-05-14T10:03:17+00:00</time>
      </trkpt>
      <trkpt lat="45.03426" lon="6.0835">
        <ele>1018</ele>
        <time>2026-05-14T10:03:18+00:00</time>
      </trkpt>
      <trkpt lat="45.03443" lon="6.08366">
        <ele>1019</ele>
        <time>2026-05-14T10:03:19+00:00</time>
      </trkpt>
      <trkpt lat="45.03462" lon="6.08378">
        <ele>1022</ele>
        <time>2026-05-14T10:03:20+00:00</time>
      </trkpt>
      <trkpt lat="45.03456" lon="6.08364">
        <ele>1027</ele>
        <time>2026-05-14T10:03:21+00:00</time>
      </trkpt>
      <trkpt lat="45.03458" lon="6.08362">
        <ele>1029</ele>
        <time>2026-05-14T10:03:22+00:00</time>
      </trkpt>
      <trkpt lat="45.03467" lon="6.08368">
        <ele>1031</ele>
        <time>2026-05-14T10:03:23+00:00</time>
      </trkpt>
      <trkpt lat="45.03484" lon="6.08376">
        <ele>1035</ele>
        <time>2026-05-14T10:03:24+00:00</time>
      </trkpt>
      <trkpt lat="45.035" lon="6.08378">
        <ele>1043</ele>
        <time>2026-05-14T10:03:25+00:00</time>
      </trkpt>
      <trkpt lat="45.03514" lon="6.08377">
        <ele>1050</ele>
        <time>2026-05-14T10:03:26+00:00</time>
      </trkpt>
      <trkpt lat="45.03522" lon="6.08379">
        <ele>1053</ele>
        <time>2026-05-14T10:03:27+00:00</time>
      </trkpt>
      <trkpt lat="45.03532" lon="6.08385">
        <ele>1054</ele>
        <time>2026-05-14T10:03:28+00:00</time>
      </trkpt>
      <trkpt lat="45.0354" lon="6.08386">
        <ele>1058</ele>
        <time>2026-05-14T10:03:29+00:00</time>
      </trkpt>
      <trkpt lat="45.0354" lon="6.08382">
        <ele>1060</ele>
        <time>2026-05-14T10:03:30+00:00</time>
      </trkpt>
      <trkpt lat="45.03531" lon="6.08372">
        <ele>1062</ele>
        <time>2026-05-14T10:03:31+00:00</time>
      </trkpt>
      <trkpt lat="45.03527" lon="6.08363">
        <ele>1066</ele>
        <time>2026-05-14T10:03:32+00:00</time>
      </trkpt>
      <trkpt lat="45.0353" lon="6.0836">
        <ele>1070</ele>
        <time>2026-05-14T10:03:33+00:00</time>
      </trkpt>
      <trkpt lat="45.03538" lon="6.08368">
        <ele>1068</ele>
        <time>2026-05-14T10:03:34+00:00</time>
      </trkpt>
      <trkpt lat="45.03554" lon="6.08373">
        <ele>1073</ele>
        <time>2026-05-14T10:03:35+00:00</time>
      </trkpt>
      <trkpt lat="45.03569" lon="6.08383">
        <ele>1074</ele>
        <time>2026-05-14T10:03:36+00:00</time>
      </trkpt>
      <trkpt lat="45.03589" lon="6.08383">
        <ele>1086</ele>
        <time>2026-05-14T10:03:37+00:00</time>
      </trkpt>
      <trkpt lat="45.03597" lon="6.08386">
        <ele>1090</ele>
        <time>2026-05-14T10:03:38+00:00</time>
      </trkpt>
      <trkpt lat="45.03598" lon="6.08382">
        <ele>1093</ele>
        <time>2026-05-14T10:03:39+00:00</time>
      </trkpt>
      <trkpt lat="45.03588" lon="6.0837">
        <ele>1094</ele>
        <time>2026-05-14T10:03:40+00:00</time>
      </trkpt>
      <trkpt lat="45.03566" lon="6.08349">
        <ele>1095</ele>
        <time>2026-05-14T10:03:41+00:00</time>
      </trkpt>
      <trkpt lat="45.03556" lon="6.08338">
        <ele>1097</ele>
        <time>2026-05-14T10:03:42+00:00</time>
      </trkpt>
      <trkpt lat="45.03556" lon="6.08337">
        <ele>1098</ele>
        <time>2026-05-14T10:03:43+00:00</time>
      </trkpt>
      <trkpt lat="45.03592" lon="6.08349">
        <ele>1111</ele>
        <time>2026-05-14T10:03:44+00:00</time>
      </trkpt>
      <trkpt lat="45.03612" lon="6.08359">
        <ele>1120</ele>
        <time>2026-05-14T10:03:45+00:00</time>
      </trkpt>
      <trkpt lat="45.03613" lon="6.08358">
        <ele>1122</ele>
        <time>2026-05-14T10:03:46+00:00</time>
      </trkpt>
      <trkpt lat="45.03603" lon="6.08342">
        <ele>1125</ele>
        <time>2026-05-14T10:03:47+00:00</time>
      </trkpt>
      <trkpt lat="45.03605" lon="6.08341">
        <ele>1127</ele>
        <time>2026-05-14T10:03:48+00:00</time>
      </trkpt>
      <trkpt lat="45.03623" lon="6.08353">
        <ele>1134</ele>
        <time>2026-05-14T10:03:49+00:00</time>
      </trkpt>
      <trkpt lat="45.03624" lon="6.0835">
        <ele>1137</ele>
        <time>2026-05-14T10:03:50+00:00</time>
      </trkpt>
      <trkpt lat="45.03615" lon="6.08339">
        <ele>1137</ele>
        <time>2026-05-14T10:03:51+00:00</time>
      </trkpt>
      <trkpt lat="45.03635" lon="6.08347">
        <ele>1148</ele>
        <time>2026-05-14T10:03:52+00:00</time>
      </trkpt>
      <trkpt lat="45.03637" lon="6.08345">
        <ele>1151</ele>
        <time>2026-05-14T10:03:53+00:00</time>
      </trkpt>
      <trkpt lat="45.03626" lon="6.08336">
        <ele>1149</ele>
        <time>2026-05-14T10:03:54+00:00</time>
      </trkpt>
      <trkpt lat="45.03637" lon="6.08337">
        <ele>1158</ele>
        <time>2026-05-14T10:03:55+00:00</time>
      </trkpt>
      <trkpt lat="45.03649" lon="6.08351">
        <ele>1156</ele>
        <time>2026-05-14T10:03:56+00:00</time>
      </trkpt>
      <trkpt lat="45.03651" lon="6.0835">
        <ele>1159</ele>
        <time>2026-05-14T10:03:57+00:00</time>
      </trkpt>
      <trkpt lat="45.03644" lon="6.08338">
        <ele>1163</ele>
        <time>2026-05-14T10:03:58+00:00</time>
      </trkpt>
      <trkpt lat="45.03655" lon="6.08345">
        <ele>1167</ele>
        <time>2026-05-14T10:03:59+00:00</time>
      </trkpt>
      <trkpt lat="45.03656" lon="6.08343">
        <ele>1169</ele>
        <time>2026-05-14T10:04:00+00:00</time>
      </trkpt>
      <trkpt lat="45.03649" lon="6.08326">
        <ele>1174</ele>
        <time>2026-05-14T10:04:01+00:00</time>
      </trkpt>
      <trkpt lat="45.0366" lon="6.08337">
        <ele>1178</ele>
        <time>2026-05-14T10:04:02+00:00</time>
      </trkpt>
      <trkpt lat="45.0366" lon="6.08333">
        <ele>1181</ele>
        <time>2026-05-14T10:04:03+00:00</time>
      </trkpt>
      <trkpt lat="45.03652" lon="6.08317">
        <ele>1180</ele>
        <time>2026-05-14T10:04:04+00:00</time>
      </trkpt>
      <trkpt lat="45.03658" lon="6.08319">
        <ele>1183</ele>
        <time>2026-05-14T10:04:05+00:00</time>
      </trkpt>
      <trkpt lat="45.03666" lon="6.08328">
        <ele>1187</ele>
        <time>2026-05-14T10:04:06+00:00</time>
      </trkpt>
      <trkpt lat="45.03667" lon="6.08325">
        <ele>1189</ele>
        <time>2026-05-14T10:04:07+00:00</time>
      </trkpt>
      <trkpt lat="45.03663" lon="6.08314">
        <ele>1188</ele>
        <time>2026-05-14T10:04:08+00:00</time>
      </trkpt>
      <trkpt lat="45.0367" lon="6.08324">
        <ele>1190</ele>
        <time>2026-05-14T10:04:09+00:00</time>
      </trkpt>
      <trkpt lat="45.03671" lon="6.08322">
        <ele>1190</ele>
        <time>2026-05-14T10:04:10+00:00</time>
      </trkpt>
      <trkpt lat="45.03666" lon="6.08309">
        <ele>1191</ele>
        <time>2026-05-14T10:04:11+00:00</time>
      </trkpt>
      <trkpt lat="45.03667" lon="6.08307">
        <ele>1192</ele>
        <time>2026-05-14T10:04:12+00:00</time>
      </trkpt>
      <trkpt lat="45.03678" lon="6.08309">
        <ele>1195</ele>
        <time>2026-05-14T10:04:13+00:00</time>
      </trkpt>
      <trkpt lat="45.0368" lon="6.0831">
        <ele>1195</ele>
        <time>2026-05-14T10:04:14+00:00</time>
      </trkpt>
      <trkpt lat="45.03681" lon="6.08319">
        <ele>1194</ele>
        <time>2026-05-14T10:04:15+00:00</time>
      </trkpt>
      <trkpt lat="45.03679" lon="6.08328">
        <ele>1191</ele>
        <time>2026-05-14T10:04:16+00:00</time>
      </trkpt>
      <trkpt lat="45.03679" lon="6.08335">
        <ele>1189</ele>
        <time>2026-05-14T10:04:17+00:00</time>
      </trkpt>
      <trkpt lat="45.03687" lon="6.08328">
        <ele>1194</ele>
        <time>2026-05-14T10:04:18+00:00</time>
      </trkpt>
      <trkpt lat="45.03689" lon="6.08318">
        <ele>1196</ele>
        <time>2026-05-14T10:04:19+00:00</time>
      </trkpt>
      <trkpt lat="45.03688" lon="6.083">
        <ele>1200</ele>
        <time>2026-05-14T10:04:20+00:00</time>
      </trkpt>
      <trkpt lat="45.03704" lon="6.08305">
        <ele>1203</ele>
        <time>2026-05-14T10:04:21+00:00</time>
      </trkpt>
      <trkpt lat="45.03715" lon="6.08315">
        <ele>1204</ele>
        <time>2026-05-14T10:04:22+00:00</time>
      </trkpt>
      <trkpt lat="45.03727" lon="6.08318">
        <ele>1207</ele>
        <time>2026-05-14T10:04:23+00:00</time>
      </trkpt>
      <trkpt lat="45.03753" lon="6.08321">
        <ele>1213</ele>
        <time>2026-05-14T10:04:24+00:00</time>
      </trkpt>
      <trkpt lat="45.03773" lon="6.08324">
        <ele>1216</ele>
        <time>2026-05-14T10:04:25+00:00</time>
      </trkpt>
      <trkpt lat="45.03793" lon="6.0833">
        <ele>1218</ele>
        <time>2026-05-14T10:04:26+00:00</time>
      </trkpt>
      <trkpt lat="45.0382" lon="6.08341">
        <ele>1218</ele>
        <time>2026-05-14T10:04:27+00:00</time>
      </trkpt>
      <trkpt lat="45.03846" lon="6.08358">
        <ele>1216</ele>
        <time>2026-05-14T10:04:28+00:00</time>
      </trkpt>
      <trkpt lat="45.03865" lon="6.08376">
        <ele>1214</ele>
        <time>2026-05-14T10:04:29+00:00</time>
      </trkpt>
      <trkpt lat="45.03883" lon="6.08395">
        <ele>1212</ele>
        <time>2026-05-14T10:04:30+00:00</time>
      </trkpt>
      <trkpt lat="45.03897" lon="6.08405">
        <ele>1213</ele>
        <time>2026-05-14T10:04:31+00:00</time>
      </trkpt>
      <trkpt lat="45.039" lon="6.08408">
        <ele>1213</ele>
        <time>2026-05-14T10:04:32+00:00</time>
      </trkpt>
      <trkpt lat="45.03917" lon="6.08415">
        <ele>1217</ele>
        <time>2026-05-14T10:04:33+00:00</time>
      </trkpt>
      <trkpt lat="45.03926" lon="6.08415">
        <ele>1219</ele>
        <time>2026-05-14T10:04:34+00:00</time>
      </trkpt>
      <trkpt lat="45.0394" lon="6.08411">
        <ele>1224</ele>
        <time>2026-05-14T10:04:35+00:00</time>
      </trkpt>
      <trkpt lat="45.03956" lon="6.08412">
        <ele>1227</ele>
        <time>2026-05-14T10:04:36+00:00</time>
      </trkpt>
      <trkpt lat="45.03977" lon="6.08424">
        <ele>1229</ele>
        <time>2026-05-14T10:04:37+00:00</time>
      </trkpt>
      <trkpt lat="45.03991" lon="6.08437">
        <ele>1228</ele>
        <time>2026-05-14T10:04:38+00:00</time>
      </trkpt>
      <trkpt lat="45.04003" lon="6.08457">
        <ele>1226</ele>
        <time>2026-05-14T10:04:39+00:00</time>
      </trkpt>
      <trkpt lat="45.04012" lon="6.08469">
        <ele>1225</ele>
        <time>2026-05-14T10:04:40+00:00</time>
      </trkpt>
      <trkpt lat="45.04021" lon="6.08477">
        <ele>1226</ele>
        <time>2026-05-14T10:04:41+00:00</time>
      </trkpt>
      <trkpt lat="45.04034" lon="6.08488">
        <ele>1227</ele>
        <time>2026-05-14T10:04:42+00:00</time>
      </trkpt>
      <trkpt lat="45.04066" lon="6.08537">
        <ele>1219</ele>
        <time>2026-05-14T10:04:43+00:00</time>
      </trkpt>
      <trkpt lat="45.04078" lon="6.08544">
        <ele>1220</ele>
        <time>2026-05-14T10:04:44+00:00</time>
      </trkpt>
      <trkpt lat="45.04098" lon="6.08548">
        <ele>1226</ele>
        <time>2026-05-14T10:04:45+00:00</time>
      </trkpt>
      <trkpt lat="45.04112" lon="6.08554">
        <ele>1229</ele>
        <time>2026-05-14T10:04:46+00:00</time>
      </trkpt>
      <trkpt lat="45.04126" lon="6.08572">
        <ele>1227</ele>
        <time>2026-05-14T10:04:47+00:00</time>
      </trkpt>
      <trkpt lat="45.04128" lon="6.08589">
        <ele>1221</ele>
        <time>2026-05-14T10:04:48+00:00</time>
      </trkpt>
      <trkpt lat="45.0413" lon="6.08611">
        <ele>1213</ele>
        <time>2026-05-14T10:04:49+00:00</time>
      </trkpt>
      <trkpt lat="45.0414" lon="6.08633">
        <ele>1209</ele>
        <time>2026-05-14T10:04:50+00:00</time>
      </trkpt>
      <trkpt lat="45.04167" lon="6.08679">
        <ele>1202</ele>
        <time>2026-05-14T10:04:51+00:00</time>
      </trkpt>
      <trkpt lat="45.0418" lon="6.08697">
        <ele>1203</ele>
        <time>2026-05-14T10:04:52+00:00</time>
      </trkpt>
      <trkpt lat="45.04201" lon="6.08719">
        <ele>1206</ele>
        <time>2026-05-14T10:04:53+00:00</time>
      </trkpt>
      <trkpt lat="45.04208" lon="6.08733">
        <ele>1204</ele>
        <time>2026-05-14T10:04:54+00:00</time>
      </trkpt>
      <trkpt lat="45.04213" lon="6.08755">
        <ele>1198</ele>
        <time>2026-05-14T10:04:55+00:00</time>
      </trkpt>
      <trkpt lat="45.04218" lon="6.08773">
        <ele>1193</ele>
        <time>2026-05-14T10:04:56+00:00</time>
      </trkpt>
      <trkpt lat="45.04225" lon="6.08785">
        <ele>1192</ele>
        <time>2026-05-14T10:04:57+00:00</time>
      </trkpt>
      <trkpt lat="45.04257" lon="6.08816">
        <ele>1197</ele>
        <time>2026-05-14T10:04:58+00:00</time>
      </trkpt>
      <trkpt lat="45.04273" lon="6.08838">
        <ele>1198</ele>
        <time>2026-05-14T10:04:59+00:00</time>
      </trkpt>
      <trkpt lat="45.04284" lon="6.08863">
        <ele>1198</ele>
        <time>2026-05-14T10:05:00+00:00</time>
      </trkpt>
      <trkpt lat="45.04287" lon="6.08881">
        <ele>1196</ele>
        <time>2026-05-14T10:05:01+00:00</time>
      </trkpt>
      <trkpt lat="45.04294" lon="6.08929">
        <ele>1191</ele>
        <time>2026-05-14T10:05:02+00:00</time>
      </trkpt>
      <trkpt lat="45.04302" lon="6.08959">
        <ele>1192</ele>
        <time>2026-05-14T10:05:03+00:00</time>
      </trkpt>
      <trkpt lat="45.04313" lon="6.08984">
        <ele>1194</ele>
        <time>2026-05-14T10:05:04+00:00</time>
      </trkpt>
      <trkpt lat="45.04325" lon="6.09013">
        <ele>1195</ele>
        <time>2026-05-14T10:05:05+00:00</time>
      </trkpt>
      <trkpt lat="45.04338" lon="6.09041">
        <ele>1195</ele>
        <time>2026-05-14T10:05:06+00:00</time>
      </trkpt>
      <trkpt lat="45.04358" lon="6.09075">
        <ele>1193</ele>
        <time>2026-05-14T10:05:07+00:00</time>
      </trkpt>
      <trkpt lat="45.04369" lon="6.09101">
        <ele>1186</ele>
        <time>2026-05-14T10:05:08+00:00</time>
      </trkpt>
      <trkpt lat="45.04373" lon="6.09093">
        <ele>1189</ele>
        <time>2026-05-14T10:05:09+00:00</time>
      </trkpt>
      <trkpt lat="45.04377" lon="6.09088">
        <ele>1192</ele>
        <time>2026-05-14T10:05:10+00:00</time>
      </trkpt>
      <trkpt lat="45.04389" lon="6.09095">
        <ele>1191</ele>
        <time>2026-05-14T10:05:11+00:00</time>
      </trkpt>
      <trkpt lat="45.04399" lon="6.09098">
        <ele>1191</ele>
        <time>2026-05-14T10:05:12+00:00</time>
      </trkpt>
      <trkpt lat="45.04404" lon="6.09104">
        <ele>1191</ele>
        <time>2026-05-14T10:05:13+00:00</time>
      </trkpt>
      <trkpt lat="45.04414" lon="6.09119">
        <ele>1190</ele>
        <time>2026-05-14T10:05:14+00:00</time>
      </trkpt>
      <trkpt lat="45.04419" lon="6.09123">
        <ele>1190</ele>
        <time>2026-05-14T10:05:15+00:00</time>
      </trkpt>
      <trkpt lat="45.04432" lon="6.09123">
        <ele>1188</ele>
        <time>2026-05-14T10:05:16+00:00</time>
      </trkpt>
      <trkpt lat="45.04438" lon="6.09131">
        <ele>1186</ele>
        <time>2026-05-14T10:05:17+00:00</time>
      </trkpt>
      <trkpt lat="45.04445" lon="6.09136">
        <ele>1185</ele>
        <time>2026-05-14T10:05:18+00:00</time>
      </trkpt>
      <trkpt lat="45.04453" lon="6.09138">
        <ele>1184</ele>
        <time>2026-05-14T10:05:19+00:00</time>
      </trkpt>
      <trkpt lat="45.04464" lon="6.09138">
        <ele>1183</ele>
        <time>2026-05-14T10:05:20+00:00</time>
      </trkpt>
      <trkpt lat="45.04471" lon="6.09137">
        <ele>1183</ele>
        <time>2026-05-14T10:05:21+00:00</time>
      </trkpt>
      <trkpt lat="45.04474" lon="6.09135">
        <ele>1183</ele>
        <time>2026-05-14T10:05:22+00:00</time>
      </trkpt>
      <trkpt lat="45.04475" lon="6.09144">
        <ele>1181</ele>
        <time>2026-05-14T10:05:23+00:00</time>
      </trkpt>
      <trkpt lat="45.04478" lon="6.0915">
        <ele>1180</ele>
        <time>2026-05-14T10:05:24+00:00</time>
      </trkpt>
      <trkpt lat="45.04483" lon="6.09157">
        <ele>1179</ele>
        <time>2026-05-14T10:05:25+00:00</time>
      </trkpt>
      <trkpt lat="45.04506" lon="6.09176">
        <ele>1175</ele>
        <time>2026-05-14T10:05:26+00:00</time>
      </trkpt>
      <trkpt lat="45.04516" lon="6.09195">
        <ele>1172</ele>
        <time>2026-05-14T10:05:27+00:00</time>
      </trkpt>
      <trkpt lat="45.0452" lon="6.09205">
        <ele>1171</ele>
        <time>2026-05-14T10:05:28+00:00</time>
      </trkpt>
      <trkpt lat="45.04526" lon="6.09208">
        <ele>1170</ele>
        <time>2026-05-14T10:05:29+00:00</time>
      </trkpt>
      <trkpt lat="45.04535" lon="6.09209">
        <ele>1170</ele>
        <time>2026-05-14T10:05:30+00:00</time>
      </trkpt>
      <trkpt lat="45.04545" lon="6.09204">
        <ele>1171</ele>
        <time>2026-05-14T10:05:31+00:00</time>
      </trkpt>
      <trkpt lat="45.04554" lon="6.09202">
        <ele>1171</ele>
        <time>2026-05-14T10:05:32+00:00</time>
      </trkpt>
      <trkpt lat="45.04562" lon="6.09203">
        <ele>1171</ele>
        <time>2026-05-14T10:05:33+00:00</time>
      </trkpt>
      <trkpt lat="45.04592" lon="6.09221">
        <ele>1171</ele>
        <time>2026-05-14T10:05:34+00:00</time>
      </trkpt>
      <trkpt lat="45.04604" lon="6.09223">
        <ele>1173</ele>
        <time>2026-05-14T10:05:35+00:00</time>
      </trkpt>
      <trkpt lat="45.04618" lon="6.09238">
        <ele>1174</ele>
        <time>2026-05-14T10:05:36+00:00</time>
      </trkpt>
      <trkpt lat="45.04621" lon="6.09246">
        <ele>1173</ele>
        <time>2026-05-14T10:05:37+00:00</time>
      </trkpt>
      <trkpt lat="45.04624" lon="6.09259">
        <ele>1172</ele>
        <time>2026-05-14T10:05:38+00:00</time>
      </trkpt>
      <trkpt lat="45.04625" lon="6.0927">
        <ele>1171</ele>
        <time>2026-05-14T10:05:39+00:00</time>
      </trkpt>
      <trkpt lat="45.04624" lon="6.09278">
        <ele>1170</ele>
        <time>2026-05-14T10:05:40+00:00</time>
      </trkpt>
      <trkpt lat="45.04628" lon="6.09277">
        <ele>1171</ele>
        <time>2026-05-14T10:05:41+00:00</time>
      </trkpt>
      <trkpt lat="45.04624" lon="6.09297">
        <ele>1168</ele>
        <time>2026-05-14T10:05:42+00:00</time>
      </trkpt>
      <trkpt lat="45.04624" lon="6.09313">
        <ele>1166</ele>
        <time>2026-05-14T10:05:43+00:00</time>
      </trkpt>
      <trkpt lat="45.04626" lon="6.09344">
        <ele>1164</ele>
        <time>2026-05-14T10:05:44+00:00</time>
      </trkpt>
      <trkpt lat="45.04637" lon="6.09378">
        <ele>1165</ele>
        <time>2026-05-14T10:05:45+00:00</time>
      </trkpt>
      <trkpt lat="45.04646" lon="6.09393">
        <ele>1167</ele>
        <time>2026-05-14T10:05:46+00:00</time>
      </trkpt>
      <trkpt lat="45.04664" lon="6.09416">
        <ele>1171</ele>
        <time>2026-05-14T10:05:47+00:00</time>
      </trkpt>
      <trkpt lat="45.04661" lon="6.09408">
        <ele>1171</ele>
        <time>2026-05-14T10:05:48+00:00</time>
      </trkpt>
      <trkpt lat="45.04658" lon="6.09397">
        <ele>1170</ele>
        <time>2026-05-14T10:05:49+00:00</time>
      </trkpt>
      <trkpt lat="45.04653" lon="6.09342">
        <ele>1172</ele>
        <time>2026-05-14T10:05:50+00:00</time>
      </trkpt>
      <trkpt lat="45.04653" lon="6.09329">
        <ele>1172</ele>
        <time>2026-05-14T10:05:51+00:00</time>
      </trkpt>
      <trkpt lat="45.04655" lon="6.09309">
        <ele>1175</ele>
        <time>2026-05-14T10:05:52+00:00</time>
      </trkpt>
      <trkpt lat="45.04665" lon="6.09263">
        <ele>1181</ele>
        <time>2026-05-14T10:05:53+00:00</time>
      </trkpt>
      <trkpt lat="45.04666" lon="6.0925">
        <ele>1182</ele>
        <time>2026-05-14T10:05:54+00:00</time>
      </trkpt>
      <trkpt lat="45.04639" lon="6.09187">
        <ele>1185</ele>
        <time>2026-05-14T10:05:55+00:00</time>
      </trkpt>
      <trkpt lat="45.04635" lon="6.09176">
        <ele>1186</ele>
        <time>2026-05-14T10:05:56+00:00</time>
      </trkpt>
      <trkpt lat="45.04635" lon="6.09167">
        <ele>1187</ele>
        <time>2026-05-14T10:05:57+00:00</time>
      </trkpt>
      <trkpt lat="45.04636" lon="6.09158">
        <ele>1188</ele>
        <time>2026-05-14T10:05:58+00:00</time>
      </trkpt>
      <trkpt lat="45.04638" lon="6.09141">
        <ele>1191</ele>
        <time>2026-05-14T10:05:59+00:00</time>
      </trkpt>
      <trkpt lat="45.04639" lon="6.09132">
        <ele>1192</ele>
        <time>2026-05-14T10:06:00+00:00</time>
      </trkpt>
      <trkpt lat="45.04638" lon="6.09123">
        <ele>1193</ele>
        <time>2026-05-14T10:06:01+00:00</time>
      </trkpt>
      <trkpt lat="45.04635" lon="6.09119">
        <ele>1193</ele>
        <time>2026-05-14T10:06:02+00:00</time>
      </trkpt>
      <trkpt lat="45.04649" lon="6.09075">
        <ele>1201</ele>
        <time>2026-05-14T10:06:03+00:00</time>
      </trkpt>
      <trkpt lat="45.04656" lon="6.09061">
        <ele>1205</ele>
        <time>2026-05-14T10:06:04+00:00</time>
      </trkpt>
      <trkpt lat="45.0466" lon="6.09057">
        <ele>1206</ele>
        <time>2026-05-14T10:06:05+00:00</time>
      </trkpt>
      <trkpt lat="45.04663" lon="6.09059">
        <ele>1206</ele>
        <time>2026-05-14T10:06:06+00:00</time>
      </trkpt>
      <trkpt lat="45.04668" lon="6.09051">
        <ele>1208</ele>
        <time>2026-05-14T10:06:07+00:00</time>
      </trkpt>
      <trkpt lat="45.0469" lon="6.09043">
        <ele>1214</ele>
        <time>2026-05-14T10:06:08+00:00</time>
      </trkpt>
      <trkpt lat="45.04727" lon="6.09032">
        <ele>1221</ele>
        <time>2026-05-14T10:06:09+00:00</time>
      </trkpt>
      <trkpt lat="45.04742" lon="6.0902">
        <ele>1224</ele>
        <time>2026-05-14T10:06:10+00:00</time>
      </trkpt>
      <trkpt lat="45.04753" lon="6.09006">
        <ele>1227</ele>
        <time>2026-05-14T10:06:11+00:00</time>
      </trkpt>
      <trkpt lat="45.0475" lon="6.08994">
        <ele>1227</ele>
        <time>2026-05-14T10:06:12+00:00</time>
      </trkpt>
      <trkpt lat="45.04742" lon="6.0899">
        <ele>1227</ele>
        <time>2026-05-14T10:06:13+00:00</time>
      </trkpt>
      <trkpt lat="45.04698" lon="6.0896">
        <ele>1229</ele>
        <time>2026-05-14T10:06:14+00:00</time>
      </trkpt>
      <trkpt lat="45.04675" lon="6.0895">
        <ele>1229</ele>
        <time>2026-05-14T10:06:15+00:00</time>
      </trkpt>
      <trkpt lat="45.04665" lon="6.08935">
        <ele>1232</ele>
        <time>2026-05-14T10:06:16+00:00</time>
      </trkpt>
      <trkpt lat="45.04662" lon="6.08913">
        <ele>1237</ele>
        <time>2026-05-14T10:06:17+00:00</time>
      </trkpt>
      <trkpt lat="45.04667" lon="6.08888">
        <ele>1244</ele>
        <time>2026-05-14T10:06:18+00:00</time>
      </trkpt>
      <trkpt lat="45.04676" lon="6.08875">
        <ele>1247</ele>
        <time>2026-05-14T10:06:19+00:00</time>
      </trkpt>
      <trkpt lat="45.04675" lon="6.08856">
        <ele>1252</ele>
        <time>2026-05-14T10:06:20+00:00</time>
      </trkpt>
      <trkpt lat="45.04675" lon="6.08821">
        <ele>1260</ele>
        <time>2026-05-14T10:06:21+00:00</time>
      </trkpt>
      <trkpt lat="45.04688" lon="6.08803">
        <ele>1264</ele>
        <time>2026-05-14T10:06:22+00:00</time>
      </trkpt>
      <trkpt lat="45.04705" lon="6.08783">
        <ele>1269</ele>
        <time>2026-05-14T10:06:23+00:00</time>
      </trkpt>
      <trkpt lat="45.04717" lon="6.08765">
        <ele>1273</ele>
        <time>2026-05-14T10:06:24+00:00</time>
      </trkpt>
      <trkpt lat="45.04717" lon="6.08742">
        <ele>1278</ele>
        <time>2026-05-14T10:06:25+00:00</time>
      </trkpt>
      <trkpt lat="45.04715" lon="6.0872">
        <ele>1283</ele>
        <time>2026-05-14T10:06:26+00:00</time>
      </trkpt>
      <trkpt lat="45.04719" lon="6.08717">
        <ele>1284</ele>
        <time>2026-05-14T10:06:27+00:00</time>
      </trkpt>
      <trkpt lat="45.0473" lon="6.0868">
        <ele>1294</ele>
        <time>2026-05-14T10:06:28+00:00</time>
      </trkpt>
      <trkpt lat="45.04736" lon="6.08677">
        <ele>1295</ele>
        <time>2026-05-14T10:06:29+00:00</time>
      </trkpt>
      <trkpt lat="45.04752" lon="6.08652">
        <ele>1302</ele>
        <time>2026-05-14T10:06:30+00:00</time>
      </trkpt>
      <trkpt lat="45.0476" lon="6.08641">
        <ele>1304</ele>
        <time>2026-05-14T10:06:31+00:00</time>
      </trkpt>
      <trkpt lat="45.04761" lon="6.08634">
        <ele>1306</ele>
        <time>2026-05-14T10:06:32+00:00</time>
      </trkpt>
      <trkpt lat="45.04755" lon="6.0863">
        <ele>1307</ele>
        <time>2026-05-14T10:06:33+00:00</time>
      </trkpt>
      <trkpt lat="45.04743" lon="6.08624">
        <ele>1309</ele>
        <time>2026-05-14T10:06:34+00:00</time>
      </trkpt>
      <trkpt lat="45.04749" lon="6.08614">
        <ele>1312</ele>
        <time>2026-05-14T10:06:35+00:00</time>
      </trkpt>
      <trkpt lat="45.0478" lon="6.08599">
        <ele>1312</ele>
        <time>2026-05-14T10:06:36+00:00</time>
      </trkpt>
      <trkpt lat="45.04786" lon="6.08583">
        <ele>1315</ele>
        <time>2026-05-14T10:06:37+00:00</time>
      </trkpt>
      <trkpt lat="45.04789" lon="6.08578">
        <ele>1316</ele>
        <time>2026-05-14T10:06:38+00:00</time>
      </trkpt>
      <trkpt lat="45.04791" lon="6.08572">
        <ele>1318</ele>
        <time>2026-05-14T10:06:39+00:00</time>
      </trkpt>
      <trkpt lat="45.04802" lon="6.08566">
        <ele>1317</ele>
        <time>2026-05-14T10:06:40+00:00</time>
      </trkpt>
      <trkpt lat="45.04816" lon="6.08533">
        <ele>1323</ele>
        <time>2026-05-14T10:06:41+00:00</time>
      </trkpt>
      <trkpt lat="45.04823" lon="6.08526">
        <ele>1323</ele>
        <time>2026-05-14T10:06:42+00:00</time>
      </trkpt>
      <trkpt lat="45.04831" lon="6.0852">
        <ele>1323</ele>
        <time>2026-05-14T10:06:43+00:00</time>
      </trkpt>
      <trkpt lat="45.04867" lon="6.08516">
        <ele>1322</ele>
        <time>2026-05-14T10:06:44+00:00</time>
      </trkpt>
      <trkpt lat="45.04874" lon="6.08511">
        <ele>1323</ele>
        <time>2026-05-14T10:06:45+00:00</time>
      </trkpt>
      <trkpt lat="45.04886" lon="6.08494">
        <ele>1327</ele>
        <time>2026-05-14T10:06:46+00:00</time>
      </trkpt>
      <trkpt lat="45.04895" lon="6.08485">
        <ele>1329</ele>
        <time>2026-05-14T10:06:47+00:00</time>
      </trkpt>
      <trkpt lat="45.04906" lon="6.08477">
        <ele>1331</ele>
        <time>2026-05-14T10:06:48+00:00</time>
      </trkpt>
      <trkpt lat="45.04916" lon="6.08467">
        <ele>1334</ele>
        <time>2026-05-14T10:06:49+00:00</time>
      </trkpt>
      <trkpt lat="45.04939" lon="6.08448">
        <ele>1343</ele>
        <time>2026-05-14T10:06:50+00:00</time>
      </trkpt>
      <trkpt lat="45.04952" lon="6.08433">
        <ele>1347</ele>
        <time>2026-05-14T10:06:51+00:00</time>
      </trkpt>
      <trkpt lat="45.04958" lon="6.08415">
        <ele>1351</ele>
        <time>2026-05-14T10:06:52+00:00</time>
      </trkpt>
      <trkpt lat="45.0496" lon="6.08398">
        <ele>1355</ele>
        <time>2026-05-14T10:06:53+00:00</time>
      </trkpt>
      <trkpt lat="45.04967" lon="6.08388">
        <ele>1358</ele>
        <time>2026-05-14T10:06:54+00:00</time>
      </trkpt>
      <trkpt lat="45.04973" lon="6.08381">
        <ele>1359</ele>
        <time>2026-05-14T10:06:55+00:00</time>
      </trkpt>
      <trkpt lat="45.05005" lon="6.08328">
        <ele>1370</ele>
        <time>2026-05-14T10:06:56+00:00</time>
      </trkpt>
      <trkpt lat="45.05004" lon="6.08316">
        <ele>1373</ele>
        <time>2026-05-14T10:06:57+00:00</time>
      </trkpt>
      <trkpt lat="45.05063" lon="6.08336">
        <ele>1372</ele>
        <time>2026-05-14T10:06:58+00:00</time>
      </trkpt>
      <trkpt lat="45.05153" lon="6.08424">
        <ele>1408</ele>
        <time>2026-05-14T10:06:59+00:00</time>
      </trkpt>
      <trkpt lat="45.05156" lon="6.0841">
        <ele>1409</ele>
        <time>2026-05-14T10:07:00+00:00</time>
      </trkpt>
      <trkpt lat="45.05158" lon="6.08431">
        <ele>1410</ele>
        <time>2026-05-14T10:07:01+00:00</time>
      </trkpt>
      <trkpt lat="45.05161" lon="6.08424">
        <ele>1411</ele>
        <time>2026-05-14T10:07:02+00:00</time>
      </trkpt>
      <trkpt lat="45.05164" lon="6.0845">
        <ele>1412</ele>
        <time>2026-05-14T10:07:03+00:00</time>
      </trkpt>
      <trkpt lat="45.0517" lon="6.08474">
        <ele>1414</ele>
        <time>2026-05-14T10:07:04+00:00</time>
      </trkpt>
      <trkpt lat="45.05174" lon="6.08495">
        <ele>1415</ele>
        <time>2026-05-14T10:07:05+00:00</time>
      </trkpt>
      <trkpt lat="45.05175" lon="6.08497">
        <ele>1416</ele>
        <time>2026-05-14T10:07:06+00:00</time>
      </trkpt>
      <trkpt lat="45.05177" lon="6.08498">
        <ele>1417</ele>
        <time>2026-05-14T10:07:07+00:00</time>
      </trkpt>
      <trkpt lat="45.05178" lon="6.08495">
        <ele>1417</ele>
        <time>2026-05-14T10:07:08+00:00</time>
      </trkpt>
      <trkpt lat="45.05182" lon="6.08494">
        <ele>1419</ele>
        <time>2026-05-14T10:07:09+00:00</time>
      </trkpt>
      <trkpt lat="45.05184" lon="6.08497">
        <ele>1420</ele>
        <time>2026-05-14T10:07:10+00:00</time>
      </trkpt>
      <trkpt lat="45.05184" lon="6.085">
        <ele>1420</ele>
        <time>2026-05-14T10:07:11+00:00</time>
      </trkpt>
      <trkpt lat="45.05184" lon="6.08505">
        <ele>1421</ele>
        <time>2026-05-14T10:07:12+00:00</time>
      </trkpt>
      <trkpt lat="45.05185" lon="6.08529">
        <ele>1422</ele>
        <time>2026-05-14T10:07:13+00:00</time>
      </trkpt>
      <trkpt lat="45.0519" lon="6.08534">
        <ele>1425</ele>
        <time>2026-05-14T10:07:14+00:00</time>
      </trkpt>
      <trkpt lat="45.05195" lon="6.08534">
        <ele>1428</ele>
        <time>2026-05-14T10:07:15+00:00</time>
      </trkpt>
      <trkpt lat="45.05194" lon="6.08547">
        <ele>1428</ele>
        <time>2026-05-14T10:07:16+00:00</time>
      </trkpt>
      <trkpt lat="45.05196" lon="6.0856">
        <ele>1429</ele>
        <time>2026-05-14T10:07:17+00:00</time>
      </trkpt>
      <trkpt lat="45.05199" lon="6.08564">
        <ele>1431</ele>
        <time>2026-05-14T10:07:18+00:00</time>
      </trkpt>
      <trkpt lat="45.05202" lon="6.08566">
        <ele>1433</ele>
        <time>2026-05-14T10:07:19+00:00</time>
      </trkpt>
      <trkpt lat="45.05208" lon="6.08573">
        <ele>1436</ele>
        <time>2026-05-14T10:07:20+00:00</time>
      </trkpt>
      <trkpt lat="45.05211" lon="6.08574">
        <ele>1437</ele>
        <time>2026-05-14T10:07:21+00:00</time>
      </trkpt>
      <trkpt lat="45.05213" lon="6.08577">
        <ele>1439</ele>
        <time>2026-05-14T10:07:22+00:00</time>
      </trkpt>
      <trkpt lat="45.05216" lon="6.08578">
        <ele>1440</ele>
        <time>2026-05-14T10:07:23+00:00</time>
      </trkpt>
      <trkpt lat="45.0522" lon="6.08578">
        <ele>1442</ele>
        <time>2026-05-14T10:07:24+00:00</time>
      </trkpt>
      <trkpt lat="45.05223" lon="6.0858">
        <ele>1444</ele>
        <time>2026-05-14T10:07:25+00:00</time>
      </trkpt>
      <trkpt lat="45.05226" lon="6.08583">
        <ele>1445</ele>
        <time>2026-05-14T10:07:26+00:00</time>
      </trkpt>
      <trkpt lat="45.05228" lon="6.08587">
        <ele>1446</ele>
        <time>2026-05-14T10:07:27+00:00</time>
      </trkpt>
      <trkpt lat="45.05229" lon="6.08603">
        <ele>1447</ele>
        <time>2026-05-14T10:07:28+00:00</time>
      </trkpt>
      <trkpt lat="45.0523" lon="6.08606">
        <ele>1447</ele>
        <time>2026-05-14T10:07:29+00:00</time>
      </trkpt>
      <trkpt lat="45.05233" lon="6.08607">
        <ele>1449</ele>
        <time>2026-05-14T10:07:30+00:00</time>
      </trkpt>
      <trkpt lat="45.05234" lon="6.0861">
        <ele>1449</ele>
        <time>2026-05-14T10:07:31+00:00</time>
      </trkpt>
      <trkpt lat="45.05238" lon="6.0862">
        <ele>1451</ele>
        <time>2026-05-14T10:07:32+00:00</time>
      </trkpt>
      <trkpt lat="45.05241" lon="6.08623">
        <ele>1453</ele>
        <time>2026-05-14T10:07:33+00:00</time>
      </trkpt>
      <trkpt lat="45.05242" lon="6.08626">
        <ele>1453</ele>
        <time>2026-05-14T10:07:34+00:00</time>
      </trkpt>
      <trkpt lat="45.05246" lon="6.08641">
        <ele>1455</ele>
        <time>2026-05-14T10:07:35+00:00</time>
      </trkpt>
      <trkpt lat="45.05247" lon="6.08645">
        <ele>1455</ele>
        <time>2026-05-14T10:07:36+00:00</time>
      </trkpt>
      <trkpt lat="45.05249" lon="6.0866">
        <ele>1456</ele>
        <time>2026-05-14T10:07:37+00:00</time>
      </trkpt>
      <trkpt lat="45.05251" lon="6.08668">
        <ele>1457</ele>
        <time>2026-05-14T10:07:38+00:00</time>
      </trkpt>
      <trkpt lat="45.05254" lon="6.08675">
        <ele>1458</ele>
        <time>2026-05-14T10:07:39+00:00</time>
      </trkpt>
      <trkpt lat="45.05257" lon="6.08681">
        <ele>1460</ele>
        <time>2026-05-14T10:07:40+00:00</time>
      </trkpt>
      <trkpt lat="45.05259" lon="6.0868">
        <ele>1461</ele>
        <time>2026-05-14T10:07:41+00:00</time>
      </trkpt>
      <trkpt lat="45.0526" lon="6.08678">
        <ele>1461</ele>
        <time>2026-05-14T10:07:42+00:00</time>
      </trkpt>
      <trkpt lat="45.05262" lon="6.08677">
        <ele>1462</ele>
        <time>2026-05-14T10:07:43+00:00</time>
      </trkpt>
      <trkpt lat="45.05263" lon="6.0868">
        <ele>1463</ele>
        <time>2026-05-14T10:07:44+00:00</time>
      </trkpt>
      <trkpt lat="45.0527" lon="6.08691">
        <ele>1466</ele>
        <time>2026-05-14T10:07:45+00:00</time>
      </trkpt>
      <trkpt lat="45.05271" lon="6.08695">
        <ele>1466</ele>
        <time>2026-05-14T10:07:46+00:00</time>
      </trkpt>
      <trkpt lat="45.05273" lon="6.08701">
        <ele>1467</ele>
        <time>2026-05-14T10:07:47+00:00</time>
      </trkpt>
      <trkpt lat="45.05278" lon="6.08709">
        <ele>1469</ele>
        <time>2026-05-14T10:07:48+00:00</time>
      </trkpt>
      <trkpt lat="45.05281" lon="6.0871">
        <ele>1471</ele>
        <time>2026-05-14T10:07:49+00:00</time>
      </trkpt>
      <trkpt lat="45.0529" lon="6.08712">
        <ele>1476</ele>
        <time>2026-05-14T10:07:50+00:00</time>
      </trkpt>
      <trkpt lat="45.05293" lon="6.0871">
        <ele>1478</ele>
        <time>2026-05-14T10:07:51+00:00</time>
      </trkpt>
      <trkpt lat="45.05299" lon="6.08713">
        <ele>1481</ele>
        <time>2026-05-14T10:07:52+00:00</time>
      </trkpt>
      <trkpt lat="45.05311" lon="6.08695">
        <ele>1488</ele>
        <time>2026-05-14T10:07:53+00:00</time>
      </trkpt>
      <trkpt lat="45.0532" lon="6.0869">
        <ele>1492</ele>
        <time>2026-05-14T10:07:54+00:00</time>
      </trkpt>
      <trkpt lat="45.05325" lon="6.08689">
        <ele>1495</ele>
        <time>2026-05-14T10:07:55+00:00</time>
      </trkpt>
      <trkpt lat="45.0533" lon="6.08692">
        <ele>1498</ele>
        <time>2026-05-14T10:07:56+00:00</time>
      </trkpt>
      <trkpt lat="45.05332" lon="6.08702">
        <ele>1499</ele>
        <time>2026-05-14T10:07:57+00:00</time>
      </trkpt>
      <trkpt lat="45.05337" lon="6.08709">
        <ele>1502</ele>
        <time>2026-05-14T10:07:58+00:00</time>
      </trkpt>
      <trkpt lat="45.05339" lon="6.08713">
        <ele>1503</ele>
        <time>2026-05-14T10:07:59+00:00</time>
      </trkpt>
      <trkpt lat="45.0534" lon="6.08717">
        <ele>1504</ele>
        <time>2026-05-14T10:08:00+00:00</time>
      </trkpt>
      <trkpt lat="45.05339" lon="6.0872">
        <ele>1504</ele>
        <time>2026-05-14T10:08:01+00:00</time>
      </trkpt>
      <trkpt lat="45.05339" lon="6.08733">
        <ele>1504</ele>
        <time>2026-05-14T10:08:02+00:00</time>
      </trkpt>
      <trkpt lat="45.05341" lon="6.08742">
        <ele>1505</ele>
        <time>2026-05-14T10:08:03+00:00</time>
      </trkpt>
      <trkpt lat="45.05342" lon="6.0875">
        <ele>1506</ele>
        <time>2026-05-14T10:08:04+00:00</time>
      </trkpt>
      <trkpt lat="45.05342" lon="6.08755">
        <ele>1507</ele>
        <time>2026-05-14T10:08:05+00:00</time>
      </trkpt>
      <trkpt lat="45.05342" lon="6.08758">
        <ele>1507</ele>
        <time>2026-05-14T10:08:06+00:00</time>
      </trkpt>
      <trkpt lat="45.05344" lon="6.08761">
        <ele>1508</ele>
        <time>2026-05-14T10:08:07+00:00</time>
      </trkpt>
      <trkpt lat="45.05349" lon="6.08764">
        <ele>1512</ele>
        <time>2026-05-14T10:08:08+00:00</time>
      </trkpt>
      <trkpt lat="45.0535" lon="6.08771">
        <ele>1513</ele>
        <time>2026-05-14T10:08:09+00:00</time>
      </trkpt>
      <trkpt lat="45.05351" lon="6.08795">
        <ele>1515</ele>
        <time>2026-05-14T10:08:10+00:00</time>
      </trkpt>
      <trkpt lat="45.05352" lon="6.08801">
        <ele>1516</ele>
        <time>2026-05-14T10:08:11+00:00</time>
      </trkpt>
      <trkpt lat="45.05352" lon="6.08806">
        <ele>1517</ele>
        <time>2026-05-14T10:08:12+00:00</time>
      </trkpt>
      <trkpt lat="45.05349" lon="6.08822">
        <ele>1516</ele>
        <time>2026-05-14T10:08:13+00:00</time>
      </trkpt>
      <trkpt lat="45.05346" lon="6.08833">
        <ele>1515</ele>
        <time>2026-05-14T10:08:14+00:00</time>
      </trkpt>
      <trkpt lat="45.05343" lon="6.08853">
        <ele>1519</ele>
        <time>2026-05-14T10:08:15+00:00</time>
      </trkpt>
      <trkpt lat="45.05341" lon="6.08864">
        <ele>1521</ele>
        <time>2026-05-14T10:08:16+00:00</time>
      </trkpt>
      <trkpt lat="45.05339" lon="6.08879">
        <ele>1524</ele>
        <time>2026-05-14T10:08:17+00:00</time>
      </trkpt>
      <trkpt lat="45.05336" lon="6.08887">
        <ele>1525</ele>
        <time>2026-05-14T10:08:18+00:00</time>
      </trkpt>
      <trkpt lat="45.05333" lon="6.08903">
        <ele>1528</ele>
        <time>2026-05-14T10:08:19+00:00</time>
      </trkpt>
      <trkpt lat="45.05327" lon="6.08917">
        <ele>1527</ele>
        <time>2026-05-14T10:08:20+00:00</time>
      </trkpt>
      <trkpt lat="45.05328" lon="6.08927">
        <ele>1530</ele>
        <time>2026-05-14T10:08:21+00:00</time>
      </trkpt>
      <trkpt lat="45.05326" lon="6.08938">
        <ele>1531</ele>
        <time>2026-05-14T10:08:22+00:00</time>
      </trkpt>
      <trkpt lat="45.05316" lon="6.0897">
        <ele>1530</ele>
        <time>2026-05-14T10:08:23+00:00</time>
      </trkpt>
      <trkpt lat="45.05316" lon="6.08976">
        <ele>1531</ele>
        <time>2026-05-14T10:08:24+00:00</time>
      </trkpt>
      <trkpt lat="45.05318" lon="6.08978">
        <ele>1533</ele>
        <time>2026-05-14T10:08:25+00:00</time>
      </trkpt>
      <trkpt lat="45.0532" lon="6.08979">
        <ele>1535</ele>
        <time>2026-05-14T10:08:26+00:00</time>
      </trkpt>
      <trkpt lat="45.05322" lon="6.08977">
        <ele>1536</ele>
        <time>2026-05-14T10:08:27+00:00</time>
      </trkpt>
      <trkpt lat="45.0533" lon="6.08972">
        <ele>1542</ele>
        <time>2026-05-14T10:08:28+00:00</time>
      </trkpt>
      <trkpt lat="45.05338" lon="6.0901">
        <ele>1554</ele>
        <time>2026-05-14T10:08:29+00:00</time>
      </trkpt>
      <trkpt lat="45.0534" lon="6.09027">
        <ele>1556</ele>
        <time>2026-05-14T10:08:30+00:00</time>
      </trkpt>
      <trkpt lat="45.05336" lon="6.09059">
        <ele>1555</ele>
        <time>2026-05-14T10:08:31+00:00</time>
      </trkpt>
      <trkpt lat="45.05335" lon="6.09091">
        <ele>1555</ele>
        <time>2026-05-14T10:08:32+00:00</time>
      </trkpt>
      <trkpt lat="45.05335" lon="6.09121">
        <ele>1553</ele>
        <time>2026-05-14T10:08:33+00:00</time>
      </trkpt>
      <trkpt lat="45.05336" lon="6.09135">
        <ele>1553</ele>
        <time>2026-05-14T10:08:34+00:00</time>
      </trkpt>
      <trkpt lat="45.05335" lon="6.09165">
        <ele>1551</ele>
        <time>2026-05-14T10:08:35+00:00</time>
      </trkpt>
      <trkpt lat="45.05334" lon="6.09176">
        <ele>1550</ele>
        <time>2026-05-14T10:08:36+00:00</time>
      </trkpt>
      <trkpt lat="45.05319" lon="6.09238">
        <ele>1534</ele>
        <time>2026-05-14T10:08:37+00:00</time>
      </trkpt>
      <trkpt lat="45.05327" lon="6.09255">
        <ele>1538</ele>
        <time>2026-05-14T10:08:38+00:00</time>
      </trkpt>
      <trkpt lat="45.05356" lon="6.09215">
        <ele>1554</ele>
        <time>2026-05-14T10:08:39+00:00</time>
      </trkpt>
      <trkpt lat="45.05385" lon="6.09148">
        <ele>1577</ele>
        <time>2026-05-14T10:08:40+00:00</time>
      </trkpt>
      <trkpt lat="45.05437" lon="6.09059">
        <ele>1608</ele>
        <time>2026-05-14T10:08:41+00:00</time>
      </trkpt>
      <trkpt lat="45.05546" lon="6.08979">
        <ele>1642</ele>
        <time>2026-05-14T10:08:42+00:00</time>
      </trkpt>
      <trkpt lat="45.05638" lon="6.08883">
        <ele>1689</ele>
        <time>2026-05-14T10:08:43+00:00</time>
      </trkpt>
      <trkpt lat="45.05879" lon="6.08713">
        <ele>1814</ele>
        <time>2026-05-14T10:08:44+00:00</time>
      </trkpt>
      <trkpt lat="45.05994" lon="6.08679">
        <ele>1877</ele>
        <time>2026-05-14T10:08:45+00:00</time>
      </trkpt>
      <trkpt lat="45.06094" lon="6.08565">
        <ele>1940</ele>
        <time>2026-05-14T10:08:46+00:00</time>
      </trkpt>
      <trkpt lat="45.06151" lon="6.08532">
        <ele>1967</ele>
        <time>2026-05-14T10:08:47+00:00</time>
      </trkpt>
      <trkpt lat="45.06179" lon="6.08526">
        <ele>1980</ele>
        <time>2026-05-14T10:08:48+00:00</time>
      </trkpt>
      <trkpt lat="45.06215" lon="6.08542">
        <ele>2000</ele>
        <time>2026-05-14T10:08:49+00:00</time>
      </trkpt>
      <trkpt lat="45.06259" lon="6.08591">
        <ele>2028</ele>
        <time>2026-05-14T10:08:50+00:00</time>
      </trkpt>
      <trkpt lat="45.06344" lon="6.08522">
        <ele>2071</ele>
        <time>2026-05-14T10:08:51+00:00</time>
      </trkpt>
      <trkpt lat="45.0648" lon="6.0846">
        <ele>2117</ele>
        <time>2026-05-14T10:08:52+00:00</time>
      </trkpt>
      <trkpt lat="45.06569" lon="6.08565">
        <ele>2153</ele>
        <time>2026-05-14T10:08:53+00:00</time>
      </trkpt>
      <trkpt lat="45.06527" lon="6.08518">
        <ele>2143</ele>
        <time>2026-05-14T10:08:54+00:00</time>
      </trkpt>
      <trkpt lat="45.06621" lon="6.08608">
        <ele>2157</ele>
        <time>2026-05-14T10:08:55+00:00</time>
      </trkpt>
    </trkseg>
  </trk>
</gpx>
