<?xml version="1.0" encoding="UTF-8" ?>
<gpx version="1.1" xmlns:xsi="http://www.w3.org/2001/XMLSchema-instance"
    xmlns="http://www.topografix.com/GPX/1/1"
    xsi:schemaLocation="http://www.topografix.com/GPX/1/1 http://www.topografix.com/GPX/1/1/gpx.xsd"
    creator="Openrunner - https://www.openrunner.com" >	<trk>
	                   <name>Giro delle Sette Chiese Roma-21312914</name>
						<trkseg>
					<trkpt lat="41.900380" lon="12.503250">
						<ele>63</ele>
						<time>2026-05-01T09:52:42Z</time>
					</trkpt>
					<trkpt lat="41.900940" lon="12.502300">
						<ele>65</ele>
						<time>2026-05-01T09:53:54Z</time>
					</trkpt>
					<trkpt lat="41.901020" lon="12.502380">
						<ele>65</ele>
						<time>2026-05-01T09:54:02Z</time>
					</trkpt>
					<trkpt lat="41.901200" lon="12.502070">
						<ele>65</ele>
						<time>2026-05-01T09:54:26Z</time>
					</trkpt>
					<trkpt lat="41.900100" lon="12.500890">
						<ele>69</ele>
						<time>2026-05-01T09:56:18Z</time>
					</trkpt>
					<trkpt lat="41.899780" lon="12.501400">
						<ele>69</ele>
						<time>2026-05-01T09:56:58Z</time>
					</trkpt>
					<trkpt lat="41.899300" lon="12.500910">
						<ele>75</ele>
						<time>2026-05-01T09:57:46Z</time>
					</trkpt>
					<trkpt lat="41.899240" lon="12.500880">
						<ele>75</ele>
						<time>2026-05-01T09:57:51Z</time>
					</trkpt>
					<trkpt lat="41.899160" lon="12.501020">
						<ele>75</ele>
						<time>2026-05-01T09:58:02Z</time>
					</trkpt>
					<trkpt lat="41.898140" lon="12.500000">
						<ele>73</ele>
						<time>2026-05-01T09:59:44Z</time>
					</trkpt>
					<trkpt lat="41.898100" lon="12.500060">
						<ele>73</ele>
						<time>2026-05-01T09:59:49Z</time>
					</trkpt>
					<trkpt lat="41.897960" lon="12.499920">
						<ele>72</ele>
						<time>2026-05-01T10:00:03Z</time>
					</trkpt>
					<trkpt lat="41.898000" lon="12.499850">
						<ele>72</ele>
						<time>2026-05-01T10:00:08Z</time>
					</trkpt>
					<trkpt lat="41.897730" lon="12.499580">
						<ele>70</ele>
						<time>2026-05-01T10:00:35Z</time>
					</trkpt>
					<trkpt lat="41.897410" lon="12.499520">
						<ele>70</ele>
						<time>2026-05-01T10:01:01Z</time>
					</trkpt>
					<trkpt lat="41.897730" lon="12.499580">
						<ele>70</ele>
						<time>2026-05-01T10:01:27Z</time>
					</trkpt>
					<trkpt lat="41.898290" lon="12.498430">
						<ele>66</ele>
						<time>2026-05-01T10:02:48Z</time>
					</trkpt>
					<trkpt lat="41.898230" lon="12.498380">
						<ele>66</ele>
						<time>2026-05-01T10:02:54Z</time>
					</trkpt>
					<trkpt lat="41.898620" lon="12.497590">
						<ele>61</ele>
						<time>2026-05-01T10:03:51Z</time>
					</trkpt>
					<trkpt lat="41.898720" lon="12.497690">
						<ele>62</ele>
						<time>2026-05-01T10:04:01Z</time>
					</trkpt>
					<trkpt lat="41.898840" lon="12.497480">
						<ele>61</ele>
						<time>2026-05-01T10:04:16Z</time>
					</trkpt>
					<trkpt lat="41.898610" lon="12.497260">
						<ele>58</ele>
						<time>2026-05-01T10:04:39Z</time>
					</trkpt>
					<trkpt lat="41.898330" lon="12.496920">
						<ele>52</ele>
						<time>2026-05-01T10:05:09Z</time>
					</trkpt>
					<trkpt lat="41.898270" lon="12.496980">
						<ele>54</ele>
						<time>2026-05-01T10:05:15Z</time>
					</trkpt>
					<trkpt lat="41.897370" lon="12.496010">
						<ele>57</ele>
						<time>2026-05-01T10:06:48Z</time>
					</trkpt>
					<trkpt lat="41.897330" lon="12.495760">
						<ele>54</ele>
						<time>2026-05-01T10:07:03Z</time>
					</trkpt>
					<trkpt lat="41.897260" lon="12.495590">
						<ele>54</ele>
						<time>2026-05-01T10:07:14Z</time>
					</trkpt>
					<trkpt lat="41.897240" lon="12.495290">
						<ele>53</ele>
						<time>2026-05-01T10:07:32Z</time>
					</trkpt>
					<trkpt lat="41.897170" lon="12.494890">
						<ele>52</ele>
						<time>2026-05-01T10:07:57Z</time>
					</trkpt>
					<trkpt lat="41.896730" lon="12.494510">
						<ele>51</ele>
						<time>2026-05-01T10:08:39Z</time>
					</trkpt>
					<trkpt lat="41.896500" lon="12.494960">
						<ele>53</ele>
						<time>2026-05-01T10:09:11Z</time>
					</trkpt>
					<trkpt lat="41.896730" lon="12.494510">
						<ele>51</ele>
						<time>2026-05-01T10:09:44Z</time>
					</trkpt>
					<trkpt lat="41.895690" lon="12.493570">
						<ele>46</ele>
						<time>2026-05-01T10:11:24Z</time>
					</trkpt>
					<trkpt lat="41.894980" lon="12.493020">
						<ele>43</ele>
						<time>2026-05-01T10:12:30Z</time>
					</trkpt>
					<trkpt lat="41.894900" lon="12.492900">
						<ele>45</ele>
						<time>2026-05-01T10:12:39Z</time>
					</trkpt>
					<trkpt lat="41.894780" lon="12.492020">
						<ele>43</ele>
						<time>2026-05-01T10:13:33Z</time>
					</trkpt>
					<trkpt lat="41.894390" lon="12.492150">
						<ele>47</ele>
						<time>2026-05-01T10:14:05Z</time>
					</trkpt>
					<trkpt lat="41.894100" lon="12.491010">
						<ele>38</ele>
						<time>2026-05-01T10:15:17Z</time>
					</trkpt>
					<trkpt lat="41.894100" lon="12.490910">
						<ele>38</ele>
						<time>2026-05-01T10:15:23Z</time>
					</trkpt>
					<trkpt lat="41.894060" lon="12.490750">
						<ele>38</ele>
						<time>2026-05-01T10:15:33Z</time>
					</trkpt>
					<trkpt lat="41.894010" lon="12.490650">
						<ele>38</ele>
						<time>2026-05-01T10:15:40Z</time>
					</trkpt>
					<trkpt lat="41.893310" lon="12.488030">
						<ele>28</ele>
						<time>2026-05-01T10:18:26Z</time>
					</trkpt>
					<trkpt lat="41.893310" lon="12.487410">
						<ele>23</ele>
						<time>2026-05-01T10:19:03Z</time>
					</trkpt>
					<trkpt lat="41.893340" lon="12.487410">
						<ele>23</ele>
						<time>2026-05-01T10:19:05Z</time>
					</trkpt>
					<trkpt lat="41.893390" lon="12.487120">
						<ele>22</ele>
						<time>2026-05-01T10:19:23Z</time>
					</trkpt>
					<trkpt lat="41.895040" lon="12.484150">
						<ele>29</ele>
						<time>2026-05-01T10:23:04Z</time>
					</trkpt>
					<trkpt lat="41.895170" lon="12.484150">
						<ele>29</ele>
						<time>2026-05-01T10:23:14Z</time>
					</trkpt>
					<trkpt lat="41.895310" lon="12.484100">
						<ele>30</ele>
						<time>2026-05-01T10:23:26Z</time>
					</trkpt>
					<trkpt lat="41.895440" lon="12.484000">
						<ele>30</ele>
						<time>2026-05-01T10:23:38Z</time>
					</trkpt>
					<trkpt lat="41.895580" lon="12.483770">
						<ele>32</ele>
						<time>2026-05-01T10:23:55Z</time>
					</trkpt>
					<trkpt lat="41.895650" lon="12.483750">
						<ele>32</ele>
						<time>2026-05-01T10:24:01Z</time>
					</trkpt>
					<trkpt lat="41.895680" lon="12.483620">
						<ele>33</ele>
						<time>2026-05-01T10:24:09Z</time>
					</trkpt>
					<trkpt lat="41.895730" lon="12.483530">
						<ele>34</ele>
						<time>2026-05-01T10:24:16Z</time>
					</trkpt>
					<trkpt lat="41.895670" lon="12.483360">
						<ele>35</ele>
						<time>2026-05-01T10:24:27Z</time>
					</trkpt>
					<trkpt lat="41.895720" lon="12.483110">
						<ele>33</ele>
						<time>2026-05-01T10:24:43Z</time>
					</trkpt>
					<trkpt lat="41.895490" lon="12.483000">
						<ele>32</ele>
						<time>2026-05-01T10:25:02Z</time>
					</trkpt>
					<trkpt lat="41.895370" lon="12.482450">
						<ele>27</ele>
						<time>2026-05-01T10:25:36Z</time>
					</trkpt>
					<trkpt lat="41.895300" lon="12.482440">
						<ele>27</ele>
						<time>2026-05-01T10:25:42Z</time>
					</trkpt>
					<trkpt lat="41.895240" lon="12.482310">
						<ele>27</ele>
						<time>2026-05-01T10:25:51Z</time>
					</trkpt>
					<trkpt lat="41.895180" lon="12.482240">
						<ele>26</ele>
						<time>2026-05-01T10:25:57Z</time>
					</trkpt>
					<trkpt lat="41.895080" lon="12.482180">
						<ele>26</ele>
						<time>2026-05-01T10:26:06Z</time>
					</trkpt>
					<trkpt lat="41.894990" lon="12.482170">
						<ele>26</ele>
						<time>2026-05-01T10:26:13Z</time>
					</trkpt>
					<trkpt lat="41.895000" lon="12.481990">
						<ele>25</ele>
						<time>2026-05-01T10:26:24Z</time>
					</trkpt>
					<trkpt lat="41.895120" lon="12.481920">
						<ele>25</ele>
						<time>2026-05-01T10:26:35Z</time>
					</trkpt>
					<trkpt lat="41.895120" lon="12.481710">
						<ele>24</ele>
						<time>2026-05-01T10:26:47Z</time>
					</trkpt>
					<trkpt lat="41.895060" lon="12.481690">
						<ele>23</ele>
						<time>2026-05-01T10:26:52Z</time>
					</trkpt>
					<trkpt lat="41.895080" lon="12.481350">
						<ele>26</ele>
						<time>2026-05-01T10:27:12Z</time>
					</trkpt>
					<trkpt lat="41.895040" lon="12.481200">
						<ele>28</ele>
						<time>2026-05-01T10:27:22Z</time>
					</trkpt>
					<trkpt lat="41.894990" lon="12.481170">
						<ele>28</ele>
						<time>2026-05-01T10:27:26Z</time>
					</trkpt>
					<trkpt lat="41.895100" lon="12.480760">
						<ele>32</ele>
						<time>2026-05-01T10:27:52Z</time>
					</trkpt>
					<trkpt lat="41.895190" lon="12.480730">
						<ele>32</ele>
						<time>2026-05-01T10:28:00Z</time>
					</trkpt>
					<trkpt lat="41.895050" lon="12.480060">
						<ele>35</ele>
						<time>2026-05-01T10:28:41Z</time>
					</trkpt>
					<trkpt lat="41.895120" lon="12.479950">
						<ele>35</ele>
						<time>2026-05-01T10:28:50Z</time>
					</trkpt>
					<trkpt lat="41.895080" lon="12.479900">
						<ele>35</ele>
						<time>2026-05-01T10:28:54Z</time>
					</trkpt>
					<trkpt lat="41.895850" lon="12.478850">
						<ele>34</ele>
						<time>2026-05-01T10:30:22Z</time>
					</trkpt>
					<trkpt lat="41.895850" lon="12.478950">
						<ele>34</ele>
						<time>2026-05-01T10:30:28Z</time>
					</trkpt>
					<trkpt lat="41.895930" lon="12.479000">
						<ele>34</ele>
						<time>2026-05-01T10:30:35Z</time>
					</trkpt>
					<trkpt lat="41.896000" lon="12.479190">
						<ele>35</ele>
						<time>2026-05-01T10:30:48Z</time>
					</trkpt>
					<trkpt lat="41.895960" lon="12.478480">
						<ele>32</ele>
						<time>2026-05-01T10:31:30Z</time>
					</trkpt>
					<trkpt lat="41.895940" lon="12.477420">
						<ele>28</ele>
						<time>2026-05-01T10:32:33Z</time>
					</trkpt>
					<trkpt lat="41.895860" lon="12.477420">
						<ele>28</ele>
						<time>2026-05-01T10:32:40Z</time>
					</trkpt>
					<trkpt lat="41.895830" lon="12.476640">
						<ele>25</ele>
						<time>2026-05-01T10:33:26Z</time>
					</trkpt>
					<trkpt lat="41.896020" lon="12.476630">
						<ele>26</ele>
						<time>2026-05-01T10:33:42Z</time>
					</trkpt>
					<trkpt lat="41.896130" lon="12.476400">
						<ele>28</ele>
						<time>2026-05-01T10:33:58Z</time>
					</trkpt>
					<trkpt lat="41.896100" lon="12.476360">
						<ele>28</ele>
						<time>2026-05-01T10:34:01Z</time>
					</trkpt>
					<trkpt lat="41.896310" lon="12.475850">
						<ele>30</ele>
						<time>2026-05-01T10:34:36Z</time>
					</trkpt>
					<trkpt lat="41.896590" lon="12.473570">
						<ele>33</ele>
						<time>2026-05-01T10:36:54Z</time>
					</trkpt>
					<trkpt lat="41.896980" lon="12.472280">
						<ele>31</ele>
						<time>2026-05-01T10:38:17Z</time>
					</trkpt>
					<trkpt lat="41.897600" lon="12.469520">
						<ele>32</ele>
						<time>2026-05-01T10:41:08Z</time>
					</trkpt>
					<trkpt lat="41.897800" lon="12.468890">
						<ele>32</ele>
						<time>2026-05-01T10:41:49Z</time>
					</trkpt>
					<trkpt lat="41.897950" lon="12.468580">
						<ele>32</ele>
						<time>2026-05-01T10:42:11Z</time>
					</trkpt>
					<trkpt lat="41.899500" lon="12.466530">
						<ele>30</ele>
						<time>2026-05-01T10:45:05Z</time>
					</trkpt>
					<trkpt lat="41.899550" lon="12.466600">
						<ele>30</ele>
						<time>2026-05-01T10:45:11Z</time>
					</trkpt>
					<trkpt lat="41.899810" lon="12.466630">
						<ele>30</ele>
						<time>2026-05-01T10:45:32Z</time>
					</trkpt>
					<trkpt lat="41.900150" lon="12.466630">
						<ele>31</ele>
						<time>2026-05-01T10:45:59Z</time>
					</trkpt>
					<trkpt lat="41.900540" lon="12.466570">
						<ele>30</ele>
						<time>2026-05-01T10:46:31Z</time>
					</trkpt>
					<trkpt lat="41.902510" lon="12.466400">
						<ele>18</ele>
						<time>2026-05-01T10:49:09Z</time>
					</trkpt>
					<trkpt lat="41.902480" lon="12.465840">
						<ele>20</ele>
						<time>2026-05-01T10:49:42Z</time>
					</trkpt>
					<trkpt lat="41.902420" lon="12.465320">
						<ele>21</ele>
						<time>2026-05-01T10:50:14Z</time>
					</trkpt>
					<trkpt lat="41.902390" lon="12.464230">
						<ele>24</ele>
						<time>2026-05-01T10:51:19Z</time>
					</trkpt>
					<trkpt lat="41.902320" lon="12.464230">
						<ele>23</ele>
						<time>2026-05-01T10:51:24Z</time>
					</trkpt>
					<trkpt lat="41.902210" lon="12.460610">
						<ele>28</ele>
						<time>2026-05-01T10:55:00Z</time>
					</trkpt>
					<trkpt lat="41.901460" lon="12.460660">
						<ele>31</ele>
						<time>2026-05-01T10:56:00Z</time>
					</trkpt>
					<trkpt lat="41.901280" lon="12.460820">
						<ele>32</ele>
						<time>2026-05-01T10:56:18Z</time>
					</trkpt>
					<trkpt lat="41.901310" lon="12.460890">
						<ele>32</ele>
						<time>2026-05-01T10:56:22Z</time>
					</trkpt>
					<trkpt lat="41.900300" lon="12.461670">
						<ele>29</ele>
						<time>2026-05-01T10:57:56Z</time>
					</trkpt>
					<trkpt lat="41.900320" lon="12.461770">
						<ele>29</ele>
						<time>2026-05-01T10:58:02Z</time>
					</trkpt>
					<trkpt lat="41.900220" lon="12.461790">
						<ele>28</ele>
						<time>2026-05-01T10:58:10Z</time>
					</trkpt>
					<trkpt lat="41.900160" lon="12.461860">
						<ele>28</ele>
						<time>2026-05-01T10:58:16Z</time>
					</trkpt>
					<trkpt lat="41.900100" lon="12.461840">
						<ele>28</ele>
						<time>2026-05-01T10:58:21Z</time>
					</trkpt>
					<trkpt lat="41.899930" lon="12.461960">
						<ele>27</ele>
						<time>2026-05-01T10:58:37Z</time>
					</trkpt>
					<trkpt lat="41.899930" lon="12.462350">
						<ele>23</ele>
						<time>2026-05-01T10:59:00Z</time>
					</trkpt>
					<trkpt lat="41.899680" lon="12.462390">
						<ele>23</ele>
						<time>2026-05-01T10:59:20Z</time>
					</trkpt>
					<trkpt lat="41.899490" lon="12.462380">
						<ele>23</ele>
						<time>2026-05-01T10:59:35Z</time>
					</trkpt>
					<trkpt lat="41.899420" lon="12.462360">
						<ele>23</ele>
						<time>2026-05-01T10:59:41Z</time>
					</trkpt>
					<trkpt lat="41.899370" lon="12.462290">
						<ele>24</ele>
						<time>2026-05-01T10:59:47Z</time>
					</trkpt>
					<trkpt lat="41.898620" lon="12.462850">
						<ele>23</ele>
						<time>2026-05-01T11:00:55Z</time>
					</trkpt>
					<trkpt lat="41.898600" lon="12.462880">
						<ele>22</ele>
						<time>2026-05-01T11:00:58Z</time>
					</trkpt>
					<trkpt lat="41.898620" lon="12.462940">
						<ele>22</ele>
						<time>2026-05-01T11:01:02Z</time>
					</trkpt>
					<trkpt lat="41.898380" lon="12.463180">
						<ele>22</ele>
						<time>2026-05-01T11:01:26Z</time>
					</trkpt>
					<trkpt lat="41.898260" lon="12.463260">
						<ele>22</ele>
						<time>2026-05-01T11:01:36Z</time>
					</trkpt>
					<trkpt lat="41.898200" lon="12.463220">
						<ele>23</ele>
						<time>2026-05-01T11:01:42Z</time>
					</trkpt>
					<trkpt lat="41.896610" lon="12.464430">
						<ele>19</ele>
						<time>2026-05-01T11:04:08Z</time>
					</trkpt>
					<trkpt lat="41.895270" lon="12.465510">
						<ele>22</ele>
						<time>2026-05-01T11:06:13Z</time>
					</trkpt>
					<trkpt lat="41.895040" lon="12.465650">
						<ele>24</ele>
						<time>2026-05-01T11:06:33Z</time>
					</trkpt>
					<trkpt lat="41.894910" lon="12.465790">
						<ele>24</ele>
						<time>2026-05-01T11:06:47Z</time>
					</trkpt>
					<trkpt lat="41.893900" lon="12.466550">
						<ele>24</ele>
						<time>2026-05-01T11:08:20Z</time>
					</trkpt>
					<trkpt lat="41.892750" lon="12.467320">
						<ele>22</ele>
						<time>2026-05-01T11:10:02Z</time>
					</trkpt>
					<trkpt lat="41.892000" lon="12.467750">
						<ele>24</ele>
						<time>2026-05-01T11:11:08Z</time>
					</trkpt>
					<trkpt lat="41.891230" lon="12.468140">
						<ele>26</ele>
						<time>2026-05-01T11:12:14Z</time>
					</trkpt>
					<trkpt lat="41.890380" lon="12.468720">
						<ele>26</ele>
						<time>2026-05-01T11:13:30Z</time>
					</trkpt>
					<trkpt lat="41.890240" lon="12.468800">
						<ele>26</ele>
						<time>2026-05-01T11:13:42Z</time>
					</trkpt>
					<trkpt lat="41.890230" lon="12.468780">
						<ele>26</ele>
						<time>2026-05-01T11:13:44Z</time>
					</trkpt>
					<trkpt lat="41.890180" lon="12.468800">
						<ele>26</ele>
						<time>2026-05-01T11:13:48Z</time>
					</trkpt>
					<trkpt lat="41.890190" lon="12.468850">
						<ele>25</ele>
						<time>2026-05-01T11:13:51Z</time>
					</trkpt>
					<trkpt lat="41.890070" lon="12.468910">
						<ele>25</ele>
						<time>2026-05-01T11:14:01Z</time>
					</trkpt>
					<trkpt lat="41.890080" lon="12.468950">
						<ele>25</ele>
						<time>2026-05-01T11:14:04Z</time>
					</trkpt>
					<trkpt lat="41.889700" lon="12.469130">
						<ele>25</ele>
						<time>2026-05-01T11:14:36Z</time>
					</trkpt>
					<trkpt lat="41.889710" lon="12.469160">
						<ele>25</ele>
						<time>2026-05-01T11:14:38Z</time>
					</trkpt>
					<trkpt lat="41.889610" lon="12.469200">
						<ele>25</ele>
						<time>2026-05-01T11:14:46Z</time>
					</trkpt>
					<trkpt lat="41.889610" lon="12.469400">
						<ele>25</ele>
						<time>2026-05-01T11:14:58Z</time>
					</trkpt>
					<trkpt lat="41.889790" lon="12.469410">
						<ele>25</ele>
						<time>2026-05-01T11:15:12Z</time>
					</trkpt>
					<trkpt lat="41.889710" lon="12.470920">
						<ele>25</ele>
						<time>2026-05-01T11:16:43Z</time>
					</trkpt>
					<trkpt lat="41.889650" lon="12.471520">
						<ele>26</ele>
						<time>2026-05-01T11:17:19Z</time>
					</trkpt>
					<trkpt lat="41.889370" lon="12.475560">
						<ele>27</ele>
						<time>2026-05-01T11:21:21Z</time>
					</trkpt>
					<trkpt lat="41.889310" lon="12.475910">
						<ele>27</ele>
						<time>2026-05-01T11:21:42Z</time>
					</trkpt>
					<trkpt lat="41.889330" lon="12.476110">
						<ele>27</ele>
						<time>2026-05-01T11:21:54Z</time>
					</trkpt>
					<trkpt lat="41.889280" lon="12.476940">
						<ele>26</ele>
						<time>2026-05-01T11:22:44Z</time>
					</trkpt>
					<trkpt lat="41.889300" lon="12.477040">
						<ele>26</ele>
						<time>2026-05-01T11:22:50Z</time>
					</trkpt>
					<trkpt lat="41.889430" lon="12.477050">
						<ele>25</ele>
						<time>2026-05-01T11:23:00Z</time>
					</trkpt>
					<trkpt lat="41.889530" lon="12.477090">
						<ele>23</ele>
						<time>2026-05-01T11:23:09Z</time>
					</trkpt>
					<trkpt lat="41.889550" lon="12.477020">
						<ele>23</ele>
						<time>2026-05-01T11:23:13Z</time>
					</trkpt>
					<trkpt lat="41.889690" lon="12.477090">
						<ele>22</ele>
						<time>2026-05-01T11:23:25Z</time>
					</trkpt>
					<trkpt lat="41.889670" lon="12.477150">
						<ele>22</ele>
						<time>2026-05-01T11:23:29Z</time>
					</trkpt>
					<trkpt lat="41.890150" lon="12.477320">
						<ele>19</ele>
						<time>2026-05-01T11:24:09Z</time>
					</trkpt>
					<trkpt lat="41.890390" lon="12.477440">
						<ele>20</ele>
						<time>2026-05-01T11:24:29Z</time>
					</trkpt>
					<trkpt lat="41.891340" lon="12.478550">
						<ele>14</ele>
						<time>2026-05-01T11:26:10Z</time>
					</trkpt>
					<trkpt lat="41.891050" lon="12.478970">
						<ele>17</ele>
						<time>2026-05-01T11:26:44Z</time>
					</trkpt>
					<trkpt lat="41.890660" lon="12.479420">
						<ele>18</ele>
						<time>2026-05-01T11:27:25Z</time>
					</trkpt>
					<trkpt lat="41.890740" lon="12.479770">
						<ele>18</ele>
						<time>2026-05-01T11:27:47Z</time>
					</trkpt>
					<trkpt lat="41.890660" lon="12.479800">
						<ele>18</ele>
						<time>2026-05-01T11:27:54Z</time>
					</trkpt>
					<trkpt lat="41.890600" lon="12.479680">
						<ele>18</ele>
						<time>2026-05-01T11:28:02Z</time>
					</trkpt>
					<trkpt lat="41.890500" lon="12.479660">
						<ele>18</ele>
						<time>2026-05-01T11:28:11Z</time>
					</trkpt>
					<trkpt lat="41.890480" lon="12.479680">
						<ele>18</ele>
						<time>2026-05-01T11:28:13Z</time>
					</trkpt>
					<trkpt lat="41.890490" lon="12.479710">
						<ele>18</ele>
						<time>2026-05-01T11:28:15Z</time>
					</trkpt>
					<trkpt lat="41.890120" lon="12.479950">
						<ele>20</ele>
						<time>2026-05-01T11:28:47Z</time>
					</trkpt>
					<trkpt lat="41.890130" lon="12.480010">
						<ele>21</ele>
						<time>2026-05-01T11:28:51Z</time>
					</trkpt>
					<trkpt lat="41.889400" lon="12.480300">
						<ele>16</ele>
						<time>2026-05-01T11:29:52Z</time>
					</trkpt>
					<trkpt lat="41.889360" lon="12.480320">
						<ele>16</ele>
						<time>2026-05-01T11:29:55Z</time>
					</trkpt>
					<trkpt lat="41.889360" lon="12.480380">
						<ele>16</ele>
						<time>2026-05-01T11:29:59Z</time>
					</trkpt>
					<trkpt lat="41.889240" lon="12.480440">
						<ele>16</ele>
						<time>2026-05-01T11:30:09Z</time>
					</trkpt>
					<trkpt lat="41.888720" lon="12.480470">
						<ele>17</ele>
						<time>2026-05-01T11:30:51Z</time>
					</trkpt>
					<trkpt lat="41.888580" lon="12.480560">
						<ele>17</ele>
						<time>2026-05-01T11:31:03Z</time>
					</trkpt>
					<trkpt lat="41.888540" lon="12.480540">
						<ele>17</ele>
						<time>2026-05-01T11:31:07Z</time>
					</trkpt>
					<trkpt lat="41.887990" lon="12.480510">
						<ele>20</ele>
						<time>2026-05-01T11:31:51Z</time>
					</trkpt>
					<trkpt lat="41.887970" lon="12.480580">
						<ele>20</ele>
						<time>2026-05-01T11:31:55Z</time>
					</trkpt>
					<trkpt lat="41.887860" lon="12.480530">
						<ele>20</ele>
						<time>2026-05-01T11:32:05Z</time>
					</trkpt>
					<trkpt lat="41.887830" lon="12.480490">
						<ele>21</ele>
						<time>2026-05-01T11:32:08Z</time>
					</trkpt>
					<trkpt lat="41.887740" lon="12.480460">
						<ele>21</ele>
						<time>2026-05-01T11:32:15Z</time>
					</trkpt>
					<trkpt lat="41.887750" lon="12.480370">
						<ele>21</ele>
						<time>2026-05-01T11:32:21Z</time>
					</trkpt>
					<trkpt lat="41.887390" lon="12.480280">
						<ele>23</ele>
						<time>2026-05-01T11:32:50Z</time>
					</trkpt>
					<trkpt lat="41.886910" lon="12.480100">
						<ele>23</ele>
						<time>2026-05-01T11:33:30Z</time>
					</trkpt>
					<trkpt lat="41.886350" lon="12.479760">
						<ele>24</ele>
						<time>2026-05-01T11:34:19Z</time>
					</trkpt>
					<trkpt lat="41.885510" lon="12.479020">
						<ele>28</ele>
						<time>2026-05-01T11:35:40Z</time>
					</trkpt>
					<trkpt lat="41.883340" lon="12.476410">
						<ele>22</ele>
						<time>2026-05-01T11:39:33Z</time>
					</trkpt>
					<trkpt lat="41.883320" lon="12.476480">
						<ele>23</ele>
						<time>2026-05-01T11:39:37Z</time>
					</trkpt>
					<trkpt lat="41.883460" lon="12.476680">
						<ele>25</ele>
						<time>2026-05-01T11:39:54Z</time>
					</trkpt>
					<trkpt lat="41.883320" lon="12.476600">
						<ele>25</ele>
						<time>2026-05-01T11:40:06Z</time>
					</trkpt>
					<trkpt lat="41.883040" lon="12.476520">
						<ele>25</ele>
						<time>2026-05-01T11:40:29Z</time>
					</trkpt>
					<trkpt lat="41.882870" lon="12.476520">
						<ele>26</ele>
						<time>2026-05-01T11:40:43Z</time>
					</trkpt>
					<trkpt lat="41.882320" lon="12.476680">
						<ele>27</ele>
						<time>2026-05-01T11:41:28Z</time>
					</trkpt>
					<trkpt lat="41.881930" lon="12.476940">
						<ele>30</ele>
						<time>2026-05-01T11:42:02Z</time>
					</trkpt>
					<trkpt lat="41.881860" lon="12.476830">
						<ele>28</ele>
						<time>2026-05-01T11:42:11Z</time>
					</trkpt>
					<trkpt lat="41.881780" lon="12.476890">
						<ele>28</ele>
						<time>2026-05-01T11:42:18Z</time>
					</trkpt>
					<trkpt lat="41.881720" lon="12.476770">
						<ele>26</ele>
						<time>2026-05-01T11:42:27Z</time>
					</trkpt>
					<trkpt lat="41.881330" lon="12.476230">
						<ele>27</ele>
						<time>2026-05-01T11:43:12Z</time>
					</trkpt>
					<trkpt lat="41.881270" lon="12.476310">
						<ele>27</ele>
						<time>2026-05-01T11:43:19Z</time>
					</trkpt>
					<trkpt lat="41.880530" lon="12.476820">
						<ele>26</ele>
						<time>2026-05-01T11:44:25Z</time>
					</trkpt>
					<trkpt lat="41.880810" lon="12.477550">
						<ele>27</ele>
						<time>2026-05-01T11:45:14Z</time>
					</trkpt>
					<trkpt lat="41.879760" lon="12.478290">
						<ele>22</ele>
						<time>2026-05-01T11:46:49Z</time>
					</trkpt>
					<trkpt lat="41.879810" lon="12.478420">
						<ele>22</ele>
						<time>2026-05-01T11:46:58Z</time>
					</trkpt>
					<trkpt lat="41.878900" lon="12.479070">
						<ele>22</ele>
						<time>2026-05-01T11:48:20Z</time>
					</trkpt>
					<trkpt lat="41.878920" lon="12.479130">
						<ele>22</ele>
						<time>2026-05-01T11:48:24Z</time>
					</trkpt>
					<trkpt lat="41.878680" lon="12.479300">
						<ele>22</ele>
						<time>2026-05-01T11:48:46Z</time>
					</trkpt>
					<trkpt lat="41.878660" lon="12.479230">
						<ele>22</ele>
						<time>2026-05-01T11:48:50Z</time>
					</trkpt>
					<trkpt lat="41.878600" lon="12.479270">
						<ele>22</ele>
						<time>2026-05-01T11:48:56Z</time>
					</trkpt>
					<trkpt lat="41.878580" lon="12.479200">
						<ele>22</ele>
						<time>2026-05-01T11:49:00Z</time>
					</trkpt>
					<trkpt lat="41.878160" lon="12.479490">
						<ele>21</ele>
						<time>2026-05-01T11:49:38Z</time>
					</trkpt>
					<trkpt lat="41.878050" lon="12.479490">
						<ele>20</ele>
						<time>2026-05-01T11:49:47Z</time>
					</trkpt>
					<trkpt lat="41.877890" lon="12.479670">
						<ele>20</ele>
						<time>2026-05-01T11:50:04Z</time>
					</trkpt>
					<trkpt lat="41.877860" lon="12.479620">
						<ele>20</ele>
						<time>2026-05-01T11:50:07Z</time>
					</trkpt>
					<trkpt lat="41.877000" lon="12.480770">
						<ele>19</ele>
						<time>2026-05-01T11:51:45Z</time>
					</trkpt>
					<trkpt lat="41.876730" lon="12.480850">
						<ele>19</ele>
						<time>2026-05-01T11:52:07Z</time>
					</trkpt>
					<trkpt lat="41.876500" lon="12.481150">
						<ele>19</ele>
						<time>2026-05-01T11:52:32Z</time>
					</trkpt>
					<trkpt lat="41.876270" lon="12.481030">
						<ele>18</ele>
						<time>2026-05-01T11:52:52Z</time>
					</trkpt>
					<trkpt lat="41.876220" lon="12.480920">
						<ele>18</ele>
						<time>2026-05-01T11:53:00Z</time>
					</trkpt>
					<trkpt lat="41.876130" lon="12.480850">
						<ele>18</ele>
						<time>2026-05-01T11:53:08Z</time>
					</trkpt>
					<trkpt lat="41.876060" lon="12.480720">
						<ele>19</ele>
						<time>2026-05-01T11:53:18Z</time>
					</trkpt>
					<trkpt lat="41.876030" lon="12.480740">
						<ele>19</ele>
						<time>2026-05-01T11:53:20Z</time>
					</trkpt>
					<trkpt lat="41.875830" lon="12.480520">
						<ele>20</ele>
						<time>2026-05-01T11:53:41Z</time>
					</trkpt>
					<trkpt lat="41.875710" lon="12.480480">
						<ele>20</ele>
						<time>2026-05-01T11:53:51Z</time>
					</trkpt>
					<trkpt lat="41.875690" lon="12.480490">
						<ele>20</ele>
						<time>2026-05-01T11:53:53Z</time>
					</trkpt>
					<trkpt lat="41.875680" lon="12.480600">
						<ele>20</ele>
						<time>2026-05-01T11:53:59Z</time>
					</trkpt>
					<trkpt lat="41.865250" lon="12.478840">
						<ele>21</ele>
						<time>2026-05-01T12:08:01Z</time>
					</trkpt>
					<trkpt lat="41.865230" lon="12.479130">
						<ele>21</ele>
						<time>2026-05-01T12:08:18Z</time>
					</trkpt>
					<trkpt lat="41.865430" lon="12.479160">
						<ele>20</ele>
						<time>2026-05-01T12:08:35Z</time>
					</trkpt>
					<trkpt lat="41.865420" lon="12.479290">
						<ele>21</ele>
						<time>2026-05-01T12:08:42Z</time>
					</trkpt>
					<trkpt lat="41.865170" lon="12.479250">
						<ele>21</ele>
						<time>2026-05-01T12:09:02Z</time>
					</trkpt>
					<trkpt lat="41.865140" lon="12.479180">
						<ele>21</ele>
						<time>2026-05-01T12:09:07Z</time>
					</trkpt>
					<trkpt lat="41.862800" lon="12.478800">
						<ele>19</ele>
						<time>2026-05-01T12:12:16Z</time>
					</trkpt>
					<trkpt lat="41.862780" lon="12.478450">
						<ele>19</ele>
						<time>2026-05-01T12:12:37Z</time>
					</trkpt>
					<trkpt lat="41.860810" lon="12.478090">
						<ele>20</ele>
						<time>2026-05-01T12:15:16Z</time>
					</trkpt>
					<trkpt lat="41.860740" lon="12.478120">
						<ele>20</ele>
						<time>2026-05-01T12:15:22Z</time>
					</trkpt>
					<trkpt lat="41.860700" lon="12.478340">
						<ele>21</ele>
						<time>2026-05-01T12:15:36Z</time>
					</trkpt>
					<trkpt lat="41.860510" lon="12.478340">
						<ele>21</ele>
						<time>2026-05-01T12:15:51Z</time>
					</trkpt>
					<trkpt lat="41.860110" lon="12.478430">
						<ele>23</ele>
						<time>2026-05-01T12:16:23Z</time>
					</trkpt>
					<trkpt lat="41.859660" lon="12.478310">
						<ele>22</ele>
						<time>2026-05-01T12:17:00Z</time>
					</trkpt>
					<trkpt lat="41.859060" lon="12.477770">
						<ele>20</ele>
						<time>2026-05-01T12:17:58Z</time>
					</trkpt>
					<trkpt lat="41.859420" lon="12.475300">
						<ele>16</ele>
						<time>2026-05-01T12:20:28Z</time>
					</trkpt>
					<trkpt lat="41.858900" lon="12.475160">
						<ele>15</ele>
						<time>2026-05-01T12:21:10Z</time>
					</trkpt>
					<trkpt lat="41.858840" lon="12.475560">
						<ele>16</ele>
						<time>2026-05-01T12:21:35Z</time>
					</trkpt>
					<trkpt lat="41.858790" lon="12.475610">
						<ele>17</ele>
						<time>2026-05-01T12:21:40Z</time>
					</trkpt>
					<trkpt lat="41.858820" lon="12.475670">
						<ele>17</ele>
						<time>2026-05-01T12:21:44Z</time>
					</trkpt>
					<trkpt lat="41.858600" lon="12.477300">
						<ele>20</ele>
						<time>2026-05-01T12:23:23Z</time>
					</trkpt>
					<trkpt lat="41.859110" lon="12.477430">
						<ele>19</ele>
						<time>2026-05-01T12:24:04Z</time>
					</trkpt>
					<trkpt lat="41.859060" lon="12.477770">
						<ele>20</ele>
						<time>2026-05-01T12:24:25Z</time>
					</trkpt>
					<trkpt lat="41.859660" lon="12.478310">
						<ele>22</ele>
						<time>2026-05-01T12:25:23Z</time>
					</trkpt>
					<trkpt lat="41.859880" lon="12.478380">
						<ele>23</ele>
						<time>2026-05-01T12:25:41Z</time>
					</trkpt>
					<trkpt lat="41.859990" lon="12.478570">
						<ele>25</ele>
						<time>2026-05-01T12:25:55Z</time>
					</trkpt>
					<trkpt lat="41.860470" lon="12.479160">
						<ele>28</ele>
						<time>2026-05-01T12:26:47Z</time>
					</trkpt>
					<trkpt lat="41.860650" lon="12.479510">
						<ele>27</ele>
						<time>2026-05-01T12:27:13Z</time>
					</trkpt>
					<trkpt lat="41.860680" lon="12.479720">
						<ele>27</ele>
						<time>2026-05-01T12:27:25Z</time>
					</trkpt>
					<trkpt lat="41.860570" lon="12.480260">
						<ele>29</ele>
						<time>2026-05-01T12:27:59Z</time>
					</trkpt>
					<trkpt lat="41.860670" lon="12.480710">
						<ele>29</ele>
						<time>2026-05-01T12:28:27Z</time>
					</trkpt>
					<trkpt lat="41.860920" lon="12.481220">
						<ele>30</ele>
						<time>2026-05-01T12:29:03Z</time>
					</trkpt>
					<trkpt lat="41.860980" lon="12.481400">
						<ele>30</ele>
						<time>2026-05-01T12:29:15Z</time>
					</trkpt>
					<trkpt lat="41.861120" lon="12.482130">
						<ele>31</ele>
						<time>2026-05-01T12:30:00Z</time>
					</trkpt>
					<trkpt lat="41.861560" lon="12.483670">
						<ele>33</ele>
						<time>2026-05-01T12:31:38Z</time>
					</trkpt>
					<trkpt lat="41.861660" lon="12.483740">
						<ele>33</ele>
						<time>2026-05-01T12:31:47Z</time>
					</trkpt>
					<trkpt lat="41.861720" lon="12.483740">
						<ele>33</ele>
						<time>2026-05-01T12:31:52Z</time>
					</trkpt>
					<trkpt lat="41.861740" lon="12.483810">
						<ele>32</ele>
						<time>2026-05-01T12:31:57Z</time>
					</trkpt>
					<trkpt lat="41.861600" lon="12.483840">
						<ele>33</ele>
						<time>2026-05-01T12:32:08Z</time>
					</trkpt>
					<trkpt lat="41.861560" lon="12.483910">
						<ele>33</ele>
						<time>2026-05-01T12:32:13Z</time>
					</trkpt>
					<trkpt lat="41.861350" lon="12.485180">
						<ele>34</ele>
						<time>2026-05-01T12:33:31Z</time>
					</trkpt>
					<trkpt lat="41.861400" lon="12.485250">
						<ele>34</ele>
						<time>2026-05-01T12:33:37Z</time>
					</trkpt>
					<trkpt lat="41.861270" lon="12.485380">
						<ele>34</ele>
						<time>2026-05-01T12:33:50Z</time>
					</trkpt>
					<trkpt lat="41.861240" lon="12.485370">
						<ele>35</ele>
						<time>2026-05-01T12:33:52Z</time>
					</trkpt>
					<trkpt lat="41.861190" lon="12.485490">
						<ele>35</ele>
						<time>2026-05-01T12:34:00Z</time>
					</trkpt>
					<trkpt lat="41.861250" lon="12.485810">
						<ele>34</ele>
						<time>2026-05-01T12:34:20Z</time>
					</trkpt>
					<trkpt lat="41.861300" lon="12.485910">
						<ele>34</ele>
						<time>2026-05-01T12:34:27Z</time>
					</trkpt>
					<trkpt lat="41.861110" lon="12.486140">
						<ele>33</ele>
						<time>2026-05-01T12:34:48Z</time>
					</trkpt>
					<trkpt lat="41.860990" lon="12.486170">
						<ele>33</ele>
						<time>2026-05-01T12:34:57Z</time>
					</trkpt>
					<trkpt lat="41.860930" lon="12.486230">
						<ele>33</ele>
						<time>2026-05-01T12:35:03Z</time>
					</trkpt>
					<trkpt lat="41.860920" lon="12.486270">
						<ele>33</ele>
						<time>2026-05-01T12:35:06Z</time>
					</trkpt>
					<trkpt lat="41.860940" lon="12.486280">
						<ele>33</ele>
						<time>2026-05-01T12:35:08Z</time>
					</trkpt>
					<trkpt lat="41.860660" lon="12.486820">
						<ele>34</ele>
						<time>2026-05-01T12:35:47Z</time>
					</trkpt>
					<trkpt lat="41.860650" lon="12.486800">
						<ele>34</ele>
						<time>2026-05-01T12:35:48Z</time>
					</trkpt>
					<trkpt lat="41.860640" lon="12.486820">
						<ele>34</ele>
						<time>2026-05-01T12:35:50Z</time>
					</trkpt>
					<trkpt lat="41.860590" lon="12.486800">
						<ele>34</ele>
						<time>2026-05-01T12:35:54Z</time>
					</trkpt>
					<trkpt lat="41.859880" lon="12.487920">
						<ele>42</ele>
						<time>2026-05-01T12:37:22Z</time>
					</trkpt>
					<trkpt lat="41.859620" lon="12.488430">
						<ele>44</ele>
						<time>2026-05-01T12:37:58Z</time>
					</trkpt>
					<trkpt lat="41.859540" lon="12.488700">
						<ele>43</ele>
						<time>2026-05-01T12:38:16Z</time>
					</trkpt>
					<trkpt lat="41.859490" lon="12.488980">
						<ele>41</ele>
						<time>2026-05-01T12:38:33Z</time>
					</trkpt>
					<trkpt lat="41.859480" lon="12.489460">
						<ele>40</ele>
						<time>2026-05-01T12:39:02Z</time>
					</trkpt>
					<trkpt lat="41.859560" lon="12.489980">
						<ele>39</ele>
						<time>2026-05-01T12:39:33Z</time>
					</trkpt>
					<trkpt lat="41.860080" lon="12.492680">
						<ele>39</ele>
						<time>2026-05-01T12:42:20Z</time>
					</trkpt>
					<trkpt lat="41.860160" lon="12.493340">
						<ele>36</ele>
						<time>2026-05-01T12:42:59Z</time>
					</trkpt>
					<trkpt lat="41.860160" lon="12.493880">
						<ele>37</ele>
						<time>2026-05-01T12:43:32Z</time>
					</trkpt>
					<trkpt lat="41.860040" lon="12.494040">
						<ele>38</ele>
						<time>2026-05-01T12:43:45Z</time>
					</trkpt>
					<trkpt lat="41.859960" lon="12.494080">
						<ele>38</ele>
						<time>2026-05-01T12:43:52Z</time>
					</trkpt>
					<trkpt lat="41.859910" lon="12.494220">
						<ele>39</ele>
						<time>2026-05-01T12:44:01Z</time>
					</trkpt>
					<trkpt lat="41.859930" lon="12.494310">
						<ele>38</ele>
						<time>2026-05-01T12:44:07Z</time>
					</trkpt>
					<trkpt lat="41.859980" lon="12.494380">
						<ele>38</ele>
						<time>2026-05-01T12:44:13Z</time>
					</trkpt>
					<trkpt lat="41.859970" lon="12.494570">
						<ele>37</ele>
						<time>2026-05-01T12:44:24Z</time>
					</trkpt>
					<trkpt lat="41.859830" lon="12.494820">
						<ele>38</ele>
						<time>2026-05-01T12:44:43Z</time>
					</trkpt>
					<trkpt lat="41.859420" lon="12.495380">
						<ele>41</ele>
						<time>2026-05-01T12:45:30Z</time>
					</trkpt>
					<trkpt lat="41.859450" lon="12.495520">
						<ele>40</ele>
						<time>2026-05-01T12:45:38Z</time>
					</trkpt>
					<trkpt lat="41.859400" lon="12.495660">
						<ele>39</ele>
						<time>2026-05-01T12:45:47Z</time>
					</trkpt>
					<trkpt lat="41.859380" lon="12.496710">
						<ele>38</ele>
						<time>2026-05-01T12:46:50Z</time>
					</trkpt>
					<trkpt lat="41.859390" lon="12.496770">
						<ele>38</ele>
						<time>2026-05-01T12:46:54Z</time>
					</trkpt>
					<trkpt lat="41.859670" lon="12.497150">
						<ele>38</ele>
						<time>2026-05-01T12:47:26Z</time>
					</trkpt>
					<trkpt lat="41.859770" lon="12.497250">
						<ele>38</ele>
						<time>2026-05-01T12:47:36Z</time>
					</trkpt>
					<trkpt lat="41.859740" lon="12.497310">
						<ele>38</ele>
						<time>2026-05-01T12:47:40Z</time>
					</trkpt>
					<trkpt lat="41.859790" lon="12.497370">
						<ele>38</ele>
						<time>2026-05-01T12:47:45Z</time>
					</trkpt>
					<trkpt lat="41.860140" lon="12.497600">
						<ele>39</ele>
						<time>2026-05-01T12:48:17Z</time>
					</trkpt>
					<trkpt lat="41.860410" lon="12.497700">
						<ele>41</ele>
						<time>2026-05-01T12:48:39Z</time>
					</trkpt>
					<trkpt lat="41.860490" lon="12.498070">
						<ele>41</ele>
						<time>2026-05-01T12:49:02Z</time>
					</trkpt>
					<trkpt lat="41.860540" lon="12.498070">
						<ele>41</ele>
						<time>2026-05-01T12:49:06Z</time>
					</trkpt>
					<trkpt lat="41.860460" lon="12.498510">
						<ele>42</ele>
						<time>2026-05-01T12:49:33Z</time>
					</trkpt>
					<trkpt lat="41.860480" lon="12.498550">
						<ele>42</ele>
						<time>2026-05-01T12:49:36Z</time>
					</trkpt>
					<trkpt lat="41.860430" lon="12.498590">
						<ele>42</ele>
						<time>2026-05-01T12:49:40Z</time>
					</trkpt>
					<trkpt lat="41.860410" lon="12.498700">
						<ele>43</ele>
						<time>2026-05-01T12:49:47Z</time>
					</trkpt>
					<trkpt lat="41.860580" lon="12.498810">
						<ele>45</ele>
						<time>2026-05-01T12:50:02Z</time>
					</trkpt>
					<trkpt lat="41.860490" lon="12.499090">
						<ele>46</ele>
						<time>2026-05-01T12:50:20Z</time>
					</trkpt>
					<trkpt lat="41.860230" lon="12.499260">
						<ele>44</ele>
						<time>2026-05-01T12:50:44Z</time>
					</trkpt>
					<trkpt lat="41.860270" lon="12.499370">
						<ele>45</ele>
						<time>2026-05-01T12:50:51Z</time>
					</trkpt>
					<trkpt lat="41.860050" lon="12.499850">
						<ele>43</ele>
						<time>2026-05-01T12:51:25Z</time>
					</trkpt>
					<trkpt lat="41.859850" lon="12.499750">
						<ele>42</ele>
						<time>2026-05-01T12:51:42Z</time>
					</trkpt>
					<trkpt lat="41.859670" lon="12.500530">
						<ele>43</ele>
						<time>2026-05-01T12:52:30Z</time>
					</trkpt>
					<trkpt lat="41.859740" lon="12.500560">
						<ele>44</ele>
						<time>2026-05-01T12:52:36Z</time>
					</trkpt>
					<trkpt lat="41.859720" lon="12.500670">
						<ele>44</ele>
						<time>2026-05-01T12:52:43Z</time>
					</trkpt>
					<trkpt lat="41.859700" lon="12.500750">
						<ele>44</ele>
						<time>2026-05-01T12:52:48Z</time>
					</trkpt>
					<trkpt lat="41.859630" lon="12.500720">
						<ele>44</ele>
						<time>2026-05-01T12:52:54Z</time>
					</trkpt>
					<trkpt lat="41.859410" lon="12.501720">
						<ele>42</ele>
						<time>2026-05-01T12:53:56Z</time>
					</trkpt>
					<trkpt lat="41.859400" lon="12.501900">
						<ele>42</ele>
						<time>2026-05-01T12:54:07Z</time>
					</trkpt>
					<trkpt lat="41.859430" lon="12.502190">
						<ele>42</ele>
						<time>2026-05-01T12:54:24Z</time>
					</trkpt>
					<trkpt lat="41.859350" lon="12.502200">
						<ele>42</ele>
						<time>2026-05-01T12:54:31Z</time>
					</trkpt>
					<trkpt lat="41.859330" lon="12.502350">
						<ele>42</ele>
						<time>2026-05-01T12:54:40Z</time>
					</trkpt>
					<trkpt lat="41.859230" lon="12.502410">
						<ele>43</ele>
						<time>2026-05-01T12:54:49Z</time>
					</trkpt>
					<trkpt lat="41.859220" lon="12.502590">
						<ele>44</ele>
						<time>2026-05-01T12:54:59Z</time>
					</trkpt>
					<trkpt lat="41.859350" lon="12.502660">
						<ele>43</ele>
						<time>2026-05-01T12:55:11Z</time>
					</trkpt>
					<trkpt lat="41.859290" lon="12.503380">
						<ele>46</ele>
						<time>2026-05-01T12:55:54Z</time>
					</trkpt>
					<trkpt lat="41.859160" lon="12.504320">
						<ele>46</ele>
						<time>2026-05-01T12:56:51Z</time>
					</trkpt>
					<trkpt lat="41.859140" lon="12.504790">
						<ele>45</ele>
						<time>2026-05-01T12:57:19Z</time>
					</trkpt>
					<trkpt lat="41.859160" lon="12.505310">
						<ele>43</ele>
						<time>2026-05-01T12:57:50Z</time>
					</trkpt>
					<trkpt lat="41.859120" lon="12.505670">
						<ele>42</ele>
						<time>2026-05-01T12:58:12Z</time>
					</trkpt>
					<trkpt lat="41.859060" lon="12.505860">
						<ele>41</ele>
						<time>2026-05-01T12:58:24Z</time>
					</trkpt>
					<trkpt lat="41.858900" lon="12.506170">
						<ele>42</ele>
						<time>2026-05-01T12:58:46Z</time>
					</trkpt>
					<trkpt lat="41.858540" lon="12.507700">
						<ele>43</ele>
						<time>2026-05-01T13:00:22Z</time>
					</trkpt>
					<trkpt lat="41.858070" lon="12.509070">
						<ele>43</ele>
						<time>2026-05-01T13:01:52Z</time>
					</trkpt>
					<trkpt lat="41.857820" lon="12.509880">
						<ele>43</ele>
						<time>2026-05-01T13:02:44Z</time>
					</trkpt>
					<trkpt lat="41.857830" lon="12.510080">
						<ele>42</ele>
						<time>2026-05-01T13:02:56Z</time>
					</trkpt>
					<trkpt lat="41.857290" lon="12.511560">
						<ele>44</ele>
						<time>2026-05-01T13:04:35Z</time>
					</trkpt>
					<trkpt lat="41.856870" lon="12.512570">
						<ele>48</ele>
						<time>2026-05-01T13:05:44Z</time>
					</trkpt>
					<trkpt lat="41.856820" lon="12.513510">
						<ele>50</ele>
						<time>2026-05-01T13:06:40Z</time>
					</trkpt>
					<trkpt lat="41.856720" lon="12.514020">
						<ele>51</ele>
						<time>2026-05-01T13:07:11Z</time>
					</trkpt>
					<trkpt lat="41.856660" lon="12.514160">
						<ele>51</ele>
						<time>2026-05-01T13:07:21Z</time>
					</trkpt>
					<trkpt lat="41.856180" lon="12.514710">
						<ele>48</ele>
						<time>2026-05-01T13:08:11Z</time>
					</trkpt>
					<trkpt lat="41.856060" lon="12.514900">
						<ele>48</ele>
						<time>2026-05-01T13:08:26Z</time>
					</trkpt>
					<trkpt lat="41.856030" lon="12.515030">
						<ele>47</ele>
						<time>2026-05-01T13:08:34Z</time>
					</trkpt>
					<trkpt lat="41.856040" lon="12.515160">
						<ele>47</ele>
						<time>2026-05-01T13:08:42Z</time>
					</trkpt>
					<trkpt lat="41.856260" lon="12.515940">
						<ele>47</ele>
						<time>2026-05-01T13:09:32Z</time>
					</trkpt>
					<trkpt lat="41.856030" lon="12.516210">
						<ele>46</ele>
						<time>2026-05-01T13:09:56Z</time>
					</trkpt>
					<trkpt lat="41.856320" lon="12.515880">
						<ele>47</ele>
						<time>2026-05-01T13:10:27Z</time>
					</trkpt>
					<trkpt lat="41.856240" lon="12.515400">
						<ele>48</ele>
						<time>2026-05-01T13:10:56Z</time>
					</trkpt>
					<trkpt lat="41.856250" lon="12.515270">
						<ele>48</ele>
						<time>2026-05-01T13:11:04Z</time>
					</trkpt>
					<trkpt lat="41.856330" lon="12.515130">
						<ele>49</ele>
						<time>2026-05-01T13:11:14Z</time>
					</trkpt>
					<trkpt lat="41.856640" lon="12.514760">
						<ele>51</ele>
						<time>2026-05-01T13:11:48Z</time>
					</trkpt>
					<trkpt lat="41.856670" lon="12.514600">
						<ele>51</ele>
						<time>2026-05-01T13:11:57Z</time>
					</trkpt>
					<trkpt lat="41.860530" lon="12.509340">
						<ele>44</ele>
						<time>2026-05-01T13:19:18Z</time>
					</trkpt>
					<trkpt lat="41.860680" lon="12.509190">
						<ele>44</ele>
						<time>2026-05-01T13:19:33Z</time>
					</trkpt>
					<trkpt lat="41.860770" lon="12.509150">
						<ele>44</ele>
						<time>2026-05-01T13:19:40Z</time>
					</trkpt>
					<trkpt lat="41.861510" lon="12.508170">
						<ele>44</ele>
						<time>2026-05-01T13:21:04Z</time>
					</trkpt>
					<trkpt lat="41.863750" lon="12.505540">
						<ele>38</ele>
						<time>2026-05-01T13:25:02Z</time>
					</trkpt>
					<trkpt lat="41.865330" lon="12.504400">
						<ele>28</ele>
						<time>2026-05-01T13:27:25Z</time>
					</trkpt>
					<trkpt lat="41.866280" lon="12.503650">
						<ele>23</ele>
						<time>2026-05-01T13:28:54Z</time>
					</trkpt>
					<trkpt lat="41.866390" lon="12.503530">
						<ele>23</ele>
						<time>2026-05-01T13:29:05Z</time>
					</trkpt>
					<trkpt lat="41.866840" lon="12.503150">
						<ele>21</ele>
						<time>2026-05-01T13:29:48Z</time>
					</trkpt>
					<trkpt lat="41.867100" lon="12.502970">
						<ele>20</ele>
						<time>2026-05-01T13:30:11Z</time>
					</trkpt>
					<trkpt lat="41.868410" lon="12.502490">
						<ele>16</ele>
						<time>2026-05-01T13:32:00Z</time>
					</trkpt>
					<trkpt lat="41.869880" lon="12.502080">
						<ele>19</ele>
						<time>2026-05-01T13:34:00Z</time>
					</trkpt>
					<trkpt lat="41.870600" lon="12.501940">
						<ele>21</ele>
						<time>2026-05-01T13:34:58Z</time>
					</trkpt>
					<trkpt lat="41.870930" lon="12.501910">
						<ele>23</ele>
						<time>2026-05-01T13:35:25Z</time>
					</trkpt>
					<trkpt lat="41.871630" lon="12.502020">
						<ele>28</ele>
						<time>2026-05-01T13:36:21Z</time>
					</trkpt>
					<trkpt lat="41.871980" lon="12.502040">
						<ele>30</ele>
						<time>2026-05-01T13:36:49Z</time>
					</trkpt>
					<trkpt lat="41.872110" lon="12.502010">
						<ele>31</ele>
						<time>2026-05-01T13:37:00Z</time>
					</trkpt>
					<trkpt lat="41.873190" lon="12.501610">
						<ele>38</ele>
						<time>2026-05-01T13:38:29Z</time>
					</trkpt>
					<trkpt lat="41.873220" lon="12.501720">
						<ele>37</ele>
						<time>2026-05-01T13:38:36Z</time>
					</trkpt>
					<trkpt lat="41.873290" lon="12.501760">
						<ele>38</ele>
						<time>2026-05-01T13:38:43Z</time>
					</trkpt>
					<trkpt lat="41.873440" lon="12.502400">
						<ele>38</ele>
						<time>2026-05-01T13:39:23Z</time>
					</trkpt>
					<trkpt lat="41.873560" lon="12.502690">
						<ele>39</ele>
						<time>2026-05-01T13:39:42Z</time>
					</trkpt>
					<trkpt lat="41.873760" lon="12.503000">
						<ele>40</ele>
						<time>2026-05-01T13:40:07Z</time>
					</trkpt>
					<trkpt lat="41.874330" lon="12.503640">
						<ele>43</ele>
						<time>2026-05-01T13:41:06Z</time>
					</trkpt>
					<trkpt lat="41.874480" lon="12.503740">
						<ele>43</ele>
						<time>2026-05-01T13:41:20Z</time>
					</trkpt>
					<trkpt lat="41.874580" lon="12.503750">
						<ele>43</ele>
						<time>2026-05-01T13:41:28Z</time>
					</trkpt>
					<trkpt lat="41.874740" lon="12.503710">
						<ele>44</ele>
						<time>2026-05-01T13:41:41Z</time>
					</trkpt>
					<trkpt lat="41.874860" lon="12.503630">
						<ele>44</ele>
						<time>2026-05-01T13:41:51Z</time>
					</trkpt>
					<trkpt lat="41.875130" lon="12.503130">
						<ele>45</ele>
						<time>2026-05-01T13:42:28Z</time>
					</trkpt>
					<trkpt lat="41.876740" lon="12.504090">
						<ele>45</ele>
						<time>2026-05-01T13:44:49Z</time>
					</trkpt>
					<trkpt lat="41.878350" lon="12.505410">
						<ele>44</ele>
						<time>2026-05-01T13:47:20Z</time>
					</trkpt>
					<trkpt lat="41.878780" lon="12.504250">
						<ele>42</ele>
						<time>2026-05-01T13:48:38Z</time>
					</trkpt>
					<trkpt lat="41.880850" lon="12.504420">
						<ele>48</ele>
						<time>2026-05-01T13:51:24Z</time>
					</trkpt>
					<trkpt lat="41.880870" lon="12.504300">
						<ele>48</ele>
						<time>2026-05-01T13:51:31Z</time>
					</trkpt>
					<trkpt lat="41.881050" lon="12.504340">
						<ele>48</ele>
						<time>2026-05-01T13:51:46Z</time>
					</trkpt>
					<trkpt lat="41.881030" lon="12.504430">
						<ele>48</ele>
						<time>2026-05-01T13:51:51Z</time>
					</trkpt>
					<trkpt lat="41.882590" lon="12.504640">
						<ele>40</ele>
						<time>2026-05-01T13:53:57Z</time>
					</trkpt>
					<trkpt lat="41.882620" lon="12.504390">
						<ele>40</ele>
						<time>2026-05-01T13:54:12Z</time>
					</trkpt>
					<trkpt lat="41.883090" lon="12.503970">
						<ele>40</ele>
						<time>2026-05-01T13:54:57Z</time>
					</trkpt>
					<trkpt lat="41.883120" lon="12.504020">
						<ele>40</ele>
						<time>2026-05-01T13:55:01Z</time>
					</trkpt>
					<trkpt lat="41.883300" lon="12.503660">
						<ele>39</ele>
						<time>2026-05-01T13:55:27Z</time>
					</trkpt>
					<trkpt lat="41.883160" lon="12.503270">
						<ele>39</ele>
						<time>2026-05-01T13:55:52Z</time>
					</trkpt>
					<trkpt lat="41.883420" lon="12.503200">
						<ele>39</ele>
						<time>2026-05-01T13:56:14Z</time>
					</trkpt>
					<trkpt lat="41.885660" lon="12.503030">
						<ele>48</ele>
						<time>2026-05-01T13:59:13Z</time>
					</trkpt>
					<trkpt lat="41.886950" lon="12.504760">
						<ele>54</ele>
						<time>2026-05-01T14:01:39Z</time>
					</trkpt>
					<trkpt lat="41.887110" lon="12.505530">
						<ele>60</ele>
						<time>2026-05-01T14:02:27Z</time>
					</trkpt>
					<trkpt lat="41.886970" lon="12.506230">
						<ele>59</ele>
						<time>2026-05-01T14:03:10Z</time>
					</trkpt>
					<trkpt lat="41.886180" lon="12.506490">
						<ele>57</ele>
						<time>2026-05-01T14:04:15Z</time>
					</trkpt>
					<trkpt lat="41.886170" lon="12.506400">
						<ele>58</ele>
						<time>2026-05-01T14:04:21Z</time>
					</trkpt>
					<trkpt lat="41.885990" lon="12.506450">
						<ele>58</ele>
						<time>2026-05-01T14:04:35Z</time>
					</trkpt>
					<trkpt lat="41.885840" lon="12.505540">
						<ele>64</ele>
						<time>2026-05-01T14:05:31Z</time>
					</trkpt>
					<trkpt lat="41.885990" lon="12.506450">
						<ele>58</ele>
						<time>2026-05-01T14:06:27Z</time>
					</trkpt>
					<trkpt lat="41.888540" lon="12.515410">
						<ele>54</ele>
						<time>2026-05-01T14:15:58Z</time>
					</trkpt>
					<trkpt lat="41.888480" lon="12.515190">
						<ele>54</ele>
						<time>2026-05-01T14:16:12Z</time>
					</trkpt>
					<trkpt lat="41.888440" lon="12.514910">
						<ele>54</ele>
						<time>2026-05-01T14:16:29Z</time>
					</trkpt>
					<trkpt lat="41.888490" lon="12.514690">
						<ele>54</ele>
						<time>2026-05-01T14:16:43Z</time>
					</trkpt>
					<trkpt lat="41.888840" lon="12.514970">
						<ele>53</ele>
						<time>2026-05-01T14:17:16Z</time>
					</trkpt>
					<trkpt lat="41.888930" lon="12.514770">
						<ele>54</ele>
						<time>2026-05-01T14:17:30Z</time>
					</trkpt>
					<trkpt lat="41.889440" lon="12.515200">
						<ele>52</ele>
						<time>2026-05-01T14:18:18Z</time>
					</trkpt>
					<trkpt lat="41.889540" lon="12.515200">
						<ele>51</ele>
						<time>2026-05-01T14:18:26Z</time>
					</trkpt>
					<trkpt lat="41.889840" lon="12.515020">
						<ele>49</ele>
						<time>2026-05-01T14:18:52Z</time>
					</trkpt>
					<trkpt lat="41.889830" lon="12.514940">
						<ele>49</ele>
						<time>2026-05-01T14:18:57Z</time>
					</trkpt>
					<trkpt lat="41.890020" lon="12.514830">
						<ele>49</ele>
						<time>2026-05-01T14:19:13Z</time>
					</trkpt>
					<trkpt lat="41.890110" lon="12.515070">
						<ele>48</ele>
						<time>2026-05-01T14:19:29Z</time>
					</trkpt>
					<trkpt lat="41.890280" lon="12.515010">
						<ele>48</ele>
						<time>2026-05-01T14:19:44Z</time>
					</trkpt>
					<trkpt lat="41.890370" lon="12.515140">
						<ele>48</ele>
						<time>2026-05-01T14:19:54Z</time>
					</trkpt>
					<trkpt lat="41.890670" lon="12.515250">
						<ele>49</ele>
						<time>2026-05-01T14:20:19Z</time>
					</trkpt>
					<trkpt lat="41.890820" lon="12.515350">
						<ele>49</ele>
						<time>2026-05-01T14:20:32Z</time>
					</trkpt>
					<trkpt lat="41.890900" lon="12.515620">
						<ele>50</ele>
						<time>2026-05-01T14:20:50Z</time>
					</trkpt>
					<trkpt lat="41.890910" lon="12.515730">
						<ele>50</ele>
						<time>2026-05-01T14:20:56Z</time>
					</trkpt>
					<trkpt lat="41.891090" lon="12.515900">
						<ele>51</ele>
						<time>2026-05-01T14:21:14Z</time>
					</trkpt>
					<trkpt lat="41.891150" lon="12.515930">
						<ele>50</ele>
						<time>2026-05-01T14:21:19Z</time>
					</trkpt>
					<trkpt lat="41.891220" lon="12.515920">
						<ele>50</ele>
						<time>2026-05-01T14:21:25Z</time>
					</trkpt>
					<trkpt lat="41.891480" lon="12.516130">
						<ele>50</ele>
						<time>2026-05-01T14:21:49Z</time>
					</trkpt>
					<trkpt lat="41.891520" lon="12.516240">
						<ele>50</ele>
						<time>2026-05-01T14:21:56Z</time>
					</trkpt>
					<trkpt lat="41.891740" lon="12.516440">
						<ele>50</ele>
						<time>2026-05-01T14:22:18Z</time>
					</trkpt>
					<trkpt lat="41.892270" lon="12.515520">
						<ele>50</ele>
						<time>2026-05-01T14:23:27Z</time>
					</trkpt>
					<trkpt lat="41.892330" lon="12.515510">
						<ele>50</ele>
						<time>2026-05-01T14:23:32Z</time>
					</trkpt>
					<trkpt lat="41.892840" lon="12.515980">
						<ele>49</ele>
						<time>2026-05-01T14:24:21Z</time>
					</trkpt>
					<trkpt lat="41.892930" lon="12.516010">
						<ele>48</ele>
						<time>2026-05-01T14:24:29Z</time>
					</trkpt>
					<trkpt lat="41.893550" lon="12.516550">
						<ele>43</ele>
						<time>2026-05-01T14:25:28Z</time>
					</trkpt>
					<trkpt lat="41.896310" lon="12.519010">
						<ele>50</ele>
						<time>2026-05-01T14:29:53Z</time>
					</trkpt>
					<trkpt lat="41.896480" lon="12.519230">
						<ele>51</ele>
						<time>2026-05-01T14:30:12Z</time>
					</trkpt>
					<trkpt lat="41.896540" lon="12.519400">
						<ele>50</ele>
						<time>2026-05-01T14:30:23Z</time>
					</trkpt>
					<trkpt lat="41.896670" lon="12.520210">
						<ele>48</ele>
						<time>2026-05-01T14:31:13Z</time>
					</trkpt>
					<trkpt lat="41.896800" lon="12.519860">
						<ele>48</ele>
						<time>2026-05-01T14:31:36Z</time>
					</trkpt>
					<trkpt lat="41.896900" lon="12.519780">
						<ele>49</ele>
						<time>2026-05-01T14:31:45Z</time>
					</trkpt>
					<trkpt lat="41.897090" lon="12.519740">
						<ele>49</ele>
						<time>2026-05-01T14:32:01Z</time>
					</trkpt>
					<trkpt lat="41.897130" lon="12.519860">
						<ele>48</ele>
						<time>2026-05-01T14:32:08Z</time>
					</trkpt>
					<trkpt lat="41.897320" lon="12.520210">
						<ele>47</ele>
						<time>2026-05-01T14:32:34Z</time>
					</trkpt>
					<trkpt lat="41.897340" lon="12.520310">
						<ele>47</ele>
						<time>2026-05-01T14:32:40Z</time>
					</trkpt>
					<trkpt lat="41.897510" lon="12.519960">
						<ele>47</ele>
						<time>2026-05-01T14:33:05Z</time>
					</trkpt>
					<trkpt lat="41.897780" lon="12.520090">
						<ele>46</ele>
						<time>2026-05-01T14:33:28Z</time>
					</trkpt>
					<trkpt lat="41.898130" lon="12.520120">
						<ele>45</ele>
						<time>2026-05-01T14:33:56Z</time>
					</trkpt>
					<trkpt lat="41.898230" lon="12.520180">
						<ele>45</ele>
						<time>2026-05-01T14:34:05Z</time>
					</trkpt>
					<trkpt lat="41.898320" lon="12.520300">
						<ele>45</ele>
						<time>2026-05-01T14:34:15Z</time>
					</trkpt>
					<trkpt lat="41.898390" lon="12.520450">
						<ele>44</ele>
						<time>2026-05-01T14:34:26Z</time>
					</trkpt>
					<trkpt lat="41.898400" lon="12.520250">
						<ele>45</ele>
						<time>2026-05-01T14:34:38Z</time>
					</trkpt>
					<trkpt lat="41.898270" lon="12.519930">
						<ele>45</ele>
						<time>2026-05-01T14:35:00Z</time>
					</trkpt>
					<trkpt lat="41.898480" lon="12.520060">
						<ele>45</ele>
						<time>2026-05-01T14:35:18Z</time>
					</trkpt>
					<trkpt lat="41.898870" lon="12.520400">
						<ele>45</ele>
						<time>2026-05-01T14:35:55Z</time>
					</trkpt>
					<trkpt lat="41.899120" lon="12.520560">
						<ele>44</ele>
						<time>2026-05-01T14:36:17Z</time>
					</trkpt>
					<trkpt lat="41.899320" lon="12.520630">
						<ele>43</ele>
						<time>2026-05-01T14:36:34Z</time>
					</trkpt>
					<trkpt lat="41.899640" lon="12.520600">
						<ele>43</ele>
						<time>2026-05-01T14:37:00Z</time>
					</trkpt>
					<trkpt lat="41.899680" lon="12.520510">
						<ele>43</ele>
						<time>2026-05-01T14:37:06Z</time>
					</trkpt>
					<trkpt lat="41.899780" lon="12.520540">
						<ele>43</ele>
						<time>2026-05-01T14:37:14Z</time>
					</trkpt>
					<trkpt lat="41.899990" lon="12.520530">
						<ele>42</ele>
						<time>2026-05-01T14:37:31Z</time>
					</trkpt>
					<trkpt lat="41.900000" lon="12.520610">
						<ele>42</ele>
						<time>2026-05-01T14:37:36Z</time>
					</trkpt>
					<trkpt lat="41.900160" lon="12.520530">
						<ele>42</ele>
						<time>2026-05-01T14:37:49Z</time>
					</trkpt>
					<trkpt lat="41.901250" lon="12.520170">
						<ele>38</ele>
						<time>2026-05-01T14:39:19Z</time>
					</trkpt>
					<trkpt lat="41.901430" lon="12.520030">
						<ele>37</ele>
						<time>2026-05-01T14:39:36Z</time>
					</trkpt>
					<trkpt lat="41.901480" lon="12.520020">
						<ele>37</ele>
						<time>2026-05-01T14:39:40Z</time>
					</trkpt>
					<trkpt lat="41.901580" lon="12.520070">
						<ele>36</ele>
						<time>2026-05-01T14:39:49Z</time>
					</trkpt>
					<trkpt lat="41.901700" lon="12.520020">
						<ele>36</ele>
						<time>2026-05-01T14:39:59Z</time>
					</trkpt>
					<trkpt lat="41.901730" lon="12.520180">
						<ele>36</ele>
						<time>2026-05-01T14:40:08Z</time>
					</trkpt>
					<trkpt lat="41.902200" lon="12.520020">
						<ele>36</ele>
						<time>2026-05-01T14:40:47Z</time>
					</trkpt>
					<trkpt lat="41.902170" lon="12.519820">
						<ele>37</ele>
						<time>2026-05-01T14:40:59Z</time>
					</trkpt>
					<trkpt lat="41.902660" lon="12.519680">
						<ele>38</ele>
						<time>2026-05-01T14:41:40Z</time>
					</trkpt>
					<trkpt lat="41.902350" lon="12.519410">
						<ele>38</ele>
						<time>2026-05-01T14:42:09Z</time>
					</trkpt>
					<trkpt lat="41.901680" lon="12.518890">
						<ele>40</ele>
						<time>2026-05-01T14:43:11Z</time>
					</trkpt>
					<trkpt lat="41.901830" lon="12.518730">
						<ele>41</ele>
						<time>2026-05-01T14:43:26Z</time>
					</trkpt>
					<trkpt lat="41.901890" lon="12.518560">
						<ele>42</ele>
						<time>2026-05-01T14:43:38Z</time>
					</trkpt>
					<trkpt lat="41.901910" lon="12.518370">
						<ele>44</ele>
						<time>2026-05-01T14:43:49Z</time>
					</trkpt>
					<trkpt lat="41.900950" lon="12.515610">
						<ele>51</ele>
						<time>2026-05-01T14:46:51Z</time>
					</trkpt>
					<trkpt lat="41.900350" lon="12.513800">
						<ele>57</ele>
						<time>2026-05-01T14:48:49Z</time>
					</trkpt>
					<trkpt lat="41.899820" lon="12.512330">
						<ele>61</ele>
						<time>2026-05-01T14:50:26Z</time>
					</trkpt>
					<trkpt lat="41.899470" lon="12.511410">
						<ele>60</ele>
						<time>2026-05-01T14:51:28Z</time>
					</trkpt>
					<trkpt lat="41.899370" lon="12.511240">
						<ele>59</ele>
						<time>2026-05-01T14:51:41Z</time>
					</trkpt>
					<trkpt lat="41.899310" lon="12.511080">
						<ele>58</ele>
						<time>2026-05-01T14:51:51Z</time>
					</trkpt>
					<trkpt lat="41.899230" lon="12.511130">
						<ele>58</ele>
						<time>2026-05-01T14:51:58Z</time>
					</trkpt>
					<trkpt lat="41.899070" lon="12.510730">
						<ele>59</ele>
						<time>2026-05-01T14:52:25Z</time>
					</trkpt>
					<trkpt lat="41.899120" lon="12.510680">
						<ele>58</ele>
						<time>2026-05-01T14:52:30Z</time>
					</trkpt>
					<trkpt lat="41.898770" lon="12.509720">
						<ele>60</ele>
						<time>2026-05-01T14:53:34Z</time>
					</trkpt>
					<trkpt lat="41.898690" lon="12.509390">
						<ele>59</ele>
						<time>2026-05-01T14:53:55Z</time>
					</trkpt>
					<trkpt lat="41.898420" lon="12.508960">
						<ele>58</ele>
						<time>2026-05-01T14:54:28Z</time>
					</trkpt>
					<trkpt lat="41.898400" lon="12.508880">
						<ele>58</ele>
						<time>2026-05-01T14:54:33Z</time>
					</trkpt>
					<trkpt lat="41.898400" lon="12.508780">
						<ele>58</ele>
						<time>2026-05-01T14:54:39Z</time>
					</trkpt>
					<trkpt lat="41.898490" lon="12.508540">
						<ele>59</ele>
						<time>2026-05-01T14:54:55Z</time>
					</trkpt>
					<trkpt lat="41.899310" lon="12.507240">
						<ele>61</ele>
						<time>2026-05-01T14:56:37Z</time>
					</trkpt>
					<trkpt lat="41.899410" lon="12.507040">
						<ele>62</ele>
						<time>2026-05-01T14:56:51Z</time>
					</trkpt>
					<trkpt lat="41.900250" lon="12.505780">
						<ele>64</ele>
						<time>2026-05-01T14:58:32Z</time>
					</trkpt>
					<trkpt lat="41.900310" lon="12.505600">
						<ele>64</ele>
						<time>2026-05-01T14:58:44Z</time>
					</trkpt>
					<trkpt lat="41.900640" lon="12.505040">
						<ele>65</ele>
						<time>2026-05-01T14:59:26Z</time>
					</trkpt>
					<trkpt lat="41.900750" lon="12.504960">
						<ele>65</ele>
						<time>2026-05-01T14:59:36Z</time>
					</trkpt>
					<trkpt lat="41.900820" lon="12.504850">
						<ele>65</ele>
						<time>2026-05-01T14:59:45Z</time>
					</trkpt>
					<trkpt lat="41.899940" lon="12.504030">
						<ele>61</ele>
						<time>2026-05-01T15:01:11Z</time>
					</trkpt>
					</trkseg>
				</trk>
			</gpx>