<?xml version="1.0" encoding="UTF-8" ?>
<gpx version="1.1" xmlns:xsi="http://www.w3.org/2001/XMLSchema-instance"
    xmlns="http://www.topografix.com/GPX/1/1"
    xsi:schemaLocation="http://www.topografix.com/GPX/1/1 http://www.topografix.com/GPX/1/1/gpx.xsd"
    creator="Openrunner - https://www.openrunner.com" >	<trk>
	                   <name>Grandmont-16715809</name>
						<trkseg>
					<trkpt lat="43.734650" lon="3.371090">
						<ele>428</ele>
						<time>2026-05-01T08:36:47Z</time>
					</trkpt>
					<trkpt lat="43.734750" lon="3.371100">
						<ele>427</ele>
						<time>2026-05-01T08:37:00Z</time>
					</trkpt>
					<trkpt lat="43.734830" lon="3.371150">
						<ele>427</ele>
						<time>2026-05-01T08:37:12Z</time>
					</trkpt>
					<trkpt lat="43.735020" lon="3.371200">
						<ele>426</ele>
						<time>2026-05-01T08:37:38Z</time>
					</trkpt>
					<trkpt lat="43.735080" lon="3.371310">
						<ele>425</ele>
						<time>2026-05-01T08:37:51Z</time>
					</trkpt>
					<trkpt lat="43.735170" lon="3.371280">
						<ele>424</ele>
						<time>2026-05-01T08:38:04Z</time>
					</trkpt>
					<trkpt lat="43.736010" lon="3.371870">
						<ele>420</ele>
						<time>2026-05-01T08:40:09Z</time>
					</trkpt>
					<trkpt lat="43.736190" lon="3.371940">
						<ele>420</ele>
						<time>2026-05-01T08:40:34Z</time>
					</trkpt>
					<trkpt lat="43.736350" lon="3.372070">
						<ele>421</ele>
						<time>2026-05-01T08:40:59Z</time>
					</trkpt>
					<trkpt lat="43.736520" lon="3.371960">
						<ele>419</ele>
						<time>2026-05-01T08:41:24Z</time>
					</trkpt>
					<trkpt lat="43.736610" lon="3.371730">
						<ele>415</ele>
						<time>2026-05-01T08:41:49Z</time>
					</trkpt>
					<trkpt lat="43.736760" lon="3.371570">
						<ele>413</ele>
						<time>2026-05-01T08:42:14Z</time>
					</trkpt>
					<trkpt lat="43.736860" lon="3.371520">
						<ele>412</ele>
						<time>2026-05-01T08:42:29Z</time>
					</trkpt>
					<trkpt lat="43.737050" lon="3.371550">
						<ele>413</ele>
						<time>2026-05-01T08:42:54Z</time>
					</trkpt>
					<trkpt lat="43.737190" lon="3.371350">
						<ele>409</ele>
						<time>2026-05-01T08:43:21Z</time>
					</trkpt>
					<trkpt lat="43.737290" lon="3.371370">
						<ele>410</ele>
						<time>2026-05-01T08:43:35Z</time>
					</trkpt>
					<trkpt lat="43.737390" lon="3.371320">
						<ele>409</ele>
						<time>2026-05-01T08:43:49Z</time>
					</trkpt>
					<trkpt lat="43.737670" lon="3.371310">
						<ele>410</ele>
						<time>2026-05-01T08:44:26Z</time>
					</trkpt>
					<trkpt lat="43.738040" lon="3.371060">
						<ele>410</ele>
						<time>2026-05-01T08:45:21Z</time>
					</trkpt>
					<trkpt lat="43.738230" lon="3.371080">
						<ele>412</ele>
						<time>2026-05-01T08:45:46Z</time>
					</trkpt>
					<trkpt lat="43.738290" lon="3.370990">
						<ele>412</ele>
						<time>2026-05-01T08:45:58Z</time>
					</trkpt>
					<trkpt lat="43.738240" lon="3.370710">
						<ele>411</ele>
						<time>2026-05-01T08:46:26Z</time>
					</trkpt>
					<trkpt lat="43.738180" lon="3.370850">
						<ele>409</ele>
						<time>2026-05-01T08:46:42Z</time>
					</trkpt>
					<trkpt lat="43.738090" lon="3.370820">
						<ele>408</ele>
						<time>2026-05-01T08:46:54Z</time>
					</trkpt>
					<trkpt lat="43.738050" lon="3.370700">
						<ele>409</ele>
						<time>2026-05-01T08:47:07Z</time>
					</trkpt>
					<trkpt lat="43.737610" lon="3.370410">
						<ele>406</ele>
						<time>2026-05-01T08:48:12Z</time>
					</trkpt>
					<trkpt lat="43.737520" lon="3.370390">
						<ele>405</ele>
						<time>2026-05-01T08:48:24Z</time>
					</trkpt>
					<trkpt lat="43.737470" lon="3.370270">
						<ele>406</ele>
						<time>2026-05-01T08:48:37Z</time>
					</trkpt>
					<trkpt lat="43.737390" lon="3.370190">
						<ele>406</ele>
						<time>2026-05-01T08:48:51Z</time>
					</trkpt>
					<trkpt lat="43.737300" lon="3.369960">
						<ele>406</ele>
						<time>2026-05-01T08:49:16Z</time>
					</trkpt>
					<trkpt lat="43.737280" lon="3.369830">
						<ele>407</ele>
						<time>2026-05-01T08:49:29Z</time>
					</trkpt>
					<trkpt lat="43.737310" lon="3.369710">
						<ele>409</ele>
						<time>2026-05-01T08:49:41Z</time>
					</trkpt>
					<trkpt lat="43.737280" lon="3.369580">
						<ele>410</ele>
						<time>2026-05-01T08:49:54Z</time>
					</trkpt>
					<trkpt lat="43.737200" lon="3.369510">
						<ele>409</ele>
						<time>2026-05-01T08:50:07Z</time>
					</trkpt>
					<trkpt lat="43.737100" lon="3.369270">
						<ele>408</ele>
						<time>2026-05-01T08:50:33Z</time>
					</trkpt>
					<trkpt lat="43.736890" lon="3.368960">
						<ele>405</ele>
						<time>2026-05-01T08:51:14Z</time>
					</trkpt>
					<trkpt lat="43.736810" lon="3.368720">
						<ele>405</ele>
						<time>2026-05-01T08:51:40Z</time>
					</trkpt>
					<trkpt lat="43.736830" lon="3.368590">
						<ele>406</ele>
						<time>2026-05-01T08:51:53Z</time>
					</trkpt>
					<trkpt lat="43.736760" lon="3.368490">
						<ele>405</ele>
						<time>2026-05-01T08:52:06Z</time>
					</trkpt>
					<trkpt lat="43.736720" lon="3.368370">
						<ele>405</ele>
						<time>2026-05-01T08:52:19Z</time>
					</trkpt>
					<trkpt lat="43.736720" lon="3.368240">
						<ele>404</ele>
						<time>2026-05-01T08:52:31Z</time>
					</trkpt>
					<trkpt lat="43.736750" lon="3.368120">
						<ele>404</ele>
						<time>2026-05-01T08:52:44Z</time>
					</trkpt>
					<trkpt lat="43.736830" lon="3.368040">
						<ele>405</ele>
						<time>2026-05-01T08:52:57Z</time>
					</trkpt>
					<trkpt lat="43.736930" lon="3.368020">
						<ele>407</ele>
						<time>2026-05-01T08:53:10Z</time>
					</trkpt>
					<trkpt lat="43.736980" lon="3.367770">
						<ele>405</ele>
						<time>2026-05-01T08:53:35Z</time>
					</trkpt>
					<trkpt lat="43.737090" lon="3.367720">
						<ele>407</ele>
						<time>2026-05-01T08:53:51Z</time>
					</trkpt>
					<trkpt lat="43.737290" lon="3.367740">
						<ele>411</ele>
						<time>2026-05-01T08:54:17Z</time>
					</trkpt>
					<trkpt lat="43.737380" lon="3.367710">
						<ele>413</ele>
						<time>2026-05-01T08:54:30Z</time>
					</trkpt>
					<trkpt lat="43.737410" lon="3.367580">
						<ele>412</ele>
						<time>2026-05-01T08:54:43Z</time>
					</trkpt>
					<trkpt lat="43.737470" lon="3.367470">
						<ele>413</ele>
						<time>2026-05-01T08:54:56Z</time>
					</trkpt>
					<trkpt lat="43.737560" lon="3.367430">
						<ele>414</ele>
						<time>2026-05-01T08:55:09Z</time>
					</trkpt>
					<trkpt lat="43.737610" lon="3.367320">
						<ele>415</ele>
						<time>2026-05-01T08:55:21Z</time>
					</trkpt>
					<trkpt lat="43.737590" lon="3.367190">
						<ele>415</ele>
						<time>2026-05-01T08:55:34Z</time>
					</trkpt>
					<trkpt lat="43.737510" lon="3.367080">
						<ele>415</ele>
						<time>2026-05-01T08:55:49Z</time>
					</trkpt>
					<trkpt lat="43.737500" lon="3.366950">
						<ele>415</ele>
						<time>2026-05-01T08:56:02Z</time>
					</trkpt>
					<trkpt lat="43.737440" lon="3.366870">
						<ele>413</ele>
						<time>2026-05-01T08:56:13Z</time>
					</trkpt>
					<trkpt lat="43.737340" lon="3.366620">
						<ele>411</ele>
						<time>2026-05-01T08:56:41Z</time>
					</trkpt>
					<trkpt lat="43.737200" lon="3.366440">
						<ele>407</ele>
						<time>2026-05-01T08:57:06Z</time>
					</trkpt>
					<trkpt lat="43.737160" lon="3.366320">
						<ele>406</ele>
						<time>2026-05-01T08:57:19Z</time>
					</trkpt>
					<trkpt lat="43.737170" lon="3.366180">
						<ele>407</ele>
						<time>2026-05-01T08:57:32Z</time>
					</trkpt>
					<trkpt lat="43.737120" lon="3.365940">
						<ele>407</ele>
						<time>2026-05-01T08:57:56Z</time>
					</trkpt>
					<trkpt lat="43.737150" lon="3.365800">
						<ele>409</ele>
						<time>2026-05-01T08:58:11Z</time>
					</trkpt>
					<trkpt lat="43.737130" lon="3.365680">
						<ele>409</ele>
						<time>2026-05-01T08:58:22Z</time>
					</trkpt>
					<trkpt lat="43.737190" lon="3.365560">
						<ele>411</ele>
						<time>2026-05-01T08:58:36Z</time>
					</trkpt>
					<trkpt lat="43.737170" lon="3.365420">
						<ele>412</ele>
						<time>2026-05-01T08:58:50Z</time>
					</trkpt>
					<trkpt lat="43.737060" lon="3.365210">
						<ele>411</ele>
						<time>2026-05-01T08:59:15Z</time>
					</trkpt>
					<trkpt lat="43.737040" lon="3.365080">
						<ele>411</ele>
						<time>2026-05-01T08:59:28Z</time>
					</trkpt>
					<trkpt lat="43.736920" lon="3.364840">
						<ele>410</ele>
						<time>2026-05-01T08:59:56Z</time>
					</trkpt>
					<trkpt lat="43.736910" lon="3.364710">
						<ele>410</ele>
						<time>2026-05-01T09:00:09Z</time>
					</trkpt>
					<trkpt lat="43.736940" lon="3.364440">
						<ele>410</ele>
						<time>2026-05-01T09:00:35Z</time>
					</trkpt>
					<trkpt lat="43.736900" lon="3.364310">
						<ele>410</ele>
						<time>2026-05-01T09:00:49Z</time>
					</trkpt>
					<trkpt lat="43.736960" lon="3.364040">
						<ele>409</ele>
						<time>2026-05-01T09:01:16Z</time>
					</trkpt>
					<trkpt lat="43.737090" lon="3.363840">
						<ele>408</ele>
						<time>2026-05-01T09:01:42Z</time>
					</trkpt>
					<trkpt lat="43.737060" lon="3.363710">
						<ele>406</ele>
						<time>2026-05-01T09:01:55Z</time>
					</trkpt>
					<trkpt lat="43.737120" lon="3.363460">
						<ele>403</ele>
						<time>2026-05-01T09:02:20Z</time>
					</trkpt>
					<trkpt lat="43.737350" lon="3.363220">
						<ele>404</ele>
						<time>2026-05-01T09:02:59Z</time>
					</trkpt>
					<trkpt lat="43.737680" lon="3.362950">
						<ele>404</ele>
						<time>2026-05-01T09:03:50Z</time>
					</trkpt>
					<trkpt lat="43.737710" lon="3.362820">
						<ele>402</ele>
						<time>2026-05-01T09:04:03Z</time>
					</trkpt>
					<trkpt lat="43.737780" lon="3.362730">
						<ele>401</ele>
						<time>2026-05-01T09:04:16Z</time>
					</trkpt>
					<trkpt lat="43.737750" lon="3.362610">
						<ele>399</ele>
						<time>2026-05-01T09:04:28Z</time>
					</trkpt>
					<trkpt lat="43.737830" lon="3.362540">
						<ele>399</ele>
						<time>2026-05-01T09:04:41Z</time>
					</trkpt>
					<trkpt lat="43.737850" lon="3.362570">
						<ele>400</ele>
						<time>2026-05-01T09:04:45Z</time>
					</trkpt>
					<trkpt lat="43.737820" lon="3.362530">
						<ele>399</ele>
						<time>2026-05-01T09:04:50Z</time>
					</trkpt>
					<trkpt lat="43.737830" lon="3.362510">
						<ele>399</ele>
						<time>2026-05-01T09:04:53Z</time>
					</trkpt>
					<trkpt lat="43.737860" lon="3.362580">
						<ele>400</ele>
						<time>2026-05-01T09:05:01Z</time>
					</trkpt>
					<trkpt lat="43.738190" lon="3.362550">
						<ele>405</ele>
						<time>2026-05-01T09:05:45Z</time>
					</trkpt>
					<trkpt lat="43.738480" lon="3.362560">
						<ele>409</ele>
						<time>2026-05-01T09:06:23Z</time>
					</trkpt>
					<trkpt lat="43.738510" lon="3.362440">
						<ele>409</ele>
						<time>2026-05-01T09:06:36Z</time>
					</trkpt>
					<trkpt lat="43.738500" lon="3.362420">
						<ele>409</ele>
						<time>2026-05-01T09:06:38Z</time>
					</trkpt>
					<trkpt lat="43.738490" lon="3.362450">
						<ele>409</ele>
						<time>2026-05-01T09:06:41Z</time>
					</trkpt>
					<trkpt lat="43.738480" lon="3.362370">
						<ele>409</ele>
						<time>2026-05-01T09:06:49Z</time>
					</trkpt>
					<trkpt lat="43.738530" lon="3.362260">
						<ele>410</ele>
						<time>2026-05-01T09:07:02Z</time>
					</trkpt>
					<trkpt lat="43.738330" lon="3.362250">
						<ele>408</ele>
						<time>2026-05-01T09:07:28Z</time>
					</trkpt>
					<trkpt lat="43.738290" lon="3.362140">
						<ele>408</ele>
						<time>2026-05-01T09:07:40Z</time>
					</trkpt>
					<trkpt lat="43.738220" lon="3.362050">
						<ele>407</ele>
						<time>2026-05-01T09:07:53Z</time>
					</trkpt>
					<trkpt lat="43.738060" lon="3.361730">
						<ele>407</ele>
						<time>2026-05-01T09:08:30Z</time>
					</trkpt>
					<trkpt lat="43.737890" lon="3.361250">
						<ele>409</ele>
						<time>2026-05-01T09:09:22Z</time>
					</trkpt>
					<trkpt lat="43.737360" lon="3.360140">
						<ele>409</ele>
						<time>2026-05-01T09:11:30Z</time>
					</trkpt>
					<trkpt lat="43.737180" lon="3.359880">
						<ele>405</ele>
						<time>2026-05-01T09:12:05Z</time>
					</trkpt>
					<trkpt lat="43.737130" lon="3.359770">
						<ele>405</ele>
						<time>2026-05-01T09:12:17Z</time>
					</trkpt>
					<trkpt lat="43.736980" lon="3.359620">
						<ele>402</ele>
						<time>2026-05-01T09:12:42Z</time>
					</trkpt>
					<trkpt lat="43.736850" lon="3.359420">
						<ele>400</ele>
						<time>2026-05-01T09:13:08Z</time>
					</trkpt>
					<trkpt lat="43.736830" lon="3.358770">
						<ele>404</ele>
						<time>2026-05-01T09:14:11Z</time>
					</trkpt>
					<trkpt lat="43.736760" lon="3.358530">
						<ele>404</ele>
						<time>2026-05-01T09:14:36Z</time>
					</trkpt>
					<trkpt lat="43.736670" lon="3.358450">
						<ele>403</ele>
						<time>2026-05-01T09:14:50Z</time>
					</trkpt>
					<trkpt lat="43.736390" lon="3.358450">
						<ele>406</ele>
						<time>2026-05-01T09:15:27Z</time>
					</trkpt>
					<trkpt lat="43.736310" lon="3.358390">
						<ele>407</ele>
						<time>2026-05-01T09:15:40Z</time>
					</trkpt>
					<trkpt lat="43.736190" lon="3.358350">
						<ele>409</ele>
						<time>2026-05-01T09:15:56Z</time>
					</trkpt>
					<trkpt lat="43.736080" lon="3.358480">
						<ele>409</ele>
						<time>2026-05-01T09:16:15Z</time>
					</trkpt>
					<trkpt lat="43.736070" lon="3.358460">
						<ele>410</ele>
						<time>2026-05-01T09:16:18Z</time>
					</trkpt>
					<trkpt lat="43.735990" lon="3.358520">
						<ele>410</ele>
						<time>2026-05-01T09:16:30Z</time>
					</trkpt>
					<trkpt lat="43.735890" lon="3.358500">
						<ele>411</ele>
						<time>2026-05-01T09:16:43Z</time>
					</trkpt>
					<trkpt lat="43.735800" lon="3.358550">
						<ele>411</ele>
						<time>2026-05-01T09:16:56Z</time>
					</trkpt>
					<trkpt lat="43.735530" lon="3.358530">
						<ele>412</ele>
						<time>2026-05-01T09:17:32Z</time>
					</trkpt>
					<trkpt lat="43.735350" lon="3.358410">
						<ele>413</ele>
						<time>2026-05-01T09:17:59Z</time>
					</trkpt>
					<trkpt lat="43.735200" lon="3.358240">
						<ele>413</ele>
						<time>2026-05-01T09:18:25Z</time>
					</trkpt>
					<trkpt lat="43.735140" lon="3.358120">
						<ele>414</ele>
						<time>2026-05-01T09:18:39Z</time>
					</trkpt>
					<trkpt lat="43.735080" lon="3.357880">
						<ele>414</ele>
						<time>2026-05-01T09:19:03Z</time>
					</trkpt>
					<trkpt lat="43.734960" lon="3.357530">
						<ele>415</ele>
						<time>2026-05-01T09:19:41Z</time>
					</trkpt>
					<trkpt lat="43.734900" lon="3.357420">
						<ele>415</ele>
						<time>2026-05-01T09:19:54Z</time>
					</trkpt>
					<trkpt lat="43.734760" lon="3.357230">
						<ele>415</ele>
						<time>2026-05-01T09:20:20Z</time>
					</trkpt>
					<trkpt lat="43.734510" lon="3.356810">
						<ele>415</ele>
						<time>2026-05-01T09:21:13Z</time>
					</trkpt>
					<trkpt lat="43.734250" lon="3.356450">
						<ele>416</ele>
						<time>2026-05-01T09:22:02Z</time>
					</trkpt>
					<trkpt lat="43.734170" lon="3.356210">
						<ele>417</ele>
						<time>2026-05-01T09:22:27Z</time>
					</trkpt>
					<trkpt lat="43.734090" lon="3.355820">
						<ele>421</ele>
						<time>2026-05-01T09:23:06Z</time>
					</trkpt>
					<trkpt lat="43.733990" lon="3.355590">
						<ele>422</ele>
						<time>2026-05-01T09:23:32Z</time>
					</trkpt>
					<trkpt lat="43.734060" lon="3.355500">
						<ele>423</ele>
						<time>2026-05-01T09:23:45Z</time>
					</trkpt>
					<trkpt lat="43.734120" lon="3.355590">
						<ele>422</ele>
						<time>2026-05-01T09:23:57Z</time>
					</trkpt>
					<trkpt lat="43.734220" lon="3.355630">
						<ele>423</ele>
						<time>2026-05-01T09:24:11Z</time>
					</trkpt>
					<trkpt lat="43.734320" lon="3.355610">
						<ele>423</ele>
						<time>2026-05-01T09:24:24Z</time>
					</trkpt>
					<trkpt lat="43.734510" lon="3.355420">
						<ele>426</ele>
						<time>2026-05-01T09:24:55Z</time>
					</trkpt>
					<trkpt lat="43.734700" lon="3.355390">
						<ele>427</ele>
						<time>2026-05-01T09:25:21Z</time>
					</trkpt>
					<trkpt lat="43.734950" lon="3.355560">
						<ele>427</ele>
						<time>2026-05-01T09:25:58Z</time>
					</trkpt>
					<trkpt lat="43.735140" lon="3.355630">
						<ele>428</ele>
						<time>2026-05-01T09:26:24Z</time>
					</trkpt>
					<trkpt lat="43.735830" lon="3.355630">
						<ele>432</ele>
						<time>2026-05-01T09:27:56Z</time>
					</trkpt>
					<trkpt lat="43.736320" lon="3.355790">
						<ele>433</ele>
						<time>2026-05-01T09:29:04Z</time>
					</trkpt>
					<trkpt lat="43.736410" lon="3.355790">
						<ele>434</ele>
						<time>2026-05-01T09:29:16Z</time>
					</trkpt>
					<trkpt lat="43.736590" lon="3.355710">
						<ele>436</ele>
						<time>2026-05-01T09:29:41Z</time>
					</trkpt>
					<trkpt lat="43.736720" lon="3.355360">
						<ele>445</ele>
						<time>2026-05-01T09:30:19Z</time>
					</trkpt>
					<trkpt lat="43.736800" lon="3.355290">
						<ele>447</ele>
						<time>2026-05-01T09:30:31Z</time>
					</trkpt>
					<trkpt lat="43.736930" lon="3.355280">
						<ele>448</ele>
						<time>2026-05-01T09:30:49Z</time>
					</trkpt>
					<trkpt lat="43.737210" lon="3.355370">
						<ele>449</ele>
						<time>2026-05-01T09:31:27Z</time>
					</trkpt>
					<trkpt lat="43.737310" lon="3.355360">
						<ele>450</ele>
						<time>2026-05-01T09:31:41Z</time>
					</trkpt>
					<trkpt lat="43.737480" lon="3.355330">
						<ele>452</ele>
						<time>2026-05-01T09:32:03Z</time>
					</trkpt>
					<trkpt lat="43.737460" lon="3.355260">
						<ele>453</ele>
						<time>2026-05-01T09:32:11Z</time>
					</trkpt>
					<trkpt lat="43.737940" lon="3.355220">
						<ele>454</ele>
						<time>2026-05-01T09:33:15Z</time>
					</trkpt>
					<trkpt lat="43.738210" lon="3.355110">
						<ele>456</ele>
						<time>2026-05-01T09:33:52Z</time>
					</trkpt>
					<trkpt lat="43.738510" lon="3.355060">
						<ele>456</ele>
						<time>2026-05-01T09:34:33Z</time>
					</trkpt>
					<trkpt lat="43.738600" lon="3.355010">
						<ele>456</ele>
						<time>2026-05-01T09:34:46Z</time>
					</trkpt>
					<trkpt lat="43.738810" lon="3.354760">
						<ele>462</ele>
						<time>2026-05-01T09:35:23Z</time>
					</trkpt>
					<trkpt lat="43.739520" lon="3.354370">
						<ele>465</ele>
						<time>2026-05-01T09:37:05Z</time>
					</trkpt>
					<trkpt lat="43.739540" lon="3.354380">
						<ele>464</ele>
						<time>2026-05-01T09:37:07Z</time>
					</trkpt>
					<trkpt lat="43.739720" lon="3.354310">
						<ele>464</ele>
						<time>2026-05-01T09:37:32Z</time>
					</trkpt>
					<trkpt lat="43.739810" lon="3.354330">
						<ele>464</ele>
						<time>2026-05-01T09:37:45Z</time>
					</trkpt>
					<trkpt lat="43.739980" lon="3.354450">
						<ele>463</ele>
						<time>2026-05-01T09:38:10Z</time>
					</trkpt>
					<trkpt lat="43.740060" lon="3.354380">
						<ele>463</ele>
						<time>2026-05-01T09:38:23Z</time>
					</trkpt>
					<trkpt lat="43.740120" lon="3.354280">
						<ele>463</ele>
						<time>2026-05-01T09:38:35Z</time>
					</trkpt>
					<trkpt lat="43.740210" lon="3.354050">
						<ele>461</ele>
						<time>2026-05-01T09:39:00Z</time>
					</trkpt>
					<trkpt lat="43.740300" lon="3.354000">
						<ele>460</ele>
						<time>2026-05-01T09:39:13Z</time>
					</trkpt>
					<trkpt lat="43.740670" lon="3.354090">
						<ele>460</ele>
						<time>2026-05-01T09:40:03Z</time>
					</trkpt>
					<trkpt lat="43.740760" lon="3.354090">
						<ele>460</ele>
						<time>2026-05-01T09:40:15Z</time>
					</trkpt>
					<trkpt lat="43.740940" lon="3.354050">
						<ele>459</ele>
						<time>2026-05-01T09:40:40Z</time>
					</trkpt>
					<trkpt lat="43.741110" lon="3.353930">
						<ele>456</ele>
						<time>2026-05-01T09:41:05Z</time>
					</trkpt>
					<trkpt lat="43.741390" lon="3.353840">
						<ele>454</ele>
						<time>2026-05-01T09:41:44Z</time>
					</trkpt>
					<trkpt lat="43.741470" lon="3.353790">
						<ele>453</ele>
						<time>2026-05-01T09:41:55Z</time>
					</trkpt>
					<trkpt lat="43.741580" lon="3.353550">
						<ele>446</ele>
						<time>2026-05-01T09:42:23Z</time>
					</trkpt>
					<trkpt lat="43.741670" lon="3.353500">
						<ele>445</ele>
						<time>2026-05-01T09:42:36Z</time>
					</trkpt>
					<trkpt lat="43.741810" lon="3.353310">
						<ele>439</ele>
						<time>2026-05-01T09:43:02Z</time>
					</trkpt>
					<trkpt lat="43.741890" lon="3.353240">
						<ele>438</ele>
						<time>2026-05-01T09:43:14Z</time>
					</trkpt>
					<trkpt lat="43.742270" lon="3.353240">
						<ele>437</ele>
						<time>2026-05-01T09:44:05Z</time>
					</trkpt>
					<trkpt lat="43.742390" lon="3.353250">
						<ele>437</ele>
						<time>2026-05-01T09:44:21Z</time>
					</trkpt>
					<trkpt lat="43.742330" lon="3.353270">
						<ele>437</ele>
						<time>2026-05-01T09:44:29Z</time>
					</trkpt>
					<trkpt lat="43.742520" lon="3.353280">
						<ele>437</ele>
						<time>2026-05-01T09:44:55Z</time>
					</trkpt>
					<trkpt lat="43.742710" lon="3.353230">
						<ele>433</ele>
						<time>2026-05-01T09:45:21Z</time>
					</trkpt>
					<trkpt lat="43.742790" lon="3.353170">
						<ele>431</ele>
						<time>2026-05-01T09:45:33Z</time>
					</trkpt>
					<trkpt lat="43.742930" lon="3.353000">
						<ele>426</ele>
						<time>2026-05-01T09:45:58Z</time>
					</trkpt>
					<trkpt lat="43.743410" lon="3.352570">
						<ele>415</ele>
						<time>2026-05-01T09:47:14Z</time>
					</trkpt>
					<trkpt lat="43.743600" lon="3.352520">
						<ele>414</ele>
						<time>2026-05-01T09:47:40Z</time>
					</trkpt>
					<trkpt lat="43.743890" lon="3.352570">
						<ele>413</ele>
						<time>2026-05-01T09:48:19Z</time>
					</trkpt>
					<trkpt lat="43.744340" lon="3.352760">
						<ele>411</ele>
						<time>2026-05-01T09:49:22Z</time>
					</trkpt>
					<trkpt lat="43.744480" lon="3.352950">
						<ele>412</ele>
						<time>2026-05-01T09:49:48Z</time>
					</trkpt>
					<trkpt lat="43.744570" lon="3.353170">
						<ele>414</ele>
						<time>2026-05-01T09:50:12Z</time>
					</trkpt>
					<trkpt lat="43.744660" lon="3.353220">
						<ele>414</ele>
						<time>2026-05-01T09:50:25Z</time>
					</trkpt>
					<trkpt lat="43.745030" lon="3.353200">
						<ele>408</ele>
						<time>2026-05-01T09:51:14Z</time>
					</trkpt>
					<trkpt lat="43.745120" lon="3.353240">
						<ele>407</ele>
						<time>2026-05-01T09:51:27Z</time>
					</trkpt>
					<trkpt lat="43.745220" lon="3.353240">
						<ele>405</ele>
						<time>2026-05-01T09:51:40Z</time>
					</trkpt>
					<trkpt lat="43.745300" lon="3.353300">
						<ele>404</ele>
						<time>2026-05-01T09:51:53Z</time>
					</trkpt>
					<trkpt lat="43.745490" lon="3.353590">
						<ele>404</ele>
						<time>2026-05-01T09:52:30Z</time>
					</trkpt>
					<trkpt lat="43.745640" lon="3.353230">
						<ele>395</ele>
						<time>2026-05-01T09:53:10Z</time>
					</trkpt>
					<trkpt lat="43.745530" lon="3.352910">
						<ele>394</ele>
						<time>2026-05-01T09:53:44Z</time>
					</trkpt>
					<trkpt lat="43.745510" lon="3.352740">
						<ele>393</ele>
						<time>2026-05-01T09:54:01Z</time>
					</trkpt>
					<trkpt lat="43.745600" lon="3.352510">
						<ele>388</ele>
						<time>2026-05-01T09:54:26Z</time>
					</trkpt>
					<trkpt lat="43.745670" lon="3.352420">
						<ele>386</ele>
						<time>2026-05-01T09:54:39Z</time>
					</trkpt>
					<trkpt lat="43.745690" lon="3.352310">
						<ele>385</ele>
						<time>2026-05-01T09:54:50Z</time>
					</trkpt>
					<trkpt lat="43.745810" lon="3.352190">
						<ele>381</ele>
						<time>2026-05-01T09:55:10Z</time>
					</trkpt>
					<trkpt lat="43.745890" lon="3.352170">
						<ele>379</ele>
						<time>2026-05-01T09:55:21Z</time>
					</trkpt>
					<trkpt lat="43.745860" lon="3.351970">
						<ele>378</ele>
						<time>2026-05-01T09:55:40Z</time>
					</trkpt>
					<trkpt lat="43.745890" lon="3.351890">
						<ele>376</ele>
						<time>2026-05-01T09:55:49Z</time>
					</trkpt>
					<trkpt lat="43.745990" lon="3.351850">
						<ele>374</ele>
						<time>2026-05-01T09:56:03Z</time>
					</trkpt>
					<trkpt lat="43.746070" lon="3.351610">
						<ele>369</ele>
						<time>2026-05-01T09:56:28Z</time>
					</trkpt>
					<trkpt lat="43.746150" lon="3.351540">
						<ele>366</ele>
						<time>2026-05-01T09:56:41Z</time>
					</trkpt>
					<trkpt lat="43.746380" lon="3.351790">
						<ele>364</ele>
						<time>2026-05-01T09:57:20Z</time>
					</trkpt>
					<trkpt lat="43.746660" lon="3.352010">
						<ele>360</ele>
						<time>2026-05-01T09:58:03Z</time>
					</trkpt>
					<trkpt lat="43.746790" lon="3.352200">
						<ele>360</ele>
						<time>2026-05-01T09:58:28Z</time>
					</trkpt>
					<trkpt lat="43.746840" lon="3.352440">
						<ele>361</ele>
						<time>2026-05-01T09:58:52Z</time>
					</trkpt>
					<trkpt lat="43.746820" lon="3.352560">
						<ele>362</ele>
						<time>2026-05-01T09:59:04Z</time>
					</trkpt>
					<trkpt lat="43.746840" lon="3.352700">
						<ele>363</ele>
						<time>2026-05-01T09:59:18Z</time>
					</trkpt>
					<trkpt lat="43.746940" lon="3.353070">
						<ele>364</ele>
						<time>2026-05-01T09:59:56Z</time>
					</trkpt>
					<trkpt lat="43.747070" lon="3.353260">
						<ele>362</ele>
						<time>2026-05-01T10:00:21Z</time>
					</trkpt>
					<trkpt lat="43.747110" lon="3.353380">
						<ele>362</ele>
						<time>2026-05-01T10:00:34Z</time>
					</trkpt>
					<trkpt lat="43.747110" lon="3.353780">
						<ele>365</ele>
						<time>2026-05-01T10:01:13Z</time>
					</trkpt>
					<trkpt lat="43.747090" lon="3.353910">
						<ele>367</ele>
						<time>2026-05-01T10:01:25Z</time>
					</trkpt>
					<trkpt lat="43.747110" lon="3.354040">
						<ele>368</ele>
						<time>2026-05-01T10:01:38Z</time>
					</trkpt>
					<trkpt lat="43.747160" lon="3.354160">
						<ele>367</ele>
						<time>2026-05-01T10:01:52Z</time>
					</trkpt>
					<trkpt lat="43.747350" lon="3.354350">
						<ele>362</ele>
						<time>2026-05-01T10:02:23Z</time>
					</trkpt>
					<trkpt lat="43.747540" lon="3.354720">
						<ele>357</ele>
						<time>2026-05-01T10:03:07Z</time>
					</trkpt>
					<trkpt lat="43.747620" lon="3.354810">
						<ele>355</ele>
						<time>2026-05-01T10:03:20Z</time>
					</trkpt>
					<trkpt lat="43.747800" lon="3.354920">
						<ele>351</ele>
						<time>2026-05-01T10:03:47Z</time>
					</trkpt>
					<trkpt lat="43.747850" lon="3.355030">
						<ele>350</ele>
						<time>2026-05-01T10:03:59Z</time>
					</trkpt>
					<trkpt lat="43.747850" lon="3.355460">
						<ele>351</ele>
						<time>2026-05-01T10:04:41Z</time>
					</trkpt>
					<trkpt lat="43.747900" lon="3.355560">
						<ele>350</ele>
						<time>2026-05-01T10:04:52Z</time>
					</trkpt>
					<trkpt lat="43.747980" lon="3.355650">
						<ele>348</ele>
						<time>2026-05-01T10:05:06Z</time>
					</trkpt>
					<trkpt lat="43.748020" lon="3.355770">
						<ele>347</ele>
						<time>2026-05-01T10:05:19Z</time>
					</trkpt>
					<trkpt lat="43.748040" lon="3.356030">
						<ele>347</ele>
						<time>2026-05-01T10:05:44Z</time>
					</trkpt>
					<trkpt lat="43.748090" lon="3.356150">
						<ele>346</ele>
						<time>2026-05-01T10:05:57Z</time>
					</trkpt>
					<trkpt lat="43.748250" lon="3.356310">
						<ele>342</ele>
						<time>2026-05-01T10:06:24Z</time>
					</trkpt>
					<trkpt lat="43.748500" lon="3.356500">
						<ele>336</ele>
						<time>2026-05-01T10:07:02Z</time>
					</trkpt>
					<trkpt lat="43.748550" lon="3.356610">
						<ele>335</ele>
						<time>2026-05-01T10:07:14Z</time>
					</trkpt>
					<trkpt lat="43.748590" lon="3.356730">
						<ele>334</ele>
						<time>2026-05-01T10:07:27Z</time>
					</trkpt>
					<trkpt lat="43.748560" lon="3.357010">
						<ele>335</ele>
						<time>2026-05-01T10:07:54Z</time>
					</trkpt>
					<trkpt lat="43.748510" lon="3.357260">
						<ele>337</ele>
						<time>2026-05-01T10:08:19Z</time>
					</trkpt>
					<trkpt lat="43.748390" lon="3.357580">
						<ele>341</ele>
						<time>2026-05-01T10:08:54Z</time>
					</trkpt>
					<trkpt lat="43.748450" lon="3.357650">
						<ele>341</ele>
						<time>2026-05-01T10:09:05Z</time>
					</trkpt>
					<trkpt lat="43.748500" lon="3.357770">
						<ele>341</ele>
						<time>2026-05-01T10:09:18Z</time>
					</trkpt>
					<trkpt lat="43.748580" lon="3.357850">
						<ele>341</ele>
						<time>2026-05-01T10:09:31Z</time>
					</trkpt>
					<trkpt lat="43.748860" lon="3.357940">
						<ele>337</ele>
						<time>2026-05-01T10:10:09Z</time>
					</trkpt>
					<trkpt lat="43.748930" lon="3.358020">
						<ele>337</ele>
						<time>2026-05-01T10:10:22Z</time>
					</trkpt>
					<trkpt lat="43.748990" lon="3.358130">
						<ele>337</ele>
						<time>2026-05-01T10:10:35Z</time>
					</trkpt>
					<trkpt lat="43.748990" lon="3.358260">
						<ele>339</ele>
						<time>2026-05-01T10:10:47Z</time>
					</trkpt>
					<trkpt lat="43.749020" lon="3.358380">
						<ele>340</ele>
						<time>2026-05-01T10:11:00Z</time>
					</trkpt>
					<trkpt lat="43.749100" lon="3.358440">
						<ele>340</ele>
						<time>2026-05-01T10:11:12Z</time>
					</trkpt>
					<trkpt lat="43.749290" lon="3.358430">
						<ele>338</ele>
						<time>2026-05-01T10:11:37Z</time>
					</trkpt>
					<trkpt lat="43.749380" lon="3.358500">
						<ele>338</ele>
						<time>2026-05-01T10:11:51Z</time>
					</trkpt>
					<trkpt lat="43.749560" lon="3.358790">
						<ele>341</ele>
						<time>2026-05-01T10:12:28Z</time>
					</trkpt>
					<trkpt lat="43.749670" lon="3.358850">
						<ele>341</ele>
						<time>2026-05-01T10:12:43Z</time>
					</trkpt>
					<trkpt lat="43.749640" lon="3.358820">
						<ele>341</ele>
						<time>2026-05-01T10:12:48Z</time>
					</trkpt>
					<trkpt lat="43.749660" lon="3.358950">
						<ele>343</ele>
						<time>2026-05-01T10:13:01Z</time>
					</trkpt>
					<trkpt lat="43.749610" lon="3.359060">
						<ele>345</ele>
						<time>2026-05-01T10:13:14Z</time>
					</trkpt>
					<trkpt lat="43.749530" lon="3.359110">
						<ele>347</ele>
						<time>2026-05-01T10:13:25Z</time>
					</trkpt>
					<trkpt lat="43.749390" lon="3.359280">
						<ele>352</ele>
						<time>2026-05-01T10:13:50Z</time>
					</trkpt>
					<trkpt lat="43.749300" lon="3.359270">
						<ele>353</ele>
						<time>2026-05-01T10:14:02Z</time>
					</trkpt>
					<trkpt lat="43.749090" lon="3.359400">
						<ele>359</ele>
						<time>2026-05-01T10:14:33Z</time>
					</trkpt>
					<trkpt lat="43.749050" lon="3.359510">
						<ele>363</ele>
						<time>2026-05-01T10:14:45Z</time>
					</trkpt>
					<trkpt lat="43.749140" lon="3.359490">
						<ele>361</ele>
						<time>2026-05-01T10:14:57Z</time>
					</trkpt>
					<trkpt lat="43.749240" lon="3.359500">
						<ele>360</ele>
						<time>2026-05-01T10:15:10Z</time>
					</trkpt>
					<trkpt lat="43.749420" lon="3.359580">
						<ele>359</ele>
						<time>2026-05-01T10:15:36Z</time>
					</trkpt>
					<trkpt lat="43.749830" lon="3.359980">
						<ele>364</ele>
						<time>2026-05-01T10:16:43Z</time>
					</trkpt>
					<trkpt lat="43.749890" lon="3.360070">
						<ele>365</ele>
						<time>2026-05-01T10:16:54Z</time>
					</trkpt>
					<trkpt lat="43.750080" lon="3.360480">
						<ele>370</ele>
						<time>2026-05-01T10:17:41Z</time>
					</trkpt>
					<trkpt lat="43.750120" lon="3.360830">
						<ele>376</ele>
						<time>2026-05-01T10:18:16Z</time>
					</trkpt>
					<trkpt lat="43.750240" lon="3.361180">
						<ele>378</ele>
						<time>2026-05-01T10:18:53Z</time>
					</trkpt>
					<trkpt lat="43.750480" lon="3.361690">
						<ele>378</ele>
						<time>2026-05-01T10:19:52Z</time>
					</trkpt>
					<trkpt lat="43.750500" lon="3.361820">
						<ele>380</ele>
						<time>2026-05-01T10:20:04Z</time>
					</trkpt>
					<trkpt lat="43.750470" lon="3.361950">
						<ele>384</ele>
						<time>2026-05-01T10:20:18Z</time>
					</trkpt>
					<trkpt lat="43.750560" lon="3.362000">
						<ele>383</ele>
						<time>2026-05-01T10:20:31Z</time>
					</trkpt>
					<trkpt lat="43.750740" lon="3.362050">
						<ele>379</ele>
						<time>2026-05-01T10:20:55Z</time>
					</trkpt>
					<trkpt lat="43.750900" lon="3.362220">
						<ele>381</ele>
						<time>2026-05-01T10:21:22Z</time>
					</trkpt>
					<trkpt lat="43.750990" lon="3.362280">
						<ele>382</ele>
						<time>2026-05-01T10:21:35Z</time>
					</trkpt>
					<trkpt lat="43.751230" lon="3.362360">
						<ele>382</ele>
						<time>2026-05-01T10:22:08Z</time>
					</trkpt>
					<trkpt lat="43.751390" lon="3.362500">
						<ele>384</ele>
						<time>2026-05-01T10:22:33Z</time>
					</trkpt>
					<trkpt lat="43.751520" lon="3.362680">
						<ele>387</ele>
						<time>2026-05-01T10:22:58Z</time>
					</trkpt>
					<trkpt lat="43.751630" lon="3.362900">
						<ele>392</ele>
						<time>2026-05-01T10:23:24Z</time>
					</trkpt>
					<trkpt lat="43.751710" lon="3.362950">
						<ele>393</ele>
						<time>2026-05-01T10:23:35Z</time>
					</trkpt>
					<trkpt lat="43.752130" lon="3.362730">
						<ele>390</ele>
						<time>2026-05-01T10:24:35Z</time>
					</trkpt>
					<trkpt lat="43.752440" lon="3.362670">
						<ele>390</ele>
						<time>2026-05-01T10:25:17Z</time>
					</trkpt>
					<trkpt lat="43.752810" lon="3.362710">
						<ele>392</ele>
						<time>2026-05-01T10:26:07Z</time>
					</trkpt>
					<trkpt lat="43.753200" lon="3.362800">
						<ele>396</ele>
						<time>2026-05-01T10:26:59Z</time>
					</trkpt>
					<trkpt lat="43.753290" lon="3.362870">
						<ele>398</ele>
						<time>2026-05-01T10:27:13Z</time>
					</trkpt>
					<trkpt lat="43.753390" lon="3.362870">
						<ele>398</ele>
						<time>2026-05-01T10:27:27Z</time>
					</trkpt>
					<trkpt lat="43.753480" lon="3.362910">
						<ele>398</ele>
						<time>2026-05-01T10:27:39Z</time>
					</trkpt>
					<trkpt lat="43.753580" lon="3.363000">
						<ele>400</ele>
						<time>2026-05-01T10:27:55Z</time>
					</trkpt>
					<trkpt lat="43.753900" lon="3.363470">
						<ele>410</ele>
						<time>2026-05-01T10:28:57Z</time>
					</trkpt>
					<trkpt lat="43.754210" lon="3.363760">
						<ele>413</ele>
						<time>2026-05-01T10:29:47Z</time>
					</trkpt>
					<trkpt lat="43.754270" lon="3.363860">
						<ele>416</ele>
						<time>2026-05-01T10:30:00Z</time>
					</trkpt>
					<trkpt lat="43.754320" lon="3.363970">
						<ele>419</ele>
						<time>2026-05-01T10:30:12Z</time>
					</trkpt>
					<trkpt lat="43.754340" lon="3.364100">
						<ele>422</ele>
						<time>2026-05-01T10:30:25Z</time>
					</trkpt>
					<trkpt lat="43.754320" lon="3.365020">
						<ele>437</ele>
						<time>2026-05-01T10:31:54Z</time>
					</trkpt>
					<trkpt lat="43.754230" lon="3.365120">
						<ele>439</ele>
						<time>2026-05-01T10:32:09Z</time>
					</trkpt>
					<trkpt lat="43.754140" lon="3.365140">
						<ele>439</ele>
						<time>2026-05-01T10:32:21Z</time>
					</trkpt>
					<trkpt lat="43.753930" lon="3.364580">
						<ele>433</ele>
						<time>2026-05-01T10:33:22Z</time>
					</trkpt>
					<trkpt lat="43.753790" lon="3.364390">
						<ele>433</ele>
						<time>2026-05-01T10:33:48Z</time>
					</trkpt>
					<trkpt lat="43.753690" lon="3.364340">
						<ele>433</ele>
						<time>2026-05-01T10:34:03Z</time>
					</trkpt>
					<trkpt lat="43.753690" lon="3.364470">
						<ele>436</ele>
						<time>2026-05-01T10:34:15Z</time>
					</trkpt>
					<trkpt lat="43.753730" lon="3.364580">
						<ele>437</ele>
						<time>2026-05-01T10:34:27Z</time>
					</trkpt>
					<trkpt lat="43.753790" lon="3.365060">
						<ele>444</ele>
						<time>2026-05-01T10:35:14Z</time>
					</trkpt>
					<trkpt lat="43.753910" lon="3.365450">
						<ele>447</ele>
						<time>2026-05-01T10:35:55Z</time>
					</trkpt>
					<trkpt lat="43.753940" lon="3.365790">
						<ele>451</ele>
						<time>2026-05-01T10:36:28Z</time>
					</trkpt>
					<trkpt lat="43.754030" lon="3.365850">
						<ele>450</ele>
						<time>2026-05-01T10:36:41Z</time>
					</trkpt>
					<trkpt lat="43.754120" lon="3.365860">
						<ele>449</ele>
						<time>2026-05-01T10:36:53Z</time>
					</trkpt>
					<trkpt lat="43.754300" lon="3.365940">
						<ele>451</ele>
						<time>2026-05-01T10:37:18Z</time>
					</trkpt>
					<trkpt lat="43.754570" lon="3.366100">
						<ele>455</ele>
						<time>2026-05-01T10:37:58Z</time>
					</trkpt>
					<trkpt lat="43.754730" lon="3.366230">
						<ele>458</ele>
						<time>2026-05-01T10:38:22Z</time>
					</trkpt>
					<trkpt lat="43.754790" lon="3.366230">
						<ele>458</ele>
						<time>2026-05-01T10:38:30Z</time>
					</trkpt>
					<trkpt lat="43.754860" lon="3.366160">
						<ele>457</ele>
						<time>2026-05-01T10:38:42Z</time>
					</trkpt>
					<trkpt lat="43.754900" lon="3.366070">
						<ele>456</ele>
						<time>2026-05-01T10:38:52Z</time>
					</trkpt>
					<trkpt lat="43.755000" lon="3.366180">
						<ele>458</ele>
						<time>2026-05-01T10:39:09Z</time>
					</trkpt>
					<trkpt lat="43.755060" lon="3.366420">
						<ele>462</ele>
						<time>2026-05-01T10:39:34Z</time>
					</trkpt>
					<trkpt lat="43.755010" lon="3.366610">
						<ele>464</ele>
						<time>2026-05-01T10:39:53Z</time>
					</trkpt>
					<trkpt lat="43.754950" lon="3.366710">
						<ele>466</ele>
						<time>2026-05-01T10:40:06Z</time>
					</trkpt>
					<trkpt lat="43.754610" lon="3.367040">
						<ele>472</ele>
						<time>2026-05-01T10:41:01Z</time>
					</trkpt>
					<trkpt lat="43.754610" lon="3.366990">
						<ele>471</ele>
						<time>2026-05-01T10:41:06Z</time>
					</trkpt>
					<trkpt lat="43.754530" lon="3.367070">
						<ele>473</ele>
						<time>2026-05-01T10:41:19Z</time>
					</trkpt>
					<trkpt lat="43.754440" lon="3.367110">
						<ele>474</ele>
						<time>2026-05-01T10:41:32Z</time>
					</trkpt>
					<trkpt lat="43.754170" lon="3.367130">
						<ele>475</ele>
						<time>2026-05-01T10:42:08Z</time>
					</trkpt>
					<trkpt lat="43.754530" lon="3.367420">
						<ele>480</ele>
						<time>2026-05-01T10:43:03Z</time>
					</trkpt>
					<trkpt lat="43.754600" lon="3.367450">
						<ele>480</ele>
						<time>2026-05-01T10:43:13Z</time>
					</trkpt>
					<trkpt lat="43.754660" lon="3.367540">
						<ele>481</ele>
						<time>2026-05-01T10:43:25Z</time>
					</trkpt>
					<trkpt lat="43.754680" lon="3.367660">
						<ele>483</ele>
						<time>2026-05-01T10:43:37Z</time>
					</trkpt>
					<trkpt lat="43.754660" lon="3.367790">
						<ele>485</ele>
						<time>2026-05-01T10:43:50Z</time>
					</trkpt>
					<trkpt lat="43.754530" lon="3.368200">
						<ele>491</ele>
						<time>2026-05-01T10:44:33Z</time>
					</trkpt>
					<trkpt lat="43.754500" lon="3.368450">
						<ele>494</ele>
						<time>2026-05-01T10:44:57Z</time>
					</trkpt>
					<trkpt lat="43.754390" lon="3.368680">
						<ele>497</ele>
						<time>2026-05-01T10:45:24Z</time>
					</trkpt>
					<trkpt lat="43.754300" lon="3.368700">
						<ele>497</ele>
						<time>2026-05-01T10:45:36Z</time>
					</trkpt>
					<trkpt lat="43.754220" lon="3.368800">
						<ele>498</ele>
						<time>2026-05-01T10:45:50Z</time>
					</trkpt>
					<trkpt lat="43.754160" lon="3.369310">
						<ele>504</ele>
						<time>2026-05-01T10:46:40Z</time>
					</trkpt>
					<trkpt lat="43.754280" lon="3.369330">
						<ele>504</ele>
						<time>2026-05-01T10:46:56Z</time>
					</trkpt>
					<trkpt lat="43.754360" lon="3.369410">
						<ele>506</ele>
						<time>2026-05-01T10:47:09Z</time>
					</trkpt>
					<trkpt lat="43.754620" lon="3.369570">
						<ele>508</ele>
						<time>2026-05-01T10:47:47Z</time>
					</trkpt>
					<trkpt lat="43.754710" lon="3.369580">
						<ele>508</ele>
						<time>2026-05-01T10:47:59Z</time>
					</trkpt>
					<trkpt lat="43.754860" lon="3.369740">
						<ele>509</ele>
						<time>2026-05-01T10:48:25Z</time>
					</trkpt>
					<trkpt lat="43.754960" lon="3.369960">
						<ele>511</ele>
						<time>2026-05-01T10:48:50Z</time>
					</trkpt>
					<trkpt lat="43.754980" lon="3.370100">
						<ele>512</ele>
						<time>2026-05-01T10:49:04Z</time>
					</trkpt>
					<trkpt lat="43.754950" lon="3.370310">
						<ele>513</ele>
						<time>2026-05-01T10:49:24Z</time>
					</trkpt>
					<trkpt lat="43.754950" lon="3.370270">
						<ele>513</ele>
						<time>2026-05-01T10:49:28Z</time>
					</trkpt>
					<trkpt lat="43.754710" lon="3.371140">
						<ele>523</ele>
						<time>2026-05-01T10:50:58Z</time>
					</trkpt>
					<trkpt lat="43.754700" lon="3.371270">
						<ele>525</ele>
						<time>2026-05-01T10:51:10Z</time>
					</trkpt>
					<trkpt lat="43.754740" lon="3.371380">
						<ele>527</ele>
						<time>2026-05-01T10:51:22Z</time>
					</trkpt>
					<trkpt lat="43.754830" lon="3.371400">
						<ele>527</ele>
						<time>2026-05-01T10:51:34Z</time>
					</trkpt>
					<trkpt lat="43.754910" lon="3.371340">
						<ele>526</ele>
						<time>2026-05-01T10:51:47Z</time>
					</trkpt>
					<trkpt lat="43.755040" lon="3.371140">
						<ele>522</ele>
						<time>2026-05-01T10:52:13Z</time>
					</trkpt>
					<trkpt lat="43.755130" lon="3.371080">
						<ele>522</ele>
						<time>2026-05-01T10:52:26Z</time>
					</trkpt>
					<trkpt lat="43.755510" lon="3.371110">
						<ele>526</ele>
						<time>2026-05-01T10:53:17Z</time>
					</trkpt>
					<trkpt lat="43.755600" lon="3.371160">
						<ele>528</ele>
						<time>2026-05-01T10:53:30Z</time>
					</trkpt>
					<trkpt lat="43.755580" lon="3.371290">
						<ele>531</ele>
						<time>2026-05-01T10:53:42Z</time>
					</trkpt>
					<trkpt lat="43.755470" lon="3.371520">
						<ele>535</ele>
						<time>2026-05-01T10:54:09Z</time>
					</trkpt>
					<trkpt lat="43.755440" lon="3.371640">
						<ele>537</ele>
						<time>2026-05-01T10:54:21Z</time>
					</trkpt>
					<trkpt lat="43.755290" lon="3.371790">
						<ele>540</ele>
						<time>2026-05-01T10:54:46Z</time>
					</trkpt>
					<trkpt lat="43.755090" lon="3.371790">
						<ele>538</ele>
						<time>2026-05-01T10:55:13Z</time>
					</trkpt>
					<trkpt lat="43.754870" lon="3.372030">
						<ele>547</ele>
						<time>2026-05-01T10:55:50Z</time>
					</trkpt>
					<trkpt lat="43.754780" lon="3.372070">
						<ele>548</ele>
						<time>2026-05-01T10:56:03Z</time>
					</trkpt>
					<trkpt lat="43.754520" lon="3.372060">
						<ele>545</ele>
						<time>2026-05-01T10:56:37Z</time>
					</trkpt>
					<trkpt lat="43.754260" lon="3.372220">
						<ele>548</ele>
						<time>2026-05-01T10:57:15Z</time>
					</trkpt>
					<trkpt lat="43.754160" lon="3.372240">
						<ele>548</ele>
						<time>2026-05-01T10:57:29Z</time>
					</trkpt>
					<trkpt lat="43.753920" lon="3.372420">
						<ele>551</ele>
						<time>2026-05-01T10:58:05Z</time>
					</trkpt>
					<trkpt lat="43.753640" lon="3.372500">
						<ele>550</ele>
						<time>2026-05-01T10:58:43Z</time>
					</trkpt>
					<trkpt lat="43.753420" lon="3.372630">
						<ele>555</ele>
						<time>2026-05-01T10:59:15Z</time>
					</trkpt>
					<trkpt lat="43.753110" lon="3.372980">
						<ele>571</ele>
						<time>2026-05-01T11:00:09Z</time>
					</trkpt>
					<trkpt lat="43.753020" lon="3.373030">
						<ele>572</ele>
						<time>2026-05-01T11:00:22Z</time>
					</trkpt>
					<trkpt lat="43.752900" lon="3.373160">
						<ele>576</ele>
						<time>2026-05-01T11:00:42Z</time>
					</trkpt>
					<trkpt lat="43.752760" lon="3.373250">
						<ele>577</ele>
						<time>2026-05-01T11:01:03Z</time>
					</trkpt>
					<trkpt lat="43.752120" lon="3.374170">
						<ele>603</ele>
						<time>2026-05-01T11:03:06Z</time>
					</trkpt>
					<trkpt lat="43.752100" lon="3.374140">
						<ele>601</ele>
						<time>2026-05-01T11:03:10Z</time>
					</trkpt>
					<trkpt lat="43.752040" lon="3.374240">
						<ele>603</ele>
						<time>2026-05-01T11:03:22Z</time>
					</trkpt>
					<trkpt lat="43.751880" lon="3.374370">
						<ele>603</ele>
						<time>2026-05-01T11:03:47Z</time>
					</trkpt>
					<trkpt lat="43.751800" lon="3.374280">
						<ele>597</ele>
						<time>2026-05-01T11:04:01Z</time>
					</trkpt>
					<trkpt lat="43.751800" lon="3.374340">
						<ele>599</ele>
						<time>2026-05-01T11:04:06Z</time>
					</trkpt>
					<trkpt lat="43.751640" lon="3.374480">
						<ele>601</ele>
						<time>2026-05-01T11:04:32Z</time>
					</trkpt>
					<trkpt lat="43.751580" lon="3.374600">
						<ele>605</ele>
						<time>2026-05-01T11:04:46Z</time>
					</trkpt>
					<trkpt lat="43.751210" lon="3.374750">
						<ele>601</ele>
						<time>2026-05-01T11:05:37Z</time>
					</trkpt>
					<trkpt lat="43.751130" lon="3.374800">
						<ele>601</ele>
						<time>2026-05-01T11:05:49Z</time>
					</trkpt>
					<trkpt lat="43.751070" lon="3.374900">
						<ele>603</ele>
						<time>2026-05-01T11:06:01Z</time>
					</trkpt>
					<trkpt lat="43.751020" lon="3.374910">
						<ele>602</ele>
						<time>2026-05-01T11:06:08Z</time>
					</trkpt>
					<trkpt lat="43.751020" lon="3.374890">
						<ele>601</ele>
						<time>2026-05-01T11:06:10Z</time>
					</trkpt>
					<trkpt lat="43.750880" lon="3.375050">
						<ele>602</ele>
						<time>2026-05-01T11:06:34Z</time>
					</trkpt>
					<trkpt lat="43.750700" lon="3.375400">
						<ele>609</ele>
						<time>2026-05-01T11:07:16Z</time>
					</trkpt>
					<trkpt lat="43.750600" lon="3.375510">
						<ele>611</ele>
						<time>2026-05-01T11:07:33Z</time>
					</trkpt>
					<trkpt lat="43.750490" lon="3.375710">
						<ele>615</ele>
						<time>2026-05-01T11:07:57Z</time>
					</trkpt>
					<trkpt lat="43.750240" lon="3.375890">
						<ele>617</ele>
						<time>2026-05-01T11:08:35Z</time>
					</trkpt>
					<trkpt lat="43.749950" lon="3.375980">
						<ele>616</ele>
						<time>2026-05-01T11:09:14Z</time>
					</trkpt>
					<trkpt lat="43.749760" lon="3.375940">
						<ele>614</ele>
						<time>2026-05-01T11:09:40Z</time>
					</trkpt>
					<trkpt lat="43.749570" lon="3.375970">
						<ele>615</ele>
						<time>2026-05-01T11:10:05Z</time>
					</trkpt>
					<trkpt lat="43.749380" lon="3.375950">
						<ele>613</ele>
						<time>2026-05-01T11:10:31Z</time>
					</trkpt>
					<trkpt lat="43.749200" lon="3.375850">
						<ele>608</ele>
						<time>2026-05-01T11:10:57Z</time>
					</trkpt>
					<trkpt lat="43.749020" lon="3.375790">
						<ele>608</ele>
						<time>2026-05-01T11:11:21Z</time>
					</trkpt>
					<trkpt lat="43.748940" lon="3.375790">
						<ele>609</ele>
						<time>2026-05-01T11:11:32Z</time>
					</trkpt>
					<trkpt lat="43.748990" lon="3.375790">
						<ele>608</ele>
						<time>2026-05-01T11:11:39Z</time>
					</trkpt>
					<trkpt lat="43.748970" lon="3.375790">
						<ele>608</ele>
						<time>2026-05-01T11:11:41Z</time>
					</trkpt>
					<trkpt lat="43.748940" lon="3.375720">
						<ele>606</ele>
						<time>2026-05-01T11:11:49Z</time>
					</trkpt>
					<trkpt lat="43.748960" lon="3.375770">
						<ele>608</ele>
						<time>2026-05-01T11:11:55Z</time>
					</trkpt>
					<trkpt lat="43.748930" lon="3.375820">
						<ele>610</ele>
						<time>2026-05-01T11:12:01Z</time>
					</trkpt>
					<trkpt lat="43.748690" lon="3.375630">
						<ele>607</ele>
						<time>2026-05-01T11:12:38Z</time>
					</trkpt>
					<trkpt lat="43.748640" lon="3.375510">
						<ele>604</ele>
						<time>2026-05-01T11:12:51Z</time>
					</trkpt>
					<trkpt lat="43.748510" lon="3.375340">
						<ele>600</ele>
						<time>2026-05-01T11:13:15Z</time>
					</trkpt>
					<trkpt lat="43.748440" lon="3.375310">
						<ele>600</ele>
						<time>2026-05-01T11:13:25Z</time>
					</trkpt>
					<trkpt lat="43.748170" lon="3.375270">
						<ele>602</ele>
						<time>2026-05-01T11:14:01Z</time>
					</trkpt>
					<trkpt lat="43.748070" lon="3.375200">
						<ele>602</ele>
						<time>2026-05-01T11:14:16Z</time>
					</trkpt>
					<trkpt lat="43.747880" lon="3.375130">
						<ele>602</ele>
						<time>2026-05-01T11:14:42Z</time>
					</trkpt>
					<trkpt lat="43.747600" lon="3.374920">
						<ele>600</ele>
						<time>2026-05-01T11:15:25Z</time>
					</trkpt>
					<trkpt lat="43.747610" lon="3.374890">
						<ele>600</ele>
						<time>2026-05-01T11:15:28Z</time>
					</trkpt>
					<trkpt lat="43.747300" lon="3.374830">
						<ele>604</ele>
						<time>2026-05-01T11:16:10Z</time>
					</trkpt>
					<trkpt lat="43.746900" lon="3.374460">
						<ele>604</ele>
						<time>2026-05-01T11:17:14Z</time>
					</trkpt>
					<trkpt lat="43.746820" lon="3.374230">
						<ele>602</ele>
						<time>2026-05-01T11:17:39Z</time>
					</trkpt>
					<trkpt lat="43.746680" lon="3.374080">
						<ele>601</ele>
						<time>2026-05-01T11:18:02Z</time>
					</trkpt>
					<trkpt lat="43.746380" lon="3.373400">
						<ele>586</ele>
						<time>2026-05-01T11:19:19Z</time>
					</trkpt>
					<trkpt lat="43.746320" lon="3.373310">
						<ele>585</ele>
						<time>2026-05-01T11:19:31Z</time>
					</trkpt>
					<trkpt lat="43.746230" lon="3.373250">
						<ele>585</ele>
						<time>2026-05-01T11:19:44Z</time>
					</trkpt>
					<trkpt lat="43.745970" lon="3.373260">
						<ele>587</ele>
						<time>2026-05-01T11:20:19Z</time>
					</trkpt>
					<trkpt lat="43.745810" lon="3.373430">
						<ele>590</ele>
						<time>2026-05-01T11:20:46Z</time>
					</trkpt>
					<trkpt lat="43.745740" lon="3.373460">
						<ele>589</ele>
						<time>2026-05-01T11:20:56Z</time>
					</trkpt>
					<trkpt lat="43.745630" lon="3.373670">
						<ele>589</ele>
						<time>2026-05-01T11:21:21Z</time>
					</trkpt>
					<trkpt lat="43.745510" lon="3.374030">
						<ele>589</ele>
						<time>2026-05-01T11:21:59Z</time>
					</trkpt>
					<trkpt lat="43.745450" lon="3.374130">
						<ele>588</ele>
						<time>2026-05-01T11:22:11Z</time>
					</trkpt>
					<trkpt lat="43.745390" lon="3.374120">
						<ele>587</ele>
						<time>2026-05-01T11:22:19Z</time>
					</trkpt>
					<trkpt lat="43.745350" lon="3.373860">
						<ele>584</ele>
						<time>2026-05-01T11:22:45Z</time>
					</trkpt>
					<trkpt lat="43.745200" lon="3.373530">
						<ele>580</ele>
						<time>2026-05-01T11:23:23Z</time>
					</trkpt>
					<trkpt lat="43.745120" lon="3.373510">
						<ele>578</ele>
						<time>2026-05-01T11:23:34Z</time>
					</trkpt>
					<trkpt lat="43.745030" lon="3.373530">
						<ele>577</ele>
						<time>2026-05-01T11:23:46Z</time>
					</trkpt>
					<trkpt lat="43.744890" lon="3.373870">
						<ele>574</ele>
						<time>2026-05-01T11:24:23Z</time>
					</trkpt>
					<trkpt lat="43.744750" lon="3.374380">
						<ele>571</ele>
						<time>2026-05-01T11:25:16Z</time>
					</trkpt>
					<trkpt lat="43.744760" lon="3.374640">
						<ele>571</ele>
						<time>2026-05-01T11:25:41Z</time>
					</trkpt>
					<trkpt lat="43.744960" lon="3.374940">
						<ele>576</ele>
						<time>2026-05-01T11:26:20Z</time>
					</trkpt>
					<trkpt lat="43.745370" lon="3.375660">
						<ele>584</ele>
						<time>2026-05-01T11:27:49Z</time>
					</trkpt>
					<trkpt lat="43.745510" lon="3.375850">
						<ele>587</ele>
						<time>2026-05-01T11:28:15Z</time>
					</trkpt>
					<trkpt lat="43.745550" lon="3.375960">
						<ele>587</ele>
						<time>2026-05-01T11:28:27Z</time>
					</trkpt>
					<trkpt lat="43.745550" lon="3.376230">
						<ele>584</ele>
						<time>2026-05-01T11:28:53Z</time>
					</trkpt>
					<trkpt lat="43.745630" lon="3.376450">
						<ele>583</ele>
						<time>2026-05-01T11:29:17Z</time>
					</trkpt>
					<trkpt lat="43.745890" lon="3.376600">
						<ele>589</ele>
						<time>2026-05-01T11:29:54Z</time>
					</trkpt>
					<trkpt lat="43.746080" lon="3.376910">
						<ele>591</ele>
						<time>2026-05-01T11:30:33Z</time>
					</trkpt>
					<trkpt lat="43.746150" lon="3.376980">
						<ele>593</ele>
						<time>2026-05-01T11:30:45Z</time>
					</trkpt>
					<trkpt lat="43.746330" lon="3.377090">
						<ele>597</ele>
						<time>2026-05-01T11:31:11Z</time>
					</trkpt>
					<trkpt lat="43.746480" lon="3.377250">
						<ele>599</ele>
						<time>2026-05-01T11:31:37Z</time>
					</trkpt>
					<trkpt lat="43.746540" lon="3.377350">
						<ele>599</ele>
						<time>2026-05-01T11:31:49Z</time>
					</trkpt>
					<trkpt lat="43.746720" lon="3.377800">
						<ele>599</ele>
						<time>2026-05-01T11:32:39Z</time>
					</trkpt>
					<trkpt lat="43.746960" lon="3.378530">
						<ele>601</ele>
						<time>2026-05-01T11:33:56Z</time>
					</trkpt>
					<trkpt lat="43.747100" lon="3.378860">
						<ele>603</ele>
						<time>2026-05-01T11:34:33Z</time>
					</trkpt>
					<trkpt lat="43.747170" lon="3.379110">
						<ele>603</ele>
						<time>2026-05-01T11:34:59Z</time>
					</trkpt>
					<trkpt lat="43.747330" lon="3.380150">
						<ele>602</ele>
						<time>2026-05-01T11:36:41Z</time>
					</trkpt>
					<trkpt lat="43.747330" lon="3.380290">
						<ele>602</ele>
						<time>2026-05-01T11:36:55Z</time>
					</trkpt>
					<trkpt lat="43.747290" lon="3.380400">
						<ele>600</ele>
						<time>2026-05-01T11:37:07Z</time>
					</trkpt>
					<trkpt lat="43.747140" lon="3.380580">
						<ele>595</ele>
						<time>2026-05-01T11:37:33Z</time>
					</trkpt>
					<trkpt lat="43.747020" lon="3.380930">
						<ele>592</ele>
						<time>2026-05-01T11:38:10Z</time>
					</trkpt>
					<trkpt lat="43.747030" lon="3.381060">
						<ele>593</ele>
						<time>2026-05-01T11:38:23Z</time>
					</trkpt>
					<trkpt lat="43.747100" lon="3.381150">
						<ele>596</ele>
						<time>2026-05-01T11:38:36Z</time>
					</trkpt>
					<trkpt lat="43.747190" lon="3.381180">
						<ele>598</ele>
						<time>2026-05-01T11:38:48Z</time>
					</trkpt>
					<trkpt lat="43.747380" lon="3.381120">
						<ele>603</ele>
						<time>2026-05-01T11:39:14Z</time>
					</trkpt>
					<trkpt lat="43.747510" lon="3.381190">
						<ele>607</ele>
						<time>2026-05-01T11:39:33Z</time>
					</trkpt>
					<trkpt lat="43.747380" lon="3.381380">
						<ele>604</ele>
						<time>2026-05-01T11:39:58Z</time>
					</trkpt>
					<trkpt lat="43.747310" lon="3.381380">
						<ele>602</ele>
						<time>2026-05-01T11:40:07Z</time>
					</trkpt>
					<trkpt lat="43.747340" lon="3.381410">
						<ele>603</ele>
						<time>2026-05-01T11:40:12Z</time>
					</trkpt>
					<trkpt lat="43.747320" lon="3.381510">
						<ele>603</ele>
						<time>2026-05-01T11:40:22Z</time>
					</trkpt>
					<trkpt lat="43.747140" lon="3.381620">
						<ele>599</ele>
						<time>2026-05-01T11:40:48Z</time>
					</trkpt>
					<trkpt lat="43.746690" lon="3.381810">
						<ele>590</ele>
						<time>2026-05-01T11:41:51Z</time>
					</trkpt>
					<trkpt lat="43.746450" lon="3.381990">
						<ele>584</ele>
						<time>2026-05-01T11:42:28Z</time>
					</trkpt>
					<trkpt lat="43.746410" lon="3.382100">
						<ele>584</ele>
						<time>2026-05-01T11:42:40Z</time>
					</trkpt>
					<trkpt lat="43.746370" lon="3.382370">
						<ele>585</ele>
						<time>2026-05-01T11:43:06Z</time>
					</trkpt>
					<trkpt lat="43.746360" lon="3.383030">
						<ele>586</ele>
						<time>2026-05-01T11:44:10Z</time>
					</trkpt>
					<trkpt lat="43.746190" lon="3.383770">
						<ele>580</ele>
						<time>2026-05-01T11:45:25Z</time>
					</trkpt>
					<trkpt lat="43.746170" lon="3.383990">
						<ele>579</ele>
						<time>2026-05-01T11:45:46Z</time>
					</trkpt>
					<trkpt lat="43.746100" lon="3.384090">
						<ele>576</ele>
						<time>2026-05-01T11:45:59Z</time>
					</trkpt>
					<trkpt lat="43.745940" lon="3.384200">
						<ele>572</ele>
						<time>2026-05-01T11:46:23Z</time>
					</trkpt>
					<trkpt lat="43.745740" lon="3.384240">
						<ele>567</ele>
						<time>2026-05-01T11:46:50Z</time>
					</trkpt>
					<trkpt lat="43.745650" lon="3.384200">
						<ele>565</ele>
						<time>2026-05-01T11:47:03Z</time>
					</trkpt>
					<trkpt lat="43.745590" lon="3.384100">
						<ele>563</ele>
						<time>2026-05-01T11:47:15Z</time>
					</trkpt>
					<trkpt lat="43.745570" lon="3.383970">
						<ele>563</ele>
						<time>2026-05-01T11:47:28Z</time>
					</trkpt>
					<trkpt lat="43.745440" lon="3.383630">
						<ele>559</ele>
						<time>2026-05-01T11:48:05Z</time>
					</trkpt>
					<trkpt lat="43.745450" lon="3.382960">
						<ele>558</ele>
						<time>2026-05-01T11:49:10Z</time>
					</trkpt>
					<trkpt lat="43.745390" lon="3.382730">
						<ele>556</ele>
						<time>2026-05-01T11:49:33Z</time>
					</trkpt>
					<trkpt lat="43.745430" lon="3.382460">
						<ele>557</ele>
						<time>2026-05-01T11:50:00Z</time>
					</trkpt>
					<trkpt lat="43.745490" lon="3.382350">
						<ele>558</ele>
						<time>2026-05-01T11:50:13Z</time>
					</trkpt>
					<trkpt lat="43.745520" lon="3.382230">
						<ele>558</ele>
						<time>2026-05-01T11:50:26Z</time>
					</trkpt>
					<trkpt lat="43.745440" lon="3.382160">
						<ele>556</ele>
						<time>2026-05-01T11:50:38Z</time>
					</trkpt>
					<trkpt lat="43.745350" lon="3.382170">
						<ele>554</ele>
						<time>2026-05-01T11:50:50Z</time>
					</trkpt>
					<trkpt lat="43.745110" lon="3.382390">
						<ele>549</ele>
						<time>2026-05-01T11:51:29Z</time>
					</trkpt>
					<trkpt lat="43.744950" lon="3.382870">
						<ele>545</ele>
						<time>2026-05-01T11:52:20Z</time>
					</trkpt>
					<trkpt lat="43.744880" lon="3.383260">
						<ele>544</ele>
						<time>2026-05-01T11:52:58Z</time>
					</trkpt>
					<trkpt lat="43.744890" lon="3.383780">
						<ele>546</ele>
						<time>2026-05-01T11:53:49Z</time>
					</trkpt>
					<trkpt lat="43.744740" lon="3.384100">
						<ele>544</ele>
						<time>2026-05-01T11:54:25Z</time>
					</trkpt>
					<trkpt lat="43.744670" lon="3.384190">
						<ele>543</ele>
						<time>2026-05-01T11:54:38Z</time>
					</trkpt>
					<trkpt lat="43.744480" lon="3.384300">
						<ele>540</ele>
						<time>2026-05-01T11:55:06Z</time>
					</trkpt>
					<trkpt lat="43.744240" lon="3.384510">
						<ele>536</ele>
						<time>2026-05-01T11:55:43Z</time>
					</trkpt>
					<trkpt lat="43.744060" lon="3.384590">
						<ele>533</ele>
						<time>2026-05-01T11:56:09Z</time>
					</trkpt>
					<trkpt lat="43.743870" lon="3.384600">
						<ele>529</ele>
						<time>2026-05-01T11:56:34Z</time>
					</trkpt>
					<trkpt lat="43.743600" lon="3.384740">
						<ele>524</ele>
						<time>2026-05-01T11:57:12Z</time>
					</trkpt>
					<trkpt lat="43.743390" lon="3.384980">
						<ele>521</ele>
						<time>2026-05-01T11:57:49Z</time>
					</trkpt>
					<trkpt lat="43.743330" lon="3.384870">
						<ele>519</ele>
						<time>2026-05-01T11:58:02Z</time>
					</trkpt>
					<trkpt lat="43.743370" lon="3.384610">
						<ele>517</ele>
						<time>2026-05-01T11:58:28Z</time>
					</trkpt>
					<trkpt lat="43.743630" lon="3.384060">
						<ele>518</ele>
						<time>2026-05-01T11:59:31Z</time>
					</trkpt>
					<trkpt lat="43.743680" lon="3.383820">
						<ele>518</ele>
						<time>2026-05-01T11:59:55Z</time>
					</trkpt>
					<trkpt lat="43.743720" lon="3.383230">
						<ele>514</ele>
						<time>2026-05-01T12:00:52Z</time>
					</trkpt>
					<trkpt lat="43.743690" lon="3.382970">
						<ele>513</ele>
						<time>2026-05-01T12:01:18Z</time>
					</trkpt>
					<trkpt lat="43.743680" lon="3.382330">
						<ele>511</ele>
						<time>2026-05-01T12:02:19Z</time>
					</trkpt>
					<trkpt lat="43.743660" lon="3.382210">
						<ele>511</ele>
						<time>2026-05-01T12:02:31Z</time>
					</trkpt>
					<trkpt lat="43.743590" lon="3.382110">
						<ele>510</ele>
						<time>2026-05-01T12:02:45Z</time>
					</trkpt>
					<trkpt lat="43.743430" lon="3.381970">
						<ele>506</ele>
						<time>2026-05-01T12:03:10Z</time>
					</trkpt>
					<trkpt lat="43.743280" lon="3.381780">
						<ele>503</ele>
						<time>2026-05-01T12:03:37Z</time>
					</trkpt>
					<trkpt lat="43.743080" lon="3.381190">
						<ele>500</ele>
						<time>2026-05-01T12:04:40Z</time>
					</trkpt>
					<trkpt lat="43.743040" lon="3.380680">
						<ele>501</ele>
						<time>2026-05-01T12:05:29Z</time>
					</trkpt>
					<trkpt lat="43.742970" lon="3.380290">
						<ele>500</ele>
						<time>2026-05-01T12:06:08Z</time>
					</trkpt>
					<trkpt lat="43.742920" lon="3.380180">
						<ele>499</ele>
						<time>2026-05-01T12:06:21Z</time>
					</trkpt>
					<trkpt lat="43.742700" lon="3.379940">
						<ele>495</ele>
						<time>2026-05-01T12:06:58Z</time>
					</trkpt>
					<trkpt lat="43.742430" lon="3.379820">
						<ele>492</ele>
						<time>2026-05-01T12:07:36Z</time>
					</trkpt>
					<trkpt lat="43.741780" lon="3.379610">
						<ele>492</ele>
						<time>2026-05-01T12:09:05Z</time>
					</trkpt>
					<trkpt lat="43.741690" lon="3.379550">
						<ele>492</ele>
						<time>2026-05-01T12:09:18Z</time>
					</trkpt>
					<trkpt lat="43.741700" lon="3.379420">
						<ele>493</ele>
						<time>2026-05-01T12:09:31Z</time>
					</trkpt>
					<trkpt lat="43.741740" lon="3.379310">
						<ele>494</ele>
						<time>2026-05-01T12:09:43Z</time>
					</trkpt>
					<trkpt lat="43.741660" lon="3.379360">
						<ele>493</ele>
						<time>2026-05-01T12:09:54Z</time>
					</trkpt>
					<trkpt lat="43.741480" lon="3.379240">
						<ele>493</ele>
						<time>2026-05-01T12:10:21Z</time>
					</trkpt>
					<trkpt lat="43.741090" lon="3.378910">
						<ele>492</ele>
						<time>2026-05-01T12:11:22Z</time>
					</trkpt>
					<trkpt lat="43.740990" lon="3.378860">
						<ele>491</ele>
						<time>2026-05-01T12:11:36Z</time>
					</trkpt>
					<trkpt lat="43.740910" lon="3.378940">
						<ele>490</ele>
						<time>2026-05-01T12:11:50Z</time>
					</trkpt>
					<trkpt lat="43.740600" lon="3.379430">
						<ele>485</ele>
						<time>2026-05-01T12:12:52Z</time>
					</trkpt>
					<trkpt lat="43.740560" lon="3.380350">
						<ele>484</ele>
						<time>2026-05-01T12:14:21Z</time>
					</trkpt>
					<trkpt lat="43.740540" lon="3.380490">
						<ele>483</ele>
						<time>2026-05-01T12:14:35Z</time>
					</trkpt>
					<trkpt lat="43.740480" lon="3.380600">
						<ele>483</ele>
						<time>2026-05-01T12:14:48Z</time>
					</trkpt>
					<trkpt lat="43.740360" lon="3.380710">
						<ele>482</ele>
						<time>2026-05-01T12:15:07Z</time>
					</trkpt>
					<trkpt lat="43.740240" lon="3.380910">
						<ele>480</ele>
						<time>2026-05-01T12:15:32Z</time>
					</trkpt>
					<trkpt lat="43.740080" lon="3.381050">
						<ele>477</ele>
						<time>2026-05-01T12:15:58Z</time>
					</trkpt>
					<trkpt lat="43.739990" lon="3.381080">
						<ele>477</ele>
						<time>2026-05-01T12:16:10Z</time>
					</trkpt>
					<trkpt lat="43.739910" lon="3.381150">
						<ele>474</ele>
						<time>2026-05-01T12:16:23Z</time>
					</trkpt>
					<trkpt lat="43.739850" lon="3.381390">
						<ele>471</ele>
						<time>2026-05-01T12:16:47Z</time>
					</trkpt>
					<trkpt lat="43.739860" lon="3.381510">
						<ele>471</ele>
						<time>2026-05-01T12:16:59Z</time>
					</trkpt>
					<trkpt lat="43.739730" lon="3.381700">
						<ele>467</ele>
						<time>2026-05-01T12:17:24Z</time>
					</trkpt>
					<trkpt lat="43.739700" lon="3.381820">
						<ele>464</ele>
						<time>2026-05-01T12:17:36Z</time>
					</trkpt>
					<trkpt lat="43.739640" lon="3.381920">
						<ele>462</ele>
						<time>2026-05-01T12:17:49Z</time>
					</trkpt>
					<trkpt lat="43.739560" lon="3.381990">
						<ele>460</ele>
						<time>2026-05-01T12:18:01Z</time>
					</trkpt>
					<trkpt lat="43.739250" lon="3.381980">
						<ele>457</ele>
						<time>2026-05-01T12:18:43Z</time>
					</trkpt>
					<trkpt lat="43.739130" lon="3.381860">
						<ele>456</ele>
						<time>2026-05-01T12:19:03Z</time>
					</trkpt>
					<trkpt lat="43.739140" lon="3.381610">
						<ele>458</ele>
						<time>2026-05-01T12:19:27Z</time>
					</trkpt>
					<trkpt lat="43.739290" lon="3.381120">
						<ele>460</ele>
						<time>2026-05-01T12:20:18Z</time>
					</trkpt>
					<trkpt lat="43.739370" lon="3.380610">
						<ele>461</ele>
						<time>2026-05-01T12:21:08Z</time>
					</trkpt>
					<trkpt lat="43.739370" lon="3.380480">
						<ele>460</ele>
						<time>2026-05-01T12:21:21Z</time>
					</trkpt>
					<trkpt lat="43.739480" lon="3.380000">
						<ele>461</ele>
						<time>2026-05-01T12:22:09Z</time>
					</trkpt>
					<trkpt lat="43.739490" lon="3.379690">
						<ele>460</ele>
						<time>2026-05-01T12:22:39Z</time>
					</trkpt>
					<trkpt lat="43.739400" lon="3.379780">
						<ele>458</ele>
						<time>2026-05-01T12:22:54Z</time>
					</trkpt>
					<trkpt lat="43.739360" lon="3.379910">
						<ele>457</ele>
						<time>2026-05-01T12:23:08Z</time>
					</trkpt>
					<trkpt lat="43.739230" lon="3.380100">
						<ele>454</ele>
						<time>2026-05-01T12:23:33Z</time>
					</trkpt>
					<trkpt lat="43.739090" lon="3.380260">
						<ele>451</ele>
						<time>2026-05-01T12:23:57Z</time>
					</trkpt>
					<trkpt lat="43.738930" lon="3.380390">
						<ele>448</ele>
						<time>2026-05-01T12:24:22Z</time>
					</trkpt>
					<trkpt lat="43.738890" lon="3.380280">
						<ele>446</ele>
						<time>2026-05-01T12:24:34Z</time>
					</trkpt>
					<trkpt lat="43.738910" lon="3.379970">
						<ele>444</ele>
						<time>2026-05-01T12:25:04Z</time>
					</trkpt>
					<trkpt lat="43.738940" lon="3.379930">
						<ele>445</ele>
						<time>2026-05-01T12:25:09Z</time>
					</trkpt>
					<trkpt lat="43.738910" lon="3.379890">
						<ele>444</ele>
						<time>2026-05-01T12:25:15Z</time>
					</trkpt>
					<trkpt lat="43.738900" lon="3.379770">
						<ele>443</ele>
						<time>2026-05-01T12:25:27Z</time>
					</trkpt>
					<trkpt lat="43.738760" lon="3.379610">
						<ele>438</ele>
						<time>2026-05-01T12:25:51Z</time>
					</trkpt>
					<trkpt lat="43.738760" lon="3.379350">
						<ele>436</ele>
						<time>2026-05-01T12:26:16Z</time>
					</trkpt>
					<trkpt lat="43.738670" lon="3.379380">
						<ele>434</ele>
						<time>2026-05-01T12:26:28Z</time>
					</trkpt>
					<trkpt lat="43.738610" lon="3.379490">
						<ele>433</ele>
						<time>2026-05-01T12:26:42Z</time>
					</trkpt>
					<trkpt lat="43.738380" lon="3.380080">
						<ele>431</ele>
						<time>2026-05-01T12:27:46Z</time>
					</trkpt>
					<trkpt lat="43.738370" lon="3.380340">
						<ele>432</ele>
						<time>2026-05-01T12:28:11Z</time>
					</trkpt>
					<trkpt lat="43.738220" lon="3.380830">
						<ele>433</ele>
						<time>2026-05-01T12:29:03Z</time>
					</trkpt>
					<trkpt lat="43.738000" lon="3.381430">
						<ele>432</ele>
						<time>2026-05-01T12:30:08Z</time>
					</trkpt>
					<trkpt lat="43.737930" lon="3.381530">
						<ele>432</ele>
						<time>2026-05-01T12:30:21Z</time>
					</trkpt>
					<trkpt lat="43.737830" lon="3.381520">
						<ele>430</ele>
						<time>2026-05-01T12:30:34Z</time>
					</trkpt>
					<trkpt lat="43.737890" lon="3.381240">
						<ele>429</ele>
						<time>2026-05-01T12:31:03Z</time>
					</trkpt>
					<trkpt lat="43.737950" lon="3.381130">
						<ele>429</ele>
						<time>2026-05-01T12:31:16Z</time>
					</trkpt>
					<trkpt lat="43.738020" lon="3.380870">
						<ele>429</ele>
						<time>2026-05-01T12:31:43Z</time>
					</trkpt>
					<trkpt lat="43.738050" lon="3.380490">
						<ele>426</ele>
						<time>2026-05-01T12:32:19Z</time>
					</trkpt>
					<trkpt lat="43.738220" lon="3.380030">
						<ele>426</ele>
						<time>2026-05-01T12:33:09Z</time>
					</trkpt>
					<trkpt lat="43.738310" lon="3.379670">
						<ele>426</ele>
						<time>2026-05-01T12:33:46Z</time>
					</trkpt>
					<trkpt lat="43.738360" lon="3.379290">
						<ele>425</ele>
						<time>2026-05-01T12:34:23Z</time>
					</trkpt>
					<trkpt lat="43.738470" lon="3.379080">
						<ele>428</ele>
						<time>2026-05-01T12:34:48Z</time>
					</trkpt>
					<trkpt lat="43.738480" lon="3.378820">
						<ele>430</ele>
						<time>2026-05-01T12:35:13Z</time>
					</trkpt>
					<trkpt lat="43.738520" lon="3.378610">
						<ele>432</ele>
						<time>2026-05-01T12:35:34Z</time>
					</trkpt>
					<trkpt lat="43.738430" lon="3.378550">
						<ele>431</ele>
						<time>2026-05-01T12:35:48Z</time>
					</trkpt>
					<trkpt lat="43.738330" lon="3.378540">
						<ele>428</ele>
						<time>2026-05-01T12:36:01Z</time>
					</trkpt>
					<trkpt lat="43.738260" lon="3.378600">
						<ele>427</ele>
						<time>2026-05-01T12:36:12Z</time>
					</trkpt>
					<trkpt lat="43.738130" lon="3.378800">
						<ele>425</ele>
						<time>2026-05-01T12:36:38Z</time>
					</trkpt>
					<trkpt lat="43.737970" lon="3.378930">
						<ele>423</ele>
						<time>2026-05-01T12:37:03Z</time>
					</trkpt>
					<trkpt lat="43.737150" lon="3.379230">
						<ele>413</ele>
						<time>2026-05-01T12:38:56Z</time>
					</trkpt>
					<trkpt lat="43.736780" lon="3.379180">
						<ele>411</ele>
						<time>2026-05-01T12:39:45Z</time>
					</trkpt>
					<trkpt lat="43.736580" lon="3.379120">
						<ele>409</ele>
						<time>2026-05-01T12:40:13Z</time>
					</trkpt>
					<trkpt lat="43.736350" lon="3.378910">
						<ele>409</ele>
						<time>2026-05-01T12:40:50Z</time>
					</trkpt>
					<trkpt lat="43.736160" lon="3.378830">
						<ele>408</ele>
						<time>2026-05-01T12:41:16Z</time>
					</trkpt>
					<trkpt lat="43.736100" lon="3.378780">
						<ele>408</ele>
						<time>2026-05-01T12:41:25Z</time>
					</trkpt>
					<trkpt lat="43.735950" lon="3.378580">
						<ele>410</ele>
						<time>2026-05-01T12:41:53Z</time>
					</trkpt>
					<trkpt lat="43.735850" lon="3.378360">
						<ele>414</ele>
						<time>2026-05-01T12:42:18Z</time>
					</trkpt>
					<trkpt lat="43.735780" lon="3.378120">
						<ele>412</ele>
						<time>2026-05-01T12:42:43Z</time>
					</trkpt>
					<trkpt lat="43.735870" lon="3.377740">
						<ele>415</ele>
						<time>2026-05-01T12:43:22Z</time>
					</trkpt>
					<trkpt lat="43.735980" lon="3.377520">
						<ele>416</ele>
						<time>2026-05-01T12:43:48Z</time>
					</trkpt>
					<trkpt lat="43.736030" lon="3.377250">
						<ele>416</ele>
						<time>2026-05-01T12:44:14Z</time>
					</trkpt>
					<trkpt lat="43.736070" lon="3.376730">
						<ele>416</ele>
						<time>2026-05-01T12:45:05Z</time>
					</trkpt>
					<trkpt lat="43.736060" lon="3.376600">
						<ele>416</ele>
						<time>2026-05-01T12:45:17Z</time>
					</trkpt>
					<trkpt lat="43.736020" lon="3.376480">
						<ele>417</ele>
						<time>2026-05-01T12:45:30Z</time>
					</trkpt>
					<trkpt lat="43.735900" lon="3.376280">
						<ele>417</ele>
						<time>2026-05-01T12:45:55Z</time>
					</trkpt>
					<trkpt lat="43.735620" lon="3.375920">
						<ele>417</ele>
						<time>2026-05-01T12:46:46Z</time>
					</trkpt>
					<trkpt lat="43.735530" lon="3.375880">
						<ele>416</ele>
						<time>2026-05-01T12:46:59Z</time>
					</trkpt>
					<trkpt lat="43.735480" lon="3.375760">
						<ele>416</ele>
						<time>2026-05-01T12:47:12Z</time>
					</trkpt>
					<trkpt lat="43.735390" lon="3.375690">
						<ele>416</ele>
						<time>2026-05-01T12:47:26Z</time>
					</trkpt>
					<trkpt lat="43.735250" lon="3.375490">
						<ele>417</ele>
						<time>2026-05-01T12:47:53Z</time>
					</trkpt>
					<trkpt lat="43.735200" lon="3.375210">
						<ele>421</ele>
						<time>2026-05-01T12:48:21Z</time>
					</trkpt>
					<trkpt lat="43.735140" lon="3.375100">
						<ele>423</ele>
						<time>2026-05-01T12:48:34Z</time>
					</trkpt>
					<trkpt lat="43.735060" lon="3.375020">
						<ele>424</ele>
						<time>2026-05-01T12:48:47Z</time>
					</trkpt>
					<trkpt lat="43.734970" lon="3.374990">
						<ele>424</ele>
						<time>2026-05-01T12:48:59Z</time>
					</trkpt>
					<trkpt lat="43.734700" lon="3.374620">
						<ele>426</ele>
						<time>2026-05-01T12:49:50Z</time>
					</trkpt>
					<trkpt lat="43.734770" lon="3.374440">
						<ele>427</ele>
						<time>2026-05-01T12:50:10Z</time>
					</trkpt>
					<trkpt lat="43.734730" lon="3.374430">
						<ele>427</ele>
						<time>2026-05-01T12:50:15Z</time>
					</trkpt>
					<trkpt lat="43.734820" lon="3.374070">
						<ele>430</ele>
						<time>2026-05-01T12:50:52Z</time>
					</trkpt>
					<trkpt lat="43.734820" lon="3.373850">
						<ele>431</ele>
						<time>2026-05-01T12:51:13Z</time>
					</trkpt>
					<trkpt lat="43.734850" lon="3.373730">
						<ele>432</ele>
						<time>2026-05-01T12:51:25Z</time>
					</trkpt>
					<trkpt lat="43.734920" lon="3.373640">
						<ele>432</ele>
						<time>2026-05-01T12:51:38Z</time>
					</trkpt>
					<trkpt lat="43.735100" lon="3.373590">
						<ele>432</ele>
						<time>2026-05-01T12:52:03Z</time>
					</trkpt>
					<trkpt lat="43.735230" lon="3.373380">
						<ele>432</ele>
						<time>2026-05-01T12:52:29Z</time>
					</trkpt>
					<trkpt lat="43.735340" lon="3.373010">
						<ele>431</ele>
						<time>2026-05-01T12:53:08Z</time>
					</trkpt>
					<trkpt lat="43.735310" lon="3.372880">
						<ele>431</ele>
						<time>2026-05-01T12:53:21Z</time>
					</trkpt>
					<trkpt lat="43.734880" lon="3.371850">
						<ele>429</ele>
						<time>2026-05-01T12:55:16Z</time>
					</trkpt>
					<trkpt lat="43.734820" lon="3.371470">
						<ele>428</ele>
						<time>2026-05-01T12:55:53Z</time>
					</trkpt>
					<trkpt lat="43.734680" lon="3.371070">
						<ele>427</ele>
						<time>2026-05-01T12:56:36Z</time>
					</trkpt>
					</trkseg>
				</trk>
			</gpx>