<?xml version="1.0" encoding="UTF-8"?>
<gpx xmlns="http://www.topografix.com/GPX/1/1" xmlns:xsi="http://www.w3.org/2001/XMLSchema-instance" version="1.1" creator="phpGPX/1.3.0" xsi:schemaLocation="http://www.topografix.com/GPX/1/1 http://www.topografix.com/GPX/1/1/gpx.xsd">
  <metadata>
    <time>2026-05-14T10:01:46+00:00</time>
  </metadata>
  <trk>
    <name>Grand Sud - Le Col de la Madeleine par la réserve du Luitel</name>
    <trkseg>
      <trkpt lat="45.07606" lon="5.7739">
        <ele>289</ele>
        <time>2026-05-14T10:01:47+00:00</time>
      </trkpt>
      <trkpt lat="45.07632" lon="5.77307">
        <ele>288</ele>
        <time>2026-05-14T10:01:48+00:00</time>
      </trkpt>
      <trkpt lat="45.07635" lon="5.77286">
        <ele>287</ele>
        <time>2026-05-14T10:01:49+00:00</time>
      </trkpt>
      <trkpt lat="45.07664" lon="5.77317">
        <ele>289</ele>
        <time>2026-05-14T10:01:50+00:00</time>
      </trkpt>
      <trkpt lat="45.07699" lon="5.77345">
        <ele>291</ele>
        <time>2026-05-14T10:01:51+00:00</time>
      </trkpt>
      <trkpt lat="45.07717" lon="5.77354">
        <ele>291</ele>
        <time>2026-05-14T10:01:52+00:00</time>
      </trkpt>
      <trkpt lat="45.07725" lon="5.77342">
        <ele>291</ele>
        <time>2026-05-14T10:01:53+00:00</time>
      </trkpt>
      <trkpt lat="45.07762" lon="5.77374">
        <ele>293</ele>
        <time>2026-05-14T10:01:54+00:00</time>
      </trkpt>
      <trkpt lat="45.07803" lon="5.77402">
        <ele>291</ele>
        <time>2026-05-14T10:01:55+00:00</time>
      </trkpt>
      <trkpt lat="45.07817" lon="5.77441">
        <ele>292</ele>
        <time>2026-05-14T10:01:56+00:00</time>
      </trkpt>
      <trkpt lat="45.07871" lon="5.7749">
        <ele>294</ele>
        <time>2026-05-14T10:01:57+00:00</time>
      </trkpt>
      <trkpt lat="45.07898" lon="5.77538">
        <ele>294</ele>
        <time>2026-05-14T10:01:58+00:00</time>
      </trkpt>
      <trkpt lat="45.07912" lon="5.77555">
        <ele>295</ele>
        <time>2026-05-14T10:01:59+00:00</time>
      </trkpt>
      <trkpt lat="45.0792" lon="5.77545">
        <ele>295</ele>
        <time>2026-05-14T10:02:00+00:00</time>
      </trkpt>
      <trkpt lat="45.07933" lon="5.77538">
        <ele>295</ele>
        <time>2026-05-14T10:02:01+00:00</time>
      </trkpt>
      <trkpt lat="45.07964" lon="5.77539">
        <ele>296</ele>
        <time>2026-05-14T10:02:02+00:00</time>
      </trkpt>
      <trkpt lat="45.08051" lon="5.77588">
        <ele>302</ele>
        <time>2026-05-14T10:02:03+00:00</time>
      </trkpt>
      <trkpt lat="45.08084" lon="5.77626">
        <ele>303</ele>
        <time>2026-05-14T10:02:04+00:00</time>
      </trkpt>
      <trkpt lat="45.08118" lon="5.77682">
        <ele>307</ele>
        <time>2026-05-14T10:02:05+00:00</time>
      </trkpt>
      <trkpt lat="45.08117" lon="5.77713">
        <ele>306</ele>
        <time>2026-05-14T10:02:06+00:00</time>
      </trkpt>
      <trkpt lat="45.08125" lon="5.77761">
        <ele>306</ele>
        <time>2026-05-14T10:02:07+00:00</time>
      </trkpt>
      <trkpt lat="45.08168" lon="5.77845">
        <ele>302</ele>
        <time>2026-05-14T10:02:08+00:00</time>
      </trkpt>
      <trkpt lat="45.08202" lon="5.77895">
        <ele>296</ele>
        <time>2026-05-14T10:02:09+00:00</time>
      </trkpt>
      <trkpt lat="45.08275" lon="5.77945">
        <ele>298</ele>
        <time>2026-05-14T10:02:10+00:00</time>
      </trkpt>
      <trkpt lat="45.08323" lon="5.77963">
        <ele>305</ele>
        <time>2026-05-14T10:02:11+00:00</time>
      </trkpt>
      <trkpt lat="45.08396" lon="5.78022">
        <ele>307</ele>
        <time>2026-05-14T10:02:12+00:00</time>
      </trkpt>
      <trkpt lat="45.08521" lon="5.78149">
        <ele>305</ele>
        <time>2026-05-14T10:02:13+00:00</time>
      </trkpt>
      <trkpt lat="45.08559" lon="5.78196">
        <ele>303</ele>
        <time>2026-05-14T10:02:14+00:00</time>
      </trkpt>
      <trkpt lat="45.08633" lon="5.7832">
        <ele>301</ele>
        <time>2026-05-14T10:02:15+00:00</time>
      </trkpt>
      <trkpt lat="45.08856" lon="5.78605">
        <ele>297</ele>
        <time>2026-05-14T10:02:16+00:00</time>
      </trkpt>
      <trkpt lat="45.08896" lon="5.78653">
        <ele>297</ele>
        <time>2026-05-14T10:02:17+00:00</time>
      </trkpt>
      <trkpt lat="45.08959" lon="5.78717">
        <ele>301</ele>
        <time>2026-05-14T10:02:18+00:00</time>
      </trkpt>
      <trkpt lat="45.09057" lon="5.78827">
        <ele>304</ele>
        <time>2026-05-14T10:02:19+00:00</time>
      </trkpt>
      <trkpt lat="45.09118" lon="5.78881">
        <ele>298</ele>
        <time>2026-05-14T10:02:20+00:00</time>
      </trkpt>
      <trkpt lat="45.09209" lon="5.78915">
        <ele>295</ele>
        <time>2026-05-14T10:02:21+00:00</time>
      </trkpt>
      <trkpt lat="45.09235" lon="5.78946">
        <ele>294</ele>
        <time>2026-05-14T10:02:22+00:00</time>
      </trkpt>
      <trkpt lat="45.09314" lon="5.79023">
        <ele>295</ele>
        <time>2026-05-14T10:02:23+00:00</time>
      </trkpt>
      <trkpt lat="45.0934" lon="5.79057">
        <ele>295</ele>
        <time>2026-05-14T10:02:24+00:00</time>
      </trkpt>
      <trkpt lat="45.09407" lon="5.79112">
        <ele>296</ele>
        <time>2026-05-14T10:02:25+00:00</time>
      </trkpt>
      <trkpt lat="45.09453" lon="5.79143">
        <ele>297</ele>
        <time>2026-05-14T10:02:26+00:00</time>
      </trkpt>
      <trkpt lat="45.09471" lon="5.79127">
        <ele>299</ele>
        <time>2026-05-14T10:02:27+00:00</time>
      </trkpt>
      <trkpt lat="45.09487" lon="5.79131">
        <ele>300</ele>
        <time>2026-05-14T10:02:28+00:00</time>
      </trkpt>
      <trkpt lat="45.09523" lon="5.79174">
        <ele>298</ele>
        <time>2026-05-14T10:02:29+00:00</time>
      </trkpt>
      <trkpt lat="45.09555" lon="5.79203">
        <ele>299</ele>
        <time>2026-05-14T10:02:30+00:00</time>
      </trkpt>
      <trkpt lat="45.09559" lon="5.79203">
        <ele>299</ele>
        <time>2026-05-14T10:02:31+00:00</time>
      </trkpt>
      <trkpt lat="45.09589" lon="5.79161">
        <ele>303</ele>
        <time>2026-05-14T10:02:32+00:00</time>
      </trkpt>
      <trkpt lat="45.09597" lon="5.79157">
        <ele>304</ele>
        <time>2026-05-14T10:02:33+00:00</time>
      </trkpt>
      <trkpt lat="45.09624" lon="5.79156">
        <ele>306</ele>
        <time>2026-05-14T10:02:34+00:00</time>
      </trkpt>
      <trkpt lat="45.09725" lon="5.79175">
        <ele>307</ele>
        <time>2026-05-14T10:02:35+00:00</time>
      </trkpt>
      <trkpt lat="45.09773" lon="5.79178">
        <ele>308</ele>
        <time>2026-05-14T10:02:36+00:00</time>
      </trkpt>
      <trkpt lat="45.09818" lon="5.79174">
        <ele>310</ele>
        <time>2026-05-14T10:02:37+00:00</time>
      </trkpt>
      <trkpt lat="45.0988" lon="5.7918">
        <ele>312</ele>
        <time>2026-05-14T10:02:38+00:00</time>
      </trkpt>
      <trkpt lat="45.09958" lon="5.79227">
        <ele>309</ele>
        <time>2026-05-14T10:02:39+00:00</time>
      </trkpt>
      <trkpt lat="45.10039" lon="5.79264">
        <ele>311</ele>
        <time>2026-05-14T10:02:40+00:00</time>
      </trkpt>
      <trkpt lat="45.10093" lon="5.79281">
        <ele>314</ele>
        <time>2026-05-14T10:02:41+00:00</time>
      </trkpt>
      <trkpt lat="45.10119" lon="5.79279">
        <ele>319</ele>
        <time>2026-05-14T10:02:42+00:00</time>
      </trkpt>
      <trkpt lat="45.10156" lon="5.79287">
        <ele>323</ele>
        <time>2026-05-14T10:02:43+00:00</time>
      </trkpt>
      <trkpt lat="45.10288" lon="5.79372">
        <ele>317</ele>
        <time>2026-05-14T10:02:44+00:00</time>
      </trkpt>
      <trkpt lat="45.10301" lon="5.79384">
        <ele>315</ele>
        <time>2026-05-14T10:02:45+00:00</time>
      </trkpt>
      <trkpt lat="45.10314" lon="5.79404">
        <ele>312</ele>
        <time>2026-05-14T10:02:46+00:00</time>
      </trkpt>
      <trkpt lat="45.10328" lon="5.79403">
        <ele>313</ele>
        <time>2026-05-14T10:02:47+00:00</time>
      </trkpt>
      <trkpt lat="45.10426" lon="5.7943">
        <ele>316</ele>
        <time>2026-05-14T10:02:48+00:00</time>
      </trkpt>
      <trkpt lat="45.1046" lon="5.7943">
        <ele>317</ele>
        <time>2026-05-14T10:02:49+00:00</time>
      </trkpt>
      <trkpt lat="45.105" lon="5.79438">
        <ele>317</ele>
        <time>2026-05-14T10:02:50+00:00</time>
      </trkpt>
      <trkpt lat="45.10549" lon="5.79475">
        <ele>317</ele>
        <time>2026-05-14T10:02:51+00:00</time>
      </trkpt>
      <trkpt lat="45.10628" lon="5.79554">
        <ele>317</ele>
        <time>2026-05-14T10:02:52+00:00</time>
      </trkpt>
      <trkpt lat="45.10656" lon="5.79575">
        <ele>317</ele>
        <time>2026-05-14T10:02:53+00:00</time>
      </trkpt>
      <trkpt lat="45.10687" lon="5.7959">
        <ele>317</ele>
        <time>2026-05-14T10:02:54+00:00</time>
      </trkpt>
      <trkpt lat="45.10768" lon="5.79598">
        <ele>322</ele>
        <time>2026-05-14T10:02:55+00:00</time>
      </trkpt>
      <trkpt lat="45.10816" lon="5.79631">
        <ele>327</ele>
        <time>2026-05-14T10:02:56+00:00</time>
      </trkpt>
      <trkpt lat="45.10837" lon="5.79657">
        <ele>325</ele>
        <time>2026-05-14T10:02:57+00:00</time>
      </trkpt>
      <trkpt lat="45.10868" lon="5.79748">
        <ele>319</ele>
        <time>2026-05-14T10:02:58+00:00</time>
      </trkpt>
      <trkpt lat="45.10892" lon="5.79788">
        <ele>319</ele>
        <time>2026-05-14T10:02:59+00:00</time>
      </trkpt>
      <trkpt lat="45.10823" lon="5.79862">
        <ele>314</ele>
        <time>2026-05-14T10:03:00+00:00</time>
      </trkpt>
      <trkpt lat="45.10785" lon="5.79873">
        <ele>315</ele>
        <time>2026-05-14T10:03:01+00:00</time>
      </trkpt>
      <trkpt lat="45.10761" lon="5.79875">
        <ele>315</ele>
        <time>2026-05-14T10:03:02+00:00</time>
      </trkpt>
      <trkpt lat="45.10748" lon="5.79872">
        <ele>315</ele>
        <time>2026-05-14T10:03:03+00:00</time>
      </trkpt>
      <trkpt lat="45.10626" lon="5.7983">
        <ele>311</ele>
        <time>2026-05-14T10:03:04+00:00</time>
      </trkpt>
      <trkpt lat="45.10601" lon="5.79919">
        <ele>310</ele>
        <time>2026-05-14T10:03:05+00:00</time>
      </trkpt>
      <trkpt lat="45.1056" lon="5.79989">
        <ele>311</ele>
        <time>2026-05-14T10:03:06+00:00</time>
      </trkpt>
      <trkpt lat="45.10515" lon="5.80117">
        <ele>312</ele>
        <time>2026-05-14T10:03:07+00:00</time>
      </trkpt>
      <trkpt lat="45.10496" lon="5.80151">
        <ele>313</ele>
        <time>2026-05-14T10:03:08+00:00</time>
      </trkpt>
      <trkpt lat="45.10396" lon="5.80281">
        <ele>323</ele>
        <time>2026-05-14T10:03:09+00:00</time>
      </trkpt>
      <trkpt lat="45.1037" lon="5.80331">
        <ele>325</ele>
        <time>2026-05-14T10:03:10+00:00</time>
      </trkpt>
      <trkpt lat="45.10348" lon="5.80389">
        <ele>328</ele>
        <time>2026-05-14T10:03:11+00:00</time>
      </trkpt>
      <trkpt lat="45.10442" lon="5.80492">
        <ele>329</ele>
        <time>2026-05-14T10:03:12+00:00</time>
      </trkpt>
      <trkpt lat="45.10497" lon="5.80546">
        <ele>331</ele>
        <time>2026-05-14T10:03:13+00:00</time>
      </trkpt>
      <trkpt lat="45.10513" lon="5.80559">
        <ele>332</ele>
        <time>2026-05-14T10:03:14+00:00</time>
      </trkpt>
      <trkpt lat="45.10566" lon="5.80588">
        <ele>335</ele>
        <time>2026-05-14T10:03:15+00:00</time>
      </trkpt>
      <trkpt lat="45.10553" lon="5.80629">
        <ele>338</ele>
        <time>2026-05-14T10:03:16+00:00</time>
      </trkpt>
      <trkpt lat="45.10562" lon="5.80651">
        <ele>340</ele>
        <time>2026-05-14T10:03:17+00:00</time>
      </trkpt>
      <trkpt lat="45.10563" lon="5.80664">
        <ele>341</ele>
        <time>2026-05-14T10:03:18+00:00</time>
      </trkpt>
      <trkpt lat="45.10556" lon="5.80684">
        <ele>342</ele>
        <time>2026-05-14T10:03:19+00:00</time>
      </trkpt>
      <trkpt lat="45.10541" lon="5.80706">
        <ele>344</ele>
        <time>2026-05-14T10:03:20+00:00</time>
      </trkpt>
      <trkpt lat="45.10508" lon="5.80795">
        <ele>356</ele>
        <time>2026-05-14T10:03:21+00:00</time>
      </trkpt>
      <trkpt lat="45.10448" lon="5.8082">
        <ele>361</ele>
        <time>2026-05-14T10:03:22+00:00</time>
      </trkpt>
      <trkpt lat="45.1045" lon="5.80879">
        <ele>374</ele>
        <time>2026-05-14T10:03:23+00:00</time>
      </trkpt>
      <trkpt lat="45.10488" lon="5.80988">
        <ele>396</ele>
        <time>2026-05-14T10:03:24+00:00</time>
      </trkpt>
      <trkpt lat="45.10556" lon="5.81083">
        <ele>421</ele>
        <time>2026-05-14T10:03:25+00:00</time>
      </trkpt>
      <trkpt lat="45.10585" lon="5.81137">
        <ele>435</ele>
        <time>2026-05-14T10:03:26+00:00</time>
      </trkpt>
      <trkpt lat="45.1071" lon="5.8131">
        <ele>459</ele>
        <time>2026-05-14T10:03:27+00:00</time>
      </trkpt>
      <trkpt lat="45.10729" lon="5.81352">
        <ele>463</ele>
        <time>2026-05-14T10:03:28+00:00</time>
      </trkpt>
      <trkpt lat="45.10733" lon="5.81387">
        <ele>468</ele>
        <time>2026-05-14T10:03:29+00:00</time>
      </trkpt>
      <trkpt lat="45.10727" lon="5.81487">
        <ele>488</ele>
        <time>2026-05-14T10:03:30+00:00</time>
      </trkpt>
      <trkpt lat="45.10734" lon="5.81518">
        <ele>492</ele>
        <time>2026-05-14T10:03:31+00:00</time>
      </trkpt>
      <trkpt lat="45.10769" lon="5.81569">
        <ele>495</ele>
        <time>2026-05-14T10:03:32+00:00</time>
      </trkpt>
      <trkpt lat="45.10772" lon="5.8158">
        <ele>496</ele>
        <time>2026-05-14T10:03:33+00:00</time>
      </trkpt>
      <trkpt lat="45.10773" lon="5.81618">
        <ele>501</ele>
        <time>2026-05-14T10:03:34+00:00</time>
      </trkpt>
      <trkpt lat="45.10763" lon="5.81726">
        <ele>509</ele>
        <time>2026-05-14T10:03:35+00:00</time>
      </trkpt>
      <trkpt lat="45.10757" lon="5.8175">
        <ele>510</ele>
        <time>2026-05-14T10:03:36+00:00</time>
      </trkpt>
      <trkpt lat="45.10737" lon="5.81776">
        <ele>513</ele>
        <time>2026-05-14T10:03:37+00:00</time>
      </trkpt>
      <trkpt lat="45.10726" lon="5.81857">
        <ele>520</ele>
        <time>2026-05-14T10:03:38+00:00</time>
      </trkpt>
      <trkpt lat="45.10733" lon="5.8192">
        <ele>529</ele>
        <time>2026-05-14T10:03:39+00:00</time>
      </trkpt>
      <trkpt lat="45.10753" lon="5.81988">
        <ele>536</ele>
        <time>2026-05-14T10:03:40+00:00</time>
      </trkpt>
      <trkpt lat="45.10734" lon="5.82081">
        <ele>563</ele>
        <time>2026-05-14T10:03:41+00:00</time>
      </trkpt>
      <trkpt lat="45.10736" lon="5.82108">
        <ele>568</ele>
        <time>2026-05-14T10:03:42+00:00</time>
      </trkpt>
      <trkpt lat="45.10726" lon="5.82384">
        <ele>625</ele>
        <time>2026-05-14T10:03:43+00:00</time>
      </trkpt>
      <trkpt lat="45.10767" lon="5.82437">
        <ele>624</ele>
        <time>2026-05-14T10:03:44+00:00</time>
      </trkpt>
      <trkpt lat="45.10773" lon="5.82529">
        <ele>645</ele>
        <time>2026-05-14T10:03:45+00:00</time>
      </trkpt>
      <trkpt lat="45.10757" lon="5.82586">
        <ele>664</ele>
        <time>2026-05-14T10:03:46+00:00</time>
      </trkpt>
      <trkpt lat="45.10749" lon="5.82644">
        <ele>682</ele>
        <time>2026-05-14T10:03:47+00:00</time>
      </trkpt>
      <trkpt lat="45.10748" lon="5.82804">
        <ele>707</ele>
        <time>2026-05-14T10:03:48+00:00</time>
      </trkpt>
      <trkpt lat="45.10763" lon="5.82906">
        <ele>714</ele>
        <time>2026-05-14T10:03:49+00:00</time>
      </trkpt>
      <trkpt lat="45.10767" lon="5.83009">
        <ele>729</ele>
        <time>2026-05-14T10:03:50+00:00</time>
      </trkpt>
      <trkpt lat="45.10762" lon="5.8306">
        <ele>735</ele>
        <time>2026-05-14T10:03:51+00:00</time>
      </trkpt>
      <trkpt lat="45.10744" lon="5.83129">
        <ele>742</ele>
        <time>2026-05-14T10:03:52+00:00</time>
      </trkpt>
      <trkpt lat="45.10731" lon="5.83151">
        <ele>745</ele>
        <time>2026-05-14T10:03:53+00:00</time>
      </trkpt>
      <trkpt lat="45.10718" lon="5.8315">
        <ele>749</ele>
        <time>2026-05-14T10:03:54+00:00</time>
      </trkpt>
      <trkpt lat="45.10707" lon="5.83154">
        <ele>752</ele>
        <time>2026-05-14T10:03:55+00:00</time>
      </trkpt>
      <trkpt lat="45.10674" lon="5.83185">
        <ele>760</ele>
        <time>2026-05-14T10:03:56+00:00</time>
      </trkpt>
      <trkpt lat="45.10645" lon="5.83192">
        <ele>765</ele>
        <time>2026-05-14T10:03:57+00:00</time>
      </trkpt>
      <trkpt lat="45.10634" lon="5.83188">
        <ele>767</ele>
        <time>2026-05-14T10:03:58+00:00</time>
      </trkpt>
      <trkpt lat="45.10628" lon="5.83182">
        <ele>768</ele>
        <time>2026-05-14T10:03:59+00:00</time>
      </trkpt>
      <trkpt lat="45.1062" lon="5.8316">
        <ele>770</ele>
        <time>2026-05-14T10:04:00+00:00</time>
      </trkpt>
      <trkpt lat="45.10612" lon="5.83129">
        <ele>772</ele>
        <time>2026-05-14T10:04:01+00:00</time>
      </trkpt>
      <trkpt lat="45.10612" lon="5.83106">
        <ele>773</ele>
        <time>2026-05-14T10:04:02+00:00</time>
      </trkpt>
      <trkpt lat="45.10598" lon="5.83095">
        <ele>775</ele>
        <time>2026-05-14T10:04:03+00:00</time>
      </trkpt>
      <trkpt lat="45.10586" lon="5.83099">
        <ele>777</ele>
        <time>2026-05-14T10:04:04+00:00</time>
      </trkpt>
      <trkpt lat="45.10579" lon="5.8311">
        <ele>779</ele>
        <time>2026-05-14T10:04:05+00:00</time>
      </trkpt>
      <trkpt lat="45.1057" lon="5.83103">
        <ele>781</ele>
        <time>2026-05-14T10:04:06+00:00</time>
      </trkpt>
      <trkpt lat="45.10562" lon="5.83087">
        <ele>784</ele>
        <time>2026-05-14T10:04:07+00:00</time>
      </trkpt>
      <trkpt lat="45.10563" lon="5.83052">
        <ele>784</ele>
        <time>2026-05-14T10:04:08+00:00</time>
      </trkpt>
      <trkpt lat="45.10558" lon="5.83038">
        <ele>786</ele>
        <time>2026-05-14T10:04:09+00:00</time>
      </trkpt>
      <trkpt lat="45.10547" lon="5.83026">
        <ele>790</ele>
        <time>2026-05-14T10:04:10+00:00</time>
      </trkpt>
      <trkpt lat="45.10491" lon="5.82925">
        <ele>808</ele>
        <time>2026-05-14T10:04:11+00:00</time>
      </trkpt>
      <trkpt lat="45.1046" lon="5.8288">
        <ele>815</ele>
        <time>2026-05-14T10:04:12+00:00</time>
      </trkpt>
      <trkpt lat="45.10437" lon="5.82857">
        <ele>821</ele>
        <time>2026-05-14T10:04:13+00:00</time>
      </trkpt>
      <trkpt lat="45.10405" lon="5.82837">
        <ele>831</ele>
        <time>2026-05-14T10:04:14+00:00</time>
      </trkpt>
      <trkpt lat="45.1039" lon="5.8282">
        <ele>837</ele>
        <time>2026-05-14T10:04:15+00:00</time>
      </trkpt>
      <trkpt lat="45.10375" lon="5.82793">
        <ele>843</ele>
        <time>2026-05-14T10:04:16+00:00</time>
      </trkpt>
      <trkpt lat="45.10351" lon="5.8273">
        <ele>854</ele>
        <time>2026-05-14T10:04:17+00:00</time>
      </trkpt>
      <trkpt lat="45.10343" lon="5.82729">
        <ele>857</ele>
        <time>2026-05-14T10:04:18+00:00</time>
      </trkpt>
      <trkpt lat="45.10332" lon="5.82735">
        <ele>861</ele>
        <time>2026-05-14T10:04:19+00:00</time>
      </trkpt>
      <trkpt lat="45.10305" lon="5.82733">
        <ele>867</ele>
        <time>2026-05-14T10:04:20+00:00</time>
      </trkpt>
      <trkpt lat="45.10272" lon="5.82713">
        <ele>875</ele>
        <time>2026-05-14T10:04:21+00:00</time>
      </trkpt>
      <trkpt lat="45.10252" lon="5.82693">
        <ele>880</ele>
        <time>2026-05-14T10:04:22+00:00</time>
      </trkpt>
      <trkpt lat="45.10236" lon="5.82657">
        <ele>882</ele>
        <time>2026-05-14T10:04:23+00:00</time>
      </trkpt>
      <trkpt lat="45.10211" lon="5.82635">
        <ele>885</ele>
        <time>2026-05-14T10:04:24+00:00</time>
      </trkpt>
      <trkpt lat="45.1019" lon="5.82626">
        <ele>888</ele>
        <time>2026-05-14T10:04:25+00:00</time>
      </trkpt>
      <trkpt lat="45.1017" lon="5.82624">
        <ele>891</ele>
        <time>2026-05-14T10:04:26+00:00</time>
      </trkpt>
      <trkpt lat="45.10161" lon="5.82616">
        <ele>893</ele>
        <time>2026-05-14T10:04:27+00:00</time>
      </trkpt>
      <trkpt lat="45.10134" lon="5.82622">
        <ele>898</ele>
        <time>2026-05-14T10:04:28+00:00</time>
      </trkpt>
      <trkpt lat="45.10087" lon="5.82552">
        <ele>902</ele>
        <time>2026-05-14T10:04:29+00:00</time>
      </trkpt>
      <trkpt lat="45.1007" lon="5.82538">
        <ele>903</ele>
        <time>2026-05-14T10:04:30+00:00</time>
      </trkpt>
      <trkpt lat="45.10066" lon="5.82576">
        <ele>905</ele>
        <time>2026-05-14T10:04:31+00:00</time>
      </trkpt>
      <trkpt lat="45.10053" lon="5.8262">
        <ele>910</ele>
        <time>2026-05-14T10:04:32+00:00</time>
      </trkpt>
      <trkpt lat="45.10049" lon="5.82691">
        <ele>915</ele>
        <time>2026-05-14T10:04:33+00:00</time>
      </trkpt>
      <trkpt lat="45.10035" lon="5.82716">
        <ele>918</ele>
        <time>2026-05-14T10:04:34+00:00</time>
      </trkpt>
      <trkpt lat="45.10014" lon="5.82727">
        <ele>923</ele>
        <time>2026-05-14T10:04:35+00:00</time>
      </trkpt>
      <trkpt lat="45.09998" lon="5.82729">
        <ele>926</ele>
        <time>2026-05-14T10:04:36+00:00</time>
      </trkpt>
      <trkpt lat="45.09923" lon="5.82711">
        <ele>945</ele>
        <time>2026-05-14T10:04:37+00:00</time>
      </trkpt>
      <trkpt lat="45.09896" lon="5.82721">
        <ele>955</ele>
        <time>2026-05-14T10:04:38+00:00</time>
      </trkpt>
      <trkpt lat="45.09855" lon="5.82694">
        <ele>959</ele>
        <time>2026-05-14T10:04:39+00:00</time>
      </trkpt>
      <trkpt lat="45.09827" lon="5.82662">
        <ele>958</ele>
        <time>2026-05-14T10:04:40+00:00</time>
      </trkpt>
      <trkpt lat="45.098" lon="5.82642">
        <ele>961</ele>
        <time>2026-05-14T10:04:41+00:00</time>
      </trkpt>
      <trkpt lat="45.09788" lon="5.82665">
        <ele>968</ele>
        <time>2026-05-14T10:04:42+00:00</time>
      </trkpt>
      <trkpt lat="45.09807" lon="5.82777">
        <ele>994</ele>
        <time>2026-05-14T10:04:43+00:00</time>
      </trkpt>
      <trkpt lat="45.09822" lon="5.82796">
        <ele>995</ele>
        <time>2026-05-14T10:04:44+00:00</time>
      </trkpt>
      <trkpt lat="45.09883" lon="5.82907">
        <ele>1006</ele>
        <time>2026-05-14T10:04:45+00:00</time>
      </trkpt>
      <trkpt lat="45.09908" lon="5.82978">
        <ele>1017</ele>
        <time>2026-05-14T10:04:46+00:00</time>
      </trkpt>
      <trkpt lat="45.09924" lon="5.83041">
        <ele>1031</ele>
        <time>2026-05-14T10:04:47+00:00</time>
      </trkpt>
      <trkpt lat="45.09943" lon="5.83072">
        <ele>1033</ele>
        <time>2026-05-14T10:04:48+00:00</time>
      </trkpt>
      <trkpt lat="45.09951" lon="5.83132">
        <ele>1046</ele>
        <time>2026-05-14T10:04:49+00:00</time>
      </trkpt>
      <trkpt lat="45.0996" lon="5.83162">
        <ele>1050</ele>
        <time>2026-05-14T10:04:50+00:00</time>
      </trkpt>
      <trkpt lat="45.09971" lon="5.83187">
        <ele>1049</ele>
        <time>2026-05-14T10:04:51+00:00</time>
      </trkpt>
      <trkpt lat="45.09993" lon="5.83218">
        <ele>1042</ele>
        <time>2026-05-14T10:04:52+00:00</time>
      </trkpt>
      <trkpt lat="45.09997" lon="5.8328">
        <ele>1045</ele>
        <time>2026-05-14T10:04:53+00:00</time>
      </trkpt>
      <trkpt lat="45.09979" lon="5.8336">
        <ele>1053</ele>
        <time>2026-05-14T10:04:54+00:00</time>
      </trkpt>
      <trkpt lat="45.09964" lon="5.83389">
        <ele>1058</ele>
        <time>2026-05-14T10:04:55+00:00</time>
      </trkpt>
      <trkpt lat="45.09942" lon="5.83399">
        <ele>1067</ele>
        <time>2026-05-14T10:04:56+00:00</time>
      </trkpt>
      <trkpt lat="45.09904" lon="5.83409">
        <ele>1083</ele>
        <time>2026-05-14T10:04:57+00:00</time>
      </trkpt>
      <trkpt lat="45.09816" lon="5.83502">
        <ele>1118</ele>
        <time>2026-05-14T10:04:58+00:00</time>
      </trkpt>
      <trkpt lat="45.09808" lon="5.83555">
        <ele>1121</ele>
        <time>2026-05-14T10:04:59+00:00</time>
      </trkpt>
      <trkpt lat="45.09807" lon="5.83645">
        <ele>1120</ele>
        <time>2026-05-14T10:05:00+00:00</time>
      </trkpt>
      <trkpt lat="45.09796" lon="5.83702">
        <ele>1122</ele>
        <time>2026-05-14T10:05:01+00:00</time>
      </trkpt>
      <trkpt lat="45.09787" lon="5.83731">
        <ele>1124</ele>
        <time>2026-05-14T10:05:02+00:00</time>
      </trkpt>
      <trkpt lat="45.09731" lon="5.83851">
        <ele>1128</ele>
        <time>2026-05-14T10:05:03+00:00</time>
      </trkpt>
      <trkpt lat="45.09702" lon="5.8393">
        <ele>1126</ele>
        <time>2026-05-14T10:05:04+00:00</time>
      </trkpt>
      <trkpt lat="45.097" lon="5.8395">
        <ele>1126</ele>
        <time>2026-05-14T10:05:05+00:00</time>
      </trkpt>
      <trkpt lat="45.09718" lon="5.83982">
        <ele>1121</ele>
        <time>2026-05-14T10:05:06+00:00</time>
      </trkpt>
      <trkpt lat="45.09724" lon="5.84001">
        <ele>1120</ele>
        <time>2026-05-14T10:05:07+00:00</time>
      </trkpt>
      <trkpt lat="45.09727" lon="5.84039">
        <ele>1120</ele>
        <time>2026-05-14T10:05:08+00:00</time>
      </trkpt>
      <trkpt lat="45.0967" lon="5.84198">
        <ele>1110</ele>
        <time>2026-05-14T10:05:09+00:00</time>
      </trkpt>
      <trkpt lat="45.09651" lon="5.84215">
        <ele>1110</ele>
        <time>2026-05-14T10:05:10+00:00</time>
      </trkpt>
      <trkpt lat="45.09633" lon="5.8422">
        <ele>1113</ele>
        <time>2026-05-14T10:05:11+00:00</time>
      </trkpt>
      <trkpt lat="45.0947" lon="5.84246">
        <ele>1131</ele>
        <time>2026-05-14T10:05:12+00:00</time>
      </trkpt>
      <trkpt lat="45.09492" lon="5.84292">
        <ele>1117</ele>
        <time>2026-05-14T10:05:13+00:00</time>
      </trkpt>
      <trkpt lat="45.09538" lon="5.84322">
        <ele>1103</ele>
        <time>2026-05-14T10:05:14+00:00</time>
      </trkpt>
      <trkpt lat="45.09552" lon="5.84325">
        <ele>1100</ele>
        <time>2026-05-14T10:05:15+00:00</time>
      </trkpt>
      <trkpt lat="45.0965" lon="5.84323">
        <ele>1092</ele>
        <time>2026-05-14T10:05:16+00:00</time>
      </trkpt>
      <trkpt lat="45.09668" lon="5.84328">
        <ele>1090</ele>
        <time>2026-05-14T10:05:17+00:00</time>
      </trkpt>
      <trkpt lat="45.0971" lon="5.84366">
        <ele>1087</ele>
        <time>2026-05-14T10:05:18+00:00</time>
      </trkpt>
      <trkpt lat="45.09742" lon="5.84381">
        <ele>1084</ele>
        <time>2026-05-14T10:05:19+00:00</time>
      </trkpt>
      <trkpt lat="45.09775" lon="5.84419">
        <ele>1083</ele>
        <time>2026-05-14T10:05:20+00:00</time>
      </trkpt>
      <trkpt lat="45.09912" lon="5.84542">
        <ele>1079</ele>
        <time>2026-05-14T10:05:21+00:00</time>
      </trkpt>
      <trkpt lat="45.09963" lon="5.84599">
        <ele>1081</ele>
        <time>2026-05-14T10:05:22+00:00</time>
      </trkpt>
      <trkpt lat="45.09971" lon="5.84604">
        <ele>1081</ele>
        <time>2026-05-14T10:05:23+00:00</time>
      </trkpt>
      <trkpt lat="45.10073" lon="5.84619">
        <ele>1090</ele>
        <time>2026-05-14T10:05:24+00:00</time>
      </trkpt>
      <trkpt lat="45.101" lon="5.84617">
        <ele>1094</ele>
        <time>2026-05-14T10:05:25+00:00</time>
      </trkpt>
      <trkpt lat="45.10178" lon="5.84695">
        <ele>1103</ele>
        <time>2026-05-14T10:05:26+00:00</time>
      </trkpt>
      <trkpt lat="45.1019" lon="5.84701">
        <ele>1105</ele>
        <time>2026-05-14T10:05:27+00:00</time>
      </trkpt>
      <trkpt lat="45.10179" lon="5.84739">
        <ele>1103</ele>
        <time>2026-05-14T10:05:28+00:00</time>
      </trkpt>
      <trkpt lat="45.10153" lon="5.84793">
        <ele>1106</ele>
        <time>2026-05-14T10:05:29+00:00</time>
      </trkpt>
      <trkpt lat="45.10149" lon="5.8484">
        <ele>1112</ele>
        <time>2026-05-14T10:05:30+00:00</time>
      </trkpt>
      <trkpt lat="45.10139" lon="5.84869">
        <ele>1116</ele>
        <time>2026-05-14T10:05:31+00:00</time>
      </trkpt>
      <trkpt lat="45.10102" lon="5.84898">
        <ele>1121</ele>
        <time>2026-05-14T10:05:32+00:00</time>
      </trkpt>
      <trkpt lat="45.10085" lon="5.84902">
        <ele>1122</ele>
        <time>2026-05-14T10:05:33+00:00</time>
      </trkpt>
      <trkpt lat="45.10075" lon="5.84911">
        <ele>1123</ele>
        <time>2026-05-14T10:05:34+00:00</time>
      </trkpt>
      <trkpt lat="45.10052" lon="5.84917">
        <ele>1124</ele>
        <time>2026-05-14T10:05:35+00:00</time>
      </trkpt>
      <trkpt lat="45.10041" lon="5.84928">
        <ele>1126</ele>
        <time>2026-05-14T10:05:36+00:00</time>
      </trkpt>
      <trkpt lat="45.10035" lon="5.84949">
        <ele>1130</ele>
        <time>2026-05-14T10:05:37+00:00</time>
      </trkpt>
      <trkpt lat="45.10027" lon="5.84954">
        <ele>1131</ele>
        <time>2026-05-14T10:05:38+00:00</time>
      </trkpt>
      <trkpt lat="45.0995" lon="5.84969">
        <ele>1144</ele>
        <time>2026-05-14T10:05:39+00:00</time>
      </trkpt>
      <trkpt lat="45.09906" lon="5.84959">
        <ele>1150</ele>
        <time>2026-05-14T10:05:40+00:00</time>
      </trkpt>
      <trkpt lat="45.09859" lon="5.84942">
        <ele>1153</ele>
        <time>2026-05-14T10:05:41+00:00</time>
      </trkpt>
      <trkpt lat="45.09807" lon="5.84931">
        <ele>1160</ele>
        <time>2026-05-14T10:05:42+00:00</time>
      </trkpt>
      <trkpt lat="45.09777" lon="5.84925">
        <ele>1165</ele>
        <time>2026-05-14T10:05:43+00:00</time>
      </trkpt>
      <trkpt lat="45.09729" lon="5.84924">
        <ele>1174</ele>
        <time>2026-05-14T10:05:44+00:00</time>
      </trkpt>
      <trkpt lat="45.097" lon="5.84924">
        <ele>1179</ele>
        <time>2026-05-14T10:05:45+00:00</time>
      </trkpt>
      <trkpt lat="45.09602" lon="5.84943">
        <ele>1197</ele>
        <time>2026-05-14T10:05:46+00:00</time>
      </trkpt>
      <trkpt lat="45.09567" lon="5.84931">
        <ele>1198</ele>
        <time>2026-05-14T10:05:47+00:00</time>
      </trkpt>
      <trkpt lat="45.09517" lon="5.84944">
        <ele>1206</ele>
        <time>2026-05-14T10:05:48+00:00</time>
      </trkpt>
      <trkpt lat="45.09433" lon="5.84954">
        <ele>1222</ele>
        <time>2026-05-14T10:05:49+00:00</time>
      </trkpt>
      <trkpt lat="45.09387" lon="5.84955">
        <ele>1234</ele>
        <time>2026-05-14T10:05:50+00:00</time>
      </trkpt>
      <trkpt lat="45.09361" lon="5.8495">
        <ele>1239</ele>
        <time>2026-05-14T10:05:51+00:00</time>
      </trkpt>
      <trkpt lat="45.09329" lon="5.84916">
        <ele>1239</ele>
        <time>2026-05-14T10:05:52+00:00</time>
      </trkpt>
      <trkpt lat="45.09285" lon="5.84851">
        <ele>1242</ele>
        <time>2026-05-14T10:05:53+00:00</time>
      </trkpt>
      <trkpt lat="45.09242" lon="5.84811">
        <ele>1250</ele>
        <time>2026-05-14T10:05:54+00:00</time>
      </trkpt>
      <trkpt lat="45.09222" lon="5.84787">
        <ele>1253</ele>
        <time>2026-05-14T10:05:55+00:00</time>
      </trkpt>
      <trkpt lat="45.09202" lon="5.84734">
        <ele>1256</ele>
        <time>2026-05-14T10:05:56+00:00</time>
      </trkpt>
      <trkpt lat="45.09193" lon="5.84734">
        <ele>1260</ele>
        <time>2026-05-14T10:05:57+00:00</time>
      </trkpt>
      <trkpt lat="45.09183" lon="5.8474">
        <ele>1264</ele>
        <time>2026-05-14T10:05:58+00:00</time>
      </trkpt>
      <trkpt lat="45.0917" lon="5.8476">
        <ele>1269</ele>
        <time>2026-05-14T10:05:59+00:00</time>
      </trkpt>
      <trkpt lat="45.09168" lon="5.84737">
        <ele>1271</ele>
        <time>2026-05-14T10:06:00+00:00</time>
      </trkpt>
      <trkpt lat="45.0914" lon="5.847">
        <ele>1280</ele>
        <time>2026-05-14T10:06:01+00:00</time>
      </trkpt>
      <trkpt lat="45.09128" lon="5.84675">
        <ele>1288</ele>
        <time>2026-05-14T10:06:02+00:00</time>
      </trkpt>
      <trkpt lat="45.09118" lon="5.84625">
        <ele>1294</ele>
        <time>2026-05-14T10:06:03+00:00</time>
      </trkpt>
      <trkpt lat="45.09106" lon="5.8465">
        <ele>1297</ele>
        <time>2026-05-14T10:06:04+00:00</time>
      </trkpt>
      <trkpt lat="45.09069" lon="5.84703">
        <ele>1294</ele>
        <time>2026-05-14T10:06:05+00:00</time>
      </trkpt>
      <trkpt lat="45.09005" lon="5.84762">
        <ele>1291</ele>
        <time>2026-05-14T10:06:06+00:00</time>
      </trkpt>
      <trkpt lat="45.08994" lon="5.84757">
        <ele>1294</ele>
        <time>2026-05-14T10:06:07+00:00</time>
      </trkpt>
      <trkpt lat="45.08957" lon="5.84778">
        <ele>1291</ele>
        <time>2026-05-14T10:06:08+00:00</time>
      </trkpt>
      <trkpt lat="45.08923" lon="5.84786">
        <ele>1292</ele>
        <time>2026-05-14T10:06:09+00:00</time>
      </trkpt>
      <trkpt lat="45.08906" lon="5.84783">
        <ele>1293</ele>
        <time>2026-05-14T10:06:10+00:00</time>
      </trkpt>
      <trkpt lat="45.08889" lon="5.84795">
        <ele>1289</ele>
        <time>2026-05-14T10:06:11+00:00</time>
      </trkpt>
      <trkpt lat="45.08871" lon="5.84792">
        <ele>1289</ele>
        <time>2026-05-14T10:06:12+00:00</time>
      </trkpt>
      <trkpt lat="45.08833" lon="5.84811">
        <ele>1285</ele>
        <time>2026-05-14T10:06:13+00:00</time>
      </trkpt>
      <trkpt lat="45.08777" lon="5.84814">
        <ele>1278</ele>
        <time>2026-05-14T10:06:14+00:00</time>
      </trkpt>
      <trkpt lat="45.08753" lon="5.84822">
        <ele>1274</ele>
        <time>2026-05-14T10:06:15+00:00</time>
      </trkpt>
      <trkpt lat="45.08739" lon="5.84855">
        <ele>1271</ele>
        <time>2026-05-14T10:06:16+00:00</time>
      </trkpt>
      <trkpt lat="45.08736" lon="5.84875">
        <ele>1270</ele>
        <time>2026-05-14T10:06:17+00:00</time>
      </trkpt>
      <trkpt lat="45.08714" lon="5.84853">
        <ele>1269</ele>
        <time>2026-05-14T10:06:18+00:00</time>
      </trkpt>
      <trkpt lat="45.08672" lon="5.84782">
        <ele>1271</ele>
        <time>2026-05-14T10:06:19+00:00</time>
      </trkpt>
      <trkpt lat="45.08645" lon="5.84764">
        <ele>1271</ele>
        <time>2026-05-14T10:06:20+00:00</time>
      </trkpt>
      <trkpt lat="45.08616" lon="5.84754">
        <ele>1272</ele>
        <time>2026-05-14T10:06:21+00:00</time>
      </trkpt>
      <trkpt lat="45.08577" lon="5.84748">
        <ele>1274</ele>
        <time>2026-05-14T10:06:22+00:00</time>
      </trkpt>
      <trkpt lat="45.0853" lon="5.84768">
        <ele>1274</ele>
        <time>2026-05-14T10:06:23+00:00</time>
      </trkpt>
      <trkpt lat="45.08439" lon="5.84762">
        <ele>1274</ele>
        <time>2026-05-14T10:06:24+00:00</time>
      </trkpt>
      <trkpt lat="45.08422" lon="5.84775">
        <ele>1271</ele>
        <time>2026-05-14T10:06:25+00:00</time>
      </trkpt>
      <trkpt lat="45.08398" lon="5.84821">
        <ele>1262</ele>
        <time>2026-05-14T10:06:26+00:00</time>
      </trkpt>
      <trkpt lat="45.08377" lon="5.84895">
        <ele>1255</ele>
        <time>2026-05-14T10:06:27+00:00</time>
      </trkpt>
      <trkpt lat="45.08377" lon="5.84921">
        <ele>1254</ele>
        <time>2026-05-14T10:06:28+00:00</time>
      </trkpt>
      <trkpt lat="45.08393" lon="5.84953">
        <ele>1256</ele>
        <time>2026-05-14T10:06:29+00:00</time>
      </trkpt>
      <trkpt lat="45.08399" lon="5.84976">
        <ele>1257</ele>
        <time>2026-05-14T10:06:30+00:00</time>
      </trkpt>
      <trkpt lat="45.08393" lon="5.85012">
        <ele>1257</ele>
        <time>2026-05-14T10:06:31+00:00</time>
      </trkpt>
      <trkpt lat="45.08378" lon="5.8503">
        <ele>1255</ele>
        <time>2026-05-14T10:06:32+00:00</time>
      </trkpt>
      <trkpt lat="45.08369" lon="5.85034">
        <ele>1254</ele>
        <time>2026-05-14T10:06:33+00:00</time>
      </trkpt>
      <trkpt lat="45.08353" lon="5.85033">
        <ele>1252</ele>
        <time>2026-05-14T10:06:34+00:00</time>
      </trkpt>
      <trkpt lat="45.08333" lon="5.84999">
        <ele>1248</ele>
        <time>2026-05-14T10:06:35+00:00</time>
      </trkpt>
      <trkpt lat="45.08286" lon="5.84946">
        <ele>1240</ele>
        <time>2026-05-14T10:06:36+00:00</time>
      </trkpt>
      <trkpt lat="45.08274" lon="5.84975">
        <ele>1238</ele>
        <time>2026-05-14T10:06:37+00:00</time>
      </trkpt>
      <trkpt lat="45.08266" lon="5.84964">
        <ele>1237</ele>
        <time>2026-05-14T10:06:38+00:00</time>
      </trkpt>
      <trkpt lat="45.08208" lon="5.84823">
        <ele>1216</ele>
        <time>2026-05-14T10:06:39+00:00</time>
      </trkpt>
      <trkpt lat="45.08172" lon="5.84764">
        <ele>1202</ele>
        <time>2026-05-14T10:06:40+00:00</time>
      </trkpt>
      <trkpt lat="45.08164" lon="5.84714">
        <ele>1196</ele>
        <time>2026-05-14T10:06:41+00:00</time>
      </trkpt>
      <trkpt lat="45.08151" lon="5.84678">
        <ele>1190</ele>
        <time>2026-05-14T10:06:42+00:00</time>
      </trkpt>
      <trkpt lat="45.08119" lon="5.84632">
        <ele>1177</ele>
        <time>2026-05-14T10:06:43+00:00</time>
      </trkpt>
      <trkpt lat="45.08095" lon="5.8461">
        <ele>1167</ele>
        <time>2026-05-14T10:06:44+00:00</time>
      </trkpt>
      <trkpt lat="45.08077" lon="5.84602">
        <ele>1161</ele>
        <time>2026-05-14T10:06:45+00:00</time>
      </trkpt>
      <trkpt lat="45.08066" lon="5.84601">
        <ele>1158</ele>
        <time>2026-05-14T10:06:46+00:00</time>
      </trkpt>
      <trkpt lat="45.0803" lon="5.84615">
        <ele>1152</ele>
        <time>2026-05-14T10:06:47+00:00</time>
      </trkpt>
      <trkpt lat="45.08016" lon="5.84616">
        <ele>1149</ele>
        <time>2026-05-14T10:06:48+00:00</time>
      </trkpt>
      <trkpt lat="45.07993" lon="5.84608">
        <ele>1143</ele>
        <time>2026-05-14T10:06:49+00:00</time>
      </trkpt>
      <trkpt lat="45.07957" lon="5.84576">
        <ele>1133</ele>
        <time>2026-05-14T10:06:50+00:00</time>
      </trkpt>
      <trkpt lat="45.07908" lon="5.84498">
        <ele>1110</ele>
        <time>2026-05-14T10:06:51+00:00</time>
      </trkpt>
      <trkpt lat="45.07896" lon="5.84521">
        <ele>1108</ele>
        <time>2026-05-14T10:06:52+00:00</time>
      </trkpt>
      <trkpt lat="45.07883" lon="5.84526">
        <ele>1104</ele>
        <time>2026-05-14T10:06:53+00:00</time>
      </trkpt>
      <trkpt lat="45.07897" lon="5.84507">
        <ele>1107</ele>
        <time>2026-05-14T10:06:54+00:00</time>
      </trkpt>
      <trkpt lat="45.07901" lon="5.84486">
        <ele>1107</ele>
        <time>2026-05-14T10:06:55+00:00</time>
      </trkpt>
      <trkpt lat="45.07894" lon="5.84445">
        <ele>1102</ele>
        <time>2026-05-14T10:06:56+00:00</time>
      </trkpt>
      <trkpt lat="45.07902" lon="5.84404">
        <ele>1102</ele>
        <time>2026-05-14T10:06:57+00:00</time>
      </trkpt>
      <trkpt lat="45.07917" lon="5.8408">
        <ele>1113</ele>
        <time>2026-05-14T10:06:58+00:00</time>
      </trkpt>
      <trkpt lat="45.07915" lon="5.84049">
        <ele>1116</ele>
        <time>2026-05-14T10:06:59+00:00</time>
      </trkpt>
      <trkpt lat="45.07895" lon="5.83974">
        <ele>1119</ele>
        <time>2026-05-14T10:07:00+00:00</time>
      </trkpt>
      <trkpt lat="45.07895" lon="5.83895">
        <ele>1131</ele>
        <time>2026-05-14T10:07:01+00:00</time>
      </trkpt>
      <trkpt lat="45.07874" lon="5.8375">
        <ele>1149</ele>
        <time>2026-05-14T10:07:02+00:00</time>
      </trkpt>
      <trkpt lat="45.07848" lon="5.83661">
        <ele>1155</ele>
        <time>2026-05-14T10:07:03+00:00</time>
      </trkpt>
      <trkpt lat="45.07833" lon="5.8358">
        <ele>1173</ele>
        <time>2026-05-14T10:07:04+00:00</time>
      </trkpt>
      <trkpt lat="45.07797" lon="5.83495">
        <ele>1178</ele>
        <time>2026-05-14T10:07:05+00:00</time>
      </trkpt>
      <trkpt lat="45.07786" lon="5.83413">
        <ele>1188</ele>
        <time>2026-05-14T10:07:06+00:00</time>
      </trkpt>
      <trkpt lat="45.07745" lon="5.83226">
        <ele>1203</ele>
        <time>2026-05-14T10:07:07+00:00</time>
      </trkpt>
      <trkpt lat="45.07737" lon="5.83197">
        <ele>1206</ele>
        <time>2026-05-14T10:07:08+00:00</time>
      </trkpt>
      <trkpt lat="45.07688" lon="5.83109">
        <ele>1208</ele>
        <time>2026-05-14T10:07:09+00:00</time>
      </trkpt>
      <trkpt lat="45.07662" lon="5.8304">
        <ele>1218</ele>
        <time>2026-05-14T10:07:10+00:00</time>
      </trkpt>
      <trkpt lat="45.07587" lon="5.82877">
        <ele>1231</ele>
        <time>2026-05-14T10:07:11+00:00</time>
      </trkpt>
      <trkpt lat="45.07555" lon="5.82848">
        <ele>1228</ele>
        <time>2026-05-14T10:07:12+00:00</time>
      </trkpt>
      <trkpt lat="45.0751" lon="5.82734">
        <ele>1250</ele>
        <time>2026-05-14T10:07:13+00:00</time>
      </trkpt>
      <trkpt lat="45.07475" lon="5.82689">
        <ele>1253</ele>
        <time>2026-05-14T10:07:14+00:00</time>
      </trkpt>
      <trkpt lat="45.07422" lon="5.8264">
        <ele>1251</ele>
        <time>2026-05-14T10:07:15+00:00</time>
      </trkpt>
      <trkpt lat="45.07415" lon="5.82629">
        <ele>1252</ele>
        <time>2026-05-14T10:07:16+00:00</time>
      </trkpt>
      <trkpt lat="45.07404" lon="5.82587">
        <ele>1258</ele>
        <time>2026-05-14T10:07:17+00:00</time>
      </trkpt>
      <trkpt lat="45.07404" lon="5.82467">
        <ele>1261</ele>
        <time>2026-05-14T10:07:18+00:00</time>
      </trkpt>
      <trkpt lat="45.0741" lon="5.82439">
        <ele>1262</ele>
        <time>2026-05-14T10:07:19+00:00</time>
      </trkpt>
      <trkpt lat="45.07444" lon="5.82375">
        <ele>1263</ele>
        <time>2026-05-14T10:07:20+00:00</time>
      </trkpt>
      <trkpt lat="45.07458" lon="5.82308">
        <ele>1255</ele>
        <time>2026-05-14T10:07:21+00:00</time>
      </trkpt>
      <trkpt lat="45.07462" lon="5.82255">
        <ele>1248</ele>
        <time>2026-05-14T10:07:22+00:00</time>
      </trkpt>
      <trkpt lat="45.07471" lon="5.82216">
        <ele>1250</ele>
        <time>2026-05-14T10:07:23+00:00</time>
      </trkpt>
      <trkpt lat="45.07441" lon="5.82182">
        <ele>1240</ele>
        <time>2026-05-14T10:07:24+00:00</time>
      </trkpt>
      <trkpt lat="45.07407" lon="5.82179">
        <ele>1229</ele>
        <time>2026-05-14T10:07:25+00:00</time>
      </trkpt>
      <trkpt lat="45.07367" lon="5.82189">
        <ele>1217</ele>
        <time>2026-05-14T10:07:26+00:00</time>
      </trkpt>
      <trkpt lat="45.07349" lon="5.82185">
        <ele>1211</ele>
        <time>2026-05-14T10:07:27+00:00</time>
      </trkpt>
      <trkpt lat="45.07347" lon="5.82161">
        <ele>1210</ele>
        <time>2026-05-14T10:07:28+00:00</time>
      </trkpt>
      <trkpt lat="45.07305" lon="5.82009">
        <ele>1209</ele>
        <time>2026-05-14T10:07:29+00:00</time>
      </trkpt>
      <trkpt lat="45.07267" lon="5.81915">
        <ele>1203</ele>
        <time>2026-05-14T10:07:30+00:00</time>
      </trkpt>
      <trkpt lat="45.07249" lon="5.81886">
        <ele>1197</ele>
        <time>2026-05-14T10:07:31+00:00</time>
      </trkpt>
      <trkpt lat="45.07229" lon="5.81863">
        <ele>1188</ele>
        <time>2026-05-14T10:07:32+00:00</time>
      </trkpt>
      <trkpt lat="45.07201" lon="5.81845">
        <ele>1176</ele>
        <time>2026-05-14T10:07:33+00:00</time>
      </trkpt>
      <trkpt lat="45.07195" lon="5.81832">
        <ele>1173</ele>
        <time>2026-05-14T10:07:34+00:00</time>
      </trkpt>
      <trkpt lat="45.07199" lon="5.81813">
        <ele>1173</ele>
        <time>2026-05-14T10:07:35+00:00</time>
      </trkpt>
      <trkpt lat="45.07225" lon="5.81759">
        <ele>1180</ele>
        <time>2026-05-14T10:07:36+00:00</time>
      </trkpt>
      <trkpt lat="45.07246" lon="5.81689">
        <ele>1181</ele>
        <time>2026-05-14T10:07:37+00:00</time>
      </trkpt>
      <trkpt lat="45.07249" lon="5.81659">
        <ele>1179</ele>
        <time>2026-05-14T10:07:38+00:00</time>
      </trkpt>
      <trkpt lat="45.07242" lon="5.81581">
        <ele>1166</ele>
        <time>2026-05-14T10:07:39+00:00</time>
      </trkpt>
      <trkpt lat="45.07191" lon="5.81438">
        <ele>1154</ele>
        <time>2026-05-14T10:07:40+00:00</time>
      </trkpt>
      <trkpt lat="45.07196" lon="5.81428">
        <ele>1156</ele>
        <time>2026-05-14T10:07:41+00:00</time>
      </trkpt>
      <trkpt lat="45.07232" lon="5.81389">
        <ele>1163</ele>
        <time>2026-05-14T10:07:42+00:00</time>
      </trkpt>
      <trkpt lat="45.07343" lon="5.81312">
        <ele>1158</ele>
        <time>2026-05-14T10:07:43+00:00</time>
      </trkpt>
      <trkpt lat="45.07358" lon="5.81298">
        <ele>1156</ele>
        <time>2026-05-14T10:07:44+00:00</time>
      </trkpt>
      <trkpt lat="45.07394" lon="5.81225">
        <ele>1146</ele>
        <time>2026-05-14T10:07:45+00:00</time>
      </trkpt>
      <trkpt lat="45.07423" lon="5.81194">
        <ele>1140</ele>
        <time>2026-05-14T10:07:46+00:00</time>
      </trkpt>
      <trkpt lat="45.07425" lon="5.8116">
        <ele>1135</ele>
        <time>2026-05-14T10:07:47+00:00</time>
      </trkpt>
      <trkpt lat="45.07416" lon="5.81125">
        <ele>1129</ele>
        <time>2026-05-14T10:07:48+00:00</time>
      </trkpt>
      <trkpt lat="45.07405" lon="5.81098">
        <ele>1126</ele>
        <time>2026-05-14T10:07:49+00:00</time>
      </trkpt>
      <trkpt lat="45.0738" lon="5.81073">
        <ele>1125</ele>
        <time>2026-05-14T10:07:50+00:00</time>
      </trkpt>
      <trkpt lat="45.07289" lon="5.81032">
        <ele>1126</ele>
        <time>2026-05-14T10:07:51+00:00</time>
      </trkpt>
      <trkpt lat="45.07262" lon="5.80988">
        <ele>1120</ele>
        <time>2026-05-14T10:07:52+00:00</time>
      </trkpt>
      <trkpt lat="45.0719" lon="5.80927">
        <ele>1120</ele>
        <time>2026-05-14T10:07:53+00:00</time>
      </trkpt>
      <trkpt lat="45.07134" lon="5.80865">
        <ele>1120</ele>
        <time>2026-05-14T10:07:54+00:00</time>
      </trkpt>
      <trkpt lat="45.07127" lon="5.80851">
        <ele>1119</ele>
        <time>2026-05-14T10:07:55+00:00</time>
      </trkpt>
      <trkpt lat="45.07114" lon="5.80845">
        <ele>1119</ele>
        <time>2026-05-14T10:07:56+00:00</time>
      </trkpt>
      <trkpt lat="45.07037" lon="5.80836">
        <ele>1121</ele>
        <time>2026-05-14T10:07:57+00:00</time>
      </trkpt>
      <trkpt lat="45.07003" lon="5.80773">
        <ele>1128</ele>
        <time>2026-05-14T10:07:58+00:00</time>
      </trkpt>
      <trkpt lat="45.06978" lon="5.80691">
        <ele>1129</ele>
        <time>2026-05-14T10:07:59+00:00</time>
      </trkpt>
      <trkpt lat="45.06938" lon="5.80626">
        <ele>1130</ele>
        <time>2026-05-14T10:08:00+00:00</time>
      </trkpt>
      <trkpt lat="45.06925" lon="5.80597">
        <ele>1131</ele>
        <time>2026-05-14T10:08:01+00:00</time>
      </trkpt>
      <trkpt lat="45.06927" lon="5.80541">
        <ele>1129</ele>
        <time>2026-05-14T10:08:02+00:00</time>
      </trkpt>
      <trkpt lat="45.06912" lon="5.80518">
        <ele>1129</ele>
        <time>2026-05-14T10:08:03+00:00</time>
      </trkpt>
      <trkpt lat="45.06903" lon="5.80491">
        <ele>1130</ele>
        <time>2026-05-14T10:08:04+00:00</time>
      </trkpt>
      <trkpt lat="45.06901" lon="5.80386">
        <ele>1129</ele>
        <time>2026-05-14T10:08:05+00:00</time>
      </trkpt>
      <trkpt lat="45.06897" lon="5.80354">
        <ele>1129</ele>
        <time>2026-05-14T10:08:06+00:00</time>
      </trkpt>
      <trkpt lat="45.06881" lon="5.80325">
        <ele>1130</ele>
        <time>2026-05-14T10:08:07+00:00</time>
      </trkpt>
      <trkpt lat="45.06855" lon="5.80292">
        <ele>1130</ele>
        <time>2026-05-14T10:08:08+00:00</time>
      </trkpt>
      <trkpt lat="45.06833" lon="5.80185">
        <ele>1115</ele>
        <time>2026-05-14T10:08:09+00:00</time>
      </trkpt>
      <trkpt lat="45.06828" lon="5.80174">
        <ele>1114</ele>
        <time>2026-05-14T10:08:10+00:00</time>
      </trkpt>
      <trkpt lat="45.06813" lon="5.80158">
        <ele>1112</ele>
        <time>2026-05-14T10:08:11+00:00</time>
      </trkpt>
      <trkpt lat="45.06812" lon="5.80114">
        <ele>1104</ele>
        <time>2026-05-14T10:08:12+00:00</time>
      </trkpt>
      <trkpt lat="45.06819" lon="5.80071">
        <ele>1098</ele>
        <time>2026-05-14T10:08:13+00:00</time>
      </trkpt>
      <trkpt lat="45.06834" lon="5.80025">
        <ele>1092</ele>
        <time>2026-05-14T10:08:14+00:00</time>
      </trkpt>
      <trkpt lat="45.06822" lon="5.7996">
        <ele>1085</ele>
        <time>2026-05-14T10:08:15+00:00</time>
      </trkpt>
      <trkpt lat="45.06826" lon="5.79946">
        <ele>1083</ele>
        <time>2026-05-14T10:08:16+00:00</time>
      </trkpt>
      <trkpt lat="45.06838" lon="5.79934">
        <ele>1082</ele>
        <time>2026-05-14T10:08:17+00:00</time>
      </trkpt>
      <trkpt lat="45.06838" lon="5.79897">
        <ele>1079</ele>
        <time>2026-05-14T10:08:18+00:00</time>
      </trkpt>
      <trkpt lat="45.06825" lon="5.79896">
        <ele>1079</ele>
        <time>2026-05-14T10:08:19+00:00</time>
      </trkpt>
      <trkpt lat="45.06814" lon="5.79885">
        <ele>1078</ele>
        <time>2026-05-14T10:08:20+00:00</time>
      </trkpt>
      <trkpt lat="45.06813" lon="5.79871">
        <ele>1077</ele>
        <time>2026-05-14T10:08:21+00:00</time>
      </trkpt>
      <trkpt lat="45.06776" lon="5.79849">
        <ele>1073</ele>
        <time>2026-05-14T10:08:22+00:00</time>
      </trkpt>
      <trkpt lat="45.06761" lon="5.7975">
        <ele>1060</ele>
        <time>2026-05-14T10:08:23+00:00</time>
      </trkpt>
      <trkpt lat="45.06735" lon="5.79732">
        <ele>1054</ele>
        <time>2026-05-14T10:08:24+00:00</time>
      </trkpt>
      <trkpt lat="45.06719" lon="5.79727">
        <ele>1050</ele>
        <time>2026-05-14T10:08:25+00:00</time>
      </trkpt>
      <trkpt lat="45.06714" lon="5.7967">
        <ele>1045</ele>
        <time>2026-05-14T10:08:26+00:00</time>
      </trkpt>
      <trkpt lat="45.06716" lon="5.79641">
        <ele>1043</ele>
        <time>2026-05-14T10:08:27+00:00</time>
      </trkpt>
      <trkpt lat="45.067" lon="5.79597">
        <ele>1036</ele>
        <time>2026-05-14T10:08:28+00:00</time>
      </trkpt>
      <trkpt lat="45.06698" lon="5.79528">
        <ele>1033</ele>
        <time>2026-05-14T10:08:29+00:00</time>
      </trkpt>
      <trkpt lat="45.0669" lon="5.79499">
        <ele>1031</ele>
        <time>2026-05-14T10:08:30+00:00</time>
      </trkpt>
      <trkpt lat="45.06635" lon="5.79424">
        <ele>1021</ele>
        <time>2026-05-14T10:08:31+00:00</time>
      </trkpt>
      <trkpt lat="45.06628" lon="5.79398">
        <ele>1018</ele>
        <time>2026-05-14T10:08:32+00:00</time>
      </trkpt>
      <trkpt lat="45.06637" lon="5.79359">
        <ele>1016</ele>
        <time>2026-05-14T10:08:33+00:00</time>
      </trkpt>
      <trkpt lat="45.06629" lon="5.79325">
        <ele>1011</ele>
        <time>2026-05-14T10:08:34+00:00</time>
      </trkpt>
      <trkpt lat="45.06612" lon="5.7931">
        <ele>1008</ele>
        <time>2026-05-14T10:08:35+00:00</time>
      </trkpt>
      <trkpt lat="45.06535" lon="5.79317">
        <ele>989</ele>
        <time>2026-05-14T10:08:36+00:00</time>
      </trkpt>
      <trkpt lat="45.06528" lon="5.79295">
        <ele>983</ele>
        <time>2026-05-14T10:08:37+00:00</time>
      </trkpt>
      <trkpt lat="45.06574" lon="5.79224">
        <ele>982</ele>
        <time>2026-05-14T10:08:38+00:00</time>
      </trkpt>
      <trkpt lat="45.06584" lon="5.79202">
        <ele>976</ele>
        <time>2026-05-14T10:08:39+00:00</time>
      </trkpt>
      <trkpt lat="45.06581" lon="5.7918">
        <ele>967</ele>
        <time>2026-05-14T10:08:40+00:00</time>
      </trkpt>
      <trkpt lat="45.06566" lon="5.79166">
        <ele>957</ele>
        <time>2026-05-14T10:08:41+00:00</time>
      </trkpt>
      <trkpt lat="45.06535" lon="5.79148">
        <ele>942</ele>
        <time>2026-05-14T10:08:42+00:00</time>
      </trkpt>
      <trkpt lat="45.06535" lon="5.79126">
        <ele>933</ele>
        <time>2026-05-14T10:08:43+00:00</time>
      </trkpt>
      <trkpt lat="45.06549" lon="5.79107">
        <ele>928</ele>
        <time>2026-05-14T10:08:44+00:00</time>
      </trkpt>
      <trkpt lat="45.06564" lon="5.79097">
        <ele>927</ele>
        <time>2026-05-14T10:08:45+00:00</time>
      </trkpt>
      <trkpt lat="45.06577" lon="5.79079">
        <ele>921</ele>
        <time>2026-05-14T10:08:46+00:00</time>
      </trkpt>
      <trkpt lat="45.0658" lon="5.79064">
        <ele>915</ele>
        <time>2026-05-14T10:08:47+00:00</time>
      </trkpt>
      <trkpt lat="45.06559" lon="5.79056">
        <ele>907</ele>
        <time>2026-05-14T10:08:48+00:00</time>
      </trkpt>
      <trkpt lat="45.06496" lon="5.79072">
        <ele>903</ele>
        <time>2026-05-14T10:08:49+00:00</time>
      </trkpt>
      <trkpt lat="45.06476" lon="5.79081">
        <ele>900</ele>
        <time>2026-05-14T10:08:50+00:00</time>
      </trkpt>
      <trkpt lat="45.06438" lon="5.79107">
        <ele>892</ele>
        <time>2026-05-14T10:08:51+00:00</time>
      </trkpt>
      <trkpt lat="45.06414" lon="5.79138">
        <ele>888</ele>
        <time>2026-05-14T10:08:52+00:00</time>
      </trkpt>
      <trkpt lat="45.06379" lon="5.79221">
        <ele>890</ele>
        <time>2026-05-14T10:08:53+00:00</time>
      </trkpt>
      <trkpt lat="45.06363" lon="5.79243">
        <ele>887</ele>
        <time>2026-05-14T10:08:54+00:00</time>
      </trkpt>
      <trkpt lat="45.0636" lon="5.79265">
        <ele>889</ele>
        <time>2026-05-14T10:08:55+00:00</time>
      </trkpt>
      <trkpt lat="45.06342" lon="5.79274">
        <ele>882</ele>
        <time>2026-05-14T10:08:56+00:00</time>
      </trkpt>
      <trkpt lat="45.06329" lon="5.79275">
        <ele>876</ele>
        <time>2026-05-14T10:08:57+00:00</time>
      </trkpt>
      <trkpt lat="45.06319" lon="5.79259">
        <ele>870</ele>
        <time>2026-05-14T10:08:58+00:00</time>
      </trkpt>
      <trkpt lat="45.06321" lon="5.79231">
        <ele>866</ele>
        <time>2026-05-14T10:08:59+00:00</time>
      </trkpt>
      <trkpt lat="45.06326" lon="5.7922">
        <ele>865</ele>
        <time>2026-05-14T10:09:00+00:00</time>
      </trkpt>
      <trkpt lat="45.06336" lon="5.79214">
        <ele>868</ele>
        <time>2026-05-14T10:09:01+00:00</time>
      </trkpt>
      <trkpt lat="45.06347" lon="5.79199">
        <ele>870</ele>
        <time>2026-05-14T10:09:02+00:00</time>
      </trkpt>
      <trkpt lat="45.0635" lon="5.79187">
        <ele>869</ele>
        <time>2026-05-14T10:09:03+00:00</time>
      </trkpt>
      <trkpt lat="45.06334" lon="5.79177">
        <ele>859</ele>
        <time>2026-05-14T10:09:04+00:00</time>
      </trkpt>
      <trkpt lat="45.06338" lon="5.7913">
        <ele>854</ele>
        <time>2026-05-14T10:09:05+00:00</time>
      </trkpt>
      <trkpt lat="45.06329" lon="5.79097">
        <ele>845</ele>
        <time>2026-05-14T10:09:06+00:00</time>
      </trkpt>
      <trkpt lat="45.06331" lon="5.79062">
        <ele>840</ele>
        <time>2026-05-14T10:09:07+00:00</time>
      </trkpt>
      <trkpt lat="45.06327" lon="5.79028">
        <ele>833</ele>
        <time>2026-05-14T10:09:08+00:00</time>
      </trkpt>
      <trkpt lat="45.06312" lon="5.78985">
        <ele>821</ele>
        <time>2026-05-14T10:09:09+00:00</time>
      </trkpt>
      <trkpt lat="45.06308" lon="5.78953">
        <ele>815</ele>
        <time>2026-05-14T10:09:10+00:00</time>
      </trkpt>
      <trkpt lat="45.06298" lon="5.78945">
        <ele>811</ele>
        <time>2026-05-14T10:09:11+00:00</time>
      </trkpt>
      <trkpt lat="45.06283" lon="5.78941">
        <ele>807</ele>
        <time>2026-05-14T10:09:12+00:00</time>
      </trkpt>
      <trkpt lat="45.06271" lon="5.78922">
        <ele>802</ele>
        <time>2026-05-14T10:09:13+00:00</time>
      </trkpt>
      <trkpt lat="45.06269" lon="5.78896">
        <ele>798</ele>
        <time>2026-05-14T10:09:14+00:00</time>
      </trkpt>
      <trkpt lat="45.06275" lon="5.78867">
        <ele>794</ele>
        <time>2026-05-14T10:09:15+00:00</time>
      </trkpt>
      <trkpt lat="45.06269" lon="5.78856">
        <ele>791</ele>
        <time>2026-05-14T10:09:16+00:00</time>
      </trkpt>
      <trkpt lat="45.06238" lon="5.78866">
        <ele>787</ele>
        <time>2026-05-14T10:09:17+00:00</time>
      </trkpt>
      <trkpt lat="45.06224" lon="5.78881">
        <ele>786</ele>
        <time>2026-05-14T10:09:18+00:00</time>
      </trkpt>
      <trkpt lat="45.0621" lon="5.78874">
        <ele>781</ele>
        <time>2026-05-14T10:09:19+00:00</time>
      </trkpt>
      <trkpt lat="45.06208" lon="5.78852">
        <ele>779</ele>
        <time>2026-05-14T10:09:20+00:00</time>
      </trkpt>
      <trkpt lat="45.06196" lon="5.78839">
        <ele>775</ele>
        <time>2026-05-14T10:09:21+00:00</time>
      </trkpt>
      <trkpt lat="45.0617" lon="5.78829">
        <ele>768</ele>
        <time>2026-05-14T10:09:22+00:00</time>
      </trkpt>
      <trkpt lat="45.06167" lon="5.78816">
        <ele>766</ele>
        <time>2026-05-14T10:09:23+00:00</time>
      </trkpt>
      <trkpt lat="45.06182" lon="5.78798">
        <ele>766</ele>
        <time>2026-05-14T10:09:24+00:00</time>
      </trkpt>
      <trkpt lat="45.06183" lon="5.78783">
        <ele>764</ele>
        <time>2026-05-14T10:09:25+00:00</time>
      </trkpt>
      <trkpt lat="45.06194" lon="5.78761">
        <ele>763</ele>
        <time>2026-05-14T10:09:26+00:00</time>
      </trkpt>
      <trkpt lat="45.06208" lon="5.7876">
        <ele>765</ele>
        <time>2026-05-14T10:09:27+00:00</time>
      </trkpt>
      <trkpt lat="45.06211" lon="5.78737">
        <ele>760</ele>
        <time>2026-05-14T10:09:28+00:00</time>
      </trkpt>
      <trkpt lat="45.06223" lon="5.78731">
        <ele>760</ele>
        <time>2026-05-14T10:09:29+00:00</time>
      </trkpt>
      <trkpt lat="45.06285" lon="5.78725">
        <ele>764</ele>
        <time>2026-05-14T10:09:30+00:00</time>
      </trkpt>
      <trkpt lat="45.06305" lon="5.78728">
        <ele>765</ele>
        <time>2026-05-14T10:09:31+00:00</time>
      </trkpt>
      <trkpt lat="45.06329" lon="5.7874">
        <ele>768</ele>
        <time>2026-05-14T10:09:32+00:00</time>
      </trkpt>
      <trkpt lat="45.06376" lon="5.78715">
        <ele>758</ele>
        <time>2026-05-14T10:09:33+00:00</time>
      </trkpt>
      <trkpt lat="45.06394" lon="5.78713">
        <ele>756</ele>
        <time>2026-05-14T10:09:34+00:00</time>
      </trkpt>
      <trkpt lat="45.06423" lon="5.78698">
        <ele>750</ele>
        <time>2026-05-14T10:09:35+00:00</time>
      </trkpt>
      <trkpt lat="45.06461" lon="5.78707">
        <ele>749</ele>
        <time>2026-05-14T10:09:36+00:00</time>
      </trkpt>
      <trkpt lat="45.06467" lon="5.78697">
        <ele>746</ele>
        <time>2026-05-14T10:09:37+00:00</time>
      </trkpt>
      <trkpt lat="45.06447" lon="5.78592">
        <ele>713</ele>
        <time>2026-05-14T10:09:38+00:00</time>
      </trkpt>
      <trkpt lat="45.06445" lon="5.78558">
        <ele>699</ele>
        <time>2026-05-14T10:09:39+00:00</time>
      </trkpt>
      <trkpt lat="45.06452" lon="5.78536">
        <ele>688</ele>
        <time>2026-05-14T10:09:40+00:00</time>
      </trkpt>
      <trkpt lat="45.06459" lon="5.7853">
        <ele>684</ele>
        <time>2026-05-14T10:09:41+00:00</time>
      </trkpt>
      <trkpt lat="45.06489" lon="5.78538">
        <ele>683</ele>
        <time>2026-05-14T10:09:42+00:00</time>
      </trkpt>
      <trkpt lat="45.06495" lon="5.78547">
        <ele>686</ele>
        <time>2026-05-14T10:09:43+00:00</time>
      </trkpt>
      <trkpt lat="45.06527" lon="5.78557">
        <ele>683</ele>
        <time>2026-05-14T10:09:44+00:00</time>
      </trkpt>
      <trkpt lat="45.06556" lon="5.78563">
        <ele>678</ele>
        <time>2026-05-14T10:09:45+00:00</time>
      </trkpt>
      <trkpt lat="45.06569" lon="5.78559">
        <ele>673</ele>
        <time>2026-05-14T10:09:46+00:00</time>
      </trkpt>
      <trkpt lat="45.06591" lon="5.78569">
        <ele>672</ele>
        <time>2026-05-14T10:09:47+00:00</time>
      </trkpt>
      <trkpt lat="45.06612" lon="5.78571">
        <ele>668</ele>
        <time>2026-05-14T10:09:48+00:00</time>
      </trkpt>
      <trkpt lat="45.06604" lon="5.78552">
        <ele>658</ele>
        <time>2026-05-14T10:09:49+00:00</time>
      </trkpt>
      <trkpt lat="45.06586" lon="5.7853">
        <ele>651</ele>
        <time>2026-05-14T10:09:50+00:00</time>
      </trkpt>
      <trkpt lat="45.0657" lon="5.78492">
        <ele>635</ele>
        <time>2026-05-14T10:09:51+00:00</time>
      </trkpt>
      <trkpt lat="45.06579" lon="5.785">
        <ele>636</ele>
        <time>2026-05-14T10:09:52+00:00</time>
      </trkpt>
      <trkpt lat="45.06594" lon="5.78499">
        <ele>630</ele>
        <time>2026-05-14T10:09:53+00:00</time>
      </trkpt>
      <trkpt lat="45.06627" lon="5.78516">
        <ele>628</ele>
        <time>2026-05-14T10:09:54+00:00</time>
      </trkpt>
      <trkpt lat="45.06641" lon="5.78511">
        <ele>620</ele>
        <time>2026-05-14T10:09:55+00:00</time>
      </trkpt>
      <trkpt lat="45.06677" lon="5.78526">
        <ele>619</ele>
        <time>2026-05-14T10:09:56+00:00</time>
      </trkpt>
      <trkpt lat="45.06656" lon="5.78485">
        <ele>600</ele>
        <time>2026-05-14T10:09:57+00:00</time>
      </trkpt>
      <trkpt lat="45.06659" lon="5.7848">
        <ele>596</ele>
        <time>2026-05-14T10:09:58+00:00</time>
      </trkpt>
      <trkpt lat="45.06665" lon="5.78484">
        <ele>596</ele>
        <time>2026-05-14T10:09:59+00:00</time>
      </trkpt>
      <trkpt lat="45.0667" lon="5.7848">
        <ele>593</ele>
        <time>2026-05-14T10:10:00+00:00</time>
      </trkpt>
      <trkpt lat="45.0667" lon="5.78473">
        <ele>589</ele>
        <time>2026-05-14T10:10:01+00:00</time>
      </trkpt>
      <trkpt lat="45.0669" lon="5.78487">
        <ele>592</ele>
        <time>2026-05-14T10:10:02+00:00</time>
      </trkpt>
      <trkpt lat="45.06712" lon="5.78478">
        <ele>584</ele>
        <time>2026-05-14T10:10:03+00:00</time>
      </trkpt>
      <trkpt lat="45.06724" lon="5.78465">
        <ele>576</ele>
        <time>2026-05-14T10:10:04+00:00</time>
      </trkpt>
      <trkpt lat="45.06726" lon="5.78451">
        <ele>569</ele>
        <time>2026-05-14T10:10:05+00:00</time>
      </trkpt>
      <trkpt lat="45.06717" lon="5.78435">
        <ele>564</ele>
        <time>2026-05-14T10:10:06+00:00</time>
      </trkpt>
      <trkpt lat="45.06715" lon="5.78405">
        <ele>553</ele>
        <time>2026-05-14T10:10:07+00:00</time>
      </trkpt>
      <trkpt lat="45.0672" lon="5.78388">
        <ele>549</ele>
        <time>2026-05-14T10:10:08+00:00</time>
      </trkpt>
      <trkpt lat="45.0674" lon="5.78375">
        <ele>543</ele>
        <time>2026-05-14T10:10:09+00:00</time>
      </trkpt>
      <trkpt lat="45.06729" lon="5.7837">
        <ele>544</ele>
        <time>2026-05-14T10:10:10+00:00</time>
      </trkpt>
      <trkpt lat="45.06695" lon="5.78336">
        <ele>543</ele>
        <time>2026-05-14T10:10:11+00:00</time>
      </trkpt>
      <trkpt lat="45.06644" lon="5.783">
        <ele>545</ele>
        <time>2026-05-14T10:10:12+00:00</time>
      </trkpt>
      <trkpt lat="45.06607" lon="5.78284">
        <ele>551</ele>
        <time>2026-05-14T10:10:13+00:00</time>
      </trkpt>
      <trkpt lat="45.06594" lon="5.78283">
        <ele>554</ele>
        <time>2026-05-14T10:10:14+00:00</time>
      </trkpt>
      <trkpt lat="45.06565" lon="5.78301">
        <ele>564</ele>
        <time>2026-05-14T10:10:15+00:00</time>
      </trkpt>
      <trkpt lat="45.06545" lon="5.78298">
        <ele>566</ele>
        <time>2026-05-14T10:10:16+00:00</time>
      </trkpt>
      <trkpt lat="45.06527" lon="5.78285">
        <ele>565</ele>
        <time>2026-05-14T10:10:17+00:00</time>
      </trkpt>
      <trkpt lat="45.06514" lon="5.78267">
        <ele>562</ele>
        <time>2026-05-14T10:10:18+00:00</time>
      </trkpt>
      <trkpt lat="45.06494" lon="5.78261">
        <ele>562</ele>
        <time>2026-05-14T10:10:19+00:00</time>
      </trkpt>
      <trkpt lat="45.06475" lon="5.78263">
        <ele>563</ele>
        <time>2026-05-14T10:10:20+00:00</time>
      </trkpt>
      <trkpt lat="45.06428" lon="5.78292">
        <ele>570</ele>
        <time>2026-05-14T10:10:21+00:00</time>
      </trkpt>
      <trkpt lat="45.06408" lon="5.78298">
        <ele>570</ele>
        <time>2026-05-14T10:10:22+00:00</time>
      </trkpt>
      <trkpt lat="45.06394" lon="5.78296">
        <ele>569</ele>
        <time>2026-05-14T10:10:23+00:00</time>
      </trkpt>
      <trkpt lat="45.06362" lon="5.78281">
        <ele>562</ele>
        <time>2026-05-14T10:10:24+00:00</time>
      </trkpt>
      <trkpt lat="45.0635" lon="5.7828">
        <ele>561</ele>
        <time>2026-05-14T10:10:25+00:00</time>
      </trkpt>
      <trkpt lat="45.06329" lon="5.78284">
        <ele>559</ele>
        <time>2026-05-14T10:10:26+00:00</time>
      </trkpt>
      <trkpt lat="45.06281" lon="5.78303">
        <ele>557</ele>
        <time>2026-05-14T10:10:27+00:00</time>
      </trkpt>
      <trkpt lat="45.0625" lon="5.78301">
        <ele>551</ele>
        <time>2026-05-14T10:10:28+00:00</time>
      </trkpt>
      <trkpt lat="45.06246" lon="5.78296">
        <ele>547</ele>
        <time>2026-05-14T10:10:29+00:00</time>
      </trkpt>
      <trkpt lat="45.06244" lon="5.78272">
        <ele>533</ele>
        <time>2026-05-14T10:10:30+00:00</time>
      </trkpt>
      <trkpt lat="45.06261" lon="5.78227">
        <ele>513</ele>
        <time>2026-05-14T10:10:31+00:00</time>
      </trkpt>
      <trkpt lat="45.06266" lon="5.7819">
        <ele>497</ele>
        <time>2026-05-14T10:10:32+00:00</time>
      </trkpt>
      <trkpt lat="45.06264" lon="5.78186">
        <ele>495</ele>
        <time>2026-05-14T10:10:33+00:00</time>
      </trkpt>
      <trkpt lat="45.06243" lon="5.78188">
        <ele>491</ele>
        <time>2026-05-14T10:10:34+00:00</time>
      </trkpt>
      <trkpt lat="45.06227" lon="5.78183">
        <ele>487</ele>
        <time>2026-05-14T10:10:35+00:00</time>
      </trkpt>
      <trkpt lat="45.06224" lon="5.78169">
        <ele>480</ele>
        <time>2026-05-14T10:10:36+00:00</time>
      </trkpt>
      <trkpt lat="45.06228" lon="5.78152">
        <ele>477</ele>
        <time>2026-05-14T10:10:37+00:00</time>
      </trkpt>
      <trkpt lat="45.06285" lon="5.78077">
        <ele>461</ele>
        <time>2026-05-14T10:10:38+00:00</time>
      </trkpt>
      <trkpt lat="45.06355" lon="5.78004">
        <ele>434</ele>
        <time>2026-05-14T10:10:39+00:00</time>
      </trkpt>
      <trkpt lat="45.06413" lon="5.7793">
        <ele>403</ele>
        <time>2026-05-14T10:10:40+00:00</time>
      </trkpt>
      <trkpt lat="45.06456" lon="5.77855">
        <ele>380</ele>
        <time>2026-05-14T10:10:41+00:00</time>
      </trkpt>
      <trkpt lat="45.06497" lon="5.77756">
        <ele>356</ele>
        <time>2026-05-14T10:10:42+00:00</time>
      </trkpt>
      <trkpt lat="45.06515" lon="5.77733">
        <ele>348</ele>
        <time>2026-05-14T10:10:43+00:00</time>
      </trkpt>
      <trkpt lat="45.0653" lon="5.77724">
        <ele>345</ele>
        <time>2026-05-14T10:10:44+00:00</time>
      </trkpt>
      <trkpt lat="45.06554" lon="5.77717">
        <ele>343</ele>
        <time>2026-05-14T10:10:45+00:00</time>
      </trkpt>
      <trkpt lat="45.06622" lon="5.77729">
        <ele>345</ele>
        <time>2026-05-14T10:10:46+00:00</time>
      </trkpt>
      <trkpt lat="45.06644" lon="5.77726">
        <ele>342</ele>
        <time>2026-05-14T10:10:47+00:00</time>
      </trkpt>
      <trkpt lat="45.06659" lon="5.77714">
        <ele>338</ele>
        <time>2026-05-14T10:10:48+00:00</time>
      </trkpt>
      <trkpt lat="45.06691" lon="5.77662">
        <ele>323</ele>
        <time>2026-05-14T10:10:49+00:00</time>
      </trkpt>
      <trkpt lat="45.06732" lon="5.77624">
        <ele>312</ele>
        <time>2026-05-14T10:10:50+00:00</time>
      </trkpt>
      <trkpt lat="45.06772" lon="5.77617">
        <ele>311</ele>
        <time>2026-05-14T10:10:51+00:00</time>
      </trkpt>
      <trkpt lat="45.06857" lon="5.77574">
        <ele>303</ele>
        <time>2026-05-14T10:10:52+00:00</time>
      </trkpt>
      <trkpt lat="45.06874" lon="5.77573">
        <ele>304</ele>
        <time>2026-05-14T10:10:53+00:00</time>
      </trkpt>
      <trkpt lat="45.06938" lon="5.77595">
        <ele>311</ele>
        <time>2026-05-14T10:10:54+00:00</time>
      </trkpt>
      <trkpt lat="45.06984" lon="5.77606">
        <ele>310</ele>
        <time>2026-05-14T10:10:55+00:00</time>
      </trkpt>
      <trkpt lat="45.07133" lon="5.77661">
        <ele>298</ele>
        <time>2026-05-14T10:10:56+00:00</time>
      </trkpt>
      <trkpt lat="45.07147" lon="5.77673">
        <ele>297</ele>
        <time>2026-05-14T10:10:57+00:00</time>
      </trkpt>
      <trkpt lat="45.07186" lon="5.77733">
        <ele>292</ele>
        <time>2026-05-14T10:10:58+00:00</time>
      </trkpt>
      <trkpt lat="45.07196" lon="5.77739">
        <ele>291</ele>
        <time>2026-05-14T10:10:59+00:00</time>
      </trkpt>
      <trkpt lat="45.07228" lon="5.77739">
        <ele>289</ele>
        <time>2026-05-14T10:11:00+00:00</time>
      </trkpt>
      <trkpt lat="45.0737" lon="5.77767">
        <ele>286</ele>
        <time>2026-05-14T10:11:01+00:00</time>
      </trkpt>
      <trkpt lat="45.07449" lon="5.77801">
        <ele>283</ele>
        <time>2026-05-14T10:11:02+00:00</time>
      </trkpt>
      <trkpt lat="45.07516" lon="5.77841">
        <ele>283</ele>
        <time>2026-05-14T10:11:03+00:00</time>
      </trkpt>
      <trkpt lat="45.07527" lon="5.77839">
        <ele>283</ele>
        <time>2026-05-14T10:11:04+00:00</time>
      </trkpt>
      <trkpt lat="45.07545" lon="5.77853">
        <ele>283</ele>
        <time>2026-05-14T10:11:05+00:00</time>
      </trkpt>
      <trkpt lat="45.07582" lon="5.77477">
        <ele>287</ele>
        <time>2026-05-14T10:11:06+00:00</time>
      </trkpt>
      <trkpt lat="45.07592" lon="5.77431">
        <ele>287</ele>
        <time>2026-05-14T10:11:07+00:00</time>
      </trkpt>
      <trkpt lat="45.07606" lon="5.7739">
        <ele>289</ele>
        <time>2026-05-14T10:11:08+00:00</time>
      </trkpt>
    </trkseg>
  </trk>
</gpx>
