<?xml version="1.0" encoding="UTF-8"?>
<gpx xmlns="http://www.topografix.com/GPX/1/1" xmlns:xsi="http://www.w3.org/2001/XMLSchema-instance" version="1.1" creator="phpGPX/1.3.0" xsi:schemaLocation="http://www.topografix.com/GPX/1/1 http://www.topografix.com/GPX/1/1/gpx.xsd">
  <metadata>
    <time>2026-05-11T18:28:16+00:00</time>
  </metadata>
  <trk>
    <name>Initiation au trail</name>
    <trkseg>
      <trkpt lat="48.05374" lon="6.58867">
        <ele>398</ele>
        <time>2026-05-11T18:28:17+00:00</time>
      </trkpt>
      <trkpt lat="48.05384" lon="6.58859">
        <ele>398</ele>
        <time>2026-05-11T18:28:18+00:00</time>
      </trkpt>
      <trkpt lat="48.05402" lon="6.5885">
        <ele>398</ele>
        <time>2026-05-11T18:28:19+00:00</time>
      </trkpt>
      <trkpt lat="48.05411" lon="6.58849">
        <ele>398</ele>
        <time>2026-05-11T18:28:20+00:00</time>
      </trkpt>
      <trkpt lat="48.05419" lon="6.58848">
        <ele>398</ele>
        <time>2026-05-11T18:28:21+00:00</time>
      </trkpt>
      <trkpt lat="48.05414" lon="6.58856">
        <ele>398</ele>
        <time>2026-05-11T18:28:22+00:00</time>
      </trkpt>
      <trkpt lat="48.05406" lon="6.58863">
        <ele>398</ele>
        <time>2026-05-11T18:28:23+00:00</time>
      </trkpt>
      <trkpt lat="48.054" lon="6.58873">
        <ele>398</ele>
        <time>2026-05-11T18:28:24+00:00</time>
      </trkpt>
      <trkpt lat="48.05395" lon="6.58883">
        <ele>397</ele>
        <time>2026-05-11T18:28:25+00:00</time>
      </trkpt>
      <trkpt lat="48.05397" lon="6.58889">
        <ele>397</ele>
        <time>2026-05-11T18:28:26+00:00</time>
      </trkpt>
      <trkpt lat="48.05395" lon="6.58895">
        <ele>397</ele>
        <time>2026-05-11T18:28:27+00:00</time>
      </trkpt>
      <trkpt lat="48.0539" lon="6.58912">
        <ele>397</ele>
        <time>2026-05-11T18:28:28+00:00</time>
      </trkpt>
      <trkpt lat="48.05386" lon="6.5893">
        <ele>397</ele>
        <time>2026-05-11T18:28:29+00:00</time>
      </trkpt>
      <trkpt lat="48.05383" lon="6.58947">
        <ele>397</ele>
        <time>2026-05-11T18:28:30+00:00</time>
      </trkpt>
      <trkpt lat="48.05379" lon="6.58959">
        <ele>397</ele>
        <time>2026-05-11T18:28:31+00:00</time>
      </trkpt>
      <trkpt lat="48.05377" lon="6.58973">
        <ele>397</ele>
        <time>2026-05-11T18:28:32+00:00</time>
      </trkpt>
      <trkpt lat="48.05375" lon="6.58987">
        <ele>397</ele>
        <time>2026-05-11T18:28:33+00:00</time>
      </trkpt>
      <trkpt lat="48.05376" lon="6.58998">
        <ele>397</ele>
        <time>2026-05-11T18:28:34+00:00</time>
      </trkpt>
      <trkpt lat="48.05383" lon="6.58999">
        <ele>397</ele>
        <time>2026-05-11T18:28:35+00:00</time>
      </trkpt>
      <trkpt lat="48.05393" lon="6.59003">
        <ele>397</ele>
        <time>2026-05-11T18:28:36+00:00</time>
      </trkpt>
      <trkpt lat="48.054" lon="6.59006">
        <ele>397</ele>
        <time>2026-05-11T18:28:37+00:00</time>
      </trkpt>
      <trkpt lat="48.05401" lon="6.59026">
        <ele>397</ele>
        <time>2026-05-11T18:28:38+00:00</time>
      </trkpt>
      <trkpt lat="48.05403" lon="6.59044">
        <ele>396</ele>
        <time>2026-05-11T18:28:39+00:00</time>
      </trkpt>
      <trkpt lat="48.05408" lon="6.59059">
        <ele>396</ele>
        <time>2026-05-11T18:28:40+00:00</time>
      </trkpt>
      <trkpt lat="48.05407" lon="6.59075">
        <ele>396</ele>
        <time>2026-05-11T18:28:41+00:00</time>
      </trkpt>
      <trkpt lat="48.05407" lon="6.59097">
        <ele>394</ele>
        <time>2026-05-11T18:28:42+00:00</time>
      </trkpt>
      <trkpt lat="48.05409" lon="6.5911">
        <ele>394</ele>
        <time>2026-05-11T18:28:43+00:00</time>
      </trkpt>
      <trkpt lat="48.05407" lon="6.59124">
        <ele>392</ele>
        <time>2026-05-11T18:28:44+00:00</time>
      </trkpt>
      <trkpt lat="48.05412" lon="6.59148">
        <ele>391</ele>
        <time>2026-05-11T18:28:45+00:00</time>
      </trkpt>
      <trkpt lat="48.05415" lon="6.59165">
        <ele>390</ele>
        <time>2026-05-11T18:28:46+00:00</time>
      </trkpt>
      <trkpt lat="48.05416" lon="6.5917">
        <ele>390</ele>
        <time>2026-05-11T18:28:47+00:00</time>
      </trkpt>
      <trkpt lat="48.0542" lon="6.59175">
        <ele>390</ele>
        <time>2026-05-11T18:28:48+00:00</time>
      </trkpt>
      <trkpt lat="48.05422" lon="6.59194">
        <ele>390</ele>
        <time>2026-05-11T18:28:49+00:00</time>
      </trkpt>
      <trkpt lat="48.05429" lon="6.59202">
        <ele>391</ele>
        <time>2026-05-11T18:28:50+00:00</time>
      </trkpt>
      <trkpt lat="48.0544" lon="6.59217">
        <ele>393</ele>
        <time>2026-05-11T18:28:51+00:00</time>
      </trkpt>
      <trkpt lat="48.05438" lon="6.59224">
        <ele>392</ele>
        <time>2026-05-11T18:28:52+00:00</time>
      </trkpt>
      <trkpt lat="48.05442" lon="6.59229">
        <ele>393</ele>
        <time>2026-05-11T18:28:53+00:00</time>
      </trkpt>
      <trkpt lat="48.05438" lon="6.59239">
        <ele>392</ele>
        <time>2026-05-11T18:28:54+00:00</time>
      </trkpt>
      <trkpt lat="48.05432" lon="6.59248">
        <ele>390</ele>
        <time>2026-05-11T18:28:55+00:00</time>
      </trkpt>
      <trkpt lat="48.05452" lon="6.59278">
        <ele>393</ele>
        <time>2026-05-11T18:28:56+00:00</time>
      </trkpt>
      <trkpt lat="48.05466" lon="6.5931">
        <ele>395</ele>
        <time>2026-05-11T18:28:57+00:00</time>
      </trkpt>
      <trkpt lat="48.05472" lon="6.59383">
        <ele>392</ele>
        <time>2026-05-11T18:28:58+00:00</time>
      </trkpt>
      <trkpt lat="48.05475" lon="6.59534">
        <ele>387</ele>
        <time>2026-05-11T18:28:59+00:00</time>
      </trkpt>
      <trkpt lat="48.05482" lon="6.59568">
        <ele>386</ele>
        <time>2026-05-11T18:29:00+00:00</time>
      </trkpt>
      <trkpt lat="48.05491" lon="6.59585">
        <ele>386</ele>
        <time>2026-05-11T18:29:01+00:00</time>
      </trkpt>
      <trkpt lat="48.0551" lon="6.59604">
        <ele>386</ele>
        <time>2026-05-11T18:29:02+00:00</time>
      </trkpt>
      <trkpt lat="48.05544" lon="6.59623">
        <ele>388</ele>
        <time>2026-05-11T18:29:03+00:00</time>
      </trkpt>
      <trkpt lat="48.05624" lon="6.59688">
        <ele>388</ele>
        <time>2026-05-11T18:29:04+00:00</time>
      </trkpt>
      <trkpt lat="48.05727" lon="6.59759">
        <ele>389</ele>
        <time>2026-05-11T18:29:05+00:00</time>
      </trkpt>
      <trkpt lat="48.05801" lon="6.59797">
        <ele>392</ele>
        <time>2026-05-11T18:29:06+00:00</time>
      </trkpt>
      <trkpt lat="48.05987" lon="6.59878">
        <ele>394</ele>
        <time>2026-05-11T18:29:07+00:00</time>
      </trkpt>
      <trkpt lat="48.06023" lon="6.59886">
        <ele>392</ele>
        <time>2026-05-11T18:29:08+00:00</time>
      </trkpt>
      <trkpt lat="48.0604" lon="6.59882">
        <ele>392</ele>
        <time>2026-05-11T18:29:09+00:00</time>
      </trkpt>
      <trkpt lat="48.0607" lon="6.59863">
        <ele>392</ele>
        <time>2026-05-11T18:29:10+00:00</time>
      </trkpt>
      <trkpt lat="48.06085" lon="6.59858">
        <ele>391</ele>
        <time>2026-05-11T18:29:11+00:00</time>
      </trkpt>
      <trkpt lat="48.06206" lon="6.59846">
        <ele>385</ele>
        <time>2026-05-11T18:29:12+00:00</time>
      </trkpt>
      <trkpt lat="48.06295" lon="6.59846">
        <ele>386</ele>
        <time>2026-05-11T18:29:13+00:00</time>
      </trkpt>
      <trkpt lat="48.06312" lon="6.59867">
        <ele>385</ele>
        <time>2026-05-11T18:29:14+00:00</time>
      </trkpt>
      <trkpt lat="48.06345" lon="6.59931">
        <ele>378</ele>
        <time>2026-05-11T18:29:15+00:00</time>
      </trkpt>
      <trkpt lat="48.06443" lon="6.60072">
        <ele>374</ele>
        <time>2026-05-11T18:29:16+00:00</time>
      </trkpt>
      <trkpt lat="48.06481" lon="6.60102">
        <ele>373</ele>
        <time>2026-05-11T18:29:17+00:00</time>
      </trkpt>
      <trkpt lat="48.06515" lon="6.6011">
        <ele>376</ele>
        <time>2026-05-11T18:29:18+00:00</time>
      </trkpt>
      <trkpt lat="48.06535" lon="6.60127">
        <ele>378</ele>
        <time>2026-05-11T18:29:19+00:00</time>
      </trkpt>
      <trkpt lat="48.06552" lon="6.60155">
        <ele>378</ele>
        <time>2026-05-11T18:29:20+00:00</time>
      </trkpt>
      <trkpt lat="48.06566" lon="6.60204">
        <ele>378</ele>
        <time>2026-05-11T18:29:21+00:00</time>
      </trkpt>
      <trkpt lat="48.06576" lon="6.60277">
        <ele>378</ele>
        <time>2026-05-11T18:29:22+00:00</time>
      </trkpt>
      <trkpt lat="48.06603" lon="6.60411">
        <ele>374</ele>
        <time>2026-05-11T18:29:23+00:00</time>
      </trkpt>
      <trkpt lat="48.06602" lon="6.6046">
        <ele>374</ele>
        <time>2026-05-11T18:29:24+00:00</time>
      </trkpt>
      <trkpt lat="48.06592" lon="6.60507">
        <ele>373</ele>
        <time>2026-05-11T18:29:25+00:00</time>
      </trkpt>
      <trkpt lat="48.06546" lon="6.60614">
        <ele>377</ele>
        <time>2026-05-11T18:29:26+00:00</time>
      </trkpt>
      <trkpt lat="48.06528" lon="6.60722">
        <ele>379</ele>
        <time>2026-05-11T18:29:27+00:00</time>
      </trkpt>
      <trkpt lat="48.06527" lon="6.60808">
        <ele>380</ele>
        <time>2026-05-11T18:29:28+00:00</time>
      </trkpt>
      <trkpt lat="48.06537" lon="6.60862">
        <ele>381</ele>
        <time>2026-05-11T18:29:29+00:00</time>
      </trkpt>
      <trkpt lat="48.06546" lon="6.60858">
        <ele>382</ele>
        <time>2026-05-11T18:29:30+00:00</time>
      </trkpt>
      <trkpt lat="48.06547" lon="6.60843">
        <ele>382</ele>
        <time>2026-05-11T18:29:31+00:00</time>
      </trkpt>
      <trkpt lat="48.06539" lon="6.60808">
        <ele>381</ele>
        <time>2026-05-11T18:29:32+00:00</time>
      </trkpt>
      <trkpt lat="48.06542" lon="6.60767">
        <ele>381</ele>
        <time>2026-05-11T18:29:33+00:00</time>
      </trkpt>
      <trkpt lat="48.06556" lon="6.60732">
        <ele>382</ele>
        <time>2026-05-11T18:29:34+00:00</time>
      </trkpt>
      <trkpt lat="48.06567" lon="6.60718">
        <ele>383</ele>
        <time>2026-05-11T18:29:35+00:00</time>
      </trkpt>
      <trkpt lat="48.06621" lon="6.60587">
        <ele>383</ele>
        <time>2026-05-11T18:29:36+00:00</time>
      </trkpt>
      <trkpt lat="48.06666" lon="6.60527">
        <ele>384</ele>
        <time>2026-05-11T18:29:37+00:00</time>
      </trkpt>
      <trkpt lat="48.06677" lon="6.60507">
        <ele>385</ele>
        <time>2026-05-11T18:29:38+00:00</time>
      </trkpt>
      <trkpt lat="48.06684" lon="6.60479">
        <ele>385</ele>
        <time>2026-05-11T18:29:39+00:00</time>
      </trkpt>
      <trkpt lat="48.06684" lon="6.60442">
        <ele>384</ele>
        <time>2026-05-11T18:29:40+00:00</time>
      </trkpt>
      <trkpt lat="48.06667" lon="6.60382">
        <ele>383</ele>
        <time>2026-05-11T18:29:41+00:00</time>
      </trkpt>
      <trkpt lat="48.06623" lon="6.60294">
        <ele>382</ele>
        <time>2026-05-11T18:29:42+00:00</time>
      </trkpt>
      <trkpt lat="48.06611" lon="6.60257">
        <ele>382</ele>
        <time>2026-05-11T18:29:43+00:00</time>
      </trkpt>
      <trkpt lat="48.06592" lon="6.60133">
        <ele>386</ele>
        <time>2026-05-11T18:29:44+00:00</time>
      </trkpt>
      <trkpt lat="48.06586" lon="6.60113">
        <ele>387</ele>
        <time>2026-05-11T18:29:45+00:00</time>
      </trkpt>
      <trkpt lat="48.06572" lon="6.60077">
        <ele>388</ele>
        <time>2026-05-11T18:29:46+00:00</time>
      </trkpt>
      <trkpt lat="48.0651" lon="6.59995">
        <ele>384</ele>
        <time>2026-05-11T18:29:47+00:00</time>
      </trkpt>
      <trkpt lat="48.06454" lon="6.59929">
        <ele>386</ele>
        <time>2026-05-11T18:29:48+00:00</time>
      </trkpt>
      <trkpt lat="48.06376" lon="6.59857">
        <ele>389</ele>
        <time>2026-05-11T18:29:49+00:00</time>
      </trkpt>
      <trkpt lat="48.06348" lon="6.59845">
        <ele>389</ele>
        <time>2026-05-11T18:29:50+00:00</time>
      </trkpt>
      <trkpt lat="48.06297" lon="6.59839">
        <ele>387</ele>
        <time>2026-05-11T18:29:51+00:00</time>
      </trkpt>
      <trkpt lat="48.06296" lon="6.59821">
        <ele>388</ele>
        <time>2026-05-11T18:29:52+00:00</time>
      </trkpt>
      <trkpt lat="48.063" lon="6.59762">
        <ele>392</ele>
        <time>2026-05-11T18:29:53+00:00</time>
      </trkpt>
      <trkpt lat="48.06292" lon="6.59685">
        <ele>394</ele>
        <time>2026-05-11T18:29:54+00:00</time>
      </trkpt>
      <trkpt lat="48.06302" lon="6.59624">
        <ele>397</ele>
        <time>2026-05-11T18:29:55+00:00</time>
      </trkpt>
      <trkpt lat="48.06297" lon="6.59611">
        <ele>397</ele>
        <time>2026-05-11T18:29:56+00:00</time>
      </trkpt>
      <trkpt lat="48.06274" lon="6.59597">
        <ele>398</ele>
        <time>2026-05-11T18:29:57+00:00</time>
      </trkpt>
      <trkpt lat="48.06265" lon="6.59585">
        <ele>399</ele>
        <time>2026-05-11T18:29:58+00:00</time>
      </trkpt>
      <trkpt lat="48.06258" lon="6.59566">
        <ele>399</ele>
        <time>2026-05-11T18:29:59+00:00</time>
      </trkpt>
      <trkpt lat="48.06247" lon="6.59573">
        <ele>399</ele>
        <time>2026-05-11T18:30:00+00:00</time>
      </trkpt>
      <trkpt lat="48.06234" lon="6.59574">
        <ele>400</ele>
        <time>2026-05-11T18:30:01+00:00</time>
      </trkpt>
      <trkpt lat="48.06215" lon="6.59558">
        <ele>401</ele>
        <time>2026-05-11T18:30:02+00:00</time>
      </trkpt>
      <trkpt lat="48.06199" lon="6.59539">
        <ele>401</ele>
        <time>2026-05-11T18:30:03+00:00</time>
      </trkpt>
      <trkpt lat="48.06009" lon="6.59442">
        <ele>405</ele>
        <time>2026-05-11T18:30:04+00:00</time>
      </trkpt>
      <trkpt lat="48.0598" lon="6.59423">
        <ele>404</ele>
        <time>2026-05-11T18:30:05+00:00</time>
      </trkpt>
      <trkpt lat="48.05913" lon="6.59372">
        <ele>404</ele>
        <time>2026-05-11T18:30:06+00:00</time>
      </trkpt>
      <trkpt lat="48.05894" lon="6.59362">
        <ele>404</ele>
        <time>2026-05-11T18:30:07+00:00</time>
      </trkpt>
      <trkpt lat="48.05841" lon="6.59356">
        <ele>403</ele>
        <time>2026-05-11T18:30:08+00:00</time>
      </trkpt>
      <trkpt lat="48.05825" lon="6.59351">
        <ele>403</ele>
        <time>2026-05-11T18:30:09+00:00</time>
      </trkpt>
      <trkpt lat="48.05718" lon="6.59292">
        <ele>406</ele>
        <time>2026-05-11T18:30:10+00:00</time>
      </trkpt>
      <trkpt lat="48.05683" lon="6.59268">
        <ele>408</ele>
        <time>2026-05-11T18:30:11+00:00</time>
      </trkpt>
      <trkpt lat="48.05641" lon="6.59224">
        <ele>409</ele>
        <time>2026-05-11T18:30:12+00:00</time>
      </trkpt>
      <trkpt lat="48.05587" lon="6.59158">
        <ele>409</ele>
        <time>2026-05-11T18:30:13+00:00</time>
      </trkpt>
      <trkpt lat="48.05561" lon="6.59098">
        <ele>405</ele>
        <time>2026-05-11T18:30:14+00:00</time>
      </trkpt>
      <trkpt lat="48.05538" lon="6.5903">
        <ele>404</ele>
        <time>2026-05-11T18:30:15+00:00</time>
      </trkpt>
      <trkpt lat="48.0551" lon="6.58978">
        <ele>404</ele>
        <time>2026-05-11T18:30:16+00:00</time>
      </trkpt>
      <trkpt lat="48.05483" lon="6.58948">
        <ele>403</ele>
        <time>2026-05-11T18:30:17+00:00</time>
      </trkpt>
      <trkpt lat="48.05467" lon="6.58904">
        <ele>402</ele>
        <time>2026-05-11T18:30:18+00:00</time>
      </trkpt>
      <trkpt lat="48.05452" lon="6.58846">
        <ele>401</ele>
        <time>2026-05-11T18:30:19+00:00</time>
      </trkpt>
      <trkpt lat="48.05448" lon="6.58852">
        <ele>400</ele>
        <time>2026-05-11T18:30:20+00:00</time>
      </trkpt>
      <trkpt lat="48.05447" lon="6.58845">
        <ele>400</ele>
        <time>2026-05-11T18:30:21+00:00</time>
      </trkpt>
      <trkpt lat="48.05396" lon="6.58848">
        <ele>398</ele>
        <time>2026-05-11T18:30:22+00:00</time>
      </trkpt>
      <trkpt lat="48.05378" lon="6.58831">
        <ele>399</ele>
        <time>2026-05-11T18:30:23+00:00</time>
      </trkpt>
    </trkseg>
  </trk>
</gpx>
