<?xml version="1.0" encoding="UTF-8" ?>
<gpx version="1.1" xmlns:xsi="http://www.w3.org/2001/XMLSchema-instance"
    xmlns="http://www.topografix.com/GPX/1/1"
    xsi:schemaLocation="http://www.topografix.com/GPX/1/1 http://www.topografix.com/GPX/1/1/gpx.xsd"
    creator="Openrunner - https://www.openrunner.com" >	<trk>
	                   <name>JPR 040524 Sidobre-18907190</name>
						<trkseg>
					<trkpt lat="43.664860" lon="2.393650">
						<ele>658</ele>
						<time>2026-05-01T09:39:51Z</time>
					</trkpt>
					<trkpt lat="43.664830" lon="2.393700">
						<ele>658</ele>
						<time>2026-05-01T09:39:57Z</time>
					</trkpt>
					<trkpt lat="43.664870" lon="2.393630">
						<ele>658</ele>
						<time>2026-05-01T09:40:06Z</time>
					</trkpt>
					<trkpt lat="43.664900" lon="2.393660">
						<ele>658</ele>
						<time>2026-05-01T09:40:11Z</time>
					</trkpt>
					<trkpt lat="43.664620" lon="2.393990">
						<ele>658</ele>
						<time>2026-05-01T09:41:00Z</time>
					</trkpt>
					<trkpt lat="43.664500" lon="2.394280">
						<ele>658</ele>
						<time>2026-05-01T09:41:32Z</time>
					</trkpt>
					<trkpt lat="43.664380" lon="2.394960">
						<ele>662</ele>
						<time>2026-05-01T09:42:40Z</time>
					</trkpt>
					<trkpt lat="43.664270" lon="2.395330">
						<ele>664</ele>
						<time>2026-05-01T09:43:18Z</time>
					</trkpt>
					<trkpt lat="43.664150" lon="2.395550">
						<ele>666</ele>
						<time>2026-05-01T09:43:45Z</time>
					</trkpt>
					<trkpt lat="43.663770" lon="2.396100">
						<ele>662</ele>
						<time>2026-05-01T09:44:58Z</time>
					</trkpt>
					<trkpt lat="43.663650" lon="2.396380">
						<ele>661</ele>
						<time>2026-05-01T09:45:30Z</time>
					</trkpt>
					<trkpt lat="43.663600" lon="2.396570">
						<ele>661</ele>
						<time>2026-05-01T09:45:49Z</time>
					</trkpt>
					<trkpt lat="43.663560" lon="2.396890">
						<ele>662</ele>
						<time>2026-05-01T09:46:21Z</time>
					</trkpt>
					<trkpt lat="43.663570" lon="2.397100">
						<ele>662</ele>
						<time>2026-05-01T09:46:41Z</time>
					</trkpt>
					<trkpt lat="43.663630" lon="2.397230">
						<ele>662</ele>
						<time>2026-05-01T09:46:56Z</time>
					</trkpt>
					<trkpt lat="43.663550" lon="2.397680">
						<ele>664</ele>
						<time>2026-05-01T09:47:41Z</time>
					</trkpt>
					<trkpt lat="43.663490" lon="2.397780">
						<ele>665</ele>
						<time>2026-05-01T09:47:53Z</time>
					</trkpt>
					<trkpt lat="43.663360" lon="2.398360">
						<ele>669</ele>
						<time>2026-05-01T09:48:52Z</time>
					</trkpt>
					<trkpt lat="43.663210" lon="2.398900">
						<ele>671</ele>
						<time>2026-05-01T09:49:48Z</time>
					</trkpt>
					<trkpt lat="43.663120" lon="2.399130">
						<ele>671</ele>
						<time>2026-05-01T09:50:13Z</time>
					</trkpt>
					<trkpt lat="43.662800" lon="2.400320">
						<ele>673</ele>
						<time>2026-05-01T09:52:15Z</time>
					</trkpt>
					<trkpt lat="43.662640" lon="2.400730">
						<ele>674</ele>
						<time>2026-05-01T09:53:00Z</time>
					</trkpt>
					<trkpt lat="43.662390" lon="2.401180">
						<ele>675</ele>
						<time>2026-05-01T09:53:55Z</time>
					</trkpt>
					<trkpt lat="43.662310" lon="2.401470">
						<ele>676</ele>
						<time>2026-05-01T09:54:25Z</time>
					</trkpt>
					<trkpt lat="43.662160" lon="2.401810">
						<ele>676</ele>
						<time>2026-05-01T09:55:04Z</time>
					</trkpt>
					<trkpt lat="43.661420" lon="2.402520">
						<ele>678</ele>
						<time>2026-05-01T09:57:04Z</time>
					</trkpt>
					<trkpt lat="43.661160" lon="2.402660">
						<ele>678</ele>
						<time>2026-05-01T09:57:41Z</time>
					</trkpt>
					<trkpt lat="43.660810" lon="2.402950">
						<ele>679</ele>
						<time>2026-05-01T09:58:35Z</time>
					</trkpt>
					<trkpt lat="43.660460" lon="2.403130">
						<ele>679</ele>
						<time>2026-05-01T09:59:25Z</time>
					</trkpt>
					<trkpt lat="43.660220" lon="2.403380">
						<ele>679</ele>
						<time>2026-05-01T10:00:05Z</time>
					</trkpt>
					<trkpt lat="43.660090" lon="2.403570">
						<ele>679</ele>
						<time>2026-05-01T10:00:31Z</time>
					</trkpt>
					<trkpt lat="43.659910" lon="2.403760">
						<ele>680</ele>
						<time>2026-05-01T10:01:01Z</time>
					</trkpt>
					<trkpt lat="43.659490" lon="2.404440">
						<ele>677</ele>
						<time>2026-05-01T10:02:27Z</time>
					</trkpt>
					<trkpt lat="43.659320" lon="2.404830">
						<ele>676</ele>
						<time>2026-05-01T10:03:11Z</time>
					</trkpt>
					<trkpt lat="43.659190" lon="2.405010">
						<ele>676</ele>
						<time>2026-05-01T10:03:36Z</time>
					</trkpt>
					<trkpt lat="43.659070" lon="2.405130">
						<ele>674</ele>
						<time>2026-05-01T10:03:55Z</time>
					</trkpt>
					<trkpt lat="43.658890" lon="2.405180">
						<ele>673</ele>
						<time>2026-05-01T10:04:20Z</time>
					</trkpt>
					<trkpt lat="43.658800" lon="2.405180">
						<ele>673</ele>
						<time>2026-05-01T10:04:32Z</time>
					</trkpt>
					<trkpt lat="43.658630" lon="2.405090">
						<ele>672</ele>
						<time>2026-05-01T10:04:56Z</time>
					</trkpt>
					<trkpt lat="43.658450" lon="2.405080">
						<ele>671</ele>
						<time>2026-05-01T10:05:20Z</time>
					</trkpt>
					<trkpt lat="43.658380" lon="2.405050">
						<ele>671</ele>
						<time>2026-05-01T10:05:30Z</time>
					</trkpt>
					<trkpt lat="43.658050" lon="2.404810">
						<ele>670</ele>
						<time>2026-05-01T10:06:20Z</time>
					</trkpt>
					<trkpt lat="43.657870" lon="2.404530">
						<ele>669</ele>
						<time>2026-05-01T10:06:56Z</time>
					</trkpt>
					<trkpt lat="43.657760" lon="2.404410">
						<ele>669</ele>
						<time>2026-05-01T10:07:15Z</time>
					</trkpt>
					<trkpt lat="43.657650" lon="2.404340">
						<ele>669</ele>
						<time>2026-05-01T10:07:31Z</time>
					</trkpt>
					<trkpt lat="43.657570" lon="2.404320">
						<ele>668</ele>
						<time>2026-05-01T10:07:42Z</time>
					</trkpt>
					<trkpt lat="43.657610" lon="2.404500">
						<ele>669</ele>
						<time>2026-05-01T10:08:00Z</time>
					</trkpt>
					<trkpt lat="43.657640" lon="2.404840">
						<ele>670</ele>
						<time>2026-05-01T10:08:33Z</time>
					</trkpt>
					<trkpt lat="43.657690" lon="2.405030">
						<ele>670</ele>
						<time>2026-05-01T10:08:52Z</time>
					</trkpt>
					<trkpt lat="43.657910" lon="2.405460">
						<ele>669</ele>
						<time>2026-05-01T10:09:43Z</time>
					</trkpt>
					<trkpt lat="43.657960" lon="2.405590">
						<ele>669</ele>
						<time>2026-05-01T10:09:58Z</time>
					</trkpt>
					<trkpt lat="43.657970" lon="2.405710">
						<ele>669</ele>
						<time>2026-05-01T10:10:09Z</time>
					</trkpt>
					<trkpt lat="43.657920" lon="2.406030">
						<ele>667</ele>
						<time>2026-05-01T10:10:41Z</time>
					</trkpt>
					<trkpt lat="43.657880" lon="2.406120">
						<ele>667</ele>
						<time>2026-05-01T10:10:51Z</time>
					</trkpt>
					<trkpt lat="43.657770" lon="2.406290">
						<ele>667</ele>
						<time>2026-05-01T10:11:13Z</time>
					</trkpt>
					<trkpt lat="43.657620" lon="2.406460">
						<ele>668</ele>
						<time>2026-05-01T10:11:39Z</time>
					</trkpt>
					<trkpt lat="43.657560" lon="2.406820">
						<ele>670</ele>
						<time>2026-05-01T10:12:15Z</time>
					</trkpt>
					<trkpt lat="43.657530" lon="2.407320">
						<ele>672</ele>
						<time>2026-05-01T10:13:03Z</time>
					</trkpt>
					<trkpt lat="43.657490" lon="2.407510">
						<ele>673</ele>
						<time>2026-05-01T10:13:22Z</time>
					</trkpt>
					<trkpt lat="43.657380" lon="2.407690">
						<ele>674</ele>
						<time>2026-05-01T10:13:45Z</time>
					</trkpt>
					<trkpt lat="43.657340" lon="2.407800">
						<ele>674</ele>
						<time>2026-05-01T10:13:57Z</time>
					</trkpt>
					<trkpt lat="43.657130" lon="2.408010">
						<ele>673</ele>
						<time>2026-05-01T10:14:31Z</time>
					</trkpt>
					<trkpt lat="43.657100" lon="2.408050">
						<ele>673</ele>
						<time>2026-05-01T10:14:37Z</time>
					</trkpt>
					<trkpt lat="43.657120" lon="2.408060">
						<ele>673</ele>
						<time>2026-05-01T10:14:40Z</time>
					</trkpt>
					<trkpt lat="43.656940" lon="2.408130">
						<ele>672</ele>
						<time>2026-05-01T10:15:05Z</time>
					</trkpt>
					<trkpt lat="43.656610" lon="2.408420">
						<ele>669</ele>
						<time>2026-05-01T10:15:57Z</time>
					</trkpt>
					<trkpt lat="43.656330" lon="2.408550">
						<ele>668</ele>
						<time>2026-05-01T10:16:36Z</time>
					</trkpt>
					<trkpt lat="43.655930" lon="2.409020">
						<ele>665</ele>
						<time>2026-05-01T10:17:46Z</time>
					</trkpt>
					<trkpt lat="43.655680" lon="2.409630">
						<ele>658</ele>
						<time>2026-05-01T10:18:54Z</time>
					</trkpt>
					<trkpt lat="43.655500" lon="2.410230">
						<ele>653</ele>
						<time>2026-05-01T10:19:57Z</time>
					</trkpt>
					<trkpt lat="43.655500" lon="2.410470">
						<ele>651</ele>
						<time>2026-05-01T10:20:20Z</time>
					</trkpt>
					<trkpt lat="43.655610" lon="2.411000">
						<ele>643</ele>
						<time>2026-05-01T10:21:13Z</time>
					</trkpt>
					<trkpt lat="43.655590" lon="2.411230">
						<ele>640</ele>
						<time>2026-05-01T10:21:36Z</time>
					</trkpt>
					<trkpt lat="43.655460" lon="2.411470">
						<ele>638</ele>
						<time>2026-05-01T10:22:04Z</time>
					</trkpt>
					<trkpt lat="43.655070" lon="2.411700">
						<ele>640</ele>
						<time>2026-05-01T10:23:01Z</time>
					</trkpt>
					<trkpt lat="43.654730" lon="2.411720">
						<ele>642</ele>
						<time>2026-05-01T10:23:46Z</time>
					</trkpt>
					<trkpt lat="43.654470" lon="2.411670">
						<ele>644</ele>
						<time>2026-05-01T10:24:22Z</time>
					</trkpt>
					<trkpt lat="43.654390" lon="2.411680">
						<ele>644</ele>
						<time>2026-05-01T10:24:32Z</time>
					</trkpt>
					<trkpt lat="43.654250" lon="2.411840">
						<ele>641</ele>
						<time>2026-05-01T10:24:56Z</time>
					</trkpt>
					<trkpt lat="43.654160" lon="2.411900">
						<ele>640</ele>
						<time>2026-05-01T10:25:10Z</time>
					</trkpt>
					<trkpt lat="43.654000" lon="2.411920">
						<ele>641</ele>
						<time>2026-05-01T10:25:31Z</time>
					</trkpt>
					<trkpt lat="43.653730" lon="2.412060">
						<ele>641</ele>
						<time>2026-05-01T10:26:10Z</time>
					</trkpt>
					<trkpt lat="43.653720" lon="2.412000">
						<ele>642</ele>
						<time>2026-05-01T10:26:16Z</time>
					</trkpt>
					<trkpt lat="43.653760" lon="2.412010">
						<ele>642</ele>
						<time>2026-05-01T10:26:21Z</time>
					</trkpt>
					<trkpt lat="43.653730" lon="2.411990">
						<ele>643</ele>
						<time>2026-05-01T10:26:26Z</time>
					</trkpt>
					<trkpt lat="43.653780" lon="2.411990">
						<ele>642</ele>
						<time>2026-05-01T10:26:32Z</time>
					</trkpt>
					<trkpt lat="43.653740" lon="2.411960">
						<ele>643</ele>
						<time>2026-05-01T10:26:38Z</time>
					</trkpt>
					<trkpt lat="43.653770" lon="2.411960">
						<ele>643</ele>
						<time>2026-05-01T10:26:42Z</time>
					</trkpt>
					<trkpt lat="43.653720" lon="2.411950">
						<ele>644</ele>
						<time>2026-05-01T10:26:49Z</time>
					</trkpt>
					<trkpt lat="43.653680" lon="2.412140">
						<ele>639</ele>
						<time>2026-05-01T10:27:08Z</time>
					</trkpt>
					<trkpt lat="43.653610" lon="2.412230">
						<ele>637</ele>
						<time>2026-05-01T10:27:21Z</time>
					</trkpt>
					<trkpt lat="43.653470" lon="2.412360">
						<ele>635</ele>
						<time>2026-05-01T10:27:43Z</time>
					</trkpt>
					<trkpt lat="43.653100" lon="2.412620">
						<ele>628</ele>
						<time>2026-05-01T10:28:39Z</time>
					</trkpt>
					<trkpt lat="43.653040" lon="2.412640">
						<ele>627</ele>
						<time>2026-05-01T10:28:47Z</time>
					</trkpt>
					<trkpt lat="43.652830" lon="2.412670">
						<ele>624</ele>
						<time>2026-05-01T10:29:15Z</time>
					</trkpt>
					<trkpt lat="43.652720" lon="2.412650">
						<ele>624</ele>
						<time>2026-05-01T10:29:30Z</time>
					</trkpt>
					<trkpt lat="43.652470" lon="2.412550">
						<ele>625</ele>
						<time>2026-05-01T10:30:05Z</time>
					</trkpt>
					<trkpt lat="43.652240" lon="2.412520">
						<ele>624</ele>
						<time>2026-05-01T10:30:36Z</time>
					</trkpt>
					<trkpt lat="43.651850" lon="2.412600">
						<ele>620</ele>
						<time>2026-05-01T10:31:28Z</time>
					</trkpt>
					<trkpt lat="43.651710" lon="2.412590">
						<ele>620</ele>
						<time>2026-05-01T10:31:47Z</time>
					</trkpt>
					<trkpt lat="43.651630" lon="2.412560">
						<ele>620</ele>
						<time>2026-05-01T10:31:58Z</time>
					</trkpt>
					<trkpt lat="43.651440" lon="2.412740">
						<ele>614</ele>
						<time>2026-05-01T10:32:29Z</time>
					</trkpt>
					<trkpt lat="43.651310" lon="2.412810">
						<ele>611</ele>
						<time>2026-05-01T10:32:47Z</time>
					</trkpt>
					<trkpt lat="43.651210" lon="2.412820">
						<ele>610</ele>
						<time>2026-05-01T10:33:01Z</time>
					</trkpt>
					<trkpt lat="43.651080" lon="2.412690">
						<ele>611</ele>
						<time>2026-05-01T10:33:22Z</time>
					</trkpt>
					<trkpt lat="43.650920" lon="2.412170">
						<ele>617</ele>
						<time>2026-05-01T10:34:17Z</time>
					</trkpt>
					<trkpt lat="43.650700" lon="2.411920">
						<ele>621</ele>
						<time>2026-05-01T10:34:55Z</time>
					</trkpt>
					<trkpt lat="43.650650" lon="2.411910">
						<ele>621</ele>
						<time>2026-05-01T10:35:01Z</time>
					</trkpt>
					<trkpt lat="43.650410" lon="2.411970">
						<ele>621</ele>
						<time>2026-05-01T10:35:34Z</time>
					</trkpt>
					<trkpt lat="43.650210" lon="2.411990">
						<ele>622</ele>
						<time>2026-05-01T10:36:01Z</time>
					</trkpt>
					<trkpt lat="43.649770" lon="2.411830">
						<ele>627</ele>
						<time>2026-05-01T10:37:01Z</time>
					</trkpt>
					<trkpt lat="43.649590" lon="2.411690">
						<ele>630</ele>
						<time>2026-05-01T10:37:29Z</time>
					</trkpt>
					<trkpt lat="43.649610" lon="2.411350">
						<ele>634</ele>
						<time>2026-05-01T10:38:02Z</time>
					</trkpt>
					<trkpt lat="43.649710" lon="2.410790">
						<ele>639</ele>
						<time>2026-05-01T10:38:58Z</time>
					</trkpt>
					<trkpt lat="43.649800" lon="2.410610">
						<ele>640</ele>
						<time>2026-05-01T10:39:19Z</time>
					</trkpt>
					<trkpt lat="43.649970" lon="2.410000">
						<ele>644</ele>
						<time>2026-05-01T10:40:22Z</time>
					</trkpt>
					<trkpt lat="43.650170" lon="2.409560">
						<ele>650</ele>
						<time>2026-05-01T10:41:12Z</time>
					</trkpt>
					<trkpt lat="43.650200" lon="2.409400">
						<ele>652</ele>
						<time>2026-05-01T10:41:28Z</time>
					</trkpt>
					<trkpt lat="43.650200" lon="2.409140">
						<ele>655</ele>
						<time>2026-05-01T10:41:53Z</time>
					</trkpt>
					<trkpt lat="43.650090" lon="2.408850">
						<ele>659</ele>
						<time>2026-05-01T10:42:25Z</time>
					</trkpt>
					<trkpt lat="43.650040" lon="2.408630">
						<ele>662</ele>
						<time>2026-05-01T10:42:47Z</time>
					</trkpt>
					<trkpt lat="43.649960" lon="2.408460">
						<ele>664</ele>
						<time>2026-05-01T10:43:07Z</time>
					</trkpt>
					<trkpt lat="43.649820" lon="2.408250">
						<ele>666</ele>
						<time>2026-05-01T10:43:34Z</time>
					</trkpt>
					<trkpt lat="43.649560" lon="2.407760">
						<ele>672</ele>
						<time>2026-05-01T10:44:33Z</time>
					</trkpt>
					<trkpt lat="43.649440" lon="2.407660">
						<ele>672</ele>
						<time>2026-05-01T10:44:52Z</time>
					</trkpt>
					<trkpt lat="43.649270" lon="2.407700">
						<ele>669</ele>
						<time>2026-05-01T10:45:15Z</time>
					</trkpt>
					<trkpt lat="43.649080" lon="2.407810">
						<ele>667</ele>
						<time>2026-05-01T10:45:42Z</time>
					</trkpt>
					<trkpt lat="43.648770" lon="2.408150">
						<ele>663</ele>
						<time>2026-05-01T10:46:35Z</time>
					</trkpt>
					<trkpt lat="43.648480" lon="2.408140">
						<ele>664</ele>
						<time>2026-05-01T10:47:14Z</time>
					</trkpt>
					<trkpt lat="43.648280" lon="2.408080">
						<ele>665</ele>
						<time>2026-05-01T10:47:41Z</time>
					</trkpt>
					<trkpt lat="43.648170" lon="2.408080">
						<ele>665</ele>
						<time>2026-05-01T10:47:56Z</time>
					</trkpt>
					<trkpt lat="43.648060" lon="2.408110">
						<ele>665</ele>
						<time>2026-05-01T10:48:10Z</time>
					</trkpt>
					<trkpt lat="43.647810" lon="2.408110">
						<ele>665</ele>
						<time>2026-05-01T10:48:44Z</time>
					</trkpt>
					<trkpt lat="43.647700" lon="2.408140">
						<ele>665</ele>
						<time>2026-05-01T10:48:59Z</time>
					</trkpt>
					<trkpt lat="43.647620" lon="2.408200">
						<ele>664</ele>
						<time>2026-05-01T10:49:11Z</time>
					</trkpt>
					<trkpt lat="43.647560" lon="2.408300">
						<ele>662</ele>
						<time>2026-05-01T10:49:24Z</time>
					</trkpt>
					<trkpt lat="43.647430" lon="2.408440">
						<ele>661</ele>
						<time>2026-05-01T10:49:46Z</time>
					</trkpt>
					<trkpt lat="43.647230" lon="2.408850">
						<ele>660</ele>
						<time>2026-05-01T10:50:33Z</time>
					</trkpt>
					<trkpt lat="43.647180" lon="2.408890">
						<ele>661</ele>
						<time>2026-05-01T10:50:41Z</time>
					</trkpt>
					<trkpt lat="43.647210" lon="2.408990">
						<ele>659</ele>
						<time>2026-05-01T10:50:51Z</time>
					</trkpt>
					<trkpt lat="43.647150" lon="2.409020">
						<ele>661</ele>
						<time>2026-05-01T10:51:00Z</time>
					</trkpt>
					<trkpt lat="43.647060" lon="2.408970">
						<ele>663</ele>
						<time>2026-05-01T10:51:13Z</time>
					</trkpt>
					<trkpt lat="43.646950" lon="2.409180">
						<ele>664</ele>
						<time>2026-05-01T10:51:38Z</time>
					</trkpt>
					<trkpt lat="43.646840" lon="2.409490">
						<ele>665</ele>
						<time>2026-05-01T10:52:11Z</time>
					</trkpt>
					<trkpt lat="43.646770" lon="2.410100">
						<ele>662</ele>
						<time>2026-05-01T10:53:11Z</time>
					</trkpt>
					<trkpt lat="43.646690" lon="2.410250">
						<ele>661</ele>
						<time>2026-05-01T10:53:29Z</time>
					</trkpt>
					<trkpt lat="43.646530" lon="2.410480">
						<ele>660</ele>
						<time>2026-05-01T10:54:00Z</time>
					</trkpt>
					<trkpt lat="43.646260" lon="2.410730">
						<ele>660</ele>
						<time>2026-05-01T10:54:43Z</time>
					</trkpt>
					<trkpt lat="43.645790" lon="2.410900">
						<ele>664</ele>
						<time>2026-05-01T10:55:48Z</time>
					</trkpt>
					<trkpt lat="43.645590" lon="2.410850">
						<ele>667</ele>
						<time>2026-05-01T10:56:15Z</time>
					</trkpt>
					<trkpt lat="43.645400" lon="2.410860">
						<ele>668</ele>
						<time>2026-05-01T10:56:40Z</time>
					</trkpt>
					<trkpt lat="43.645200" lon="2.410790">
						<ele>671</ele>
						<time>2026-05-01T10:57:08Z</time>
					</trkpt>
					<trkpt lat="43.645070" lon="2.410630">
						<ele>676</ele>
						<time>2026-05-01T10:57:31Z</time>
					</trkpt>
					<trkpt lat="43.644960" lon="2.410560">
						<ele>679</ele>
						<time>2026-05-01T10:57:47Z</time>
					</trkpt>
					<trkpt lat="43.644860" lon="2.410570">
						<ele>679</ele>
						<time>2026-05-01T10:58:01Z</time>
					</trkpt>
					<trkpt lat="43.644770" lon="2.410550">
						<ele>680</ele>
						<time>2026-05-01T10:58:13Z</time>
					</trkpt>
					<trkpt lat="43.644680" lon="2.410490">
						<ele>682</ele>
						<time>2026-05-01T10:58:26Z</time>
					</trkpt>
					<trkpt lat="43.644600" lon="2.410480">
						<ele>683</ele>
						<time>2026-05-01T10:58:37Z</time>
					</trkpt>
					<trkpt lat="43.644110" lon="2.410590">
						<ele>684</ele>
						<time>2026-05-01T10:59:43Z</time>
					</trkpt>
					<trkpt lat="43.643960" lon="2.410590">
						<ele>683</ele>
						<time>2026-05-01T11:00:03Z</time>
					</trkpt>
					<trkpt lat="43.643710" lon="2.410400">
						<ele>685</ele>
						<time>2026-05-01T11:00:41Z</time>
					</trkpt>
					<trkpt lat="43.643590" lon="2.410260">
						<ele>687</ele>
						<time>2026-05-01T11:01:02Z</time>
					</trkpt>
					<trkpt lat="43.643470" lon="2.410180">
						<ele>689</ele>
						<time>2026-05-01T11:01:20Z</time>
					</trkpt>
					<trkpt lat="43.643050" lon="2.409980">
						<ele>691</ele>
						<time>2026-05-01T11:02:19Z</time>
					</trkpt>
					<trkpt lat="43.642920" lon="2.409940">
						<ele>692</ele>
						<time>2026-05-01T11:02:37Z</time>
					</trkpt>
					<trkpt lat="43.642840" lon="2.409920">
						<ele>692</ele>
						<time>2026-05-01T11:02:48Z</time>
					</trkpt>
					<trkpt lat="43.642720" lon="2.409960">
						<ele>691</ele>
						<time>2026-05-01T11:03:04Z</time>
					</trkpt>
					<trkpt lat="43.642570" lon="2.409860">
						<ele>692</ele>
						<time>2026-05-01T11:03:27Z</time>
					</trkpt>
					<trkpt lat="43.642330" lon="2.409790">
						<ele>694</ele>
						<time>2026-05-01T11:03:59Z</time>
					</trkpt>
					<trkpt lat="43.641920" lon="2.409890">
						<ele>694</ele>
						<time>2026-05-01T11:04:55Z</time>
					</trkpt>
					<trkpt lat="43.641870" lon="2.409970">
						<ele>693</ele>
						<time>2026-05-01T11:05:05Z</time>
					</trkpt>
					<trkpt lat="43.641840" lon="2.410140">
						<ele>691</ele>
						<time>2026-05-01T11:05:22Z</time>
					</trkpt>
					<trkpt lat="43.641830" lon="2.410480">
						<ele>685</ele>
						<time>2026-05-01T11:05:55Z</time>
					</trkpt>
					<trkpt lat="43.641780" lon="2.410600">
						<ele>683</ele>
						<time>2026-05-01T11:06:08Z</time>
					</trkpt>
					<trkpt lat="43.641380" lon="2.410980">
						<ele>681</ele>
						<time>2026-05-01T11:07:13Z</time>
					</trkpt>
					<trkpt lat="43.641230" lon="2.411080">
						<ele>681</ele>
						<time>2026-05-01T11:07:35Z</time>
					</trkpt>
					<trkpt lat="43.640850" lon="2.411270">
						<ele>682</ele>
						<time>2026-05-01T11:08:29Z</time>
					</trkpt>
					<trkpt lat="43.640720" lon="2.411490">
						<ele>679</ele>
						<time>2026-05-01T11:08:57Z</time>
					</trkpt>
					<trkpt lat="43.640570" lon="2.411650">
						<ele>676</ele>
						<time>2026-05-01T11:09:22Z</time>
					</trkpt>
					<trkpt lat="43.640310" lon="2.411820">
						<ele>675</ele>
						<time>2026-05-01T11:10:00Z</time>
					</trkpt>
					<trkpt lat="43.639900" lon="2.412140">
						<ele>674</ele>
						<time>2026-05-01T11:11:03Z</time>
					</trkpt>
					<trkpt lat="43.639580" lon="2.412510">
						<ele>673</ele>
						<time>2026-05-01T11:11:59Z</time>
					</trkpt>
					<trkpt lat="43.639520" lon="2.412650">
						<ele>673</ele>
						<time>2026-05-01T11:12:14Z</time>
					</trkpt>
					<trkpt lat="43.639470" lon="2.412950">
						<ele>674</ele>
						<time>2026-05-01T11:12:44Z</time>
					</trkpt>
					<trkpt lat="43.639310" lon="2.413200">
						<ele>675</ele>
						<time>2026-05-01T11:13:16Z</time>
					</trkpt>
					<trkpt lat="43.639270" lon="2.412920">
						<ele>673</ele>
						<time>2026-05-01T11:13:44Z</time>
					</trkpt>
					<trkpt lat="43.638860" lon="2.411690">
						<ele>666</ele>
						<time>2026-05-01T11:15:55Z</time>
					</trkpt>
					<trkpt lat="43.638640" lon="2.411150">
						<ele>666</ele>
						<time>2026-05-01T11:16:55Z</time>
					</trkpt>
					<trkpt lat="43.638620" lon="2.410890">
						<ele>667</ele>
						<time>2026-05-01T11:17:20Z</time>
					</trkpt>
					<trkpt lat="43.638730" lon="2.410460">
						<ele>667</ele>
						<time>2026-05-01T11:18:04Z</time>
					</trkpt>
					<trkpt lat="43.638740" lon="2.410320">
						<ele>668</ele>
						<time>2026-05-01T11:18:18Z</time>
					</trkpt>
					<trkpt lat="43.638690" lon="2.410120">
						<ele>668</ele>
						<time>2026-05-01T11:18:38Z</time>
					</trkpt>
					<trkpt lat="43.638630" lon="2.409650">
						<ele>671</ele>
						<time>2026-05-01T11:19:24Z</time>
					</trkpt>
					<trkpt lat="43.638460" lon="2.409520">
						<ele>670</ele>
						<time>2026-05-01T11:19:50Z</time>
					</trkpt>
					<trkpt lat="43.638410" lon="2.409290">
						<ele>671</ele>
						<time>2026-05-01T11:20:13Z</time>
					</trkpt>
					<trkpt lat="43.638420" lon="2.409050">
						<ele>672</ele>
						<time>2026-05-01T11:20:36Z</time>
					</trkpt>
					<trkpt lat="43.638500" lon="2.408670">
						<ele>674</ele>
						<time>2026-05-01T11:21:15Z</time>
					</trkpt>
					<trkpt lat="43.638510" lon="2.408470">
						<ele>674</ele>
						<time>2026-05-01T11:21:34Z</time>
					</trkpt>
					<trkpt lat="43.638480" lon="2.408370">
						<ele>674</ele>
						<time>2026-05-01T11:21:44Z</time>
					</trkpt>
					<trkpt lat="43.638370" lon="2.408230">
						<ele>672</ele>
						<time>2026-05-01T11:22:04Z</time>
					</trkpt>
					<trkpt lat="43.638230" lon="2.407980">
						<ele>669</ele>
						<time>2026-05-01T11:22:35Z</time>
					</trkpt>
					<trkpt lat="43.638160" lon="2.407930">
						<ele>667</ele>
						<time>2026-05-01T11:22:45Z</time>
					</trkpt>
					<trkpt lat="43.638090" lon="2.407660">
						<ele>665</ele>
						<time>2026-05-01T11:23:13Z</time>
					</trkpt>
					<trkpt lat="43.638220" lon="2.407330">
						<ele>664</ele>
						<time>2026-05-01T11:23:49Z</time>
					</trkpt>
					<trkpt lat="43.638320" lon="2.406810">
						<ele>660</ele>
						<time>2026-05-01T11:24:41Z</time>
					</trkpt>
					<trkpt lat="43.638400" lon="2.406660">
						<ele>659</ele>
						<time>2026-05-01T11:24:59Z</time>
					</trkpt>
					<trkpt lat="43.638670" lon="2.406320">
						<ele>660</ele>
						<time>2026-05-01T11:25:48Z</time>
					</trkpt>
					<trkpt lat="43.638720" lon="2.406190">
						<ele>659</ele>
						<time>2026-05-01T11:26:02Z</time>
					</trkpt>
					<trkpt lat="43.638730" lon="2.406050">
						<ele>659</ele>
						<time>2026-05-01T11:26:16Z</time>
					</trkpt>
					<trkpt lat="43.638680" lon="2.405750">
						<ele>658</ele>
						<time>2026-05-01T11:26:46Z</time>
					</trkpt>
					<trkpt lat="43.638700" lon="2.405330">
						<ele>660</ele>
						<time>2026-05-01T11:27:26Z</time>
					</trkpt>
					<trkpt lat="43.638780" lon="2.405180">
						<ele>662</ele>
						<time>2026-05-01T11:27:44Z</time>
					</trkpt>
					<trkpt lat="43.638940" lon="2.405040">
						<ele>664</ele>
						<time>2026-05-01T11:28:10Z</time>
					</trkpt>
					<trkpt lat="43.638970" lon="2.404980">
						<ele>665</ele>
						<time>2026-05-01T11:28:17Z</time>
					</trkpt>
					<trkpt lat="43.638720" lon="2.404700">
						<ele>666</ele>
						<time>2026-05-01T11:29:00Z</time>
					</trkpt>
					<trkpt lat="43.638680" lon="2.404510">
						<ele>667</ele>
						<time>2026-05-01T11:29:19Z</time>
					</trkpt>
					<trkpt lat="43.638690" lon="2.403690">
						<ele>672</ele>
						<time>2026-05-01T11:30:38Z</time>
					</trkpt>
					<trkpt lat="43.638760" lon="2.403310">
						<ele>673</ele>
						<time>2026-05-01T11:31:16Z</time>
					</trkpt>
					<trkpt lat="43.638850" lon="2.402380">
						<ele>668</ele>
						<time>2026-05-01T11:32:46Z</time>
					</trkpt>
					<trkpt lat="43.639080" lon="2.401730">
						<ele>665</ele>
						<time>2026-05-01T11:33:56Z</time>
					</trkpt>
					<trkpt lat="43.639170" lon="2.401380">
						<ele>662</ele>
						<time>2026-05-01T11:34:32Z</time>
					</trkpt>
					<trkpt lat="43.639250" lon="2.401200">
						<ele>662</ele>
						<time>2026-05-01T11:34:52Z</time>
					</trkpt>
					<trkpt lat="43.639470" lon="2.400840">
						<ele>662</ele>
						<time>2026-05-01T11:35:38Z</time>
					</trkpt>
					<trkpt lat="43.639900" lon="2.400330">
						<ele>665</ele>
						<time>2026-05-01T11:36:54Z</time>
					</trkpt>
					<trkpt lat="43.640100" lon="2.400160">
						<ele>666</ele>
						<time>2026-05-01T11:37:25Z</time>
					</trkpt>
					<trkpt lat="43.640430" lon="2.400180">
						<ele>666</ele>
						<time>2026-05-01T11:38:09Z</time>
					</trkpt>
					<trkpt lat="43.640780" lon="2.400170">
						<ele>665</ele>
						<time>2026-05-01T11:38:56Z</time>
					</trkpt>
					<trkpt lat="43.640810" lon="2.400130">
						<ele>665</ele>
						<time>2026-05-01T11:39:01Z</time>
					</trkpt>
					<trkpt lat="43.640800" lon="2.400050">
						<ele>664</ele>
						<time>2026-05-01T11:39:09Z</time>
					</trkpt>
					<trkpt lat="43.640910" lon="2.400000">
						<ele>664</ele>
						<time>2026-05-01T11:39:25Z</time>
					</trkpt>
					<trkpt lat="43.641010" lon="2.400000">
						<ele>665</ele>
						<time>2026-05-01T11:39:38Z</time>
					</trkpt>
					<trkpt lat="43.640910" lon="2.399950">
						<ele>664</ele>
						<time>2026-05-01T11:39:52Z</time>
					</trkpt>
					<trkpt lat="43.640900" lon="2.399650">
						<ele>662</ele>
						<time>2026-05-01T11:40:21Z</time>
					</trkpt>
					<trkpt lat="43.640970" lon="2.399490">
						<ele>662</ele>
						<time>2026-05-01T11:40:39Z</time>
					</trkpt>
					<trkpt lat="43.641290" lon="2.399170">
						<ele>663</ele>
						<time>2026-05-01T11:41:32Z</time>
					</trkpt>
					<trkpt lat="43.641530" lon="2.398740">
						<ele>663</ele>
						<time>2026-05-01T11:42:24Z</time>
					</trkpt>
					<trkpt lat="43.641620" lon="2.398520">
						<ele>662</ele>
						<time>2026-05-01T11:42:49Z</time>
					</trkpt>
					<trkpt lat="43.641660" lon="2.398200">
						<ele>660</ele>
						<time>2026-05-01T11:43:20Z</time>
					</trkpt>
					<trkpt lat="43.641650" lon="2.397650">
						<ele>658</ele>
						<time>2026-05-01T11:44:13Z</time>
					</trkpt>
					<trkpt lat="43.641800" lon="2.397040">
						<ele>657</ele>
						<time>2026-05-01T11:45:15Z</time>
					</trkpt>
					<trkpt lat="43.641860" lon="2.396420">
						<ele>658</ele>
						<time>2026-05-01T11:46:16Z</time>
					</trkpt>
					<trkpt lat="43.641960" lon="2.396160">
						<ele>659</ele>
						<time>2026-05-01T11:46:44Z</time>
					</trkpt>
					<trkpt lat="43.642150" lon="2.395840">
						<ele>661</ele>
						<time>2026-05-01T11:47:24Z</time>
					</trkpt>
					<trkpt lat="43.642280" lon="2.395680">
						<ele>662</ele>
						<time>2026-05-01T11:47:48Z</time>
					</trkpt>
					<trkpt lat="43.642540" lon="2.395130">
						<ele>664</ele>
						<time>2026-05-01T11:48:51Z</time>
					</trkpt>
					<trkpt lat="43.642800" lon="2.394790">
						<ele>659</ele>
						<time>2026-05-01T11:49:39Z</time>
					</trkpt>
					<trkpt lat="43.642880" lon="2.394710">
						<ele>657</ele>
						<time>2026-05-01T11:49:52Z</time>
					</trkpt>
					<trkpt lat="43.642940" lon="2.394700">
						<ele>656</ele>
						<time>2026-05-01T11:50:00Z</time>
					</trkpt>
					<trkpt lat="43.643030" lon="2.394330">
						<ele>655</ele>
						<time>2026-05-01T11:50:38Z</time>
					</trkpt>
					<trkpt lat="43.643210" lon="2.394050">
						<ele>652</ele>
						<time>2026-05-01T11:51:14Z</time>
					</trkpt>
					<trkpt lat="43.643350" lon="2.393900">
						<ele>651</ele>
						<time>2026-05-01T11:51:37Z</time>
					</trkpt>
					<trkpt lat="43.643540" lon="2.393580">
						<ele>650</ele>
						<time>2026-05-01T11:52:17Z</time>
					</trkpt>
					<trkpt lat="43.643930" lon="2.392580">
						<ele>647</ele>
						<time>2026-05-01T11:54:07Z</time>
					</trkpt>
					<trkpt lat="43.644370" lon="2.391840">
						<ele>643</ele>
						<time>2026-05-01T11:55:40Z</time>
					</trkpt>
					<trkpt lat="43.644600" lon="2.391500">
						<ele>640</ele>
						<time>2026-05-01T11:56:25Z</time>
					</trkpt>
					<trkpt lat="43.644700" lon="2.391390">
						<ele>640</ele>
						<time>2026-05-01T11:56:42Z</time>
					</trkpt>
					<trkpt lat="43.645230" lon="2.391040">
						<ele>638</ele>
						<time>2026-05-01T11:58:00Z</time>
					</trkpt>
					<trkpt lat="43.645380" lon="2.390850">
						<ele>637</ele>
						<time>2026-05-01T11:58:27Z</time>
					</trkpt>
					<trkpt lat="43.645450" lon="2.390640">
						<ele>636</ele>
						<time>2026-05-01T11:58:49Z</time>
					</trkpt>
					<trkpt lat="43.645430" lon="2.390320">
						<ele>634</ele>
						<time>2026-05-01T11:59:21Z</time>
					</trkpt>
					<trkpt lat="43.645500" lon="2.389940">
						<ele>632</ele>
						<time>2026-05-01T11:59:58Z</time>
					</trkpt>
					<trkpt lat="43.645960" lon="2.389010">
						<ele>629</ele>
						<time>2026-05-01T12:01:47Z</time>
					</trkpt>
					<trkpt lat="43.646000" lon="2.388780">
						<ele>628</ele>
						<time>2026-05-01T12:02:10Z</time>
					</trkpt>
					<trkpt lat="43.645950" lon="2.387970">
						<ele>624</ele>
						<time>2026-05-01T12:03:28Z</time>
					</trkpt>
					<trkpt lat="43.645960" lon="2.387800">
						<ele>623</ele>
						<time>2026-05-01T12:03:45Z</time>
					</trkpt>
					<trkpt lat="43.646070" lon="2.387530">
						<ele>623</ele>
						<time>2026-05-01T12:04:15Z</time>
					</trkpt>
					<trkpt lat="43.646160" lon="2.387500">
						<ele>624</ele>
						<time>2026-05-01T12:04:27Z</time>
					</trkpt>
					<trkpt lat="43.646400" lon="2.387510">
						<ele>627</ele>
						<time>2026-05-01T12:04:59Z</time>
					</trkpt>
					<trkpt lat="43.646550" lon="2.387460">
						<ele>628</ele>
						<time>2026-05-01T12:05:20Z</time>
					</trkpt>
					<trkpt lat="43.646780" lon="2.387510">
						<ele>629</ele>
						<time>2026-05-01T12:05:51Z</time>
					</trkpt>
					<trkpt lat="43.647170" lon="2.387930">
						<ele>629</ele>
						<time>2026-05-01T12:06:57Z</time>
					</trkpt>
					<trkpt lat="43.647360" lon="2.388040">
						<ele>629</ele>
						<time>2026-05-01T12:07:24Z</time>
					</trkpt>
					<trkpt lat="43.647450" lon="2.388200">
						<ele>629</ele>
						<time>2026-05-01T12:07:44Z</time>
					</trkpt>
					<trkpt lat="43.647500" lon="2.388230">
						<ele>629</ele>
						<time>2026-05-01T12:07:51Z</time>
					</trkpt>
					<trkpt lat="43.647460" lon="2.388270">
						<ele>630</ele>
						<time>2026-05-01T12:07:58Z</time>
					</trkpt>
					<trkpt lat="43.647500" lon="2.388260">
						<ele>629</ele>
						<time>2026-05-01T12:08:03Z</time>
					</trkpt>
					<trkpt lat="43.647360" lon="2.388350">
						<ele>631</ele>
						<time>2026-05-01T12:08:24Z</time>
					</trkpt>
					<trkpt lat="43.647250" lon="2.388340">
						<ele>632</ele>
						<time>2026-05-01T12:08:39Z</time>
					</trkpt>
					<trkpt lat="43.647040" lon="2.388160">
						<ele>632</ele>
						<time>2026-05-01T12:09:12Z</time>
					</trkpt>
					<trkpt lat="43.646700" lon="2.387790">
						<ele>632</ele>
						<time>2026-05-01T12:10:09Z</time>
					</trkpt>
					<trkpt lat="43.646420" lon="2.387670">
						<ele>628</ele>
						<time>2026-05-01T12:10:48Z</time>
					</trkpt>
					<trkpt lat="43.646240" lon="2.387720">
						<ele>626</ele>
						<time>2026-05-01T12:11:13Z</time>
					</trkpt>
					<trkpt lat="43.646090" lon="2.387730">
						<ele>624</ele>
						<time>2026-05-01T12:11:33Z</time>
					</trkpt>
					<trkpt lat="43.646020" lon="2.387670">
						<ele>623</ele>
						<time>2026-05-01T12:11:44Z</time>
					</trkpt>
					<trkpt lat="43.645920" lon="2.387220">
						<ele>620</ele>
						<time>2026-05-01T12:12:29Z</time>
					</trkpt>
					<trkpt lat="43.645850" lon="2.387070">
						<ele>618</ele>
						<time>2026-05-01T12:12:47Z</time>
					</trkpt>
					<trkpt lat="43.645840" lon="2.386970">
						<ele>618</ele>
						<time>2026-05-01T12:12:56Z</time>
					</trkpt>
					<trkpt lat="43.645810" lon="2.387060">
						<ele>618</ele>
						<time>2026-05-01T12:13:06Z</time>
					</trkpt>
					<trkpt lat="43.645740" lon="2.387150">
						<ele>617</ele>
						<time>2026-05-01T12:13:19Z</time>
					</trkpt>
					<trkpt lat="43.645690" lon="2.387090">
						<ele>616</ele>
						<time>2026-05-01T12:13:28Z</time>
					</trkpt>
					<trkpt lat="43.645710" lon="2.386890">
						<ele>616</ele>
						<time>2026-05-01T12:13:47Z</time>
					</trkpt>
					<trkpt lat="43.645760" lon="2.386810">
						<ele>616</ele>
						<time>2026-05-01T12:13:57Z</time>
					</trkpt>
					<trkpt lat="43.645720" lon="2.386720">
						<ele>615</ele>
						<time>2026-05-01T12:14:07Z</time>
					</trkpt>
					<trkpt lat="43.645700" lon="2.386240">
						<ele>612</ele>
						<time>2026-05-01T12:14:54Z</time>
					</trkpt>
					<trkpt lat="43.645720" lon="2.386000">
						<ele>611</ele>
						<time>2026-05-01T12:15:17Z</time>
					</trkpt>
					<trkpt lat="43.645710" lon="2.385560">
						<ele>611</ele>
						<time>2026-05-01T12:16:00Z</time>
					</trkpt>
					<trkpt lat="43.645750" lon="2.385360">
						<ele>612</ele>
						<time>2026-05-01T12:16:20Z</time>
					</trkpt>
					<trkpt lat="43.645800" lon="2.385280">
						<ele>613</ele>
						<time>2026-05-01T12:16:30Z</time>
					</trkpt>
					<trkpt lat="43.645840" lon="2.385260">
						<ele>613</ele>
						<time>2026-05-01T12:16:36Z</time>
					</trkpt>
					<trkpt lat="43.645910" lon="2.385270">
						<ele>613</ele>
						<time>2026-05-01T12:16:45Z</time>
					</trkpt>
					<trkpt lat="43.646020" lon="2.385420">
						<ele>614</ele>
						<time>2026-05-01T12:17:06Z</time>
					</trkpt>
					<trkpt lat="43.646110" lon="2.385470">
						<ele>614</ele>
						<time>2026-05-01T12:17:19Z</time>
					</trkpt>
					<trkpt lat="43.646750" lon="2.385380">
						<ele>619</ele>
						<time>2026-05-01T12:18:44Z</time>
					</trkpt>
					<trkpt lat="43.647020" lon="2.385450">
						<ele>618</ele>
						<time>2026-05-01T12:19:21Z</time>
					</trkpt>
					<trkpt lat="43.647100" lon="2.385440">
						<ele>617</ele>
						<time>2026-05-01T12:19:32Z</time>
					</trkpt>
					<trkpt lat="43.647500" lon="2.385360">
						<ele>616</ele>
						<time>2026-05-01T12:20:26Z</time>
					</trkpt>
					<trkpt lat="43.647810" lon="2.385150">
						<ele>614</ele>
						<time>2026-05-01T12:21:12Z</time>
					</trkpt>
					<trkpt lat="43.648060" lon="2.385090">
						<ele>612</ele>
						<time>2026-05-01T12:21:46Z</time>
					</trkpt>
					<trkpt lat="43.648130" lon="2.385030">
						<ele>611</ele>
						<time>2026-05-01T12:21:57Z</time>
					</trkpt>
					<trkpt lat="43.648210" lon="2.384890">
						<ele>610</ele>
						<time>2026-05-01T12:22:14Z</time>
					</trkpt>
					<trkpt lat="43.648340" lon="2.384760">
						<ele>609</ele>
						<time>2026-05-01T12:22:35Z</time>
					</trkpt>
					<trkpt lat="43.648500" lon="2.384730">
						<ele>607</ele>
						<time>2026-05-01T12:22:57Z</time>
					</trkpt>
					<trkpt lat="43.648590" lon="2.384840">
						<ele>606</ele>
						<time>2026-05-01T12:23:13Z</time>
					</trkpt>
					<trkpt lat="43.648620" lon="2.384970">
						<ele>606</ele>
						<time>2026-05-01T12:23:26Z</time>
					</trkpt>
					<trkpt lat="43.648520" lon="2.385250">
						<ele>606</ele>
						<time>2026-05-01T12:23:56Z</time>
					</trkpt>
					<trkpt lat="43.648500" lon="2.385350">
						<ele>606</ele>
						<time>2026-05-01T12:24:06Z</time>
					</trkpt>
					<trkpt lat="43.648520" lon="2.385440">
						<ele>606</ele>
						<time>2026-05-01T12:24:15Z</time>
					</trkpt>
					<trkpt lat="43.648480" lon="2.385430">
						<ele>606</ele>
						<time>2026-05-01T12:24:21Z</time>
					</trkpt>
					<trkpt lat="43.648550" lon="2.385490">
						<ele>605</ele>
						<time>2026-05-01T12:24:32Z</time>
					</trkpt>
					<trkpt lat="43.648700" lon="2.385720">
						<ele>604</ele>
						<time>2026-05-01T12:25:02Z</time>
					</trkpt>
					<trkpt lat="43.648910" lon="2.386300">
						<ele>603</ele>
						<time>2026-05-01T12:26:04Z</time>
					</trkpt>
					<trkpt lat="43.649010" lon="2.386500">
						<ele>603</ele>
						<time>2026-05-01T12:26:28Z</time>
					</trkpt>
					<trkpt lat="43.649070" lon="2.386870">
						<ele>604</ele>
						<time>2026-05-01T12:27:04Z</time>
					</trkpt>
					<trkpt lat="43.649210" lon="2.387480">
						<ele>609</ele>
						<time>2026-05-01T12:28:06Z</time>
					</trkpt>
					<trkpt lat="43.649290" lon="2.387590">
						<ele>610</ele>
						<time>2026-05-01T12:28:21Z</time>
					</trkpt>
					<trkpt lat="43.649440" lon="2.387910">
						<ele>613</ele>
						<time>2026-05-01T12:28:58Z</time>
					</trkpt>
					<trkpt lat="43.649520" lon="2.388350">
						<ele>615</ele>
						<time>2026-05-01T12:29:42Z</time>
					</trkpt>
					<trkpt lat="43.649500" lon="2.388620">
						<ele>617</ele>
						<time>2026-05-01T12:30:08Z</time>
					</trkpt>
					<trkpt lat="43.649530" lon="2.389060">
						<ele>621</ele>
						<time>2026-05-01T12:30:51Z</time>
					</trkpt>
					<trkpt lat="43.649510" lon="2.389600">
						<ele>626</ele>
						<time>2026-05-01T12:31:43Z</time>
					</trkpt>
					<trkpt lat="43.649670" lon="2.390090">
						<ele>628</ele>
						<time>2026-05-01T12:32:35Z</time>
					</trkpt>
					<trkpt lat="43.649960" lon="2.390660">
						<ele>628</ele>
						<time>2026-05-01T12:33:42Z</time>
					</trkpt>
					<trkpt lat="43.650000" lon="2.390870">
						<ele>629</ele>
						<time>2026-05-01T12:34:03Z</time>
					</trkpt>
					<trkpt lat="43.650050" lon="2.390960">
						<ele>630</ele>
						<time>2026-05-01T12:34:14Z</time>
					</trkpt>
					<trkpt lat="43.650100" lon="2.391150">
						<ele>631</ele>
						<time>2026-05-01T12:34:34Z</time>
					</trkpt>
					<trkpt lat="43.650430" lon="2.391380">
						<ele>633</ele>
						<time>2026-05-01T12:35:23Z</time>
					</trkpt>
					<trkpt lat="43.650520" lon="2.391510">
						<ele>635</ele>
						<time>2026-05-01T12:35:40Z</time>
					</trkpt>
					<trkpt lat="43.650560" lon="2.391530">
						<ele>635</ele>
						<time>2026-05-01T12:35:46Z</time>
					</trkpt>
					<trkpt lat="43.650610" lon="2.391490">
						<ele>635</ele>
						<time>2026-05-01T12:35:54Z</time>
					</trkpt>
					<trkpt lat="43.650740" lon="2.391310">
						<ele>634</ele>
						<time>2026-05-01T12:36:18Z</time>
					</trkpt>
					<trkpt lat="43.650810" lon="2.391270">
						<ele>634</ele>
						<time>2026-05-01T12:36:28Z</time>
					</trkpt>
					<trkpt lat="43.651100" lon="2.391220">
						<ele>637</ele>
						<time>2026-05-01T12:37:07Z</time>
					</trkpt>
					<trkpt lat="43.651340" lon="2.391260">
						<ele>641</ele>
						<time>2026-05-01T12:37:40Z</time>
					</trkpt>
					<trkpt lat="43.651530" lon="2.391400">
						<ele>645</ele>
						<time>2026-05-01T12:38:08Z</time>
					</trkpt>
					<trkpt lat="43.651570" lon="2.391500">
						<ele>646</ele>
						<time>2026-05-01T12:38:19Z</time>
					</trkpt>
					<trkpt lat="43.651530" lon="2.391760">
						<ele>648</ele>
						<time>2026-05-01T12:38:45Z</time>
					</trkpt>
					<trkpt lat="43.651530" lon="2.392190">
						<ele>651</ele>
						<time>2026-05-01T12:39:27Z</time>
					</trkpt>
					<trkpt lat="43.651460" lon="2.392860">
						<ele>654</ele>
						<time>2026-05-01T12:40:32Z</time>
					</trkpt>
					<trkpt lat="43.651460" lon="2.393110">
						<ele>654</ele>
						<time>2026-05-01T12:40:56Z</time>
					</trkpt>
					<trkpt lat="43.651490" lon="2.393230">
						<ele>655</ele>
						<time>2026-05-01T12:41:08Z</time>
					</trkpt>
					<trkpt lat="43.651690" lon="2.393580">
						<ele>656</ele>
						<time>2026-05-01T12:41:51Z</time>
					</trkpt>
					<trkpt lat="43.651730" lon="2.393750">
						<ele>656</ele>
						<time>2026-05-01T12:42:09Z</time>
					</trkpt>
					<trkpt lat="43.651730" lon="2.393870">
						<ele>656</ele>
						<time>2026-05-01T12:42:20Z</time>
					</trkpt>
					<trkpt lat="43.651840" lon="2.394200">
						<ele>655</ele>
						<time>2026-05-01T12:42:55Z</time>
					</trkpt>
					<trkpt lat="43.651870" lon="2.394490">
						<ele>655</ele>
						<time>2026-05-01T12:43:24Z</time>
					</trkpt>
					<trkpt lat="43.651900" lon="2.394530">
						<ele>654</ele>
						<time>2026-05-01T12:43:29Z</time>
					</trkpt>
					<trkpt lat="43.652000" lon="2.394970">
						<ele>653</ele>
						<time>2026-05-01T12:44:14Z</time>
					</trkpt>
					<trkpt lat="43.652110" lon="2.395110">
						<ele>653</ele>
						<time>2026-05-01T12:44:34Z</time>
					</trkpt>
					<trkpt lat="43.652220" lon="2.395180">
						<ele>653</ele>
						<time>2026-05-01T12:44:50Z</time>
					</trkpt>
					<trkpt lat="43.652530" lon="2.395220">
						<ele>652</ele>
						<time>2026-05-01T12:45:31Z</time>
					</trkpt>
					<trkpt lat="43.652730" lon="2.395340">
						<ele>652</ele>
						<time>2026-05-01T12:46:00Z</time>
					</trkpt>
					<trkpt lat="43.652860" lon="2.395490">
						<ele>652</ele>
						<time>2026-05-01T12:46:23Z</time>
					</trkpt>
					<trkpt lat="43.653050" lon="2.395900">
						<ele>654</ele>
						<time>2026-05-01T12:47:10Z</time>
					</trkpt>
					<trkpt lat="43.653100" lon="2.396170">
						<ele>655</ele>
						<time>2026-05-01T12:47:37Z</time>
					</trkpt>
					<trkpt lat="43.653230" lon="2.396550">
						<ele>656</ele>
						<time>2026-05-01T12:48:18Z</time>
					</trkpt>
					<trkpt lat="43.653300" lon="2.397010">
						<ele>658</ele>
						<time>2026-05-01T12:49:03Z</time>
					</trkpt>
					<trkpt lat="43.653300" lon="2.397610">
						<ele>660</ele>
						<time>2026-05-01T12:50:01Z</time>
					</trkpt>
					<trkpt lat="43.653530" lon="2.397750">
						<ele>661</ele>
						<time>2026-05-01T12:50:34Z</time>
					</trkpt>
					<trkpt lat="43.653620" lon="2.397840">
						<ele>662</ele>
						<time>2026-05-01T12:50:49Z</time>
					</trkpt>
					<trkpt lat="43.653730" lon="2.398030">
						<ele>663</ele>
						<time>2026-05-01T12:51:13Z</time>
					</trkpt>
					<trkpt lat="43.653860" lon="2.398100">
						<ele>664</ele>
						<time>2026-05-01T12:51:31Z</time>
					</trkpt>
					<trkpt lat="43.654030" lon="2.398350">
						<ele>666</ele>
						<time>2026-05-01T12:52:04Z</time>
					</trkpt>
					<trkpt lat="43.654360" lon="2.398610">
						<ele>668</ele>
						<time>2026-05-01T12:52:55Z</time>
					</trkpt>
					<trkpt lat="43.654510" lon="2.398660">
						<ele>668</ele>
						<time>2026-05-01T12:53:16Z</time>
					</trkpt>
					<trkpt lat="43.654610" lon="2.398780">
						<ele>669</ele>
						<time>2026-05-01T12:53:33Z</time>
					</trkpt>
					<trkpt lat="43.654750" lon="2.398580">
						<ele>668</ele>
						<time>2026-05-01T12:54:00Z</time>
					</trkpt>
					<trkpt lat="43.654970" lon="2.398420">
						<ele>668</ele>
						<time>2026-05-01T12:54:33Z</time>
					</trkpt>
					<trkpt lat="43.655300" lon="2.398350">
						<ele>666</ele>
						<time>2026-05-01T12:55:18Z</time>
					</trkpt>
					<trkpt lat="43.655670" lon="2.398380">
						<ele>666</ele>
						<time>2026-05-01T12:56:07Z</time>
					</trkpt>
					<trkpt lat="43.655830" lon="2.398430">
						<ele>666</ele>
						<time>2026-05-01T12:56:29Z</time>
					</trkpt>
					<trkpt lat="43.656350" lon="2.398950">
						<ele>664</ele>
						<time>2026-05-01T12:57:55Z</time>
					</trkpt>
					<trkpt lat="43.656490" lon="2.399120">
						<ele>663</ele>
						<time>2026-05-01T12:58:20Z</time>
					</trkpt>
					<trkpt lat="43.656660" lon="2.399190">
						<ele>661</ele>
						<time>2026-05-01T12:58:44Z</time>
					</trkpt>
					<trkpt lat="43.656770" lon="2.399200">
						<ele>661</ele>
						<time>2026-05-01T12:58:58Z</time>
					</trkpt>
					<trkpt lat="43.656860" lon="2.399180">
						<ele>661</ele>
						<time>2026-05-01T12:59:10Z</time>
					</trkpt>
					<trkpt lat="43.657200" lon="2.399000">
						<ele>661</ele>
						<time>2026-05-01T12:59:59Z</time>
					</trkpt>
					<trkpt lat="43.657290" lon="2.399000">
						<ele>661</ele>
						<time>2026-05-01T13:00:11Z</time>
					</trkpt>
					<trkpt lat="43.657380" lon="2.399050">
						<ele>661</ele>
						<time>2026-05-01T13:00:24Z</time>
					</trkpt>
					<trkpt lat="43.657560" lon="2.399090">
						<ele>663</ele>
						<time>2026-05-01T13:00:48Z</time>
					</trkpt>
					<trkpt lat="43.657790" lon="2.398980">
						<ele>665</ele>
						<time>2026-05-01T13:01:21Z</time>
					</trkpt>
					<trkpt lat="43.657940" lon="2.398850">
						<ele>667</ele>
						<time>2026-05-01T13:01:44Z</time>
					</trkpt>
					<trkpt lat="43.658050" lon="2.398650">
						<ele>669</ele>
						<time>2026-05-01T13:02:09Z</time>
					</trkpt>
					<trkpt lat="43.658230" lon="2.398410">
						<ele>671</ele>
						<time>2026-05-01T13:02:42Z</time>
					</trkpt>
					<trkpt lat="43.658330" lon="2.398330">
						<ele>673</ele>
						<time>2026-05-01T13:02:57Z</time>
					</trkpt>
					<trkpt lat="43.658430" lon="2.398390">
						<ele>672</ele>
						<time>2026-05-01T13:03:12Z</time>
					</trkpt>
					<trkpt lat="43.658460" lon="2.398350">
						<ele>672</ele>
						<time>2026-05-01T13:03:18Z</time>
					</trkpt>
					<trkpt lat="43.658470" lon="2.398270">
						<ele>672</ele>
						<time>2026-05-01T13:03:25Z</time>
					</trkpt>
					<trkpt lat="43.658400" lon="2.398190">
						<ele>673</ele>
						<time>2026-05-01T13:03:38Z</time>
					</trkpt>
					<trkpt lat="43.658340" lon="2.397910">
						<ele>673</ele>
						<time>2026-05-01T13:04:06Z</time>
					</trkpt>
					<trkpt lat="43.658210" lon="2.397670">
						<ele>672</ele>
						<time>2026-05-01T13:04:35Z</time>
					</trkpt>
					<trkpt lat="43.658120" lon="2.397400">
						<ele>671</ele>
						<time>2026-05-01T13:05:03Z</time>
					</trkpt>
					<trkpt lat="43.658080" lon="2.397100">
						<ele>671</ele>
						<time>2026-05-01T13:05:33Z</time>
					</trkpt>
					<trkpt lat="43.658080" lon="2.396840">
						<ele>672</ele>
						<time>2026-05-01T13:05:58Z</time>
					</trkpt>
					<trkpt lat="43.658160" lon="2.396280">
						<ele>671</ele>
						<time>2026-05-01T13:06:53Z</time>
					</trkpt>
					<trkpt lat="43.658300" lon="2.395870">
						<ele>670</ele>
						<time>2026-05-01T13:07:37Z</time>
					</trkpt>
					<trkpt lat="43.658310" lon="2.395720">
						<ele>669</ele>
						<time>2026-05-01T13:07:51Z</time>
					</trkpt>
					<trkpt lat="43.658490" lon="2.395230">
						<ele>669</ele>
						<time>2026-05-01T13:08:44Z</time>
					</trkpt>
					<trkpt lat="43.658630" lon="2.395000">
						<ele>669</ele>
						<time>2026-05-01T13:09:13Z</time>
					</trkpt>
					<trkpt lat="43.658680" lon="2.394330">
						<ele>669</ele>
						<time>2026-05-01T13:10:18Z</time>
					</trkpt>
					<trkpt lat="43.658790" lon="2.393940">
						<ele>669</ele>
						<time>2026-05-01T13:10:59Z</time>
					</trkpt>
					<trkpt lat="43.658890" lon="2.393790">
						<ele>670</ele>
						<time>2026-05-01T13:11:19Z</time>
					</trkpt>
					<trkpt lat="43.658950" lon="2.393320">
						<ele>671</ele>
						<time>2026-05-01T13:12:05Z</time>
					</trkpt>
					<trkpt lat="43.659020" lon="2.393050">
						<ele>671</ele>
						<time>2026-05-01T13:12:32Z</time>
					</trkpt>
					<trkpt lat="43.659000" lon="2.392880">
						<ele>671</ele>
						<time>2026-05-01T13:12:49Z</time>
					</trkpt>
					<trkpt lat="43.658910" lon="2.392690">
						<ele>671</ele>
						<time>2026-05-01T13:13:11Z</time>
					</trkpt>
					<trkpt lat="43.658870" lon="2.392520">
						<ele>671</ele>
						<time>2026-05-01T13:13:28Z</time>
					</trkpt>
					<trkpt lat="43.658870" lon="2.392330">
						<ele>671</ele>
						<time>2026-05-01T13:13:46Z</time>
					</trkpt>
					<trkpt lat="43.658800" lon="2.391980">
						<ele>671</ele>
						<time>2026-05-01T13:14:22Z</time>
					</trkpt>
					<trkpt lat="43.658800" lon="2.391600">
						<ele>671</ele>
						<time>2026-05-01T13:14:58Z</time>
					</trkpt>
					<trkpt lat="43.658960" lon="2.391370">
						<ele>672</ele>
						<time>2026-05-01T13:15:29Z</time>
					</trkpt>
					<trkpt lat="43.659160" lon="2.390780">
						<ele>675</ele>
						<time>2026-05-01T13:16:32Z</time>
					</trkpt>
					<trkpt lat="43.659160" lon="2.390520">
						<ele>676</ele>
						<time>2026-05-01T13:16:57Z</time>
					</trkpt>
					<trkpt lat="43.659220" lon="2.389870">
						<ele>676</ele>
						<time>2026-05-01T13:18:00Z</time>
					</trkpt>
					<trkpt lat="43.659450" lon="2.389430">
						<ele>674</ele>
						<time>2026-05-01T13:18:53Z</time>
					</trkpt>
					<trkpt lat="43.659380" lon="2.388910">
						<ele>673</ele>
						<time>2026-05-01T13:19:44Z</time>
					</trkpt>
					<trkpt lat="43.659360" lon="2.388560">
						<ele>671</ele>
						<time>2026-05-01T13:20:18Z</time>
					</trkpt>
					<trkpt lat="43.659250" lon="2.388030">
						<ele>669</ele>
						<time>2026-05-01T13:21:11Z</time>
					</trkpt>
					<trkpt lat="43.659150" lon="2.386990">
						<ele>663</ele>
						<time>2026-05-01T13:22:52Z</time>
					</trkpt>
					<trkpt lat="43.659080" lon="2.386690">
						<ele>660</ele>
						<time>2026-05-01T13:23:23Z</time>
					</trkpt>
					<trkpt lat="43.658700" lon="2.385530">
						<ele>651</ele>
						<time>2026-05-01T13:25:26Z</time>
					</trkpt>
					<trkpt lat="43.658390" lon="2.384830">
						<ele>648</ele>
						<time>2026-05-01T13:26:45Z</time>
					</trkpt>
					<trkpt lat="43.658270" lon="2.384390">
						<ele>647</ele>
						<time>2026-05-01T13:27:30Z</time>
					</trkpt>
					<trkpt lat="43.658310" lon="2.383990">
						<ele>647</ele>
						<time>2026-05-01T13:28:09Z</time>
					</trkpt>
					<trkpt lat="43.658300" lon="2.383890">
						<ele>647</ele>
						<time>2026-05-01T13:28:19Z</time>
					</trkpt>
					<trkpt lat="43.658410" lon="2.383280">
						<ele>646</ele>
						<time>2026-05-01T13:29:20Z</time>
					</trkpt>
					<trkpt lat="43.658380" lon="2.382980">
						<ele>646</ele>
						<time>2026-05-01T13:29:49Z</time>
					</trkpt>
					<trkpt lat="43.658410" lon="2.382450">
						<ele>645</ele>
						<time>2026-05-01T13:30:40Z</time>
					</trkpt>
					<trkpt lat="43.658450" lon="2.382290">
						<ele>644</ele>
						<time>2026-05-01T13:30:56Z</time>
					</trkpt>
					<trkpt lat="43.658570" lon="2.382100">
						<ele>641</ele>
						<time>2026-05-01T13:31:21Z</time>
					</trkpt>
					<trkpt lat="43.658620" lon="2.381870">
						<ele>640</ele>
						<time>2026-05-01T13:31:44Z</time>
					</trkpt>
					<trkpt lat="43.658570" lon="2.381280">
						<ele>638</ele>
						<time>2026-05-01T13:32:41Z</time>
					</trkpt>
					<trkpt lat="43.658610" lon="2.381010">
						<ele>635</ele>
						<time>2026-05-01T13:33:08Z</time>
					</trkpt>
					<trkpt lat="43.658630" lon="2.380600">
						<ele>632</ele>
						<time>2026-05-01T13:33:48Z</time>
					</trkpt>
					<trkpt lat="43.658900" lon="2.380410">
						<ele>629</ele>
						<time>2026-05-01T13:34:28Z</time>
					</trkpt>
					<trkpt lat="43.659150" lon="2.380070">
						<ele>628</ele>
						<time>2026-05-01T13:35:15Z</time>
					</trkpt>
					<trkpt lat="43.659400" lon="2.379420">
						<ele>621</ele>
						<time>2026-05-01T13:36:26Z</time>
					</trkpt>
					<trkpt lat="43.659500" lon="2.378990">
						<ele>618</ele>
						<time>2026-05-01T13:37:10Z</time>
					</trkpt>
					<trkpt lat="43.659590" lon="2.378850">
						<ele>616</ele>
						<time>2026-05-01T13:37:28Z</time>
					</trkpt>
					<trkpt lat="43.659670" lon="2.378180">
						<ele>615</ele>
						<time>2026-05-01T13:38:33Z</time>
					</trkpt>
					<trkpt lat="43.659800" lon="2.377870">
						<ele>613</ele>
						<time>2026-05-01T13:39:08Z</time>
					</trkpt>
					<trkpt lat="43.659820" lon="2.377730">
						<ele>613</ele>
						<time>2026-05-01T13:39:22Z</time>
					</trkpt>
					<trkpt lat="43.659830" lon="2.377440">
						<ele>611</ele>
						<time>2026-05-01T13:39:50Z</time>
					</trkpt>
					<trkpt lat="43.659900" lon="2.376920">
						<ele>607</ele>
						<time>2026-05-01T13:40:41Z</time>
					</trkpt>
					<trkpt lat="43.659880" lon="2.376500">
						<ele>604</ele>
						<time>2026-05-01T13:41:21Z</time>
					</trkpt>
					<trkpt lat="43.659920" lon="2.376380">
						<ele>604</ele>
						<time>2026-05-01T13:41:34Z</time>
					</trkpt>
					<trkpt lat="43.659920" lon="2.376140">
						<ele>604</ele>
						<time>2026-05-01T13:41:57Z</time>
					</trkpt>
					<trkpt lat="43.660010" lon="2.375840">
						<ele>604</ele>
						<time>2026-05-01T13:42:29Z</time>
					</trkpt>
					<trkpt lat="43.660030" lon="2.375540">
						<ele>604</ele>
						<time>2026-05-01T13:42:58Z</time>
					</trkpt>
					<trkpt lat="43.660090" lon="2.375230">
						<ele>604</ele>
						<time>2026-05-01T13:43:29Z</time>
					</trkpt>
					<trkpt lat="43.660170" lon="2.375130">
						<ele>604</ele>
						<time>2026-05-01T13:43:43Z</time>
					</trkpt>
					<trkpt lat="43.660300" lon="2.375060">
						<ele>605</ele>
						<time>2026-05-01T13:44:02Z</time>
					</trkpt>
					<trkpt lat="43.660460" lon="2.374920">
						<ele>606</ele>
						<time>2026-05-01T13:44:27Z</time>
					</trkpt>
					<trkpt lat="43.660670" lon="2.374790">
						<ele>608</ele>
						<time>2026-05-01T13:44:58Z</time>
					</trkpt>
					<trkpt lat="43.660910" lon="2.374580">
						<ele>610</ele>
						<time>2026-05-01T13:45:36Z</time>
					</trkpt>
					<trkpt lat="43.661200" lon="2.374150">
						<ele>611</ele>
						<time>2026-05-01T13:46:32Z</time>
					</trkpt>
					<trkpt lat="43.661360" lon="2.373760">
						<ele>609</ele>
						<time>2026-05-01T13:47:16Z</time>
					</trkpt>
					<trkpt lat="43.661670" lon="2.373470">
						<ele>607</ele>
						<time>2026-05-01T13:48:06Z</time>
					</trkpt>
					<trkpt lat="43.661990" lon="2.373120">
						<ele>603</ele>
						<time>2026-05-01T13:49:00Z</time>
					</trkpt>
					<trkpt lat="43.662090" lon="2.372950">
						<ele>601</ele>
						<time>2026-05-01T13:49:21Z</time>
					</trkpt>
					<trkpt lat="43.662380" lon="2.372620">
						<ele>599</ele>
						<time>2026-05-01T13:50:11Z</time>
					</trkpt>
					<trkpt lat="43.662610" lon="2.372220">
						<ele>596</ele>
						<time>2026-05-01T13:51:01Z</time>
					</trkpt>
					<trkpt lat="43.662680" lon="2.372140">
						<ele>596</ele>
						<time>2026-05-01T13:51:13Z</time>
					</trkpt>
					<trkpt lat="43.662800" lon="2.372120">
						<ele>595</ele>
						<time>2026-05-01T13:51:29Z</time>
					</trkpt>
					<trkpt lat="43.662840" lon="2.371890">
						<ele>595</ele>
						<time>2026-05-01T13:51:52Z</time>
					</trkpt>
					<trkpt lat="43.662830" lon="2.371570">
						<ele>594</ele>
						<time>2026-05-01T13:52:23Z</time>
					</trkpt>
					<trkpt lat="43.662860" lon="2.371270">
						<ele>595</ele>
						<time>2026-05-01T13:52:52Z</time>
					</trkpt>
					<trkpt lat="43.662770" lon="2.370750">
						<ele>595</ele>
						<time>2026-05-01T13:53:43Z</time>
					</trkpt>
					<trkpt lat="43.662650" lon="2.370320">
						<ele>593</ele>
						<time>2026-05-01T13:54:28Z</time>
					</trkpt>
					<trkpt lat="43.662630" lon="2.370110">
						<ele>593</ele>
						<time>2026-05-01T13:54:48Z</time>
					</trkpt>
					<trkpt lat="43.662500" lon="2.369950">
						<ele>591</ele>
						<time>2026-05-01T13:55:12Z</time>
					</trkpt>
					<trkpt lat="43.662430" lon="2.369960">
						<ele>591</ele>
						<time>2026-05-01T13:55:21Z</time>
					</trkpt>
					<trkpt lat="43.662420" lon="2.369900">
						<ele>591</ele>
						<time>2026-05-01T13:55:27Z</time>
					</trkpt>
					<trkpt lat="43.662430" lon="2.369960">
						<ele>591</ele>
						<time>2026-05-01T13:55:33Z</time>
					</trkpt>
					<trkpt lat="43.662360" lon="2.369920">
						<ele>590</ele>
						<time>2026-05-01T13:55:43Z</time>
					</trkpt>
					<trkpt lat="43.662340" lon="2.369870">
						<ele>590</ele>
						<time>2026-05-01T13:55:49Z</time>
					</trkpt>
					<trkpt lat="43.662400" lon="2.369880">
						<ele>591</ele>
						<time>2026-05-01T13:55:57Z</time>
					</trkpt>
					<trkpt lat="43.662410" lon="2.369980">
						<ele>590</ele>
						<time>2026-05-01T13:56:06Z</time>
					</trkpt>
					<trkpt lat="43.662360" lon="2.370090">
						<ele>590</ele>
						<time>2026-05-01T13:56:19Z</time>
					</trkpt>
					<trkpt lat="43.662240" lon="2.369960">
						<ele>589</ele>
						<time>2026-05-01T13:56:39Z</time>
					</trkpt>
					<trkpt lat="43.662100" lon="2.369960">
						<ele>588</ele>
						<time>2026-05-01T13:56:58Z</time>
					</trkpt>
					<trkpt lat="43.662050" lon="2.369880">
						<ele>588</ele>
						<time>2026-05-01T13:57:08Z</time>
					</trkpt>
					<trkpt lat="43.662000" lon="2.369700">
						<ele>588</ele>
						<time>2026-05-01T13:57:27Z</time>
					</trkpt>
					<trkpt lat="43.662080" lon="2.369680">
						<ele>588</ele>
						<time>2026-05-01T13:57:38Z</time>
					</trkpt>
					<trkpt lat="43.662030" lon="2.369740">
						<ele>588</ele>
						<time>2026-05-01T13:57:46Z</time>
					</trkpt>
					<trkpt lat="43.662010" lon="2.369670">
						<ele>588</ele>
						<time>2026-05-01T13:57:54Z</time>
					</trkpt>
					<trkpt lat="43.662100" lon="2.369660">
						<ele>589</ele>
						<time>2026-05-01T13:58:06Z</time>
					</trkpt>
					<trkpt lat="43.662080" lon="2.369660">
						<ele>588</ele>
						<time>2026-05-01T13:58:08Z</time>
					</trkpt>
					<trkpt lat="43.662070" lon="2.369700">
						<ele>588</ele>
						<time>2026-05-01T13:58:12Z</time>
					</trkpt>
					<trkpt lat="43.662120" lon="2.369640">
						<ele>589</ele>
						<time>2026-05-01T13:58:21Z</time>
					</trkpt>
					<trkpt lat="43.662110" lon="2.369610">
						<ele>589</ele>
						<time>2026-05-01T13:58:25Z</time>
					</trkpt>
					<trkpt lat="43.662160" lon="2.369770">
						<ele>589</ele>
						<time>2026-05-01T13:58:41Z</time>
					</trkpt>
					<trkpt lat="43.662220" lon="2.369720">
						<ele>590</ele>
						<time>2026-05-01T13:58:51Z</time>
					</trkpt>
					<trkpt lat="43.662530" lon="2.369820">
						<ele>592</ele>
						<time>2026-05-01T13:59:33Z</time>
					</trkpt>
					<trkpt lat="43.662640" lon="2.369900">
						<ele>593</ele>
						<time>2026-05-01T13:59:50Z</time>
					</trkpt>
					<trkpt lat="43.662780" lon="2.370170">
						<ele>595</ele>
						<time>2026-05-01T14:00:22Z</time>
					</trkpt>
					<trkpt lat="43.662940" lon="2.370620">
						<ele>597</ele>
						<time>2026-05-01T14:01:10Z</time>
					</trkpt>
					<trkpt lat="43.662930" lon="2.370780">
						<ele>597</ele>
						<time>2026-05-01T14:01:26Z</time>
					</trkpt>
					<trkpt lat="43.662980" lon="2.371140">
						<ele>596</ele>
						<time>2026-05-01T14:02:01Z</time>
					</trkpt>
					<trkpt lat="43.663030" lon="2.371330">
						<ele>596</ele>
						<time>2026-05-01T14:02:21Z</time>
					</trkpt>
					<trkpt lat="43.663130" lon="2.371530">
						<ele>596</ele>
						<time>2026-05-01T14:02:44Z</time>
					</trkpt>
					<trkpt lat="43.663210" lon="2.371840">
						<ele>595</ele>
						<time>2026-05-01T14:03:16Z</time>
					</trkpt>
					<trkpt lat="43.663250" lon="2.372220">
						<ele>595</ele>
						<time>2026-05-01T14:03:53Z</time>
					</trkpt>
					<trkpt lat="43.663240" lon="2.372730">
						<ele>594</ele>
						<time>2026-05-01T14:04:42Z</time>
					</trkpt>
					<trkpt lat="43.663300" lon="2.373680">
						<ele>592</ele>
						<time>2026-05-01T14:06:14Z</time>
					</trkpt>
					<trkpt lat="43.663450" lon="2.374150">
						<ele>588</ele>
						<time>2026-05-01T14:07:04Z</time>
					</trkpt>
					<trkpt lat="43.663430" lon="2.374310">
						<ele>587</ele>
						<time>2026-05-01T14:07:20Z</time>
					</trkpt>
					<trkpt lat="43.663120" lon="2.375250">
						<ele>585</ele>
						<time>2026-05-01T14:08:59Z</time>
					</trkpt>
					<trkpt lat="43.663100" lon="2.375570">
						<ele>582</ele>
						<time>2026-05-01T14:09:30Z</time>
					</trkpt>
					<trkpt lat="43.662830" lon="2.376400">
						<ele>581</ele>
						<time>2026-05-01T14:10:58Z</time>
					</trkpt>
					<trkpt lat="43.662580" lon="2.376860">
						<ele>583</ele>
						<time>2026-05-01T14:11:54Z</time>
					</trkpt>
					<trkpt lat="43.662540" lon="2.376990">
						<ele>583</ele>
						<time>2026-05-01T14:12:07Z</time>
					</trkpt>
					<trkpt lat="43.662540" lon="2.377110">
						<ele>583</ele>
						<time>2026-05-01T14:12:19Z</time>
					</trkpt>
					<trkpt lat="43.662570" lon="2.377210">
						<ele>584</ele>
						<time>2026-05-01T14:12:29Z</time>
					</trkpt>
					<trkpt lat="43.662640" lon="2.377230">
						<ele>584</ele>
						<time>2026-05-01T14:12:39Z</time>
					</trkpt>
					<trkpt lat="43.662830" lon="2.377150">
						<ele>583</ele>
						<time>2026-05-01T14:13:05Z</time>
					</trkpt>
					<trkpt lat="43.663090" lon="2.377170">
						<ele>583</ele>
						<time>2026-05-01T14:13:40Z</time>
					</trkpt>
					<trkpt lat="43.663360" lon="2.377250">
						<ele>584</ele>
						<time>2026-05-01T14:14:17Z</time>
					</trkpt>
					<trkpt lat="43.663480" lon="2.377340">
						<ele>584</ele>
						<time>2026-05-01T14:14:35Z</time>
					</trkpt>
					<trkpt lat="43.663610" lon="2.377620">
						<ele>587</ele>
						<time>2026-05-01T14:15:07Z</time>
					</trkpt>
					<trkpt lat="43.663680" lon="2.378040">
						<ele>590</ele>
						<time>2026-05-01T14:15:49Z</time>
					</trkpt>
					<trkpt lat="43.663910" lon="2.378700">
						<ele>592</ele>
						<time>2026-05-01T14:17:00Z</time>
					</trkpt>
					<trkpt lat="43.663940" lon="2.378950">
						<ele>593</ele>
						<time>2026-05-01T14:17:24Z</time>
					</trkpt>
					<trkpt lat="43.664060" lon="2.379210">
						<ele>593</ele>
						<time>2026-05-01T14:17:54Z</time>
					</trkpt>
					<trkpt lat="43.664170" lon="2.379380">
						<ele>594</ele>
						<time>2026-05-01T14:18:16Z</time>
					</trkpt>
					<trkpt lat="43.664310" lon="2.379730">
						<ele>596</ele>
						<time>2026-05-01T14:18:54Z</time>
					</trkpt>
					<trkpt lat="43.664440" lon="2.379930">
						<ele>595</ele>
						<time>2026-05-01T14:19:20Z</time>
					</trkpt>
					<trkpt lat="43.664580" lon="2.380080">
						<ele>594</ele>
						<time>2026-05-01T14:19:44Z</time>
					</trkpt>
					<trkpt lat="43.664720" lon="2.380380">
						<ele>594</ele>
						<time>2026-05-01T14:20:19Z</time>
					</trkpt>
					<trkpt lat="43.664760" lon="2.380810">
						<ele>598</ele>
						<time>2026-05-01T14:21:00Z</time>
					</trkpt>
					<trkpt lat="43.664810" lon="2.380980">
						<ele>598</ele>
						<time>2026-05-01T14:21:18Z</time>
					</trkpt>
					<trkpt lat="43.664880" lon="2.381590">
						<ele>601</ele>
						<time>2026-05-01T14:22:18Z</time>
					</trkpt>
					<trkpt lat="43.664920" lon="2.381720">
						<ele>602</ele>
						<time>2026-05-01T14:22:31Z</time>
					</trkpt>
					<trkpt lat="43.665040" lon="2.381870">
						<ele>603</ele>
						<time>2026-05-01T14:22:53Z</time>
					</trkpt>
					<trkpt lat="43.665170" lon="2.381850">
						<ele>602</ele>
						<time>2026-05-01T14:23:10Z</time>
					</trkpt>
					<trkpt lat="43.665320" lon="2.381870">
						<ele>602</ele>
						<time>2026-05-01T14:23:31Z</time>
					</trkpt>
					<trkpt lat="43.665570" lon="2.382010">
						<ele>603</ele>
						<time>2026-05-01T14:24:07Z</time>
					</trkpt>
					<trkpt lat="43.665910" lon="2.382360">
						<ele>605</ele>
						<time>2026-05-01T14:25:03Z</time>
					</trkpt>
					<trkpt lat="43.666060" lon="2.382560">
						<ele>604</ele>
						<time>2026-05-01T14:25:31Z</time>
					</trkpt>
					<trkpt lat="43.666220" lon="2.382850">
						<ele>604</ele>
						<time>2026-05-01T14:26:06Z</time>
					</trkpt>
					<trkpt lat="43.666500" lon="2.382980">
						<ele>600</ele>
						<time>2026-05-01T14:26:46Z</time>
					</trkpt>
					<trkpt lat="43.666630" lon="2.383090">
						<ele>599</ele>
						<time>2026-05-01T14:27:06Z</time>
					</trkpt>
					<trkpt lat="43.666860" lon="2.383180">
						<ele>598</ele>
						<time>2026-05-01T14:27:38Z</time>
					</trkpt>
					<trkpt lat="43.666940" lon="2.383240">
						<ele>599</ele>
						<time>2026-05-01T14:27:50Z</time>
					</trkpt>
					<trkpt lat="43.667020" lon="2.383240">
						<ele>599</ele>
						<time>2026-05-01T14:28:01Z</time>
					</trkpt>
					<trkpt lat="43.667690" lon="2.383060">
						<ele>595</ele>
						<time>2026-05-01T14:29:32Z</time>
					</trkpt>
					<trkpt lat="43.667950" lon="2.383080">
						<ele>594</ele>
						<time>2026-05-01T14:30:06Z</time>
					</trkpt>
					<trkpt lat="43.668140" lon="2.383050">
						<ele>593</ele>
						<time>2026-05-01T14:30:32Z</time>
					</trkpt>
					<trkpt lat="43.668350" lon="2.383060">
						<ele>592</ele>
						<time>2026-05-01T14:31:00Z</time>
					</trkpt>
					<trkpt lat="43.668540" lon="2.383020">
						<ele>589</ele>
						<time>2026-05-01T14:31:26Z</time>
					</trkpt>
					<trkpt lat="43.668710" lon="2.382930">
						<ele>585</ele>
						<time>2026-05-01T14:31:50Z</time>
					</trkpt>
					<trkpt lat="43.669160" lon="2.382820">
						<ele>578</ele>
						<time>2026-05-01T14:32:51Z</time>
					</trkpt>
					<trkpt lat="43.669400" lon="2.382830">
						<ele>573</ele>
						<time>2026-05-01T14:33:23Z</time>
					</trkpt>
					<trkpt lat="43.669590" lon="2.382750">
						<ele>567</ele>
						<time>2026-05-01T14:33:49Z</time>
					</trkpt>
					<trkpt lat="43.669750" lon="2.382810">
						<ele>565</ele>
						<time>2026-05-01T14:34:12Z</time>
					</trkpt>
					<trkpt lat="43.669730" lon="2.382760">
						<ele>564</ele>
						<time>2026-05-01T14:34:17Z</time>
					</trkpt>
					<trkpt lat="43.669730" lon="2.382870">
						<ele>567</ele>
						<time>2026-05-01T14:34:28Z</time>
					</trkpt>
					<trkpt lat="43.670470" lon="2.383490">
						<ele>559</ele>
						<time>2026-05-01T14:36:23Z</time>
					</trkpt>
					<trkpt lat="43.670530" lon="2.383590">
						<ele>558</ele>
						<time>2026-05-01T14:36:36Z</time>
					</trkpt>
					<trkpt lat="43.670560" lon="2.383700">
						<ele>559</ele>
						<time>2026-05-01T14:36:47Z</time>
					</trkpt>
					<trkpt lat="43.670650" lon="2.383870">
						<ele>557</ele>
						<time>2026-05-01T14:37:07Z</time>
					</trkpt>
					<trkpt lat="43.670670" lon="2.384160">
						<ele>560</ele>
						<time>2026-05-01T14:37:36Z</time>
					</trkpt>
					<trkpt lat="43.670790" lon="2.384460">
						<ele>557</ele>
						<time>2026-05-01T14:38:09Z</time>
					</trkpt>
					<trkpt lat="43.670960" lon="2.384730">
						<ele>555</ele>
						<time>2026-05-01T14:38:43Z</time>
					</trkpt>
					<trkpt lat="43.671000" lon="2.384860">
						<ele>556</ele>
						<time>2026-05-01T14:38:57Z</time>
					</trkpt>
					<trkpt lat="43.670990" lon="2.385170">
						<ele>560</ele>
						<time>2026-05-01T14:39:27Z</time>
					</trkpt>
					<trkpt lat="43.671000" lon="2.385300">
						<ele>562</ele>
						<time>2026-05-01T14:39:39Z</time>
					</trkpt>
					<trkpt lat="43.671040" lon="2.385410">
						<ele>564</ele>
						<time>2026-05-01T14:39:51Z</time>
					</trkpt>
					<trkpt lat="43.671130" lon="2.385470">
						<ele>563</ele>
						<time>2026-05-01T14:40:05Z</time>
					</trkpt>
					<trkpt lat="43.671310" lon="2.385470">
						<ele>560</ele>
						<time>2026-05-01T14:40:29Z</time>
					</trkpt>
					<trkpt lat="43.671430" lon="2.385360">
						<ele>556</ele>
						<time>2026-05-01T14:40:48Z</time>
					</trkpt>
					<trkpt lat="43.671550" lon="2.385180">
						<ele>551</ele>
						<time>2026-05-01T14:41:11Z</time>
					</trkpt>
					<trkpt lat="43.671810" lon="2.384910">
						<ele>543</ele>
						<time>2026-05-01T14:41:55Z</time>
					</trkpt>
					<trkpt lat="43.672030" lon="2.384810">
						<ele>540</ele>
						<time>2026-05-01T14:42:26Z</time>
					</trkpt>
					<trkpt lat="43.672090" lon="2.384830">
						<ele>539</ele>
						<time>2026-05-01T14:42:34Z</time>
					</trkpt>
					<trkpt lat="43.672120" lon="2.384890">
						<ele>539</ele>
						<time>2026-05-01T14:42:41Z</time>
					</trkpt>
					<trkpt lat="43.672140" lon="2.385030">
						<ele>539</ele>
						<time>2026-05-01T14:42:55Z</time>
					</trkpt>
					<trkpt lat="43.672030" lon="2.385290">
						<ele>542</ele>
						<time>2026-05-01T14:43:24Z</time>
					</trkpt>
					<trkpt lat="43.671920" lon="2.385480">
						<ele>546</ele>
						<time>2026-05-01T14:43:47Z</time>
					</trkpt>
					<trkpt lat="43.671720" lon="2.385740">
						<ele>556</ele>
						<time>2026-05-01T14:44:24Z</time>
					</trkpt>
					<trkpt lat="43.671630" lon="2.385770">
						<ele>559</ele>
						<time>2026-05-01T14:44:36Z</time>
					</trkpt>
					<trkpt lat="43.671560" lon="2.385830">
						<ele>561</ele>
						<time>2026-05-01T14:44:47Z</time>
					</trkpt>
					<trkpt lat="43.671440" lon="2.386180">
						<ele>568</ele>
						<time>2026-05-01T14:45:25Z</time>
					</trkpt>
					<trkpt lat="43.671410" lon="2.386460">
						<ele>572</ele>
						<time>2026-05-01T14:45:52Z</time>
					</trkpt>
					<trkpt lat="43.671430" lon="2.386610">
						<ele>574</ele>
						<time>2026-05-01T14:46:07Z</time>
					</trkpt>
					<trkpt lat="43.671400" lon="2.386740">
						<ele>576</ele>
						<time>2026-05-01T14:46:20Z</time>
					</trkpt>
					<trkpt lat="43.671210" lon="2.387050">
						<ele>584</ele>
						<time>2026-05-01T14:46:59Z</time>
					</trkpt>
					<trkpt lat="43.671160" lon="2.387270">
						<ele>587</ele>
						<time>2026-05-01T14:47:21Z</time>
					</trkpt>
					<trkpt lat="43.671100" lon="2.387400">
						<ele>590</ele>
						<time>2026-05-01T14:47:36Z</time>
					</trkpt>
					<trkpt lat="43.670980" lon="2.387460">
						<ele>596</ele>
						<time>2026-05-01T14:47:53Z</time>
					</trkpt>
					<trkpt lat="43.670900" lon="2.387410">
						<ele>599</ele>
						<time>2026-05-01T14:48:05Z</time>
					</trkpt>
					<trkpt lat="43.670740" lon="2.387480">
						<ele>606</ele>
						<time>2026-05-01T14:48:27Z</time>
					</trkpt>
					<trkpt lat="43.670630" lon="2.387440">
						<ele>608</ele>
						<time>2026-05-01T14:48:43Z</time>
					</trkpt>
					<trkpt lat="43.670550" lon="2.387440">
						<ele>611</ele>
						<time>2026-05-01T14:48:53Z</time>
					</trkpt>
					<trkpt lat="43.670550" lon="2.387370">
						<ele>610</ele>
						<time>2026-05-01T14:49:00Z</time>
					</trkpt>
					<trkpt lat="43.670560" lon="2.387450">
						<ele>611</ele>
						<time>2026-05-01T14:49:08Z</time>
					</trkpt>
					<trkpt lat="43.670490" lon="2.387540">
						<ele>613</ele>
						<time>2026-05-01T14:49:21Z</time>
					</trkpt>
					<trkpt lat="43.670460" lon="2.387630">
						<ele>614</ele>
						<time>2026-05-01T14:49:30Z</time>
					</trkpt>
					<trkpt lat="43.670380" lon="2.387650">
						<ele>617</ele>
						<time>2026-05-01T14:49:41Z</time>
					</trkpt>
					<trkpt lat="43.670320" lon="2.387750">
						<ele>619</ele>
						<time>2026-05-01T14:49:54Z</time>
					</trkpt>
					<trkpt lat="43.670260" lon="2.387970">
						<ele>622</ele>
						<time>2026-05-01T14:50:16Z</time>
					</trkpt>
					<trkpt lat="43.670120" lon="2.388100">
						<ele>628</ele>
						<time>2026-05-01T14:50:39Z</time>
					</trkpt>
					<trkpt lat="43.669880" lon="2.388170">
						<ele>636</ele>
						<time>2026-05-01T14:51:12Z</time>
					</trkpt>
					<trkpt lat="43.669880" lon="2.388070">
						<ele>635</ele>
						<time>2026-05-01T14:51:21Z</time>
					</trkpt>
					<trkpt lat="43.669800" lon="2.388110">
						<ele>637</ele>
						<time>2026-05-01T14:51:33Z</time>
					</trkpt>
					<trkpt lat="43.669770" lon="2.388200">
						<ele>638</ele>
						<time>2026-05-01T14:51:42Z</time>
					</trkpt>
					<trkpt lat="43.669690" lon="2.388240">
						<ele>640</ele>
						<time>2026-05-01T14:51:53Z</time>
					</trkpt>
					<trkpt lat="43.669590" lon="2.388430">
						<ele>643</ele>
						<time>2026-05-01T14:52:16Z</time>
					</trkpt>
					<trkpt lat="43.669510" lon="2.388500">
						<ele>646</ele>
						<time>2026-05-01T14:52:29Z</time>
					</trkpt>
					<trkpt lat="43.669530" lon="2.388450">
						<ele>645</ele>
						<time>2026-05-01T14:52:34Z</time>
					</trkpt>
					<trkpt lat="43.669500" lon="2.388510">
						<ele>646</ele>
						<time>2026-05-01T14:52:41Z</time>
					</trkpt>
					<trkpt lat="43.669520" lon="2.388560">
						<ele>646</ele>
						<time>2026-05-01T14:52:47Z</time>
					</trkpt>
					<trkpt lat="43.669490" lon="2.388690">
						<ele>648</ele>
						<time>2026-05-01T14:53:00Z</time>
					</trkpt>
					<trkpt lat="43.669440" lon="2.388810">
						<ele>650</ele>
						<time>2026-05-01T14:53:13Z</time>
					</trkpt>
					<trkpt lat="43.669370" lon="2.388880">
						<ele>652</ele>
						<time>2026-05-01T14:53:25Z</time>
					</trkpt>
					<trkpt lat="43.669240" lon="2.389120">
						<ele>657</ele>
						<time>2026-05-01T14:53:54Z</time>
					</trkpt>
					<trkpt lat="43.669110" lon="2.389280">
						<ele>660</ele>
						<time>2026-05-01T14:54:17Z</time>
					</trkpt>
					<trkpt lat="43.669000" lon="2.389340">
						<ele>661</ele>
						<time>2026-05-01T14:54:33Z</time>
					</trkpt>
					<trkpt lat="43.668620" lon="2.389460">
						<ele>664</ele>
						<time>2026-05-01T14:55:25Z</time>
					</trkpt>
					<trkpt lat="43.668550" lon="2.389510">
						<ele>664</ele>
						<time>2026-05-01T14:55:35Z</time>
					</trkpt>
					<trkpt lat="43.668420" lon="2.389510">
						<ele>665</ele>
						<time>2026-05-01T14:55:53Z</time>
					</trkpt>
					<trkpt lat="43.668190" lon="2.389590">
						<ele>664</ele>
						<time>2026-05-01T14:56:24Z</time>
					</trkpt>
					<trkpt lat="43.668220" lon="2.389640">
						<ele>665</ele>
						<time>2026-05-01T14:56:31Z</time>
					</trkpt>
					<trkpt lat="43.668310" lon="2.389670">
						<ele>666</ele>
						<time>2026-05-01T14:56:43Z</time>
					</trkpt>
					<trkpt lat="43.668330" lon="2.389770">
						<ele>666</ele>
						<time>2026-05-01T14:56:53Z</time>
					</trkpt>
					<trkpt lat="43.668300" lon="2.389800">
						<ele>666</ele>
						<time>2026-05-01T14:56:58Z</time>
					</trkpt>
					<trkpt lat="43.668320" lon="2.389630">
						<ele>666</ele>
						<time>2026-05-01T14:57:15Z</time>
					</trkpt>
					<trkpt lat="43.668380" lon="2.389790">
						<ele>666</ele>
						<time>2026-05-01T14:57:32Z</time>
					</trkpt>
					<trkpt lat="43.668550" lon="2.390010">
						<ele>667</ele>
						<time>2026-05-01T14:58:03Z</time>
					</trkpt>
					<trkpt lat="43.668670" lon="2.390390">
						<ele>669</ele>
						<time>2026-05-01T14:58:43Z</time>
					</trkpt>
					<trkpt lat="43.668800" lon="2.390650">
						<ele>670</ele>
						<time>2026-05-01T14:59:14Z</time>
					</trkpt>
					<trkpt lat="43.668840" lon="2.390880">
						<ele>671</ele>
						<time>2026-05-01T14:59:36Z</time>
					</trkpt>
					<trkpt lat="43.668830" lon="2.391040">
						<ele>671</ele>
						<time>2026-05-01T14:59:52Z</time>
					</trkpt>
					<trkpt lat="43.668990" lon="2.391290">
						<ele>671</ele>
						<time>2026-05-01T15:00:24Z</time>
					</trkpt>
					<trkpt lat="43.669020" lon="2.391400">
						<ele>671</ele>
						<time>2026-05-01T15:00:36Z</time>
					</trkpt>
					<trkpt lat="43.669200" lon="2.391710">
						<ele>670</ele>
						<time>2026-05-01T15:01:14Z</time>
					</trkpt>
					<trkpt lat="43.669230" lon="2.391830">
						<ele>670</ele>
						<time>2026-05-01T15:01:26Z</time>
					</trkpt>
					<trkpt lat="43.669120" lon="2.392200">
						<ele>670</ele>
						<time>2026-05-01T15:02:05Z</time>
					</trkpt>
					<trkpt lat="43.669100" lon="2.392370">
						<ele>670</ele>
						<time>2026-05-01T15:02:21Z</time>
					</trkpt>
					<trkpt lat="43.669140" lon="2.392490">
						<ele>670</ele>
						<time>2026-05-01T15:02:34Z</time>
					</trkpt>
					<trkpt lat="43.669220" lon="2.392570">
						<ele>668</ele>
						<time>2026-05-01T15:02:47Z</time>
					</trkpt>
					<trkpt lat="43.669230" lon="2.392650">
						<ele>667</ele>
						<time>2026-05-01T15:02:55Z</time>
					</trkpt>
					<trkpt lat="43.669200" lon="2.392670">
						<ele>668</ele>
						<time>2026-05-01T15:03:00Z</time>
					</trkpt>
					<trkpt lat="43.669270" lon="2.392710">
						<ele>666</ele>
						<time>2026-05-01T15:03:10Z</time>
					</trkpt>
					<trkpt lat="43.669290" lon="2.392750">
						<ele>665</ele>
						<time>2026-05-01T15:03:14Z</time>
					</trkpt>
					<trkpt lat="43.669220" lon="2.392720">
						<ele>667</ele>
						<time>2026-05-01T15:03:24Z</time>
					</trkpt>
					<trkpt lat="43.669190" lon="2.392800">
						<ele>667</ele>
						<time>2026-05-01T15:03:33Z</time>
					</trkpt>
					<trkpt lat="43.669220" lon="2.392930">
						<ele>665</ele>
						<time>2026-05-01T15:03:46Z</time>
					</trkpt>
					<trkpt lat="43.669300" lon="2.393010">
						<ele>663</ele>
						<time>2026-05-01T15:03:59Z</time>
					</trkpt>
					<trkpt lat="43.669380" lon="2.393030">
						<ele>661</ele>
						<time>2026-05-01T15:04:10Z</time>
					</trkpt>
					<trkpt lat="43.669470" lon="2.392960">
						<ele>660</ele>
						<time>2026-05-01T15:04:24Z</time>
					</trkpt>
					<trkpt lat="43.669560" lon="2.392830">
						<ele>659</ele>
						<time>2026-05-01T15:04:41Z</time>
					</trkpt>
					<trkpt lat="43.669460" lon="2.392840">
						<ele>661</ele>
						<time>2026-05-01T15:04:55Z</time>
					</trkpt>
					<trkpt lat="43.669560" lon="2.392920">
						<ele>658</ele>
						<time>2026-05-01T15:05:10Z</time>
					</trkpt>
					<trkpt lat="43.669590" lon="2.393010">
						<ele>657</ele>
						<time>2026-05-01T15:05:20Z</time>
					</trkpt>
					<trkpt lat="43.669500" lon="2.393200">
						<ele>658</ele>
						<time>2026-05-01T15:05:41Z</time>
					</trkpt>
					<trkpt lat="43.669480" lon="2.393200">
						<ele>658</ele>
						<time>2026-05-01T15:05:44Z</time>
					</trkpt>
					<trkpt lat="43.669450" lon="2.393110">
						<ele>659</ele>
						<time>2026-05-01T15:05:54Z</time>
					</trkpt>
					<trkpt lat="43.669460" lon="2.392970">
						<ele>660</ele>
						<time>2026-05-01T15:06:07Z</time>
					</trkpt>
					<trkpt lat="43.669430" lon="2.392970">
						<ele>661</ele>
						<time>2026-05-01T15:06:11Z</time>
					</trkpt>
					<trkpt lat="43.669400" lon="2.393050">
						<ele>661</ele>
						<time>2026-05-01T15:06:20Z</time>
					</trkpt>
					<trkpt lat="43.669450" lon="2.393120">
						<ele>659</ele>
						<time>2026-05-01T15:06:30Z</time>
					</trkpt>
					<trkpt lat="43.669550" lon="2.393140">
						<ele>657</ele>
						<time>2026-05-01T15:06:43Z</time>
					</trkpt>
					<trkpt lat="43.669640" lon="2.393190">
						<ele>655</ele>
						<time>2026-05-01T15:06:56Z</time>
					</trkpt>
					<trkpt lat="43.669740" lon="2.393190">
						<ele>653</ele>
						<time>2026-05-01T15:07:09Z</time>
					</trkpt>
					<trkpt lat="43.669790" lon="2.393160">
						<ele>652</ele>
						<time>2026-05-01T15:07:17Z</time>
					</trkpt>
					<trkpt lat="43.669840" lon="2.393050">
						<ele>652</ele>
						<time>2026-05-01T15:07:29Z</time>
					</trkpt>
					<trkpt lat="43.669820" lon="2.393250">
						<ele>651</ele>
						<time>2026-05-01T15:07:49Z</time>
					</trkpt>
					<trkpt lat="43.669760" lon="2.393500">
						<ele>652</ele>
						<time>2026-05-01T15:08:14Z</time>
					</trkpt>
					<trkpt lat="43.669810" lon="2.393730">
						<ele>652</ele>
						<time>2026-05-01T15:08:37Z</time>
					</trkpt>
					<trkpt lat="43.669900" lon="2.393920">
						<ele>651</ele>
						<time>2026-05-01T15:08:59Z</time>
					</trkpt>
					<trkpt lat="43.669810" lon="2.394070">
						<ele>653</ele>
						<time>2026-05-01T15:09:18Z</time>
					</trkpt>
					<trkpt lat="43.669760" lon="2.394210">
						<ele>654</ele>
						<time>2026-05-01T15:09:33Z</time>
					</trkpt>
					<trkpt lat="43.669670" lon="2.394580">
						<ele>655</ele>
						<time>2026-05-01T15:10:11Z</time>
					</trkpt>
					<trkpt lat="43.669630" lon="2.394910">
						<ele>655</ele>
						<time>2026-05-01T15:10:43Z</time>
					</trkpt>
					<trkpt lat="43.669510" lon="2.395260">
						<ele>656</ele>
						<time>2026-05-01T15:11:20Z</time>
					</trkpt>
					<trkpt lat="43.669450" lon="2.395320">
						<ele>656</ele>
						<time>2026-05-01T15:11:30Z</time>
					</trkpt>
					<trkpt lat="43.669440" lon="2.395420">
						<ele>656</ele>
						<time>2026-05-01T15:11:40Z</time>
					</trkpt>
					<trkpt lat="43.669360" lon="2.395500">
						<ele>656</ele>
						<time>2026-05-01T15:11:53Z</time>
					</trkpt>
					<trkpt lat="43.669180" lon="2.395810">
						<ele>657</ele>
						<time>2026-05-01T15:12:32Z</time>
					</trkpt>
					<trkpt lat="43.668980" lon="2.396060">
						<ele>656</ele>
						<time>2026-05-01T15:13:08Z</time>
					</trkpt>
					<trkpt lat="43.668790" lon="2.396260">
						<ele>655</ele>
						<time>2026-05-01T15:13:39Z</time>
					</trkpt>
					<trkpt lat="43.668710" lon="2.396290">
						<ele>655</ele>
						<time>2026-05-01T15:13:50Z</time>
					</trkpt>
					<trkpt lat="43.668590" lon="2.396210">
						<ele>656</ele>
						<time>2026-05-01T15:14:08Z</time>
					</trkpt>
					<trkpt lat="43.668490" lon="2.396100">
						<ele>657</ele>
						<time>2026-05-01T15:14:25Z</time>
					</trkpt>
					<trkpt lat="43.668450" lon="2.396010">
						<ele>658</ele>
						<time>2026-05-01T15:14:35Z</time>
					</trkpt>
					<trkpt lat="43.668420" lon="2.395770">
						<ele>659</ele>
						<time>2026-05-01T15:14:59Z</time>
					</trkpt>
					<trkpt lat="43.668320" lon="2.395520">
						<ele>661</ele>
						<time>2026-05-01T15:15:27Z</time>
					</trkpt>
					<trkpt lat="43.668180" lon="2.395400">
						<ele>661</ele>
						<time>2026-05-01T15:15:49Z</time>
					</trkpt>
					<trkpt lat="43.668120" lon="2.395310">
						<ele>662</ele>
						<time>2026-05-01T15:16:00Z</time>
					</trkpt>
					<trkpt lat="43.668120" lon="2.395190">
						<ele>662</ele>
						<time>2026-05-01T15:16:12Z</time>
					</trkpt>
					<trkpt lat="43.668020" lon="2.395440">
						<ele>660</ele>
						<time>2026-05-01T15:16:40Z</time>
					</trkpt>
					<trkpt lat="43.667900" lon="2.395520">
						<ele>660</ele>
						<time>2026-05-01T15:16:57Z</time>
					</trkpt>
					<trkpt lat="43.667780" lon="2.395570">
						<ele>659</ele>
						<time>2026-05-01T15:17:14Z</time>
					</trkpt>
					<trkpt lat="43.667510" lon="2.395620">
						<ele>658</ele>
						<time>2026-05-01T15:17:50Z</time>
					</trkpt>
					<trkpt lat="43.667330" lon="2.395710">
						<ele>654</ele>
						<time>2026-05-01T15:18:16Z</time>
					</trkpt>
					<trkpt lat="43.667260" lon="2.395700">
						<ele>653</ele>
						<time>2026-05-01T15:18:25Z</time>
					</trkpt>
					<trkpt lat="43.667170" lon="2.395630">
						<ele>652</ele>
						<time>2026-05-01T15:18:39Z</time>
					</trkpt>
					<trkpt lat="43.667180" lon="2.395530">
						<ele>653</ele>
						<time>2026-05-01T15:18:49Z</time>
					</trkpt>
					<trkpt lat="43.667110" lon="2.395380">
						<ele>652</ele>
						<time>2026-05-01T15:19:06Z</time>
					</trkpt>
					<trkpt lat="43.667100" lon="2.395240">
						<ele>653</ele>
						<time>2026-05-01T15:19:20Z</time>
					</trkpt>
					<trkpt lat="43.667160" lon="2.394990">
						<ele>655</ele>
						<time>2026-05-01T15:19:45Z</time>
					</trkpt>
					<trkpt lat="43.667180" lon="2.394930">
						<ele>656</ele>
						<time>2026-05-01T15:19:51Z</time>
					</trkpt>
					<trkpt lat="43.667270" lon="2.394960">
						<ele>658</ele>
						<time>2026-05-01T15:20:04Z</time>
					</trkpt>
					<trkpt lat="43.667380" lon="2.395090">
						<ele>659</ele>
						<time>2026-05-01T15:20:23Z</time>
					</trkpt>
					<trkpt lat="43.667410" lon="2.395060">
						<ele>660</ele>
						<time>2026-05-01T15:20:28Z</time>
					</trkpt>
					<trkpt lat="43.667360" lon="2.394950">
						<ele>659</ele>
						<time>2026-05-01T15:20:41Z</time>
					</trkpt>
					<trkpt lat="43.667270" lon="2.394850">
						<ele>658</ele>
						<time>2026-05-01T15:20:56Z</time>
					</trkpt>
					<trkpt lat="43.667180" lon="2.394840">
						<ele>656</ele>
						<time>2026-05-01T15:21:08Z</time>
					</trkpt>
					<trkpt lat="43.667130" lon="2.394900">
						<ele>655</ele>
						<time>2026-05-01T15:21:17Z</time>
					</trkpt>
					<trkpt lat="43.667140" lon="2.394940">
						<ele>655</ele>
						<time>2026-05-01T15:21:21Z</time>
					</trkpt>
					<trkpt lat="43.667110" lon="2.394970">
						<ele>654</ele>
						<time>2026-05-01T15:21:26Z</time>
					</trkpt>
					<trkpt lat="43.667160" lon="2.395140">
						<ele>654</ele>
						<time>2026-05-01T15:21:44Z</time>
					</trkpt>
					<trkpt lat="43.667130" lon="2.395300">
						<ele>653</ele>
						<time>2026-05-01T15:22:00Z</time>
					</trkpt>
					<trkpt lat="43.667050" lon="2.395320">
						<ele>652</ele>
						<time>2026-05-01T15:22:10Z</time>
					</trkpt>
					<trkpt lat="43.666850" lon="2.395070">
						<ele>649</ele>
						<time>2026-05-01T15:22:46Z</time>
					</trkpt>
					<trkpt lat="43.666710" lon="2.394820">
						<ele>648</ele>
						<time>2026-05-01T15:23:17Z</time>
					</trkpt>
					<trkpt lat="43.666610" lon="2.394790">
						<ele>647</ele>
						<time>2026-05-01T15:23:31Z</time>
					</trkpt>
					<trkpt lat="43.666530" lon="2.394720">
						<ele>648</ele>
						<time>2026-05-01T15:23:43Z</time>
					</trkpt>
					<trkpt lat="43.666260" lon="2.394330">
						<ele>650</ele>
						<time>2026-05-01T15:24:35Z</time>
					</trkpt>
					<trkpt lat="43.666240" lon="2.394240">
						<ele>651</ele>
						<time>2026-05-01T15:24:44Z</time>
					</trkpt>
					<trkpt lat="43.666130" lon="2.394180">
						<ele>651</ele>
						<time>2026-05-01T15:25:00Z</time>
					</trkpt>
					<trkpt lat="43.666090" lon="2.393980">
						<ele>652</ele>
						<time>2026-05-01T15:25:20Z</time>
					</trkpt>
					<trkpt lat="43.666080" lon="2.393720">
						<ele>654</ele>
						<time>2026-05-01T15:25:45Z</time>
					</trkpt>
					<trkpt lat="43.666040" lon="2.393550">
						<ele>655</ele>
						<time>2026-05-01T15:26:03Z</time>
					</trkpt>
					<trkpt lat="43.665790" lon="2.393170">
						<ele>656</ele>
						<time>2026-05-01T15:26:52Z</time>
					</trkpt>
					<trkpt lat="43.665620" lon="2.393020">
						<ele>657</ele>
						<time>2026-05-01T15:27:19Z</time>
					</trkpt>
					<trkpt lat="43.665460" lon="2.393040">
						<ele>657</ele>
						<time>2026-05-01T15:27:41Z</time>
					</trkpt>
					<trkpt lat="43.665240" lon="2.393180">
						<ele>658</ele>
						<time>2026-05-01T15:28:13Z</time>
					</trkpt>
					<trkpt lat="43.665090" lon="2.393360">
						<ele>659</ele>
						<time>2026-05-01T15:28:39Z</time>
					</trkpt>
					<trkpt lat="43.664910" lon="2.393480">
						<ele>658</ele>
						<time>2026-05-01T15:29:06Z</time>
					</trkpt>
					<trkpt lat="43.664780" lon="2.393710">
						<ele>658</ele>
						<time>2026-05-01T15:29:34Z</time>
					</trkpt>
					</trkseg>
				</trk>
			</gpx>