<?xml version="1.0" encoding="UTF-8"?>
<gpx xmlns="http://www.topografix.com/GPX/1/1" xmlns:xsi="http://www.w3.org/2001/XMLSchema-instance" version="1.1" creator="phpGPX/1.3.0" xsi:schemaLocation="http://www.topografix.com/GPX/1/1 http://www.topografix.com/GPX/1/1/gpx.xsd">
  <metadata>
    <time>2026-05-14T12:51:27+00:00</time>
  </metadata>
  <trk>
    <name>KMV Monte Mufraghje</name>
    <trkseg>
      <trkpt lat="42.36579" lon="9.3563">
        <ele>666</ele>
        <time>2026-05-14T12:51:28+00:00</time>
      </trkpt>
      <trkpt lat="42.36551" lon="9.35603">
        <ele>674</ele>
        <time>2026-05-14T12:51:29+00:00</time>
      </trkpt>
      <trkpt lat="42.3653" lon="9.35576">
        <ele>680</ele>
        <time>2026-05-14T12:51:30+00:00</time>
      </trkpt>
      <trkpt lat="42.36527" lon="9.35581">
        <ele>679</ele>
        <time>2026-05-14T12:51:31+00:00</time>
      </trkpt>
      <trkpt lat="42.36539" lon="9.35603">
        <ele>674</ele>
        <time>2026-05-14T12:51:32+00:00</time>
      </trkpt>
      <trkpt lat="42.36539" lon="9.3561">
        <ele>672</ele>
        <time>2026-05-14T12:51:33+00:00</time>
      </trkpt>
      <trkpt lat="42.36537" lon="9.35613">
        <ele>671</ele>
        <time>2026-05-14T12:51:34+00:00</time>
      </trkpt>
      <trkpt lat="42.36534" lon="9.35613">
        <ele>671</ele>
        <time>2026-05-14T12:51:35+00:00</time>
      </trkpt>
      <trkpt lat="42.36495" lon="9.35574">
        <ele>680</ele>
        <time>2026-05-14T12:51:36+00:00</time>
      </trkpt>
      <trkpt lat="42.36448" lon="9.35512">
        <ele>696</ele>
        <time>2026-05-14T12:51:37+00:00</time>
      </trkpt>
      <trkpt lat="42.36447" lon="9.35512">
        <ele>696</ele>
        <time>2026-05-14T12:51:38+00:00</time>
      </trkpt>
      <trkpt lat="42.36424" lon="9.35481">
        <ele>703</ele>
        <time>2026-05-14T12:51:39+00:00</time>
      </trkpt>
      <trkpt lat="42.364" lon="9.35414">
        <ele>714</ele>
        <time>2026-05-14T12:51:40+00:00</time>
      </trkpt>
      <trkpt lat="42.36387" lon="9.35332">
        <ele>732</ele>
        <time>2026-05-14T12:51:41+00:00</time>
      </trkpt>
      <trkpt lat="42.36386" lon="9.35321">
        <ele>736</ele>
        <time>2026-05-14T12:51:42+00:00</time>
      </trkpt>
      <trkpt lat="42.36389" lon="9.353">
        <ele>743</ele>
        <time>2026-05-14T12:51:43+00:00</time>
      </trkpt>
      <trkpt lat="42.36386" lon="9.3529">
        <ele>746</ele>
        <time>2026-05-14T12:51:44+00:00</time>
      </trkpt>
      <trkpt lat="42.36379" lon="9.35284">
        <ele>749</ele>
        <time>2026-05-14T12:51:45+00:00</time>
      </trkpt>
      <trkpt lat="42.36358" lon="9.35282">
        <ele>751</ele>
        <time>2026-05-14T12:51:46+00:00</time>
      </trkpt>
      <trkpt lat="42.36345" lon="9.35279">
        <ele>753</ele>
        <time>2026-05-14T12:51:47+00:00</time>
      </trkpt>
      <trkpt lat="42.36312" lon="9.3524">
        <ele>766</ele>
        <time>2026-05-14T12:51:48+00:00</time>
      </trkpt>
      <trkpt lat="42.3629" lon="9.35204">
        <ele>776</ele>
        <time>2026-05-14T12:51:49+00:00</time>
      </trkpt>
      <trkpt lat="42.36287" lon="9.35196">
        <ele>778</ele>
        <time>2026-05-14T12:51:50+00:00</time>
      </trkpt>
      <trkpt lat="42.36288" lon="9.35186">
        <ele>782</ele>
        <time>2026-05-14T12:51:51+00:00</time>
      </trkpt>
      <trkpt lat="42.36295" lon="9.35181">
        <ele>784</ele>
        <time>2026-05-14T12:51:52+00:00</time>
      </trkpt>
      <trkpt lat="42.36312" lon="9.35177">
        <ele>788</ele>
        <time>2026-05-14T12:51:53+00:00</time>
      </trkpt>
      <trkpt lat="42.36316" lon="9.35149">
        <ele>797</ele>
        <time>2026-05-14T12:51:54+00:00</time>
      </trkpt>
      <trkpt lat="42.36322" lon="9.35138">
        <ele>801</ele>
        <time>2026-05-14T12:51:55+00:00</time>
      </trkpt>
      <trkpt lat="42.36334" lon="9.35126">
        <ele>806</ele>
        <time>2026-05-14T12:51:56+00:00</time>
      </trkpt>
      <trkpt lat="42.36345" lon="9.35108">
        <ele>812</ele>
        <time>2026-05-14T12:51:57+00:00</time>
      </trkpt>
      <trkpt lat="42.3635" lon="9.3509">
        <ele>818</ele>
        <time>2026-05-14T12:51:58+00:00</time>
      </trkpt>
      <trkpt lat="42.36346" lon="9.35079">
        <ele>822</ele>
        <time>2026-05-14T12:51:59+00:00</time>
      </trkpt>
      <trkpt lat="42.36332" lon="9.3507">
        <ele>823</ele>
        <time>2026-05-14T12:52:00+00:00</time>
      </trkpt>
      <trkpt lat="42.36307" lon="9.35065">
        <ele>822</ele>
        <time>2026-05-14T12:52:01+00:00</time>
      </trkpt>
      <trkpt lat="42.36292" lon="9.35055">
        <ele>824</ele>
        <time>2026-05-14T12:52:02+00:00</time>
      </trkpt>
      <trkpt lat="42.36261" lon="9.35017">
        <ele>834</ele>
        <time>2026-05-14T12:52:03+00:00</time>
      </trkpt>
      <trkpt lat="42.36232" lon="9.35004">
        <ele>836</ele>
        <time>2026-05-14T12:52:04+00:00</time>
      </trkpt>
      <trkpt lat="42.36222" lon="9.34993">
        <ele>839</ele>
        <time>2026-05-14T12:52:05+00:00</time>
      </trkpt>
      <trkpt lat="42.36222" lon="9.34992">
        <ele>839</ele>
        <time>2026-05-14T12:52:06+00:00</time>
      </trkpt>
      <trkpt lat="42.36215" lon="9.34974">
        <ele>845</ele>
        <time>2026-05-14T12:52:07+00:00</time>
      </trkpt>
      <trkpt lat="42.36213" lon="9.34942">
        <ele>854</ele>
        <time>2026-05-14T12:52:08+00:00</time>
      </trkpt>
      <trkpt lat="42.36216" lon="9.34908">
        <ele>864</ele>
        <time>2026-05-14T12:52:09+00:00</time>
      </trkpt>
      <trkpt lat="42.36207" lon="9.34893">
        <ele>868</ele>
        <time>2026-05-14T12:52:10+00:00</time>
      </trkpt>
      <trkpt lat="42.36195" lon="9.34845">
        <ele>880</ele>
        <time>2026-05-14T12:52:11+00:00</time>
      </trkpt>
      <trkpt lat="42.36184" lon="9.34827">
        <ele>884</ele>
        <time>2026-05-14T12:52:12+00:00</time>
      </trkpt>
      <trkpt lat="42.36181" lon="9.348">
        <ele>892</ele>
        <time>2026-05-14T12:52:13+00:00</time>
      </trkpt>
      <trkpt lat="42.3618" lon="9.34771">
        <ele>900</ele>
        <time>2026-05-14T12:52:14+00:00</time>
      </trkpt>
      <trkpt lat="42.36182" lon="9.3476">
        <ele>903</ele>
        <time>2026-05-14T12:52:15+00:00</time>
      </trkpt>
      <trkpt lat="42.36188" lon="9.34752">
        <ele>905</ele>
        <time>2026-05-14T12:52:16+00:00</time>
      </trkpt>
      <trkpt lat="42.36192" lon="9.34741">
        <ele>908</ele>
        <time>2026-05-14T12:52:17+00:00</time>
      </trkpt>
      <trkpt lat="42.3619" lon="9.34725">
        <ele>912</ele>
        <time>2026-05-14T12:52:18+00:00</time>
      </trkpt>
      <trkpt lat="42.36187" lon="9.34717">
        <ele>913</ele>
        <time>2026-05-14T12:52:19+00:00</time>
      </trkpt>
      <trkpt lat="42.36175" lon="9.34706">
        <ele>915</ele>
        <time>2026-05-14T12:52:20+00:00</time>
      </trkpt>
      <trkpt lat="42.36141" lon="9.34693">
        <ele>919</ele>
        <time>2026-05-14T12:52:21+00:00</time>
      </trkpt>
      <trkpt lat="42.36109" lon="9.34676">
        <ele>925</ele>
        <time>2026-05-14T12:52:22+00:00</time>
      </trkpt>
      <trkpt lat="42.361" lon="9.34662">
        <ele>929</ele>
        <time>2026-05-14T12:52:23+00:00</time>
      </trkpt>
      <trkpt lat="42.36097" lon="9.34644">
        <ele>934</ele>
        <time>2026-05-14T12:52:24+00:00</time>
      </trkpt>
      <trkpt lat="42.36089" lon="9.3463">
        <ele>937</ele>
        <time>2026-05-14T12:52:25+00:00</time>
      </trkpt>
      <trkpt lat="42.36088" lon="9.3462">
        <ele>940</ele>
        <time>2026-05-14T12:52:26+00:00</time>
      </trkpt>
      <trkpt lat="42.36092" lon="9.34596">
        <ele>945</ele>
        <time>2026-05-14T12:52:27+00:00</time>
      </trkpt>
      <trkpt lat="42.36091" lon="9.34589">
        <ele>947</ele>
        <time>2026-05-14T12:52:28+00:00</time>
      </trkpt>
      <trkpt lat="42.36075" lon="9.34573">
        <ele>952</ele>
        <time>2026-05-14T12:52:29+00:00</time>
      </trkpt>
      <trkpt lat="42.36071" lon="9.34565">
        <ele>955</ele>
        <time>2026-05-14T12:52:30+00:00</time>
      </trkpt>
      <trkpt lat="42.3607" lon="9.34552">
        <ele>959</ele>
        <time>2026-05-14T12:52:31+00:00</time>
      </trkpt>
      <trkpt lat="42.36066" lon="9.34548">
        <ele>960</ele>
        <time>2026-05-14T12:52:32+00:00</time>
      </trkpt>
      <trkpt lat="42.36058" lon="9.3455">
        <ele>960</ele>
        <time>2026-05-14T12:52:33+00:00</time>
      </trkpt>
      <trkpt lat="42.36055" lon="9.34546">
        <ele>962</ele>
        <time>2026-05-14T12:52:34+00:00</time>
      </trkpt>
      <trkpt lat="42.36056" lon="9.3454">
        <ele>963</ele>
        <time>2026-05-14T12:52:35+00:00</time>
      </trkpt>
      <trkpt lat="42.3605" lon="9.34538">
        <ele>965</ele>
        <time>2026-05-14T12:52:36+00:00</time>
      </trkpt>
      <trkpt lat="42.36045" lon="9.34531">
        <ele>967</ele>
        <time>2026-05-14T12:52:37+00:00</time>
      </trkpt>
      <trkpt lat="42.36044" lon="9.34517">
        <ele>971</ele>
        <time>2026-05-14T12:52:38+00:00</time>
      </trkpt>
      <trkpt lat="42.36052" lon="9.34508">
        <ele>973</ele>
        <time>2026-05-14T12:52:39+00:00</time>
      </trkpt>
      <trkpt lat="42.36051" lon="9.34501">
        <ele>975</ele>
        <time>2026-05-14T12:52:40+00:00</time>
      </trkpt>
      <trkpt lat="42.3606" lon="9.34498">
        <ele>975</ele>
        <time>2026-05-14T12:52:41+00:00</time>
      </trkpt>
      <trkpt lat="42.36066" lon="9.34488">
        <ele>978</ele>
        <time>2026-05-14T12:52:42+00:00</time>
      </trkpt>
      <trkpt lat="42.36073" lon="9.34481">
        <ele>980</ele>
        <time>2026-05-14T12:52:43+00:00</time>
      </trkpt>
      <trkpt lat="42.36088" lon="9.34474">
        <ele>983</ele>
        <time>2026-05-14T12:52:44+00:00</time>
      </trkpt>
      <trkpt lat="42.36094" lon="9.34476">
        <ele>982</ele>
        <time>2026-05-14T12:52:45+00:00</time>
      </trkpt>
      <trkpt lat="42.36102" lon="9.34476">
        <ele>983</ele>
        <time>2026-05-14T12:52:46+00:00</time>
      </trkpt>
      <trkpt lat="42.36105" lon="9.3447">
        <ele>985</ele>
        <time>2026-05-14T12:52:47+00:00</time>
      </trkpt>
      <trkpt lat="42.36103" lon="9.34465">
        <ele>987</ele>
        <time>2026-05-14T12:52:48+00:00</time>
      </trkpt>
      <trkpt lat="42.36097" lon="9.34456">
        <ele>990</ele>
        <time>2026-05-14T12:52:49+00:00</time>
      </trkpt>
      <trkpt lat="42.36088" lon="9.34451">
        <ele>991</ele>
        <time>2026-05-14T12:52:50+00:00</time>
      </trkpt>
      <trkpt lat="42.36038" lon="9.34445">
        <ele>996</ele>
        <time>2026-05-14T12:52:51+00:00</time>
      </trkpt>
      <trkpt lat="42.36003" lon="9.34426">
        <ele>1004</ele>
        <time>2026-05-14T12:52:52+00:00</time>
      </trkpt>
      <trkpt lat="42.35979" lon="9.34409">
        <ele>1014</ele>
        <time>2026-05-14T12:52:53+00:00</time>
      </trkpt>
      <trkpt lat="42.35942" lon="9.34377">
        <ele>1026</ele>
        <time>2026-05-14T12:52:54+00:00</time>
      </trkpt>
      <trkpt lat="42.35917" lon="9.34342">
        <ele>1034</ele>
        <time>2026-05-14T12:52:55+00:00</time>
      </trkpt>
      <trkpt lat="42.35906" lon="9.34341">
        <ele>1036</ele>
        <time>2026-05-14T12:52:56+00:00</time>
      </trkpt>
      <trkpt lat="42.35895" lon="9.34337">
        <ele>1040</ele>
        <time>2026-05-14T12:52:57+00:00</time>
      </trkpt>
      <trkpt lat="42.35889" lon="9.34346">
        <ele>1040</ele>
        <time>2026-05-14T12:52:58+00:00</time>
      </trkpt>
      <trkpt lat="42.35884" lon="9.34345">
        <ele>1041</ele>
        <time>2026-05-14T12:52:59+00:00</time>
      </trkpt>
      <trkpt lat="42.35879" lon="9.34336">
        <ele>1044</ele>
        <time>2026-05-14T12:53:00+00:00</time>
      </trkpt>
      <trkpt lat="42.35874" lon="9.34335">
        <ele>1045</ele>
        <time>2026-05-14T12:53:01+00:00</time>
      </trkpt>
      <trkpt lat="42.35865" lon="9.34352">
        <ele>1044</ele>
        <time>2026-05-14T12:53:02+00:00</time>
      </trkpt>
      <trkpt lat="42.35847" lon="9.34357">
        <ele>1048</ele>
        <time>2026-05-14T12:53:03+00:00</time>
      </trkpt>
      <trkpt lat="42.35844" lon="9.34351">
        <ele>1049</ele>
        <time>2026-05-14T12:53:04+00:00</time>
      </trkpt>
      <trkpt lat="42.35851" lon="9.34316">
        <ele>1056</ele>
        <time>2026-05-14T12:53:05+00:00</time>
      </trkpt>
      <trkpt lat="42.35817" lon="9.34324">
        <ele>1063</ele>
        <time>2026-05-14T12:53:06+00:00</time>
      </trkpt>
      <trkpt lat="42.35794" lon="9.34324">
        <ele>1070</ele>
        <time>2026-05-14T12:53:07+00:00</time>
      </trkpt>
      <trkpt lat="42.35817" lon="9.34324">
        <ele>1063</ele>
        <time>2026-05-14T12:53:08+00:00</time>
      </trkpt>
      <trkpt lat="42.35851" lon="9.34316">
        <ele>1056</ele>
        <time>2026-05-14T12:53:09+00:00</time>
      </trkpt>
      <trkpt lat="42.35844" lon="9.34351">
        <ele>1049</ele>
        <time>2026-05-14T12:53:10+00:00</time>
      </trkpt>
      <trkpt lat="42.35847" lon="9.34357">
        <ele>1048</ele>
        <time>2026-05-14T12:53:11+00:00</time>
      </trkpt>
      <trkpt lat="42.35865" lon="9.34352">
        <ele>1044</ele>
        <time>2026-05-14T12:53:12+00:00</time>
      </trkpt>
      <trkpt lat="42.35847" lon="9.34357">
        <ele>1048</ele>
        <time>2026-05-14T12:53:13+00:00</time>
      </trkpt>
      <trkpt lat="42.35844" lon="9.34351">
        <ele>1049</ele>
        <time>2026-05-14T12:53:14+00:00</time>
      </trkpt>
      <trkpt lat="42.35851" lon="9.34316">
        <ele>1056</ele>
        <time>2026-05-14T12:53:15+00:00</time>
      </trkpt>
      <trkpt lat="42.35817" lon="9.34324">
        <ele>1063</ele>
        <time>2026-05-14T12:53:16+00:00</time>
      </trkpt>
      <trkpt lat="42.35787" lon="9.34325">
        <ele>1072</ele>
        <time>2026-05-14T12:53:17+00:00</time>
      </trkpt>
      <trkpt lat="42.35779" lon="9.34319">
        <ele>1077</ele>
        <time>2026-05-14T12:53:18+00:00</time>
      </trkpt>
      <trkpt lat="42.3575" lon="9.34321">
        <ele>1085</ele>
        <time>2026-05-14T12:53:19+00:00</time>
      </trkpt>
      <trkpt lat="42.3574" lon="9.34324">
        <ele>1088</ele>
        <time>2026-05-14T12:53:20+00:00</time>
      </trkpt>
      <trkpt lat="42.35726" lon="9.34343">
        <ele>1090</ele>
        <time>2026-05-14T12:53:21+00:00</time>
      </trkpt>
      <trkpt lat="42.35717" lon="9.34342">
        <ele>1094</ele>
        <time>2026-05-14T12:53:22+00:00</time>
      </trkpt>
      <trkpt lat="42.357" lon="9.34355">
        <ele>1099</ele>
        <time>2026-05-14T12:53:23+00:00</time>
      </trkpt>
      <trkpt lat="42.35627" lon="9.34345">
        <ele>1124</ele>
        <time>2026-05-14T12:53:24+00:00</time>
      </trkpt>
      <trkpt lat="42.35597" lon="9.34339">
        <ele>1133</ele>
        <time>2026-05-14T12:53:25+00:00</time>
      </trkpt>
      <trkpt lat="42.3559" lon="9.34341">
        <ele>1135</ele>
        <time>2026-05-14T12:53:26+00:00</time>
      </trkpt>
      <trkpt lat="42.35578" lon="9.3436">
        <ele>1135</ele>
        <time>2026-05-14T12:53:27+00:00</time>
      </trkpt>
      <trkpt lat="42.35549" lon="9.34387">
        <ele>1137</ele>
        <time>2026-05-14T12:53:28+00:00</time>
      </trkpt>
      <trkpt lat="42.35504" lon="9.34414">
        <ele>1141</ele>
        <time>2026-05-14T12:53:29+00:00</time>
      </trkpt>
      <trkpt lat="42.35496" lon="9.34417">
        <ele>1142</ele>
        <time>2026-05-14T12:53:30+00:00</time>
      </trkpt>
      <trkpt lat="42.35476" lon="9.34408">
        <ele>1151</ele>
        <time>2026-05-14T12:53:31+00:00</time>
      </trkpt>
      <trkpt lat="42.35429" lon="9.34423">
        <ele>1163</ele>
        <time>2026-05-14T12:53:32+00:00</time>
      </trkpt>
      <trkpt lat="42.35382" lon="9.34437">
        <ele>1168</ele>
        <time>2026-05-14T12:53:33+00:00</time>
      </trkpt>
      <trkpt lat="42.35367" lon="9.34433">
        <ele>1172</ele>
        <time>2026-05-14T12:53:34+00:00</time>
      </trkpt>
      <trkpt lat="42.35354" lon="9.34423">
        <ele>1176</ele>
        <time>2026-05-14T12:53:35+00:00</time>
      </trkpt>
      <trkpt lat="42.353" lon="9.3433">
        <ele>1195</ele>
        <time>2026-05-14T12:53:36+00:00</time>
      </trkpt>
      <trkpt lat="42.35292" lon="9.3429">
        <ele>1204</ele>
        <time>2026-05-14T12:53:37+00:00</time>
      </trkpt>
      <trkpt lat="42.35292" lon="9.34287">
        <ele>1204</ele>
        <time>2026-05-14T12:53:38+00:00</time>
      </trkpt>
      <trkpt lat="42.35274" lon="9.34257">
        <ele>1212</ele>
        <time>2026-05-14T12:53:39+00:00</time>
      </trkpt>
      <trkpt lat="42.35263" lon="9.3423">
        <ele>1220</ele>
        <time>2026-05-14T12:53:40+00:00</time>
      </trkpt>
      <trkpt lat="42.35202" lon="9.34182">
        <ele>1238</ele>
        <time>2026-05-14T12:53:41+00:00</time>
      </trkpt>
      <trkpt lat="42.35189" lon="9.34152">
        <ele>1249</ele>
        <time>2026-05-14T12:53:42+00:00</time>
      </trkpt>
      <trkpt lat="42.35178" lon="9.34134">
        <ele>1258</ele>
        <time>2026-05-14T12:53:43+00:00</time>
      </trkpt>
      <trkpt lat="42.35156" lon="9.34118">
        <ele>1268</ele>
        <time>2026-05-14T12:53:44+00:00</time>
      </trkpt>
      <trkpt lat="42.35111" lon="9.3412">
        <ele>1277</ele>
        <time>2026-05-14T12:53:45+00:00</time>
      </trkpt>
      <trkpt lat="42.35096" lon="9.34118">
        <ele>1281</ele>
        <time>2026-05-14T12:53:46+00:00</time>
      </trkpt>
      <trkpt lat="42.35088" lon="9.34111">
        <ele>1285</ele>
        <time>2026-05-14T12:53:47+00:00</time>
      </trkpt>
      <trkpt lat="42.35092" lon="9.34087">
        <ele>1293</ele>
        <time>2026-05-14T12:53:48+00:00</time>
      </trkpt>
      <trkpt lat="42.35072" lon="9.34084">
        <ele>1296</ele>
        <time>2026-05-14T12:53:49+00:00</time>
      </trkpt>
      <trkpt lat="42.35079" lon="9.34056">
        <ele>1305</ele>
        <time>2026-05-14T12:53:50+00:00</time>
      </trkpt>
      <trkpt lat="42.35075" lon="9.34043">
        <ele>1310</ele>
        <time>2026-05-14T12:53:51+00:00</time>
      </trkpt>
      <trkpt lat="42.35115" lon="9.34004">
        <ele>1317</ele>
        <time>2026-05-14T12:53:52+00:00</time>
      </trkpt>
      <trkpt lat="42.35115" lon="9.33982">
        <ele>1324</ele>
        <time>2026-05-14T12:53:53+00:00</time>
      </trkpt>
      <trkpt lat="42.35134" lon="9.33955">
        <ele>1330</ele>
        <time>2026-05-14T12:53:54+00:00</time>
      </trkpt>
      <trkpt lat="42.35144" lon="9.33944">
        <ele>1332</ele>
        <time>2026-05-14T12:53:55+00:00</time>
      </trkpt>
      <trkpt lat="42.35156" lon="9.33936">
        <ele>1332</ele>
        <time>2026-05-14T12:53:56+00:00</time>
      </trkpt>
      <trkpt lat="42.35173" lon="9.3393">
        <ele>1333</ele>
        <time>2026-05-14T12:53:57+00:00</time>
      </trkpt>
      <trkpt lat="42.3519" lon="9.33932">
        <ele>1335</ele>
        <time>2026-05-14T12:53:58+00:00</time>
      </trkpt>
      <trkpt lat="42.35228" lon="9.3395">
        <ele>1333</ele>
        <time>2026-05-14T12:53:59+00:00</time>
      </trkpt>
      <trkpt lat="42.35239" lon="9.3395">
        <ele>1334</ele>
        <time>2026-05-14T12:54:00+00:00</time>
      </trkpt>
      <trkpt lat="42.35249" lon="9.33944">
        <ele>1337</ele>
        <time>2026-05-14T12:54:01+00:00</time>
      </trkpt>
      <trkpt lat="42.35253" lon="9.33932">
        <ele>1341</ele>
        <time>2026-05-14T12:54:02+00:00</time>
      </trkpt>
      <trkpt lat="42.35253" lon="9.33915">
        <ele>1347</ele>
        <time>2026-05-14T12:54:03+00:00</time>
      </trkpt>
      <trkpt lat="42.35236" lon="9.33876">
        <ele>1358</ele>
        <time>2026-05-14T12:54:04+00:00</time>
      </trkpt>
      <trkpt lat="42.35214" lon="9.33849">
        <ele>1364</ele>
        <time>2026-05-14T12:54:05+00:00</time>
      </trkpt>
      <trkpt lat="42.35196" lon="9.33838">
        <ele>1367</ele>
        <time>2026-05-14T12:54:06+00:00</time>
      </trkpt>
      <trkpt lat="42.35189" lon="9.33837">
        <ele>1366</ele>
        <time>2026-05-14T12:54:07+00:00</time>
      </trkpt>
      <trkpt lat="42.3517" lon="9.33806">
        <ele>1374</ele>
        <time>2026-05-14T12:54:08+00:00</time>
      </trkpt>
      <trkpt lat="42.35165" lon="9.33786">
        <ele>1380</ele>
        <time>2026-05-14T12:54:09+00:00</time>
      </trkpt>
      <trkpt lat="42.35157" lon="9.33778">
        <ele>1382</ele>
        <time>2026-05-14T12:54:10+00:00</time>
      </trkpt>
      <trkpt lat="42.35151" lon="9.33766">
        <ele>1385</ele>
        <time>2026-05-14T12:54:11+00:00</time>
      </trkpt>
      <trkpt lat="42.35154" lon="9.33755">
        <ele>1388</ele>
        <time>2026-05-14T12:54:12+00:00</time>
      </trkpt>
      <trkpt lat="42.3518" lon="9.33735">
        <ele>1395</ele>
        <time>2026-05-14T12:54:13+00:00</time>
      </trkpt>
      <trkpt lat="42.35186" lon="9.33722">
        <ele>1398</ele>
        <time>2026-05-14T12:54:14+00:00</time>
      </trkpt>
      <trkpt lat="42.35167" lon="9.33701">
        <ele>1401</ele>
        <time>2026-05-14T12:54:15+00:00</time>
      </trkpt>
      <trkpt lat="42.35147" lon="9.33694">
        <ele>1402</ele>
        <time>2026-05-14T12:54:16+00:00</time>
      </trkpt>
      <trkpt lat="42.35123" lon="9.33648">
        <ele>1416</ele>
        <time>2026-05-14T12:54:17+00:00</time>
      </trkpt>
      <trkpt lat="42.35099" lon="9.33624">
        <ele>1426</ele>
        <time>2026-05-14T12:54:18+00:00</time>
      </trkpt>
      <trkpt lat="42.3507" lon="9.33611">
        <ele>1433</ele>
        <time>2026-05-14T12:54:19+00:00</time>
      </trkpt>
      <trkpt lat="42.35051" lon="9.33608">
        <ele>1436</ele>
        <time>2026-05-14T12:54:20+00:00</time>
      </trkpt>
      <trkpt lat="42.35029" lon="9.33572">
        <ele>1450</ele>
        <time>2026-05-14T12:54:21+00:00</time>
      </trkpt>
      <trkpt lat="42.34995" lon="9.33528">
        <ele>1469</ele>
        <time>2026-05-14T12:54:22+00:00</time>
      </trkpt>
      <trkpt lat="42.34936" lon="9.33548">
        <ele>1476</ele>
        <time>2026-05-14T12:54:23+00:00</time>
      </trkpt>
      <trkpt lat="42.34869" lon="9.33571">
        <ele>1480</ele>
        <time>2026-05-14T12:54:24+00:00</time>
      </trkpt>
      <trkpt lat="42.34799" lon="9.3357">
        <ele>1492</ele>
        <time>2026-05-14T12:54:25+00:00</time>
      </trkpt>
      <trkpt lat="42.3474" lon="9.33558">
        <ele>1507</ele>
        <time>2026-05-14T12:54:26+00:00</time>
      </trkpt>
      <trkpt lat="42.34665" lon="9.33569">
        <ele>1528</ele>
        <time>2026-05-14T12:54:27+00:00</time>
      </trkpt>
      <trkpt lat="42.346" lon="9.33616">
        <ele>1542</ele>
        <time>2026-05-14T12:54:28+00:00</time>
      </trkpt>
      <trkpt lat="42.34557" lon="9.33641">
        <ele>1553</ele>
        <time>2026-05-14T12:54:29+00:00</time>
      </trkpt>
      <trkpt lat="42.34514" lon="9.33665">
        <ele>1567</ele>
        <time>2026-05-14T12:54:30+00:00</time>
      </trkpt>
      <trkpt lat="42.3447" lon="9.33696">
        <ele>1580</ele>
        <time>2026-05-14T12:54:31+00:00</time>
      </trkpt>
      <trkpt lat="42.34426" lon="9.33727">
        <ele>1599</ele>
        <time>2026-05-14T12:54:32+00:00</time>
      </trkpt>
      <trkpt lat="42.34377" lon="9.33728">
        <ele>1614</ele>
        <time>2026-05-14T12:54:33+00:00</time>
      </trkpt>
      <trkpt lat="42.34357" lon="9.33721">
        <ele>1618</ele>
        <time>2026-05-14T12:54:34+00:00</time>
      </trkpt>
      <trkpt lat="42.3432" lon="9.33721">
        <ele>1624</ele>
        <time>2026-05-14T12:54:35+00:00</time>
      </trkpt>
      <trkpt lat="42.343" lon="9.33736">
        <ele>1627</ele>
        <time>2026-05-14T12:54:36+00:00</time>
      </trkpt>
      <trkpt lat="42.34257" lon="9.33739">
        <ele>1626</ele>
        <time>2026-05-14T12:54:37+00:00</time>
      </trkpt>
      <trkpt lat="42.3418" lon="9.33762">
        <ele>1635</ele>
        <time>2026-05-14T12:54:38+00:00</time>
      </trkpt>
      <trkpt lat="42.34158" lon="9.33789">
        <ele>1644</ele>
        <time>2026-05-14T12:54:39+00:00</time>
      </trkpt>
      <trkpt lat="42.34075" lon="9.33822">
        <ele>1653</ele>
        <time>2026-05-14T12:54:40+00:00</time>
      </trkpt>
      <trkpt lat="42.34073" lon="9.33845">
        <ele>1656</ele>
        <time>2026-05-14T12:54:41+00:00</time>
      </trkpt>
      <trkpt lat="42.34082" lon="9.33892">
        <ele>1661</ele>
        <time>2026-05-14T12:54:42+00:00</time>
      </trkpt>
      <trkpt lat="42.34087" lon="9.33959">
        <ele>1668</ele>
        <time>2026-05-14T12:54:43+00:00</time>
      </trkpt>
      <trkpt lat="42.34091" lon="9.34026">
        <ele>1676</ele>
        <time>2026-05-14T12:54:44+00:00</time>
      </trkpt>
      <trkpt lat="42.34111" lon="9.34096">
        <ele>1684</ele>
        <time>2026-05-14T12:54:45+00:00</time>
      </trkpt>
      <trkpt lat="42.3413" lon="9.34167">
        <ele>1686</ele>
        <time>2026-05-14T12:54:46+00:00</time>
      </trkpt>
      <trkpt lat="42.3413" lon="9.34237">
        <ele>1691</ele>
        <time>2026-05-14T12:54:47+00:00</time>
      </trkpt>
      <trkpt lat="42.34127" lon="9.34242">
        <ele>1692</ele>
        <time>2026-05-14T12:54:48+00:00</time>
      </trkpt>
    </trkseg>
  </trk>
</gpx>
