<?xml version="1.0" encoding="UTF-8"?>
<gpx xmlns="http://www.topografix.com/GPX/1/1" xmlns:xsi="http://www.w3.org/2001/XMLSchema-instance" version="1.1" creator="phpGPX/1.3.0" xsi:schemaLocation="http://www.topografix.com/GPX/1/1 http://www.topografix.com/GPX/1/1/gpx.xsd">
  <metadata>
    <time>2026-05-14T12:50:57+00:00</time>
  </metadata>
  <trk>
    <name>KMV San Petrone 1767m</name>
    <trkseg>
      <trkpt lat="42.38878" lon="9.35312">
        <ele>752</ele>
        <time>2026-05-14T12:50:58+00:00</time>
      </trkpt>
      <trkpt lat="42.38886" lon="9.35314">
        <ele>753</ele>
        <time>2026-05-14T12:50:59+00:00</time>
      </trkpt>
      <trkpt lat="42.3889" lon="9.3531">
        <ele>754</ele>
        <time>2026-05-14T12:51:00+00:00</time>
      </trkpt>
      <trkpt lat="42.38901" lon="9.35255">
        <ele>769</ele>
        <time>2026-05-14T12:51:01+00:00</time>
      </trkpt>
      <trkpt lat="42.3893" lon="9.35236">
        <ele>774</ele>
        <time>2026-05-14T12:51:02+00:00</time>
      </trkpt>
      <trkpt lat="42.38935" lon="9.35189">
        <ele>778</ele>
        <time>2026-05-14T12:51:03+00:00</time>
      </trkpt>
      <trkpt lat="42.38925" lon="9.35189">
        <ele>781</ele>
        <time>2026-05-14T12:51:04+00:00</time>
      </trkpt>
      <trkpt lat="42.38919" lon="9.35185">
        <ele>783</ele>
        <time>2026-05-14T12:51:05+00:00</time>
      </trkpt>
      <trkpt lat="42.38917" lon="9.35179">
        <ele>784</ele>
        <time>2026-05-14T12:51:06+00:00</time>
      </trkpt>
      <trkpt lat="42.38919" lon="9.35169">
        <ele>785</ele>
        <time>2026-05-14T12:51:07+00:00</time>
      </trkpt>
      <trkpt lat="42.38923" lon="9.35157">
        <ele>785</ele>
        <time>2026-05-14T12:51:08+00:00</time>
      </trkpt>
      <trkpt lat="42.38925" lon="9.35148">
        <ele>785</ele>
        <time>2026-05-14T12:51:09+00:00</time>
      </trkpt>
      <trkpt lat="42.38926" lon="9.35141">
        <ele>785</ele>
        <time>2026-05-14T12:51:10+00:00</time>
      </trkpt>
      <trkpt lat="42.38921" lon="9.35115">
        <ele>789</ele>
        <time>2026-05-14T12:51:11+00:00</time>
      </trkpt>
      <trkpt lat="42.38914" lon="9.35068">
        <ele>794</ele>
        <time>2026-05-14T12:51:12+00:00</time>
      </trkpt>
      <trkpt lat="42.38901" lon="9.35033">
        <ele>797</ele>
        <time>2026-05-14T12:51:13+00:00</time>
      </trkpt>
      <trkpt lat="42.38884" lon="9.34972">
        <ele>805</ele>
        <time>2026-05-14T12:51:14+00:00</time>
      </trkpt>
      <trkpt lat="42.38851" lon="9.3493">
        <ele>820</ele>
        <time>2026-05-14T12:51:15+00:00</time>
      </trkpt>
      <trkpt lat="42.38835" lon="9.34923">
        <ele>826</ele>
        <time>2026-05-14T12:51:16+00:00</time>
      </trkpt>
      <trkpt lat="42.38831" lon="9.34912">
        <ele>829</ele>
        <time>2026-05-14T12:51:17+00:00</time>
      </trkpt>
      <trkpt lat="42.38822" lon="9.34922">
        <ele>828</ele>
        <time>2026-05-14T12:51:18+00:00</time>
      </trkpt>
      <trkpt lat="42.3878" lon="9.34909">
        <ele>836</ele>
        <time>2026-05-14T12:51:19+00:00</time>
      </trkpt>
      <trkpt lat="42.38778" lon="9.34902">
        <ele>838</ele>
        <time>2026-05-14T12:51:20+00:00</time>
      </trkpt>
      <trkpt lat="42.38793" lon="9.34882">
        <ele>841</ele>
        <time>2026-05-14T12:51:21+00:00</time>
      </trkpt>
      <trkpt lat="42.38781" lon="9.34883">
        <ele>842</ele>
        <time>2026-05-14T12:51:22+00:00</time>
      </trkpt>
      <trkpt lat="42.38776" lon="9.34861">
        <ele>847</ele>
        <time>2026-05-14T12:51:23+00:00</time>
      </trkpt>
      <trkpt lat="42.38781" lon="9.34843">
        <ele>851</ele>
        <time>2026-05-14T12:51:24+00:00</time>
      </trkpt>
      <trkpt lat="42.38766" lon="9.34835">
        <ele>854</ele>
        <time>2026-05-14T12:51:25+00:00</time>
      </trkpt>
      <trkpt lat="42.38765" lon="9.34822">
        <ele>857</ele>
        <time>2026-05-14T12:51:26+00:00</time>
      </trkpt>
      <trkpt lat="42.38783" lon="9.34775">
        <ele>865</ele>
        <time>2026-05-14T12:51:27+00:00</time>
      </trkpt>
      <trkpt lat="42.38765" lon="9.34758">
        <ele>871</ele>
        <time>2026-05-14T12:51:28+00:00</time>
      </trkpt>
      <trkpt lat="42.3874" lon="9.34682">
        <ele>892</ele>
        <time>2026-05-14T12:51:29+00:00</time>
      </trkpt>
      <trkpt lat="42.38727" lon="9.34673">
        <ele>889</ele>
        <time>2026-05-14T12:51:30+00:00</time>
      </trkpt>
      <trkpt lat="42.38703" lon="9.34566">
        <ele>914</ele>
        <time>2026-05-14T12:51:31+00:00</time>
      </trkpt>
      <trkpt lat="42.38665" lon="9.34492">
        <ele>930</ele>
        <time>2026-05-14T12:51:32+00:00</time>
      </trkpt>
      <trkpt lat="42.38642" lon="9.34423">
        <ele>944</ele>
        <time>2026-05-14T12:51:33+00:00</time>
      </trkpt>
      <trkpt lat="42.38611" lon="9.34373">
        <ele>947</ele>
        <time>2026-05-14T12:51:34+00:00</time>
      </trkpt>
      <trkpt lat="42.38597" lon="9.34316">
        <ele>961</ele>
        <time>2026-05-14T12:51:35+00:00</time>
      </trkpt>
      <trkpt lat="42.38595" lon="9.34268">
        <ele>976</ele>
        <time>2026-05-14T12:51:36+00:00</time>
      </trkpt>
      <trkpt lat="42.3858" lon="9.34227">
        <ele>981</ele>
        <time>2026-05-14T12:51:37+00:00</time>
      </trkpt>
      <trkpt lat="42.38552" lon="9.34202">
        <ele>974</ele>
        <time>2026-05-14T12:51:38+00:00</time>
      </trkpt>
      <trkpt lat="42.38564" lon="9.34123">
        <ele>1006</ele>
        <time>2026-05-14T12:51:39+00:00</time>
      </trkpt>
      <trkpt lat="42.38539" lon="9.34054">
        <ele>1021</ele>
        <time>2026-05-14T12:51:40+00:00</time>
      </trkpt>
      <trkpt lat="42.38508" lon="9.34035">
        <ele>1017</ele>
        <time>2026-05-14T12:51:41+00:00</time>
      </trkpt>
      <trkpt lat="42.38484" lon="9.33985">
        <ele>1028</ele>
        <time>2026-05-14T12:51:42+00:00</time>
      </trkpt>
      <trkpt lat="42.38492" lon="9.33951">
        <ele>1043</ele>
        <time>2026-05-14T12:51:43+00:00</time>
      </trkpt>
      <trkpt lat="42.38493" lon="9.3388">
        <ele>1068</ele>
        <time>2026-05-14T12:51:44+00:00</time>
      </trkpt>
      <trkpt lat="42.3848" lon="9.33828">
        <ele>1082</ele>
        <time>2026-05-14T12:51:45+00:00</time>
      </trkpt>
      <trkpt lat="42.38466" lon="9.33812">
        <ele>1084</ele>
        <time>2026-05-14T12:51:46+00:00</time>
      </trkpt>
      <trkpt lat="42.38451" lon="9.33771">
        <ele>1098</ele>
        <time>2026-05-14T12:51:47+00:00</time>
      </trkpt>
      <trkpt lat="42.38445" lon="9.33729">
        <ele>1116</ele>
        <time>2026-05-14T12:51:48+00:00</time>
      </trkpt>
      <trkpt lat="42.38426" lon="9.33716">
        <ele>1116</ele>
        <time>2026-05-14T12:51:49+00:00</time>
      </trkpt>
      <trkpt lat="42.38425" lon="9.33687">
        <ele>1129</ele>
        <time>2026-05-14T12:51:50+00:00</time>
      </trkpt>
      <trkpt lat="42.38412" lon="9.33663">
        <ele>1137</ele>
        <time>2026-05-14T12:51:51+00:00</time>
      </trkpt>
      <trkpt lat="42.384" lon="9.33664">
        <ele>1136</ele>
        <time>2026-05-14T12:51:52+00:00</time>
      </trkpt>
      <trkpt lat="42.38386" lon="9.33635">
        <ele>1149</ele>
        <time>2026-05-14T12:51:53+00:00</time>
      </trkpt>
      <trkpt lat="42.38359" lon="9.33623">
        <ele>1152</ele>
        <time>2026-05-14T12:51:54+00:00</time>
      </trkpt>
      <trkpt lat="42.38361" lon="9.33579">
        <ele>1174</ele>
        <time>2026-05-14T12:51:55+00:00</time>
      </trkpt>
      <trkpt lat="42.3835" lon="9.33583">
        <ele>1171</ele>
        <time>2026-05-14T12:51:56+00:00</time>
      </trkpt>
      <trkpt lat="42.38337" lon="9.33563">
        <ele>1179</ele>
        <time>2026-05-14T12:51:57+00:00</time>
      </trkpt>
      <trkpt lat="42.3832" lon="9.33571">
        <ele>1176</ele>
        <time>2026-05-14T12:51:58+00:00</time>
      </trkpt>
      <trkpt lat="42.38304" lon="9.33565">
        <ele>1181</ele>
        <time>2026-05-14T12:51:59+00:00</time>
      </trkpt>
      <trkpt lat="42.38274" lon="9.33582">
        <ele>1178</ele>
        <time>2026-05-14T12:52:00+00:00</time>
      </trkpt>
      <trkpt lat="42.38266" lon="9.33567">
        <ele>1184</ele>
        <time>2026-05-14T12:52:01+00:00</time>
      </trkpt>
      <trkpt lat="42.38264" lon="9.33535">
        <ele>1195</ele>
        <time>2026-05-14T12:52:02+00:00</time>
      </trkpt>
      <trkpt lat="42.38252" lon="9.33519">
        <ele>1200</ele>
        <time>2026-05-14T12:52:03+00:00</time>
      </trkpt>
      <trkpt lat="42.38233" lon="9.33527">
        <ele>1197</ele>
        <time>2026-05-14T12:52:04+00:00</time>
      </trkpt>
      <trkpt lat="42.38221" lon="9.3352">
        <ele>1198</ele>
        <time>2026-05-14T12:52:05+00:00</time>
      </trkpt>
      <trkpt lat="42.38221" lon="9.33487">
        <ele>1206</ele>
        <time>2026-05-14T12:52:06+00:00</time>
      </trkpt>
      <trkpt lat="42.38246" lon="9.33444">
        <ele>1221</ele>
        <time>2026-05-14T12:52:07+00:00</time>
      </trkpt>
      <trkpt lat="42.38234" lon="9.33414">
        <ele>1226</ele>
        <time>2026-05-14T12:52:08+00:00</time>
      </trkpt>
      <trkpt lat="42.38211" lon="9.33415">
        <ele>1219</ele>
        <time>2026-05-14T12:52:09+00:00</time>
      </trkpt>
      <trkpt lat="42.38201" lon="9.33406">
        <ele>1218</ele>
        <time>2026-05-14T12:52:10+00:00</time>
      </trkpt>
      <trkpt lat="42.38215" lon="9.33379">
        <ele>1226</ele>
        <time>2026-05-14T12:52:11+00:00</time>
      </trkpt>
      <trkpt lat="42.38205" lon="9.33312">
        <ele>1229</ele>
        <time>2026-05-14T12:52:12+00:00</time>
      </trkpt>
      <trkpt lat="42.3821" lon="9.33274">
        <ele>1233</ele>
        <time>2026-05-14T12:52:13+00:00</time>
      </trkpt>
      <trkpt lat="42.38202" lon="9.33199">
        <ele>1232</ele>
        <time>2026-05-14T12:52:14+00:00</time>
      </trkpt>
      <trkpt lat="42.38184" lon="9.33157">
        <ele>1223</ele>
        <time>2026-05-14T12:52:15+00:00</time>
      </trkpt>
      <trkpt lat="42.38183" lon="9.33092">
        <ele>1226</ele>
        <time>2026-05-14T12:52:16+00:00</time>
      </trkpt>
      <trkpt lat="42.38183" lon="9.33089">
        <ele>1226</ele>
        <time>2026-05-14T12:52:17+00:00</time>
      </trkpt>
      <trkpt lat="42.38187" lon="9.33067">
        <ele>1229</ele>
        <time>2026-05-14T12:52:18+00:00</time>
      </trkpt>
      <trkpt lat="42.38188" lon="9.33049">
        <ele>1230</ele>
        <time>2026-05-14T12:52:19+00:00</time>
      </trkpt>
      <trkpt lat="42.38191" lon="9.33034">
        <ele>1233</ele>
        <time>2026-05-14T12:52:20+00:00</time>
      </trkpt>
      <trkpt lat="42.38192" lon="9.33023">
        <ele>1234</ele>
        <time>2026-05-14T12:52:21+00:00</time>
      </trkpt>
      <trkpt lat="42.38193" lon="9.33005">
        <ele>1235</ele>
        <time>2026-05-14T12:52:22+00:00</time>
      </trkpt>
      <trkpt lat="42.38195" lon="9.32998">
        <ele>1236</ele>
        <time>2026-05-14T12:52:23+00:00</time>
      </trkpt>
      <trkpt lat="42.38191" lon="9.32991">
        <ele>1234</ele>
        <time>2026-05-14T12:52:24+00:00</time>
      </trkpt>
      <trkpt lat="42.38181" lon="9.32887">
        <ele>1236</ele>
        <time>2026-05-14T12:52:25+00:00</time>
      </trkpt>
      <trkpt lat="42.38168" lon="9.32849">
        <ele>1232</ele>
        <time>2026-05-14T12:52:26+00:00</time>
      </trkpt>
      <trkpt lat="42.38166" lon="9.32797">
        <ele>1235</ele>
        <time>2026-05-14T12:52:27+00:00</time>
      </trkpt>
      <trkpt lat="42.38172" lon="9.32742">
        <ele>1242</ele>
        <time>2026-05-14T12:52:28+00:00</time>
      </trkpt>
      <trkpt lat="42.38172" lon="9.32729">
        <ele>1243</ele>
        <time>2026-05-14T12:52:29+00:00</time>
      </trkpt>
      <trkpt lat="42.38178" lon="9.32696">
        <ele>1249</ele>
        <time>2026-05-14T12:52:30+00:00</time>
      </trkpt>
      <trkpt lat="42.38177" lon="9.32683">
        <ele>1250</ele>
        <time>2026-05-14T12:52:31+00:00</time>
      </trkpt>
      <trkpt lat="42.38181" lon="9.3267">
        <ele>1252</ele>
        <time>2026-05-14T12:52:32+00:00</time>
      </trkpt>
      <trkpt lat="42.38187" lon="9.32657">
        <ele>1256</ele>
        <time>2026-05-14T12:52:33+00:00</time>
      </trkpt>
      <trkpt lat="42.38195" lon="9.3265">
        <ele>1259</ele>
        <time>2026-05-14T12:52:34+00:00</time>
      </trkpt>
      <trkpt lat="42.38202" lon="9.32649">
        <ele>1261</ele>
        <time>2026-05-14T12:52:35+00:00</time>
      </trkpt>
      <trkpt lat="42.38211" lon="9.32635">
        <ele>1265</ele>
        <time>2026-05-14T12:52:36+00:00</time>
      </trkpt>
      <trkpt lat="42.38222" lon="9.32629">
        <ele>1268</ele>
        <time>2026-05-14T12:52:37+00:00</time>
      </trkpt>
      <trkpt lat="42.38228" lon="9.32619">
        <ele>1271</ele>
        <time>2026-05-14T12:52:38+00:00</time>
      </trkpt>
      <trkpt lat="42.38233" lon="9.3262">
        <ele>1271</ele>
        <time>2026-05-14T12:52:39+00:00</time>
      </trkpt>
      <trkpt lat="42.38237" lon="9.32615">
        <ele>1272</ele>
        <time>2026-05-14T12:52:40+00:00</time>
      </trkpt>
      <trkpt lat="42.38242" lon="9.32611">
        <ele>1273</ele>
        <time>2026-05-14T12:52:41+00:00</time>
      </trkpt>
      <trkpt lat="42.38248" lon="9.32603">
        <ele>1275</ele>
        <time>2026-05-14T12:52:42+00:00</time>
      </trkpt>
      <trkpt lat="42.38253" lon="9.32608">
        <ele>1276</ele>
        <time>2026-05-14T12:52:43+00:00</time>
      </trkpt>
      <trkpt lat="42.38257" lon="9.32605">
        <ele>1277</ele>
        <time>2026-05-14T12:52:44+00:00</time>
      </trkpt>
      <trkpt lat="42.38273" lon="9.32612">
        <ele>1282</ele>
        <time>2026-05-14T12:52:45+00:00</time>
      </trkpt>
      <trkpt lat="42.38274" lon="9.32624">
        <ele>1281</ele>
        <time>2026-05-14T12:52:46+00:00</time>
      </trkpt>
      <trkpt lat="42.38277" lon="9.32627">
        <ele>1282</ele>
        <time>2026-05-14T12:52:47+00:00</time>
      </trkpt>
      <trkpt lat="42.38284" lon="9.32621">
        <ele>1285</ele>
        <time>2026-05-14T12:52:48+00:00</time>
      </trkpt>
      <trkpt lat="42.38287" lon="9.32621">
        <ele>1286</ele>
        <time>2026-05-14T12:52:49+00:00</time>
      </trkpt>
      <trkpt lat="42.38285" lon="9.3263">
        <ele>1285</ele>
        <time>2026-05-14T12:52:50+00:00</time>
      </trkpt>
      <trkpt lat="42.38293" lon="9.32646">
        <ele>1288</ele>
        <time>2026-05-14T12:52:51+00:00</time>
      </trkpt>
      <trkpt lat="42.38294" lon="9.32657">
        <ele>1288</ele>
        <time>2026-05-14T12:52:52+00:00</time>
      </trkpt>
      <trkpt lat="42.38298" lon="9.32662">
        <ele>1290</ele>
        <time>2026-05-14T12:52:53+00:00</time>
      </trkpt>
      <trkpt lat="42.38299" lon="9.32671">
        <ele>1291</ele>
        <time>2026-05-14T12:52:54+00:00</time>
      </trkpt>
      <trkpt lat="42.38304" lon="9.32663">
        <ele>1293</ele>
        <time>2026-05-14T12:52:55+00:00</time>
      </trkpt>
      <trkpt lat="42.38308" lon="9.32644">
        <ele>1294</ele>
        <time>2026-05-14T12:52:56+00:00</time>
      </trkpt>
      <trkpt lat="42.38315" lon="9.32635">
        <ele>1296</ele>
        <time>2026-05-14T12:52:57+00:00</time>
      </trkpt>
      <trkpt lat="42.38323" lon="9.32633">
        <ele>1299</ele>
        <time>2026-05-14T12:52:58+00:00</time>
      </trkpt>
      <trkpt lat="42.38327" lon="9.32624">
        <ele>1300</ele>
        <time>2026-05-14T12:52:59+00:00</time>
      </trkpt>
      <trkpt lat="42.38333" lon="9.32598">
        <ele>1299</ele>
        <time>2026-05-14T12:53:00+00:00</time>
      </trkpt>
      <trkpt lat="42.3834" lon="9.32586">
        <ele>1302</ele>
        <time>2026-05-14T12:53:01+00:00</time>
      </trkpt>
      <trkpt lat="42.38351" lon="9.32571">
        <ele>1309</ele>
        <time>2026-05-14T12:53:02+00:00</time>
      </trkpt>
      <trkpt lat="42.3839" lon="9.32541">
        <ele>1329</ele>
        <time>2026-05-14T12:53:03+00:00</time>
      </trkpt>
      <trkpt lat="42.38397" lon="9.32526">
        <ele>1332</ele>
        <time>2026-05-14T12:53:04+00:00</time>
      </trkpt>
      <trkpt lat="42.38403" lon="9.32509">
        <ele>1335</ele>
        <time>2026-05-14T12:53:05+00:00</time>
      </trkpt>
      <trkpt lat="42.38402" lon="9.32497">
        <ele>1335</ele>
        <time>2026-05-14T12:53:06+00:00</time>
      </trkpt>
      <trkpt lat="42.38403" lon="9.3248">
        <ele>1339</ele>
        <time>2026-05-14T12:53:07+00:00</time>
      </trkpt>
      <trkpt lat="42.38401" lon="9.32453">
        <ele>1345</ele>
        <time>2026-05-14T12:53:08+00:00</time>
      </trkpt>
      <trkpt lat="42.38413" lon="9.32426">
        <ele>1351</ele>
        <time>2026-05-14T12:53:09+00:00</time>
      </trkpt>
      <trkpt lat="42.38414" lon="9.32413">
        <ele>1353</ele>
        <time>2026-05-14T12:53:10+00:00</time>
      </trkpt>
      <trkpt lat="42.38414" lon="9.32379">
        <ele>1357</ele>
        <time>2026-05-14T12:53:11+00:00</time>
      </trkpt>
      <trkpt lat="42.38423" lon="9.32372">
        <ele>1359</ele>
        <time>2026-05-14T12:53:12+00:00</time>
      </trkpt>
      <trkpt lat="42.38429" lon="9.32346">
        <ele>1362</ele>
        <time>2026-05-14T12:53:13+00:00</time>
      </trkpt>
      <trkpt lat="42.38435" lon="9.32348">
        <ele>1363</ele>
        <time>2026-05-14T12:53:14+00:00</time>
      </trkpt>
      <trkpt lat="42.38436" lon="9.32333">
        <ele>1364</ele>
        <time>2026-05-14T12:53:15+00:00</time>
      </trkpt>
      <trkpt lat="42.3842" lon="9.32311">
        <ele>1366</ele>
        <time>2026-05-14T12:53:16+00:00</time>
      </trkpt>
      <trkpt lat="42.38385" lon="9.323">
        <ele>1371</ele>
        <time>2026-05-14T12:53:17+00:00</time>
      </trkpt>
      <trkpt lat="42.38359" lon="9.32268">
        <ele>1377</ele>
        <time>2026-05-14T12:53:18+00:00</time>
      </trkpt>
      <trkpt lat="42.38354" lon="9.32232">
        <ele>1380</ele>
        <time>2026-05-14T12:53:19+00:00</time>
      </trkpt>
      <trkpt lat="42.38336" lon="9.32194">
        <ele>1383</ele>
        <time>2026-05-14T12:53:20+00:00</time>
      </trkpt>
      <trkpt lat="42.38351" lon="9.32166">
        <ele>1385</ele>
        <time>2026-05-14T12:53:21+00:00</time>
      </trkpt>
      <trkpt lat="42.38356" lon="9.3216">
        <ele>1385</ele>
        <time>2026-05-14T12:53:22+00:00</time>
      </trkpt>
      <trkpt lat="42.38372" lon="9.32144">
        <ele>1385</ele>
        <time>2026-05-14T12:53:23+00:00</time>
      </trkpt>
      <trkpt lat="42.38384" lon="9.32126">
        <ele>1386</ele>
        <time>2026-05-14T12:53:24+00:00</time>
      </trkpt>
      <trkpt lat="42.38399" lon="9.32111">
        <ele>1388</ele>
        <time>2026-05-14T12:53:25+00:00</time>
      </trkpt>
      <trkpt lat="42.38418" lon="9.321">
        <ele>1390</ele>
        <time>2026-05-14T12:53:26+00:00</time>
      </trkpt>
      <trkpt lat="42.38449" lon="9.32075">
        <ele>1399</ele>
        <time>2026-05-14T12:53:27+00:00</time>
      </trkpt>
      <trkpt lat="42.38487" lon="9.32051">
        <ele>1408</ele>
        <time>2026-05-14T12:53:28+00:00</time>
      </trkpt>
      <trkpt lat="42.38502" lon="9.32045">
        <ele>1411</ele>
        <time>2026-05-14T12:53:29+00:00</time>
      </trkpt>
      <trkpt lat="42.38531" lon="9.32045">
        <ele>1416</ele>
        <time>2026-05-14T12:53:30+00:00</time>
      </trkpt>
      <trkpt lat="42.38557" lon="9.32044">
        <ele>1420</ele>
        <time>2026-05-14T12:53:31+00:00</time>
      </trkpt>
      <trkpt lat="42.38567" lon="9.32047">
        <ele>1422</ele>
        <time>2026-05-14T12:53:32+00:00</time>
      </trkpt>
      <trkpt lat="42.38585" lon="9.32089">
        <ele>1429</ele>
        <time>2026-05-14T12:53:33+00:00</time>
      </trkpt>
      <trkpt lat="42.38594" lon="9.32112">
        <ele>1431</ele>
        <time>2026-05-14T12:53:34+00:00</time>
      </trkpt>
      <trkpt lat="42.386" lon="9.3212">
        <ele>1432</ele>
        <time>2026-05-14T12:53:35+00:00</time>
      </trkpt>
      <trkpt lat="42.38607" lon="9.32121">
        <ele>1434</ele>
        <time>2026-05-14T12:53:36+00:00</time>
      </trkpt>
      <trkpt lat="42.38616" lon="9.32141">
        <ele>1436</ele>
        <time>2026-05-14T12:53:37+00:00</time>
      </trkpt>
      <trkpt lat="42.3862" lon="9.32171">
        <ele>1438</ele>
        <time>2026-05-14T12:53:38+00:00</time>
      </trkpt>
      <trkpt lat="42.38628" lon="9.32184">
        <ele>1438</ele>
        <time>2026-05-14T12:53:39+00:00</time>
      </trkpt>
      <trkpt lat="42.38639" lon="9.32183">
        <ele>1442</ele>
        <time>2026-05-14T12:53:40+00:00</time>
      </trkpt>
      <trkpt lat="42.38647" lon="9.32171">
        <ele>1445</ele>
        <time>2026-05-14T12:53:41+00:00</time>
      </trkpt>
      <trkpt lat="42.38668" lon="9.32185">
        <ele>1450</ele>
        <time>2026-05-14T12:53:42+00:00</time>
      </trkpt>
      <trkpt lat="42.3868" lon="9.32191">
        <ele>1452</ele>
        <time>2026-05-14T12:53:43+00:00</time>
      </trkpt>
      <trkpt lat="42.3869" lon="9.322">
        <ele>1454</ele>
        <time>2026-05-14T12:53:44+00:00</time>
      </trkpt>
      <trkpt lat="42.38724" lon="9.32206">
        <ele>1460</ele>
        <time>2026-05-14T12:53:45+00:00</time>
      </trkpt>
      <trkpt lat="42.38734" lon="9.32215">
        <ele>1462</ele>
        <time>2026-05-14T12:53:46+00:00</time>
      </trkpt>
      <trkpt lat="42.38744" lon="9.32221">
        <ele>1465</ele>
        <time>2026-05-14T12:53:47+00:00</time>
      </trkpt>
      <trkpt lat="42.38794" lon="9.32234">
        <ele>1477</ele>
        <time>2026-05-14T12:53:48+00:00</time>
      </trkpt>
      <trkpt lat="42.38803" lon="9.32232">
        <ele>1479</ele>
        <time>2026-05-14T12:53:49+00:00</time>
      </trkpt>
      <trkpt lat="42.38808" lon="9.32235">
        <ele>1480</ele>
        <time>2026-05-14T12:53:50+00:00</time>
      </trkpt>
      <trkpt lat="42.38818" lon="9.32235">
        <ele>1482</ele>
        <time>2026-05-14T12:53:51+00:00</time>
      </trkpt>
      <trkpt lat="42.38822" lon="9.32238">
        <ele>1483</ele>
        <time>2026-05-14T12:53:52+00:00</time>
      </trkpt>
      <trkpt lat="42.38845" lon="9.32235">
        <ele>1488</ele>
        <time>2026-05-14T12:53:53+00:00</time>
      </trkpt>
      <trkpt lat="42.38859" lon="9.32235">
        <ele>1490</ele>
        <time>2026-05-14T12:53:54+00:00</time>
      </trkpt>
      <trkpt lat="42.38871" lon="9.32245">
        <ele>1493</ele>
        <time>2026-05-14T12:53:55+00:00</time>
      </trkpt>
      <trkpt lat="42.38904" lon="9.32242">
        <ele>1498</ele>
        <time>2026-05-14T12:53:56+00:00</time>
      </trkpt>
      <trkpt lat="42.38922" lon="9.3223">
        <ele>1500</ele>
        <time>2026-05-14T12:53:57+00:00</time>
      </trkpt>
      <trkpt lat="42.38929" lon="9.32228">
        <ele>1501</ele>
        <time>2026-05-14T12:53:58+00:00</time>
      </trkpt>
      <trkpt lat="42.38938" lon="9.32214">
        <ele>1502</ele>
        <time>2026-05-14T12:53:59+00:00</time>
      </trkpt>
      <trkpt lat="42.38943" lon="9.32205">
        <ele>1502</ele>
        <time>2026-05-14T12:54:00+00:00</time>
      </trkpt>
      <trkpt lat="42.38947" lon="9.32195">
        <ele>1501</ele>
        <time>2026-05-14T12:54:01+00:00</time>
      </trkpt>
      <trkpt lat="42.38957" lon="9.32186">
        <ele>1503</ele>
        <time>2026-05-14T12:54:02+00:00</time>
      </trkpt>
      <trkpt lat="42.3896" lon="9.32175">
        <ele>1502</ele>
        <time>2026-05-14T12:54:03+00:00</time>
      </trkpt>
      <trkpt lat="42.38975" lon="9.32152">
        <ele>1504</ele>
        <time>2026-05-14T12:54:04+00:00</time>
      </trkpt>
      <trkpt lat="42.38978" lon="9.3214">
        <ele>1504</ele>
        <time>2026-05-14T12:54:05+00:00</time>
      </trkpt>
      <trkpt lat="42.38977" lon="9.32132">
        <ele>1503</ele>
        <time>2026-05-14T12:54:06+00:00</time>
      </trkpt>
      <trkpt lat="42.38984" lon="9.32132">
        <ele>1505</ele>
        <time>2026-05-14T12:54:07+00:00</time>
      </trkpt>
      <trkpt lat="42.3899" lon="9.32123">
        <ele>1506</ele>
        <time>2026-05-14T12:54:08+00:00</time>
      </trkpt>
      <trkpt lat="42.39006" lon="9.32109">
        <ele>1508</ele>
        <time>2026-05-14T12:54:09+00:00</time>
      </trkpt>
      <trkpt lat="42.3902" lon="9.32093">
        <ele>1510</ele>
        <time>2026-05-14T12:54:10+00:00</time>
      </trkpt>
      <trkpt lat="42.39044" lon="9.32126">
        <ele>1516</ele>
        <time>2026-05-14T12:54:11+00:00</time>
      </trkpt>
      <trkpt lat="42.39051" lon="9.32131">
        <ele>1518</ele>
        <time>2026-05-14T12:54:12+00:00</time>
      </trkpt>
      <trkpt lat="42.39056" lon="9.32139">
        <ele>1519</ele>
        <time>2026-05-14T12:54:13+00:00</time>
      </trkpt>
      <trkpt lat="42.3906" lon="9.32155">
        <ele>1521</ele>
        <time>2026-05-14T12:54:14+00:00</time>
      </trkpt>
      <trkpt lat="42.39057" lon="9.32173">
        <ele>1522</ele>
        <time>2026-05-14T12:54:15+00:00</time>
      </trkpt>
      <trkpt lat="42.39065" lon="9.32193">
        <ele>1525</ele>
        <time>2026-05-14T12:54:16+00:00</time>
      </trkpt>
      <trkpt lat="42.39075" lon="9.32198">
        <ele>1527</ele>
        <time>2026-05-14T12:54:17+00:00</time>
      </trkpt>
      <trkpt lat="42.39079" lon="9.32213">
        <ele>1528</ele>
        <time>2026-05-14T12:54:18+00:00</time>
      </trkpt>
      <trkpt lat="42.39098" lon="9.32248">
        <ele>1532</ele>
        <time>2026-05-14T12:54:19+00:00</time>
      </trkpt>
      <trkpt lat="42.39108" lon="9.32254">
        <ele>1533</ele>
        <time>2026-05-14T12:54:20+00:00</time>
      </trkpt>
      <trkpt lat="42.39117" lon="9.32262">
        <ele>1534</ele>
        <time>2026-05-14T12:54:21+00:00</time>
      </trkpt>
      <trkpt lat="42.39126" lon="9.32272">
        <ele>1536</ele>
        <time>2026-05-14T12:54:22+00:00</time>
      </trkpt>
      <trkpt lat="42.39133" lon="9.32282">
        <ele>1537</ele>
        <time>2026-05-14T12:54:23+00:00</time>
      </trkpt>
      <trkpt lat="42.39138" lon="9.32289">
        <ele>1539</ele>
        <time>2026-05-14T12:54:24+00:00</time>
      </trkpt>
      <trkpt lat="42.39158" lon="9.32292">
        <ele>1542</ele>
        <time>2026-05-14T12:54:25+00:00</time>
      </trkpt>
      <trkpt lat="42.39165" lon="9.32299">
        <ele>1543</ele>
        <time>2026-05-14T12:54:26+00:00</time>
      </trkpt>
      <trkpt lat="42.39187" lon="9.32314">
        <ele>1547</ele>
        <time>2026-05-14T12:54:27+00:00</time>
      </trkpt>
      <trkpt lat="42.3924" lon="9.32325">
        <ele>1552</ele>
        <time>2026-05-14T12:54:28+00:00</time>
      </trkpt>
      <trkpt lat="42.39344" lon="9.32327">
        <ele>1560</ele>
        <time>2026-05-14T12:54:29+00:00</time>
      </trkpt>
      <trkpt lat="42.39394" lon="9.32316">
        <ele>1568</ele>
        <time>2026-05-14T12:54:30+00:00</time>
      </trkpt>
      <trkpt lat="42.39409" lon="9.32353">
        <ele>1582</ele>
        <time>2026-05-14T12:54:31+00:00</time>
      </trkpt>
      <trkpt lat="42.39427" lon="9.32372">
        <ele>1594</ele>
        <time>2026-05-14T12:54:32+00:00</time>
      </trkpt>
      <trkpt lat="42.39459" lon="9.32371">
        <ele>1604</ele>
        <time>2026-05-14T12:54:33+00:00</time>
      </trkpt>
      <trkpt lat="42.3947" lon="9.32394">
        <ele>1617</ele>
        <time>2026-05-14T12:54:34+00:00</time>
      </trkpt>
      <trkpt lat="42.39496" lon="9.32417">
        <ele>1635</ele>
        <time>2026-05-14T12:54:35+00:00</time>
      </trkpt>
      <trkpt lat="42.39503" lon="9.32433">
        <ele>1642</ele>
        <time>2026-05-14T12:54:36+00:00</time>
      </trkpt>
      <trkpt lat="42.39542" lon="9.32447">
        <ele>1653</ele>
        <time>2026-05-14T12:54:37+00:00</time>
      </trkpt>
      <trkpt lat="42.39557" lon="9.32471">
        <ele>1662</ele>
        <time>2026-05-14T12:54:38+00:00</time>
      </trkpt>
      <trkpt lat="42.3956" lon="9.32515">
        <ele>1674</ele>
        <time>2026-05-14T12:54:39+00:00</time>
      </trkpt>
      <trkpt lat="42.39547" lon="9.32583">
        <ele>1690</ele>
        <time>2026-05-14T12:54:40+00:00</time>
      </trkpt>
      <trkpt lat="42.39565" lon="9.32606">
        <ele>1701</ele>
        <time>2026-05-14T12:54:41+00:00</time>
      </trkpt>
      <trkpt lat="42.39588" lon="9.32615">
        <ele>1708</ele>
        <time>2026-05-14T12:54:42+00:00</time>
      </trkpt>
      <trkpt lat="42.39611" lon="9.3263">
        <ele>1710</ele>
        <time>2026-05-14T12:54:43+00:00</time>
      </trkpt>
      <trkpt lat="42.39586" lon="9.32734">
        <ele>1734</ele>
        <time>2026-05-14T12:54:44+00:00</time>
      </trkpt>
      <trkpt lat="42.39588" lon="9.32745">
        <ele>1734</ele>
        <time>2026-05-14T12:54:45+00:00</time>
      </trkpt>
      <trkpt lat="42.39591" lon="9.32738">
        <ele>1732</ele>
        <time>2026-05-14T12:54:46+00:00</time>
      </trkpt>
    </trkseg>
  </trk>
</gpx>
