<?xml version="1.0" encoding="UTF-8"?>
<gpx xmlns="http://www.topografix.com/GPX/1/1" xmlns:xsi="http://www.w3.org/2001/XMLSchema-instance" version="1.1" creator="phpGPX/1.3.0" xsi:schemaLocation="http://www.topografix.com/GPX/1/1 http://www.topografix.com/GPX/1/1/gpx.xsd">
  <metadata>
    <time>2026-05-11T18:23:05+00:00</time>
  </metadata>
  <trk>
    <name>La Bastille</name>
    <trkseg>
      <trkpt lat="45.19774" lon="5.73181">
        <ele>222</ele>
        <time>2026-05-11T18:23:06+00:00</time>
      </trkpt>
      <trkpt lat="45.19751" lon="5.73182">
        <ele>219</ele>
        <time>2026-05-11T18:23:07+00:00</time>
      </trkpt>
      <trkpt lat="45.19719" lon="5.73161">
        <ele>220</ele>
        <time>2026-05-11T18:23:08+00:00</time>
      </trkpt>
      <trkpt lat="45.19528" lon="5.72902">
        <ele>221</ele>
        <time>2026-05-11T18:23:09+00:00</time>
      </trkpt>
      <trkpt lat="45.19479" lon="5.72852">
        <ele>218</ele>
        <time>2026-05-11T18:23:10+00:00</time>
      </trkpt>
      <trkpt lat="45.19466" lon="5.72861">
        <ele>216</ele>
        <time>2026-05-11T18:23:11+00:00</time>
      </trkpt>
      <trkpt lat="45.19449" lon="5.72808">
        <ele>218</ele>
        <time>2026-05-11T18:23:12+00:00</time>
      </trkpt>
      <trkpt lat="45.19432" lon="5.72745">
        <ele>219</ele>
        <time>2026-05-11T18:23:13+00:00</time>
      </trkpt>
      <trkpt lat="45.19357" lon="5.72383">
        <ele>229</ele>
        <time>2026-05-11T18:23:14+00:00</time>
      </trkpt>
      <trkpt lat="45.19342" lon="5.72033">
        <ele>217</ele>
        <time>2026-05-11T18:23:15+00:00</time>
      </trkpt>
      <trkpt lat="45.19356" lon="5.71975">
        <ele>217</ele>
        <time>2026-05-11T18:23:16+00:00</time>
      </trkpt>
      <trkpt lat="45.1939" lon="5.7191">
        <ele>216</ele>
        <time>2026-05-11T18:23:17+00:00</time>
      </trkpt>
      <trkpt lat="45.19442" lon="5.71916">
        <ele>218</ele>
        <time>2026-05-11T18:23:18+00:00</time>
      </trkpt>
      <trkpt lat="45.19557" lon="5.71908">
        <ele>222</ele>
        <time>2026-05-11T18:23:19+00:00</time>
      </trkpt>
      <trkpt lat="45.19557" lon="5.71928">
        <ele>224</ele>
        <time>2026-05-11T18:23:20+00:00</time>
      </trkpt>
      <trkpt lat="45.19568" lon="5.71927">
        <ele>225</ele>
        <time>2026-05-11T18:23:21+00:00</time>
      </trkpt>
      <trkpt lat="45.19571" lon="5.71931">
        <ele>225</ele>
        <time>2026-05-11T18:23:22+00:00</time>
      </trkpt>
      <trkpt lat="45.19579" lon="5.71962">
        <ele>229</ele>
        <time>2026-05-11T18:23:23+00:00</time>
      </trkpt>
      <trkpt lat="45.19606" lon="5.71981">
        <ele>235</ele>
        <time>2026-05-11T18:23:24+00:00</time>
      </trkpt>
      <trkpt lat="45.19623" lon="5.71988">
        <ele>239</ele>
        <time>2026-05-11T18:23:25+00:00</time>
      </trkpt>
      <trkpt lat="45.19632" lon="5.71998">
        <ele>243</ele>
        <time>2026-05-11T18:23:26+00:00</time>
      </trkpt>
      <trkpt lat="45.19637" lon="5.7202">
        <ele>247</ele>
        <time>2026-05-11T18:23:27+00:00</time>
      </trkpt>
      <trkpt lat="45.1963" lon="5.72044">
        <ele>249</ele>
        <time>2026-05-11T18:23:28+00:00</time>
      </trkpt>
      <trkpt lat="45.19601" lon="5.72045">
        <ele>242</ele>
        <time>2026-05-11T18:23:29+00:00</time>
      </trkpt>
      <trkpt lat="45.19601" lon="5.72061">
        <ele>243</ele>
        <time>2026-05-11T18:23:30+00:00</time>
      </trkpt>
      <trkpt lat="45.19606" lon="5.72068">
        <ele>245</ele>
        <time>2026-05-11T18:23:31+00:00</time>
      </trkpt>
      <trkpt lat="45.1962" lon="5.72071">
        <ele>250</ele>
        <time>2026-05-11T18:23:32+00:00</time>
      </trkpt>
      <trkpt lat="45.19626" lon="5.72083">
        <ele>253</ele>
        <time>2026-05-11T18:23:33+00:00</time>
      </trkpt>
      <trkpt lat="45.19612" lon="5.72123">
        <ele>264</ele>
        <time>2026-05-11T18:23:34+00:00</time>
      </trkpt>
      <trkpt lat="45.19596" lon="5.72147">
        <ele>269</ele>
        <time>2026-05-11T18:23:35+00:00</time>
      </trkpt>
      <trkpt lat="45.19557" lon="5.72185">
        <ele>277</ele>
        <time>2026-05-11T18:23:36+00:00</time>
      </trkpt>
      <trkpt lat="45.19467" lon="5.72163">
        <ele>249</ele>
        <time>2026-05-11T18:23:37+00:00</time>
      </trkpt>
      <trkpt lat="45.19473" lon="5.72185">
        <ele>259</ele>
        <time>2026-05-11T18:23:38+00:00</time>
      </trkpt>
      <trkpt lat="45.19489" lon="5.72202">
        <ele>272</ele>
        <time>2026-05-11T18:23:39+00:00</time>
      </trkpt>
      <trkpt lat="45.19529" lon="5.72228">
        <ele>294</ele>
        <time>2026-05-11T18:23:40+00:00</time>
      </trkpt>
      <trkpt lat="45.19561" lon="5.72238">
        <ele>304</ele>
        <time>2026-05-11T18:23:41+00:00</time>
      </trkpt>
      <trkpt lat="45.19599" lon="5.72263">
        <ele>319</ele>
        <time>2026-05-11T18:23:42+00:00</time>
      </trkpt>
      <trkpt lat="45.19624" lon="5.72272">
        <ele>326</ele>
        <time>2026-05-11T18:23:43+00:00</time>
      </trkpt>
      <trkpt lat="45.19662" lon="5.72269">
        <ele>333</ele>
        <time>2026-05-11T18:23:44+00:00</time>
      </trkpt>
      <trkpt lat="45.19683" lon="5.72239">
        <ele>331</ele>
        <time>2026-05-11T18:23:45+00:00</time>
      </trkpt>
      <trkpt lat="45.19693" lon="5.72214">
        <ele>322</ele>
        <time>2026-05-11T18:23:46+00:00</time>
      </trkpt>
      <trkpt lat="45.19707" lon="5.72199">
        <ele>319</ele>
        <time>2026-05-11T18:23:47+00:00</time>
      </trkpt>
      <trkpt lat="45.19716" lon="5.72198">
        <ele>322</ele>
        <time>2026-05-11T18:23:48+00:00</time>
      </trkpt>
      <trkpt lat="45.19727" lon="5.72205">
        <ele>328</ele>
        <time>2026-05-11T18:23:49+00:00</time>
      </trkpt>
      <trkpt lat="45.1969" lon="5.72244">
        <ele>335</ele>
        <time>2026-05-11T18:23:50+00:00</time>
      </trkpt>
      <trkpt lat="45.19789" lon="5.7224">
        <ele>366</ele>
        <time>2026-05-11T18:23:51+00:00</time>
      </trkpt>
      <trkpt lat="45.1979" lon="5.72257">
        <ele>374</ele>
        <time>2026-05-11T18:23:52+00:00</time>
      </trkpt>
      <trkpt lat="45.19797" lon="5.72269">
        <ele>381</ele>
        <time>2026-05-11T18:23:53+00:00</time>
      </trkpt>
      <trkpt lat="45.19809" lon="5.72222">
        <ele>365</ele>
        <time>2026-05-11T18:23:54+00:00</time>
      </trkpt>
      <trkpt lat="45.19823" lon="5.72233">
        <ele>377</ele>
        <time>2026-05-11T18:23:55+00:00</time>
      </trkpt>
      <trkpt lat="45.19821" lon="5.7225">
        <ele>386</ele>
        <time>2026-05-11T18:23:56+00:00</time>
      </trkpt>
      <trkpt lat="45.19829" lon="5.72257">
        <ele>391</ele>
        <time>2026-05-11T18:23:57+00:00</time>
      </trkpt>
      <trkpt lat="45.19806" lon="5.72322">
        <ele>402</ele>
        <time>2026-05-11T18:23:58+00:00</time>
      </trkpt>
      <trkpt lat="45.19806" lon="5.72326">
        <ele>404</ele>
        <time>2026-05-11T18:23:59+00:00</time>
      </trkpt>
      <trkpt lat="45.19815" lon="5.72332">
        <ele>410</ele>
        <time>2026-05-11T18:24:00+00:00</time>
      </trkpt>
      <trkpt lat="45.19797" lon="5.72376">
        <ele>413</ele>
        <time>2026-05-11T18:24:01+00:00</time>
      </trkpt>
      <trkpt lat="45.19796" lon="5.72414">
        <ele>423</ele>
        <time>2026-05-11T18:24:02+00:00</time>
      </trkpt>
      <trkpt lat="45.19789" lon="5.72436">
        <ele>422</ele>
        <time>2026-05-11T18:24:03+00:00</time>
      </trkpt>
      <trkpt lat="45.19791" lon="5.72455">
        <ele>425</ele>
        <time>2026-05-11T18:24:04+00:00</time>
      </trkpt>
      <trkpt lat="45.19776" lon="5.72502">
        <ele>421</ele>
        <time>2026-05-11T18:24:05+00:00</time>
      </trkpt>
      <trkpt lat="45.19758" lon="5.72521">
        <ele>411</ele>
        <time>2026-05-11T18:24:06+00:00</time>
      </trkpt>
      <trkpt lat="45.19751" lon="5.7256">
        <ele>411</ele>
        <time>2026-05-11T18:24:07+00:00</time>
      </trkpt>
      <trkpt lat="45.19752" lon="5.72574">
        <ele>414</ele>
        <time>2026-05-11T18:24:08+00:00</time>
      </trkpt>
      <trkpt lat="45.19766" lon="5.72642">
        <ele>412</ele>
        <time>2026-05-11T18:24:09+00:00</time>
      </trkpt>
      <trkpt lat="45.19808" lon="5.72693">
        <ele>419</ele>
        <time>2026-05-11T18:24:10+00:00</time>
      </trkpt>
      <trkpt lat="45.19843" lon="5.72718">
        <ele>427</ele>
        <time>2026-05-11T18:24:11+00:00</time>
      </trkpt>
      <trkpt lat="45.19845" lon="5.72734">
        <ele>422</ele>
        <time>2026-05-11T18:24:12+00:00</time>
      </trkpt>
      <trkpt lat="45.19855" lon="5.72743">
        <ele>421</ele>
        <time>2026-05-11T18:24:13+00:00</time>
      </trkpt>
      <trkpt lat="45.19857" lon="5.72761">
        <ele>412</ele>
        <time>2026-05-11T18:24:14+00:00</time>
      </trkpt>
      <trkpt lat="45.19864" lon="5.72771">
        <ele>407</ele>
        <time>2026-05-11T18:24:15+00:00</time>
      </trkpt>
      <trkpt lat="45.19861" lon="5.72775">
        <ele>404</ele>
        <time>2026-05-11T18:24:16+00:00</time>
      </trkpt>
      <trkpt lat="45.19847" lon="5.72769">
        <ele>404</ele>
        <time>2026-05-11T18:24:17+00:00</time>
      </trkpt>
      <trkpt lat="45.19855" lon="5.7278">
        <ele>399</ele>
        <time>2026-05-11T18:24:18+00:00</time>
      </trkpt>
      <trkpt lat="45.19852" lon="5.72783">
        <ele>396</ele>
        <time>2026-05-11T18:24:19+00:00</time>
      </trkpt>
      <trkpt lat="45.19797" lon="5.72733">
        <ele>396</ele>
        <time>2026-05-11T18:24:20+00:00</time>
      </trkpt>
      <trkpt lat="45.19791" lon="5.72732">
        <ele>392</ele>
        <time>2026-05-11T18:24:21+00:00</time>
      </trkpt>
      <trkpt lat="45.19817" lon="5.72772">
        <ele>388</ele>
        <time>2026-05-11T18:24:22+00:00</time>
      </trkpt>
      <trkpt lat="45.19848" lon="5.72804">
        <ele>381</ele>
        <time>2026-05-11T18:24:23+00:00</time>
      </trkpt>
      <trkpt lat="45.19836" lon="5.72802">
        <ele>379</ele>
        <time>2026-05-11T18:24:24+00:00</time>
      </trkpt>
      <trkpt lat="45.19799" lon="5.72777">
        <ele>375</ele>
        <time>2026-05-11T18:24:25+00:00</time>
      </trkpt>
      <trkpt lat="45.19803" lon="5.72787">
        <ele>371</ele>
        <time>2026-05-11T18:24:26+00:00</time>
      </trkpt>
      <trkpt lat="45.19846" lon="5.72824">
        <ele>367</ele>
        <time>2026-05-11T18:24:27+00:00</time>
      </trkpt>
      <trkpt lat="45.19844" lon="5.7283">
        <ele>363</ele>
        <time>2026-05-11T18:24:28+00:00</time>
      </trkpt>
      <trkpt lat="45.19816" lon="5.72813">
        <ele>363</ele>
        <time>2026-05-11T18:24:29+00:00</time>
      </trkpt>
      <trkpt lat="45.19816" lon="5.72819">
        <ele>359</ele>
        <time>2026-05-11T18:24:30+00:00</time>
      </trkpt>
      <trkpt lat="45.19835" lon="5.72831">
        <ele>359</ele>
        <time>2026-05-11T18:24:31+00:00</time>
      </trkpt>
      <trkpt lat="45.19835" lon="5.72835">
        <ele>357</ele>
        <time>2026-05-11T18:24:32+00:00</time>
      </trkpt>
      <trkpt lat="45.1983" lon="5.72835">
        <ele>355</ele>
        <time>2026-05-11T18:24:33+00:00</time>
      </trkpt>
      <trkpt lat="45.19794" lon="5.72809">
        <ele>355</ele>
        <time>2026-05-11T18:24:34+00:00</time>
      </trkpt>
      <trkpt lat="45.19791" lon="5.72811">
        <ele>352</ele>
        <time>2026-05-11T18:24:35+00:00</time>
      </trkpt>
      <trkpt lat="45.19821" lon="5.72838">
        <ele>350</ele>
        <time>2026-05-11T18:24:36+00:00</time>
      </trkpt>
      <trkpt lat="45.19823" lon="5.72844">
        <ele>348</ele>
        <time>2026-05-11T18:24:37+00:00</time>
      </trkpt>
      <trkpt lat="45.19804" lon="5.72837">
        <ele>344</ele>
        <time>2026-05-11T18:24:38+00:00</time>
      </trkpt>
      <trkpt lat="45.19762" lon="5.72809">
        <ele>339</ele>
        <time>2026-05-11T18:24:39+00:00</time>
      </trkpt>
      <trkpt lat="45.19759" lon="5.72811">
        <ele>337</ele>
        <time>2026-05-11T18:24:40+00:00</time>
      </trkpt>
      <trkpt lat="45.19811" lon="5.7288">
        <ele>328</ele>
        <time>2026-05-11T18:24:41+00:00</time>
      </trkpt>
      <trkpt lat="45.19801" lon="5.72878">
        <ele>326</ele>
        <time>2026-05-11T18:24:42+00:00</time>
      </trkpt>
      <trkpt lat="45.19742" lon="5.72834">
        <ele>320</ele>
        <time>2026-05-11T18:24:43+00:00</time>
      </trkpt>
      <trkpt lat="45.19743" lon="5.72845">
        <ele>318</ele>
        <time>2026-05-11T18:24:44+00:00</time>
      </trkpt>
      <trkpt lat="45.19754" lon="5.72862">
        <ele>318</ele>
        <time>2026-05-11T18:24:45+00:00</time>
      </trkpt>
      <trkpt lat="45.19776" lon="5.72886">
        <ele>317</ele>
        <time>2026-05-11T18:24:46+00:00</time>
      </trkpt>
      <trkpt lat="45.19802" lon="5.72926">
        <ele>307</ele>
        <time>2026-05-11T18:24:47+00:00</time>
      </trkpt>
      <trkpt lat="45.19771" lon="5.72915">
        <ele>307</ele>
        <time>2026-05-11T18:24:48+00:00</time>
      </trkpt>
      <trkpt lat="45.19734" lon="5.72879">
        <ele>305</ele>
        <time>2026-05-11T18:24:49+00:00</time>
      </trkpt>
      <trkpt lat="45.19695" lon="5.72854">
        <ele>295</ele>
        <time>2026-05-11T18:24:50+00:00</time>
      </trkpt>
      <trkpt lat="45.19769" lon="5.72981">
        <ele>275</ele>
        <time>2026-05-11T18:24:51+00:00</time>
      </trkpt>
      <trkpt lat="45.19788" lon="5.73">
        <ele>269</ele>
        <time>2026-05-11T18:24:52+00:00</time>
      </trkpt>
      <trkpt lat="45.19819" lon="5.73019">
        <ele>269</ele>
        <time>2026-05-11T18:24:53+00:00</time>
      </trkpt>
      <trkpt lat="45.19818" lon="5.73025">
        <ele>267</ele>
        <time>2026-05-11T18:24:54+00:00</time>
      </trkpt>
      <trkpt lat="45.19813" lon="5.73025">
        <ele>266</ele>
        <time>2026-05-11T18:24:55+00:00</time>
      </trkpt>
      <trkpt lat="45.19765" lon="5.73005">
        <ele>264</ele>
        <time>2026-05-11T18:24:56+00:00</time>
      </trkpt>
      <trkpt lat="45.19769" lon="5.73016">
        <ele>260</ele>
        <time>2026-05-11T18:24:57+00:00</time>
      </trkpt>
      <trkpt lat="45.19807" lon="5.73032">
        <ele>263</ele>
        <time>2026-05-11T18:24:58+00:00</time>
      </trkpt>
      <trkpt lat="45.1981" lon="5.73037">
        <ele>262</ele>
        <time>2026-05-11T18:24:59+00:00</time>
      </trkpt>
      <trkpt lat="45.19805" lon="5.73041">
        <ele>260</ele>
        <time>2026-05-11T18:25:00+00:00</time>
      </trkpt>
      <trkpt lat="45.19749" lon="5.73025">
        <ele>253</ele>
        <time>2026-05-11T18:25:01+00:00</time>
      </trkpt>
      <trkpt lat="45.19752" lon="5.73031">
        <ele>251</ele>
        <time>2026-05-11T18:25:02+00:00</time>
      </trkpt>
      <trkpt lat="45.19802" lon="5.73058">
        <ele>254</ele>
        <time>2026-05-11T18:25:03+00:00</time>
      </trkpt>
      <trkpt lat="45.19802" lon="5.73063">
        <ele>252</ele>
        <time>2026-05-11T18:25:04+00:00</time>
      </trkpt>
      <trkpt lat="45.19773" lon="5.73055">
        <ele>247</ele>
        <time>2026-05-11T18:25:05+00:00</time>
      </trkpt>
      <trkpt lat="45.19763" lon="5.73056">
        <ele>244</ele>
        <time>2026-05-11T18:25:06+00:00</time>
      </trkpt>
      <trkpt lat="45.19808" lon="5.73092">
        <ele>246</ele>
        <time>2026-05-11T18:25:07+00:00</time>
      </trkpt>
      <trkpt lat="45.19808" lon="5.73099">
        <ele>244</ele>
        <time>2026-05-11T18:25:08+00:00</time>
      </trkpt>
      <trkpt lat="45.19792" lon="5.73093">
        <ele>241</ele>
        <time>2026-05-11T18:25:09+00:00</time>
      </trkpt>
      <trkpt lat="45.19753" lon="5.73088">
        <ele>230</ele>
        <time>2026-05-11T18:25:10+00:00</time>
      </trkpt>
      <trkpt lat="45.19756" lon="5.73095">
        <ele>230</ele>
        <time>2026-05-11T18:25:11+00:00</time>
      </trkpt>
      <trkpt lat="45.1978" lon="5.73114">
        <ele>234</ele>
        <time>2026-05-11T18:25:12+00:00</time>
      </trkpt>
      <trkpt lat="45.19809" lon="5.73126">
        <ele>238</ele>
        <time>2026-05-11T18:25:13+00:00</time>
      </trkpt>
      <trkpt lat="45.1981" lon="5.73131">
        <ele>237</ele>
        <time>2026-05-11T18:25:14+00:00</time>
      </trkpt>
      <trkpt lat="45.19793" lon="5.73129">
        <ele>234</ele>
        <time>2026-05-11T18:25:15+00:00</time>
      </trkpt>
      <trkpt lat="45.19785" lon="5.73135">
        <ele>231</ele>
        <time>2026-05-11T18:25:16+00:00</time>
      </trkpt>
      <trkpt lat="45.19779" lon="5.73148">
        <ele>228</ele>
        <time>2026-05-11T18:25:17+00:00</time>
      </trkpt>
      <trkpt lat="45.19774" lon="5.73181">
        <ele>222</ele>
        <time>2026-05-11T18:25:18+00:00</time>
      </trkpt>
    </trkseg>
  </trk>
</gpx>
