<?xml version="1.0" encoding="UTF-8"?>
<gpx xmlns="http://www.topografix.com/GPX/1/1" xmlns:xsi="http://www.w3.org/2001/XMLSchema-instance" version="1.1" creator="phpGPX/1.3.0" xsi:schemaLocation="http://www.topografix.com/GPX/1/1 http://www.topografix.com/GPX/1/1/gpx.xsd">
  <metadata>
    <time>2026-05-11T18:34:35+00:00</time>
  </metadata>
  <trk>
    <name>La fontaine aux oiseaux</name>
    <trkseg>
      <trkpt lat="46.95011" lon="6.25873">
        <ele>773</ele>
        <time>2026-05-11T18:34:36+00:00</time>
      </trkpt>
      <trkpt lat="46.95012" lon="6.2579">
        <ele>767</ele>
        <time>2026-05-11T18:34:37+00:00</time>
      </trkpt>
      <trkpt lat="46.95007" lon="6.25777">
        <ele>766</ele>
        <time>2026-05-11T18:34:38+00:00</time>
      </trkpt>
      <trkpt lat="46.94906" lon="6.25591">
        <ele>764</ele>
        <time>2026-05-11T18:34:39+00:00</time>
      </trkpt>
      <trkpt lat="46.94799" lon="6.2541">
        <ele>766</ele>
        <time>2026-05-11T18:34:40+00:00</time>
      </trkpt>
      <trkpt lat="46.94704" lon="6.25194">
        <ele>767</ele>
        <time>2026-05-11T18:34:41+00:00</time>
      </trkpt>
      <trkpt lat="46.9468" lon="6.25147">
        <ele>765</ele>
        <time>2026-05-11T18:34:42+00:00</time>
      </trkpt>
      <trkpt lat="46.94619" lon="6.25056">
        <ele>768</ele>
        <time>2026-05-11T18:34:43+00:00</time>
      </trkpt>
      <trkpt lat="46.94579" lon="6.24977">
        <ele>768</ele>
        <time>2026-05-11T18:34:44+00:00</time>
      </trkpt>
      <trkpt lat="46.94524" lon="6.2488">
        <ele>775</ele>
        <time>2026-05-11T18:34:45+00:00</time>
      </trkpt>
      <trkpt lat="46.94494" lon="6.24841">
        <ele>780</ele>
        <time>2026-05-11T18:34:46+00:00</time>
      </trkpt>
      <trkpt lat="46.94457" lon="6.24816">
        <ele>781</ele>
        <time>2026-05-11T18:34:47+00:00</time>
      </trkpt>
      <trkpt lat="46.94403" lon="6.24789">
        <ele>784</ele>
        <time>2026-05-11T18:34:48+00:00</time>
      </trkpt>
      <trkpt lat="46.94396" lon="6.24776">
        <ele>783</ele>
        <time>2026-05-11T18:34:49+00:00</time>
      </trkpt>
      <trkpt lat="46.94367" lon="6.24757">
        <ele>786</ele>
        <time>2026-05-11T18:34:50+00:00</time>
      </trkpt>
      <trkpt lat="46.94319" lon="6.24713">
        <ele>791</ele>
        <time>2026-05-11T18:34:51+00:00</time>
      </trkpt>
      <trkpt lat="46.94234" lon="6.24621">
        <ele>796</ele>
        <time>2026-05-11T18:34:52+00:00</time>
      </trkpt>
      <trkpt lat="46.94187" lon="6.24551">
        <ele>798</ele>
        <time>2026-05-11T18:34:53+00:00</time>
      </trkpt>
      <trkpt lat="46.94085" lon="6.24369">
        <ele>793</ele>
        <time>2026-05-11T18:34:54+00:00</time>
      </trkpt>
      <trkpt lat="46.94005" lon="6.24184">
        <ele>799</ele>
        <time>2026-05-11T18:34:55+00:00</time>
      </trkpt>
      <trkpt lat="46.93842" lon="6.2394">
        <ele>808</ele>
        <time>2026-05-11T18:34:56+00:00</time>
      </trkpt>
      <trkpt lat="46.93803" lon="6.2387">
        <ele>807</ele>
        <time>2026-05-11T18:34:57+00:00</time>
      </trkpt>
      <trkpt lat="46.93786" lon="6.23829">
        <ele>809</ele>
        <time>2026-05-11T18:34:58+00:00</time>
      </trkpt>
      <trkpt lat="46.93777" lon="6.23842">
        <ele>813</ele>
        <time>2026-05-11T18:34:59+00:00</time>
      </trkpt>
      <trkpt lat="46.93693" lon="6.23934">
        <ele>825</ele>
        <time>2026-05-11T18:35:00+00:00</time>
      </trkpt>
      <trkpt lat="46.93652" lon="6.23983">
        <ele>822</ele>
        <time>2026-05-11T18:35:01+00:00</time>
      </trkpt>
      <trkpt lat="46.93643" lon="6.23988">
        <ele>822</ele>
        <time>2026-05-11T18:35:02+00:00</time>
      </trkpt>
      <trkpt lat="46.93629" lon="6.24004">
        <ele>821</ele>
        <time>2026-05-11T18:35:03+00:00</time>
      </trkpt>
      <trkpt lat="46.93598" lon="6.24049">
        <ele>820</ele>
        <time>2026-05-11T18:35:04+00:00</time>
      </trkpt>
      <trkpt lat="46.9358" lon="6.24069">
        <ele>820</ele>
        <time>2026-05-11T18:35:05+00:00</time>
      </trkpt>
      <trkpt lat="46.93624" lon="6.24151">
        <ele>822</ele>
        <time>2026-05-11T18:35:06+00:00</time>
      </trkpt>
      <trkpt lat="46.93775" lon="6.24322">
        <ele>828</ele>
        <time>2026-05-11T18:35:07+00:00</time>
      </trkpt>
      <trkpt lat="46.93786" lon="6.2434">
        <ele>828</ele>
        <time>2026-05-11T18:35:08+00:00</time>
      </trkpt>
      <trkpt lat="46.9381" lon="6.2441">
        <ele>828</ele>
        <time>2026-05-11T18:35:09+00:00</time>
      </trkpt>
      <trkpt lat="46.93846" lon="6.24367">
        <ele>826</ele>
        <time>2026-05-11T18:35:10+00:00</time>
      </trkpt>
      <trkpt lat="46.93853" lon="6.24365">
        <ele>826</ele>
        <time>2026-05-11T18:35:11+00:00</time>
      </trkpt>
      <trkpt lat="46.93871" lon="6.24351">
        <ele>826</ele>
        <time>2026-05-11T18:35:12+00:00</time>
      </trkpt>
      <trkpt lat="46.93883" lon="6.2435">
        <ele>826</ele>
        <time>2026-05-11T18:35:13+00:00</time>
      </trkpt>
      <trkpt lat="46.93888" lon="6.24355">
        <ele>826</ele>
        <time>2026-05-11T18:35:14+00:00</time>
      </trkpt>
      <trkpt lat="46.93902" lon="6.24355">
        <ele>826</ele>
        <time>2026-05-11T18:35:15+00:00</time>
      </trkpt>
      <trkpt lat="46.93938" lon="6.24341">
        <ele>825</ele>
        <time>2026-05-11T18:35:16+00:00</time>
      </trkpt>
      <trkpt lat="46.93958" lon="6.24329">
        <ele>823</ele>
        <time>2026-05-11T18:35:17+00:00</time>
      </trkpt>
      <trkpt lat="46.93976" lon="6.24353">
        <ele>823</ele>
        <time>2026-05-11T18:35:18+00:00</time>
      </trkpt>
      <trkpt lat="46.94003" lon="6.24377">
        <ele>822</ele>
        <time>2026-05-11T18:35:19+00:00</time>
      </trkpt>
      <trkpt lat="46.94006" lon="6.24385">
        <ele>822</ele>
        <time>2026-05-11T18:35:20+00:00</time>
      </trkpt>
      <trkpt lat="46.9403" lon="6.24405">
        <ele>816</ele>
        <time>2026-05-11T18:35:21+00:00</time>
      </trkpt>
      <trkpt lat="46.94039" lon="6.2442">
        <ele>816</ele>
        <time>2026-05-11T18:35:22+00:00</time>
      </trkpt>
      <trkpt lat="46.94037" lon="6.24442">
        <ele>818</ele>
        <time>2026-05-11T18:35:23+00:00</time>
      </trkpt>
      <trkpt lat="46.9404" lon="6.24445">
        <ele>818</ele>
        <time>2026-05-11T18:35:24+00:00</time>
      </trkpt>
      <trkpt lat="46.94043" lon="6.24444">
        <ele>817</ele>
        <time>2026-05-11T18:35:25+00:00</time>
      </trkpt>
      <trkpt lat="46.94042" lon="6.24453">
        <ele>818</ele>
        <time>2026-05-11T18:35:26+00:00</time>
      </trkpt>
      <trkpt lat="46.94045" lon="6.24462">
        <ele>819</ele>
        <time>2026-05-11T18:35:27+00:00</time>
      </trkpt>
      <trkpt lat="46.94056" lon="6.24471">
        <ele>818</ele>
        <time>2026-05-11T18:35:28+00:00</time>
      </trkpt>
      <trkpt lat="46.94064" lon="6.24483">
        <ele>818</ele>
        <time>2026-05-11T18:35:29+00:00</time>
      </trkpt>
      <trkpt lat="46.94067" lon="6.2449">
        <ele>819</ele>
        <time>2026-05-11T18:35:30+00:00</time>
      </trkpt>
      <trkpt lat="46.94068" lon="6.24507">
        <ele>821</ele>
        <time>2026-05-11T18:35:31+00:00</time>
      </trkpt>
      <trkpt lat="46.94082" lon="6.24523">
        <ele>821</ele>
        <time>2026-05-11T18:35:32+00:00</time>
      </trkpt>
      <trkpt lat="46.94087" lon="6.24538">
        <ele>821</ele>
        <time>2026-05-11T18:35:33+00:00</time>
      </trkpt>
      <trkpt lat="46.94102" lon="6.24555">
        <ele>819</ele>
        <time>2026-05-11T18:35:34+00:00</time>
      </trkpt>
      <trkpt lat="46.94102" lon="6.24562">
        <ele>820</ele>
        <time>2026-05-11T18:35:35+00:00</time>
      </trkpt>
      <trkpt lat="46.94099" lon="6.24564">
        <ele>821</ele>
        <time>2026-05-11T18:35:36+00:00</time>
      </trkpt>
      <trkpt lat="46.94099" lon="6.24568">
        <ele>821</ele>
        <time>2026-05-11T18:35:37+00:00</time>
      </trkpt>
      <trkpt lat="46.94112" lon="6.24577">
        <ele>819</ele>
        <time>2026-05-11T18:35:38+00:00</time>
      </trkpt>
      <trkpt lat="46.94113" lon="6.24595">
        <ele>820</ele>
        <time>2026-05-11T18:35:39+00:00</time>
      </trkpt>
      <trkpt lat="46.94123" lon="6.24603">
        <ele>818</ele>
        <time>2026-05-11T18:35:40+00:00</time>
      </trkpt>
      <trkpt lat="46.94128" lon="6.24617">
        <ele>818</ele>
        <time>2026-05-11T18:35:41+00:00</time>
      </trkpt>
      <trkpt lat="46.94133" lon="6.2462">
        <ele>817</ele>
        <time>2026-05-11T18:35:42+00:00</time>
      </trkpt>
      <trkpt lat="46.94136" lon="6.24626">
        <ele>817</ele>
        <time>2026-05-11T18:35:43+00:00</time>
      </trkpt>
      <trkpt lat="46.94135" lon="6.24633">
        <ele>818</ele>
        <time>2026-05-11T18:35:44+00:00</time>
      </trkpt>
      <trkpt lat="46.9414" lon="6.24646">
        <ele>819</ele>
        <time>2026-05-11T18:35:45+00:00</time>
      </trkpt>
      <trkpt lat="46.94138" lon="6.24657">
        <ele>820</ele>
        <time>2026-05-11T18:35:46+00:00</time>
      </trkpt>
      <trkpt lat="46.9414" lon="6.24656">
        <ele>820</ele>
        <time>2026-05-11T18:35:47+00:00</time>
      </trkpt>
      <trkpt lat="46.94141" lon="6.24662">
        <ele>820</ele>
        <time>2026-05-11T18:35:48+00:00</time>
      </trkpt>
      <trkpt lat="46.94146" lon="6.24668">
        <ele>820</ele>
        <time>2026-05-11T18:35:49+00:00</time>
      </trkpt>
      <trkpt lat="46.94145" lon="6.24674">
        <ele>821</ele>
        <time>2026-05-11T18:35:50+00:00</time>
      </trkpt>
      <trkpt lat="46.94155" lon="6.24675">
        <ele>820</ele>
        <time>2026-05-11T18:35:51+00:00</time>
      </trkpt>
      <trkpt lat="46.94165" lon="6.2467">
        <ele>819</ele>
        <time>2026-05-11T18:35:52+00:00</time>
      </trkpt>
      <trkpt lat="46.94162" lon="6.24677">
        <ele>820</ele>
        <time>2026-05-11T18:35:53+00:00</time>
      </trkpt>
      <trkpt lat="46.94165" lon="6.24698">
        <ele>822</ele>
        <time>2026-05-11T18:35:54+00:00</time>
      </trkpt>
      <trkpt lat="46.94163" lon="6.24708">
        <ele>823</ele>
        <time>2026-05-11T18:35:55+00:00</time>
      </trkpt>
      <trkpt lat="46.94166" lon="6.24715">
        <ele>824</ele>
        <time>2026-05-11T18:35:56+00:00</time>
      </trkpt>
      <trkpt lat="46.94172" lon="6.24719">
        <ele>824</ele>
        <time>2026-05-11T18:35:57+00:00</time>
      </trkpt>
      <trkpt lat="46.94176" lon="6.24731">
        <ele>824</ele>
        <time>2026-05-11T18:35:58+00:00</time>
      </trkpt>
      <trkpt lat="46.94184" lon="6.24734">
        <ele>823</ele>
        <time>2026-05-11T18:35:59+00:00</time>
      </trkpt>
      <trkpt lat="46.94174" lon="6.24749">
        <ele>827</ele>
        <time>2026-05-11T18:36:00+00:00</time>
      </trkpt>
      <trkpt lat="46.9416" lon="6.24762">
        <ele>828</ele>
        <time>2026-05-11T18:36:01+00:00</time>
      </trkpt>
      <trkpt lat="46.94159" lon="6.24776">
        <ele>828</ele>
        <time>2026-05-11T18:36:02+00:00</time>
      </trkpt>
      <trkpt lat="46.94161" lon="6.2478">
        <ele>828</ele>
        <time>2026-05-11T18:36:03+00:00</time>
      </trkpt>
      <trkpt lat="46.9417" lon="6.2479">
        <ele>829</ele>
        <time>2026-05-11T18:36:04+00:00</time>
      </trkpt>
      <trkpt lat="46.94181" lon="6.24794">
        <ele>828</ele>
        <time>2026-05-11T18:36:05+00:00</time>
      </trkpt>
      <trkpt lat="46.94195" lon="6.24806">
        <ele>829</ele>
        <time>2026-05-11T18:36:06+00:00</time>
      </trkpt>
      <trkpt lat="46.94206" lon="6.24809">
        <ele>829</ele>
        <time>2026-05-11T18:36:07+00:00</time>
      </trkpt>
      <trkpt lat="46.94218" lon="6.24816">
        <ele>830</ele>
        <time>2026-05-11T18:36:08+00:00</time>
      </trkpt>
      <trkpt lat="46.94227" lon="6.24827">
        <ele>832</ele>
        <time>2026-05-11T18:36:09+00:00</time>
      </trkpt>
      <trkpt lat="46.94248" lon="6.24837">
        <ele>834</ele>
        <time>2026-05-11T18:36:10+00:00</time>
      </trkpt>
      <trkpt lat="46.94266" lon="6.2485">
        <ele>831</ele>
        <time>2026-05-11T18:36:11+00:00</time>
      </trkpt>
      <trkpt lat="46.94275" lon="6.24861">
        <ele>831</ele>
        <time>2026-05-11T18:36:12+00:00</time>
      </trkpt>
      <trkpt lat="46.94276" lon="6.24869">
        <ele>831</ele>
        <time>2026-05-11T18:36:13+00:00</time>
      </trkpt>
      <trkpt lat="46.94281" lon="6.24876">
        <ele>831</ele>
        <time>2026-05-11T18:36:14+00:00</time>
      </trkpt>
      <trkpt lat="46.94289" lon="6.24877">
        <ele>830</ele>
        <time>2026-05-11T18:36:15+00:00</time>
      </trkpt>
      <trkpt lat="46.94296" lon="6.24889">
        <ele>831</ele>
        <time>2026-05-11T18:36:16+00:00</time>
      </trkpt>
      <trkpt lat="46.94302" lon="6.24891">
        <ele>830</ele>
        <time>2026-05-11T18:36:17+00:00</time>
      </trkpt>
      <trkpt lat="46.94318" lon="6.2491">
        <ele>832</ele>
        <time>2026-05-11T18:36:18+00:00</time>
      </trkpt>
      <trkpt lat="46.94339" lon="6.24908">
        <ele>830</ele>
        <time>2026-05-11T18:36:19+00:00</time>
      </trkpt>
      <trkpt lat="46.94345" lon="6.24916">
        <ele>830</ele>
        <time>2026-05-11T18:36:20+00:00</time>
      </trkpt>
      <trkpt lat="46.94354" lon="6.24916">
        <ele>828</ele>
        <time>2026-05-11T18:36:21+00:00</time>
      </trkpt>
      <trkpt lat="46.94358" lon="6.24919">
        <ele>827</ele>
        <time>2026-05-11T18:36:22+00:00</time>
      </trkpt>
      <trkpt lat="46.9438" lon="6.24966">
        <ele>826</ele>
        <time>2026-05-11T18:36:23+00:00</time>
      </trkpt>
      <trkpt lat="46.94385" lon="6.24982">
        <ele>827</ele>
        <time>2026-05-11T18:36:24+00:00</time>
      </trkpt>
      <trkpt lat="46.9441" lon="6.25005">
        <ele>828</ele>
        <time>2026-05-11T18:36:25+00:00</time>
      </trkpt>
      <trkpt lat="46.94432" lon="6.25039">
        <ele>824</ele>
        <time>2026-05-11T18:36:26+00:00</time>
      </trkpt>
      <trkpt lat="46.94446" lon="6.2508">
        <ele>823</ele>
        <time>2026-05-11T18:36:27+00:00</time>
      </trkpt>
      <trkpt lat="46.94446" lon="6.25087">
        <ele>824</ele>
        <time>2026-05-11T18:36:28+00:00</time>
      </trkpt>
      <trkpt lat="46.94452" lon="6.25083">
        <ele>822</ele>
        <time>2026-05-11T18:36:29+00:00</time>
      </trkpt>
      <trkpt lat="46.94457" lon="6.25084">
        <ele>822</ele>
        <time>2026-05-11T18:36:30+00:00</time>
      </trkpt>
      <trkpt lat="46.94481" lon="6.25105">
        <ele>821</ele>
        <time>2026-05-11T18:36:31+00:00</time>
      </trkpt>
      <trkpt lat="46.94493" lon="6.25123">
        <ele>823</ele>
        <time>2026-05-11T18:36:32+00:00</time>
      </trkpt>
      <trkpt lat="46.94501" lon="6.25148">
        <ele>828</ele>
        <time>2026-05-11T18:36:33+00:00</time>
      </trkpt>
      <trkpt lat="46.94506" lon="6.25153">
        <ele>827</ele>
        <time>2026-05-11T18:36:34+00:00</time>
      </trkpt>
      <trkpt lat="46.94523" lon="6.25159">
        <ele>822</ele>
        <time>2026-05-11T18:36:35+00:00</time>
      </trkpt>
      <trkpt lat="46.94527" lon="6.25166">
        <ele>822</ele>
        <time>2026-05-11T18:36:36+00:00</time>
      </trkpt>
      <trkpt lat="46.94528" lon="6.25174">
        <ele>823</ele>
        <time>2026-05-11T18:36:37+00:00</time>
      </trkpt>
      <trkpt lat="46.94537" lon="6.25187">
        <ele>822</ele>
        <time>2026-05-11T18:36:38+00:00</time>
      </trkpt>
      <trkpt lat="46.94547" lon="6.25194">
        <ele>820</ele>
        <time>2026-05-11T18:36:39+00:00</time>
      </trkpt>
      <trkpt lat="46.9456" lon="6.2521">
        <ele>820</ele>
        <time>2026-05-11T18:36:40+00:00</time>
      </trkpt>
      <trkpt lat="46.94566" lon="6.25223">
        <ele>822</ele>
        <time>2026-05-11T18:36:41+00:00</time>
      </trkpt>
      <trkpt lat="46.94577" lon="6.25237">
        <ele>823</ele>
        <time>2026-05-11T18:36:42+00:00</time>
      </trkpt>
      <trkpt lat="46.94579" lon="6.25257">
        <ele>827</ele>
        <time>2026-05-11T18:36:43+00:00</time>
      </trkpt>
      <trkpt lat="46.94591" lon="6.25265">
        <ele>824</ele>
        <time>2026-05-11T18:36:44+00:00</time>
      </trkpt>
      <trkpt lat="46.94599" lon="6.25279">
        <ele>822</ele>
        <time>2026-05-11T18:36:45+00:00</time>
      </trkpt>
      <trkpt lat="46.94604" lon="6.25295">
        <ele>823</ele>
        <time>2026-05-11T18:36:46+00:00</time>
      </trkpt>
      <trkpt lat="46.94619" lon="6.25325">
        <ele>821</ele>
        <time>2026-05-11T18:36:47+00:00</time>
      </trkpt>
      <trkpt lat="46.9462" lon="6.25335">
        <ele>822</ele>
        <time>2026-05-11T18:36:48+00:00</time>
      </trkpt>
      <trkpt lat="46.94633" lon="6.25358">
        <ele>819</ele>
        <time>2026-05-11T18:36:49+00:00</time>
      </trkpt>
      <trkpt lat="46.94632" lon="6.25364">
        <ele>820</ele>
        <time>2026-05-11T18:36:50+00:00</time>
      </trkpt>
      <trkpt lat="46.94619" lon="6.25375">
        <ele>825</ele>
        <time>2026-05-11T18:36:51+00:00</time>
      </trkpt>
      <trkpt lat="46.94609" lon="6.25391">
        <ele>829</ele>
        <time>2026-05-11T18:36:52+00:00</time>
      </trkpt>
      <trkpt lat="46.94605" lon="6.2541">
        <ele>831</ele>
        <time>2026-05-11T18:36:53+00:00</time>
      </trkpt>
      <trkpt lat="46.94594" lon="6.2543">
        <ele>833</ele>
        <time>2026-05-11T18:36:54+00:00</time>
      </trkpt>
      <trkpt lat="46.94596" lon="6.2544">
        <ele>832</ele>
        <time>2026-05-11T18:36:55+00:00</time>
      </trkpt>
      <trkpt lat="46.94624" lon="6.2546">
        <ele>828</ele>
        <time>2026-05-11T18:36:56+00:00</time>
      </trkpt>
      <trkpt lat="46.94641" lon="6.25478">
        <ele>827</ele>
        <time>2026-05-11T18:36:57+00:00</time>
      </trkpt>
      <trkpt lat="46.94662" lon="6.25536">
        <ele>828</ele>
        <time>2026-05-11T18:36:58+00:00</time>
      </trkpt>
      <trkpt lat="46.94668" lon="6.25542">
        <ele>828</ele>
        <time>2026-05-11T18:36:59+00:00</time>
      </trkpt>
      <trkpt lat="46.94674" lon="6.25565">
        <ele>827</ele>
        <time>2026-05-11T18:37:00+00:00</time>
      </trkpt>
      <trkpt lat="46.94674" lon="6.25575">
        <ele>827</ele>
        <time>2026-05-11T18:37:01+00:00</time>
      </trkpt>
      <trkpt lat="46.94685" lon="6.25598">
        <ele>825</ele>
        <time>2026-05-11T18:37:02+00:00</time>
      </trkpt>
      <trkpt lat="46.947" lon="6.25619">
        <ele>823</ele>
        <time>2026-05-11T18:37:03+00:00</time>
      </trkpt>
      <trkpt lat="46.94711" lon="6.25624">
        <ele>822</ele>
        <time>2026-05-11T18:37:04+00:00</time>
      </trkpt>
      <trkpt lat="46.94723" lon="6.25635">
        <ele>822</ele>
        <time>2026-05-11T18:37:05+00:00</time>
      </trkpt>
      <trkpt lat="46.94744" lon="6.25642">
        <ele>821</ele>
        <time>2026-05-11T18:37:06+00:00</time>
      </trkpt>
      <trkpt lat="46.94756" lon="6.25651">
        <ele>821</ele>
        <time>2026-05-11T18:37:07+00:00</time>
      </trkpt>
      <trkpt lat="46.94773" lon="6.25672">
        <ele>819</ele>
        <time>2026-05-11T18:37:08+00:00</time>
      </trkpt>
      <trkpt lat="46.94792" lon="6.25712">
        <ele>821</ele>
        <time>2026-05-11T18:37:09+00:00</time>
      </trkpt>
      <trkpt lat="46.94796" lon="6.25726">
        <ele>822</ele>
        <time>2026-05-11T18:37:10+00:00</time>
      </trkpt>
      <trkpt lat="46.94812" lon="6.25747">
        <ele>825</ele>
        <time>2026-05-11T18:37:11+00:00</time>
      </trkpt>
      <trkpt lat="46.94825" lon="6.25752">
        <ele>826</ele>
        <time>2026-05-11T18:37:12+00:00</time>
      </trkpt>
      <trkpt lat="46.94827" lon="6.25755">
        <ele>826</ele>
        <time>2026-05-11T18:37:13+00:00</time>
      </trkpt>
      <trkpt lat="46.9483" lon="6.25764">
        <ele>827</ele>
        <time>2026-05-11T18:37:14+00:00</time>
      </trkpt>
      <trkpt lat="46.94827" lon="6.25773">
        <ele>828</ele>
        <time>2026-05-11T18:37:15+00:00</time>
      </trkpt>
      <trkpt lat="46.9484" lon="6.25792">
        <ele>828</ele>
        <time>2026-05-11T18:37:16+00:00</time>
      </trkpt>
      <trkpt lat="46.9484" lon="6.25833">
        <ele>833</ele>
        <time>2026-05-11T18:37:17+00:00</time>
      </trkpt>
      <trkpt lat="46.94843" lon="6.2585">
        <ele>832</ele>
        <time>2026-05-11T18:37:18+00:00</time>
      </trkpt>
      <trkpt lat="46.94843" lon="6.25874">
        <ele>830</ele>
        <time>2026-05-11T18:37:19+00:00</time>
      </trkpt>
      <trkpt lat="46.9484" lon="6.25882">
        <ele>830</ele>
        <time>2026-05-11T18:37:20+00:00</time>
      </trkpt>
      <trkpt lat="46.94841" lon="6.25898">
        <ele>829</ele>
        <time>2026-05-11T18:37:21+00:00</time>
      </trkpt>
      <trkpt lat="46.94836" lon="6.25906">
        <ele>829</ele>
        <time>2026-05-11T18:37:22+00:00</time>
      </trkpt>
      <trkpt lat="46.94835" lon="6.25913">
        <ele>829</ele>
        <time>2026-05-11T18:37:23+00:00</time>
      </trkpt>
      <trkpt lat="46.94831" lon="6.25917">
        <ele>829</ele>
        <time>2026-05-11T18:37:24+00:00</time>
      </trkpt>
      <trkpt lat="46.9483" lon="6.25928">
        <ele>827</ele>
        <time>2026-05-11T18:37:25+00:00</time>
      </trkpt>
      <trkpt lat="46.94837" lon="6.25942">
        <ele>824</ele>
        <time>2026-05-11T18:37:26+00:00</time>
      </trkpt>
      <trkpt lat="46.94833" lon="6.25976">
        <ele>818</ele>
        <time>2026-05-11T18:37:27+00:00</time>
      </trkpt>
      <trkpt lat="46.94826" lon="6.25986">
        <ele>816</ele>
        <time>2026-05-11T18:37:28+00:00</time>
      </trkpt>
      <trkpt lat="46.94823" lon="6.25998">
        <ele>814</ele>
        <time>2026-05-11T18:37:29+00:00</time>
      </trkpt>
      <trkpt lat="46.94818" lon="6.26">
        <ele>813</ele>
        <time>2026-05-11T18:37:30+00:00</time>
      </trkpt>
      <trkpt lat="46.9482" lon="6.26013">
        <ele>810</ele>
        <time>2026-05-11T18:37:31+00:00</time>
      </trkpt>
      <trkpt lat="46.94827" lon="6.26016">
        <ele>809</ele>
        <time>2026-05-11T18:37:32+00:00</time>
      </trkpt>
      <trkpt lat="46.9483" lon="6.26013">
        <ele>810</ele>
        <time>2026-05-11T18:37:33+00:00</time>
      </trkpt>
      <trkpt lat="46.94833" lon="6.26021">
        <ele>808</ele>
        <time>2026-05-11T18:37:34+00:00</time>
      </trkpt>
      <trkpt lat="46.94849" lon="6.26021">
        <ele>807</ele>
        <time>2026-05-11T18:37:35+00:00</time>
      </trkpt>
      <trkpt lat="46.94856" lon="6.26018">
        <ele>807</ele>
        <time>2026-05-11T18:37:36+00:00</time>
      </trkpt>
      <trkpt lat="46.94878" lon="6.26048">
        <ele>802</ele>
        <time>2026-05-11T18:37:37+00:00</time>
      </trkpt>
      <trkpt lat="46.94882" lon="6.26042">
        <ele>803</ele>
        <time>2026-05-11T18:37:38+00:00</time>
      </trkpt>
      <trkpt lat="46.9489" lon="6.26048">
        <ele>802</ele>
        <time>2026-05-11T18:37:39+00:00</time>
      </trkpt>
      <trkpt lat="46.94907" lon="6.26031">
        <ele>803</ele>
        <time>2026-05-11T18:37:40+00:00</time>
      </trkpt>
      <trkpt lat="46.94916" lon="6.26026">
        <ele>803</ele>
        <time>2026-05-11T18:37:41+00:00</time>
      </trkpt>
      <trkpt lat="46.9492" lon="6.26027">
        <ele>803</ele>
        <time>2026-05-11T18:37:42+00:00</time>
      </trkpt>
      <trkpt lat="46.94957" lon="6.25986">
        <ele>800</ele>
        <time>2026-05-11T18:37:43+00:00</time>
      </trkpt>
      <trkpt lat="46.94986" lon="6.25948">
        <ele>790</ele>
        <time>2026-05-11T18:37:44+00:00</time>
      </trkpt>
      <trkpt lat="46.94991" lon="6.25921">
        <ele>783</ele>
        <time>2026-05-11T18:37:45+00:00</time>
      </trkpt>
    </trkseg>
  </trk>
</gpx>
