<?xml version="1.0" encoding="UTF-8"?>
<gpx xmlns="http://www.topografix.com/GPX/1/1" xmlns:xsi="http://www.w3.org/2001/XMLSchema-instance" version="1.1" creator="phpGPX/1.3.0" xsi:schemaLocation="http://www.topografix.com/GPX/1/1 http://www.topografix.com/GPX/1/1/gpx.xsd">
  <metadata>
    <time>2026-05-14T12:52:34+00:00</time>
  </metadata>
  <trk>
    <name>La Foulée Frontalière</name>
    <trkseg>
      <trkpt lat="42.41067" lon="2.05785">
        <ele>1853</ele>
        <time>2026-05-14T12:52:35+00:00</time>
      </trkpt>
      <trkpt lat="42.41076" lon="2.05775">
        <ele>1853</ele>
        <time>2026-05-14T12:52:36+00:00</time>
      </trkpt>
      <trkpt lat="42.41105" lon="2.05718">
        <ele>1859</ele>
        <time>2026-05-14T12:52:37+00:00</time>
      </trkpt>
      <trkpt lat="42.41178" lon="2.05611">
        <ele>1866</ele>
        <time>2026-05-14T12:52:38+00:00</time>
      </trkpt>
      <trkpt lat="42.41207" lon="2.05548">
        <ele>1871</ele>
        <time>2026-05-14T12:52:39+00:00</time>
      </trkpt>
      <trkpt lat="42.4122" lon="2.05526">
        <ele>1872</ele>
        <time>2026-05-14T12:52:40+00:00</time>
      </trkpt>
      <trkpt lat="42.41237" lon="2.05504">
        <ele>1871</ele>
        <time>2026-05-14T12:52:41+00:00</time>
      </trkpt>
      <trkpt lat="42.4126" lon="2.05454">
        <ele>1873</ele>
        <time>2026-05-14T12:52:42+00:00</time>
      </trkpt>
      <trkpt lat="42.41289" lon="2.05403">
        <ele>1873</ele>
        <time>2026-05-14T12:52:43+00:00</time>
      </trkpt>
      <trkpt lat="42.41324" lon="2.05323">
        <ele>1878</ele>
        <time>2026-05-14T12:52:44+00:00</time>
      </trkpt>
      <trkpt lat="42.41341" lon="2.05304">
        <ele>1877</ele>
        <time>2026-05-14T12:52:45+00:00</time>
      </trkpt>
      <trkpt lat="42.41371" lon="2.05255">
        <ele>1882</ele>
        <time>2026-05-14T12:52:46+00:00</time>
      </trkpt>
      <trkpt lat="42.41391" lon="2.05234">
        <ele>1884</ele>
        <time>2026-05-14T12:52:47+00:00</time>
      </trkpt>
      <trkpt lat="42.41425" lon="2.05204">
        <ele>1885</ele>
        <time>2026-05-14T12:52:48+00:00</time>
      </trkpt>
      <trkpt lat="42.41474" lon="2.05129">
        <ele>1890</ele>
        <time>2026-05-14T12:52:49+00:00</time>
      </trkpt>
      <trkpt lat="42.41498" lon="2.05102">
        <ele>1891</ele>
        <time>2026-05-14T12:52:50+00:00</time>
      </trkpt>
      <trkpt lat="42.41524" lon="2.05081">
        <ele>1889</ele>
        <time>2026-05-14T12:52:51+00:00</time>
      </trkpt>
      <trkpt lat="42.41536" lon="2.05065">
        <ele>1888</ele>
        <time>2026-05-14T12:52:52+00:00</time>
      </trkpt>
      <trkpt lat="42.41541" lon="2.05049">
        <ele>1889</ele>
        <time>2026-05-14T12:52:53+00:00</time>
      </trkpt>
      <trkpt lat="42.41575" lon="2.0499">
        <ele>1889</ele>
        <time>2026-05-14T12:52:54+00:00</time>
      </trkpt>
      <trkpt lat="42.41586" lon="2.04962">
        <ele>1890</ele>
        <time>2026-05-14T12:52:55+00:00</time>
      </trkpt>
      <trkpt lat="42.41604" lon="2.0493">
        <ele>1890</ele>
        <time>2026-05-14T12:52:56+00:00</time>
      </trkpt>
      <trkpt lat="42.41654" lon="2.04852">
        <ele>1891</ele>
        <time>2026-05-14T12:52:57+00:00</time>
      </trkpt>
      <trkpt lat="42.41669" lon="2.04818">
        <ele>1890</ele>
        <time>2026-05-14T12:52:58+00:00</time>
      </trkpt>
      <trkpt lat="42.41655" lon="2.0482">
        <ele>1893</ele>
        <time>2026-05-14T12:52:59+00:00</time>
      </trkpt>
      <trkpt lat="42.41646" lon="2.0483">
        <ele>1896</ele>
        <time>2026-05-14T12:53:00+00:00</time>
      </trkpt>
      <trkpt lat="42.41583" lon="2.04811">
        <ele>1912</ele>
        <time>2026-05-14T12:53:01+00:00</time>
      </trkpt>
      <trkpt lat="42.41514" lon="2.04818">
        <ele>1932</ele>
        <time>2026-05-14T12:53:02+00:00</time>
      </trkpt>
      <trkpt lat="42.41472" lon="2.04836">
        <ele>1942</ele>
        <time>2026-05-14T12:53:03+00:00</time>
      </trkpt>
      <trkpt lat="42.41432" lon="2.04845">
        <ele>1951</ele>
        <time>2026-05-14T12:53:04+00:00</time>
      </trkpt>
      <trkpt lat="42.41394" lon="2.04873">
        <ele>1959</ele>
        <time>2026-05-14T12:53:05+00:00</time>
      </trkpt>
      <trkpt lat="42.41379" lon="2.04907">
        <ele>1960</ele>
        <time>2026-05-14T12:53:06+00:00</time>
      </trkpt>
      <trkpt lat="42.41341" lon="2.04935">
        <ele>1965</ele>
        <time>2026-05-14T12:53:07+00:00</time>
      </trkpt>
      <trkpt lat="42.4128" lon="2.05001">
        <ele>1973</ele>
        <time>2026-05-14T12:53:08+00:00</time>
      </trkpt>
      <trkpt lat="42.41187" lon="2.05075">
        <ele>1986</ele>
        <time>2026-05-14T12:53:09+00:00</time>
      </trkpt>
      <trkpt lat="42.41165" lon="2.05085">
        <ele>1990</ele>
        <time>2026-05-14T12:53:10+00:00</time>
      </trkpt>
      <trkpt lat="42.41119" lon="2.05131">
        <ele>1994</ele>
        <time>2026-05-14T12:53:11+00:00</time>
      </trkpt>
      <trkpt lat="42.41107" lon="2.05136">
        <ele>1996</ele>
        <time>2026-05-14T12:53:12+00:00</time>
      </trkpt>
      <trkpt lat="42.41066" lon="2.05145">
        <ele>2006</ele>
        <time>2026-05-14T12:53:13+00:00</time>
      </trkpt>
      <trkpt lat="42.41029" lon="2.05159">
        <ele>2012</ele>
        <time>2026-05-14T12:53:14+00:00</time>
      </trkpt>
      <trkpt lat="42.40936" lon="2.05209">
        <ele>2028</ele>
        <time>2026-05-14T12:53:15+00:00</time>
      </trkpt>
      <trkpt lat="42.40865" lon="2.05271">
        <ele>2038</ele>
        <time>2026-05-14T12:53:16+00:00</time>
      </trkpt>
      <trkpt lat="42.40836" lon="2.05312">
        <ele>2040</ele>
        <time>2026-05-14T12:53:17+00:00</time>
      </trkpt>
      <trkpt lat="42.40814" lon="2.05331">
        <ele>2043</ele>
        <time>2026-05-14T12:53:18+00:00</time>
      </trkpt>
      <trkpt lat="42.40765" lon="2.05383">
        <ele>2044</ele>
        <time>2026-05-14T12:53:19+00:00</time>
      </trkpt>
      <trkpt lat="42.40735" lon="2.05326">
        <ele>2064</ele>
        <time>2026-05-14T12:53:20+00:00</time>
      </trkpt>
      <trkpt lat="42.40706" lon="2.05327">
        <ele>2069</ele>
        <time>2026-05-14T12:53:21+00:00</time>
      </trkpt>
      <trkpt lat="42.40684" lon="2.0537">
        <ele>2065</ele>
        <time>2026-05-14T12:53:22+00:00</time>
      </trkpt>
      <trkpt lat="42.40664" lon="2.05423">
        <ele>2059</ele>
        <time>2026-05-14T12:53:23+00:00</time>
      </trkpt>
      <trkpt lat="42.40617" lon="2.05443">
        <ele>2062</ele>
        <time>2026-05-14T12:53:24+00:00</time>
      </trkpt>
      <trkpt lat="42.40575" lon="2.05448">
        <ele>2068</ele>
        <time>2026-05-14T12:53:25+00:00</time>
      </trkpt>
      <trkpt lat="42.40536" lon="2.0546">
        <ele>2072</ele>
        <time>2026-05-14T12:53:26+00:00</time>
      </trkpt>
      <trkpt lat="42.40483" lon="2.05467">
        <ele>2082</ele>
        <time>2026-05-14T12:53:27+00:00</time>
      </trkpt>
      <trkpt lat="42.40456" lon="2.05487">
        <ele>2087</ele>
        <time>2026-05-14T12:53:28+00:00</time>
      </trkpt>
      <trkpt lat="42.40435" lon="2.05525">
        <ele>2089</ele>
        <time>2026-05-14T12:53:29+00:00</time>
      </trkpt>
      <trkpt lat="42.40423" lon="2.05566">
        <ele>2090</ele>
        <time>2026-05-14T12:53:30+00:00</time>
      </trkpt>
      <trkpt lat="42.40396" lon="2.05618">
        <ele>2096</ele>
        <time>2026-05-14T12:53:31+00:00</time>
      </trkpt>
      <trkpt lat="42.40339" lon="2.05669">
        <ele>2109</ele>
        <time>2026-05-14T12:53:32+00:00</time>
      </trkpt>
      <trkpt lat="42.40279" lon="2.05711">
        <ele>2119</ele>
        <time>2026-05-14T12:53:33+00:00</time>
      </trkpt>
      <trkpt lat="42.40225" lon="2.05743">
        <ele>2123</ele>
        <time>2026-05-14T12:53:34+00:00</time>
      </trkpt>
      <trkpt lat="42.40181" lon="2.05749">
        <ele>2127</ele>
        <time>2026-05-14T12:53:35+00:00</time>
      </trkpt>
      <trkpt lat="42.40145" lon="2.05741">
        <ele>2133</ele>
        <time>2026-05-14T12:53:36+00:00</time>
      </trkpt>
      <trkpt lat="42.40091" lon="2.05742">
        <ele>2140</ele>
        <time>2026-05-14T12:53:37+00:00</time>
      </trkpt>
      <trkpt lat="42.40035" lon="2.05765">
        <ele>2150</ele>
        <time>2026-05-14T12:53:38+00:00</time>
      </trkpt>
      <trkpt lat="42.39977" lon="2.05781">
        <ele>2163</ele>
        <time>2026-05-14T12:53:39+00:00</time>
      </trkpt>
      <trkpt lat="42.39912" lon="2.05832">
        <ele>2171</ele>
        <time>2026-05-14T12:53:40+00:00</time>
      </trkpt>
      <trkpt lat="42.39834" lon="2.05874">
        <ele>2185</ele>
        <time>2026-05-14T12:53:41+00:00</time>
      </trkpt>
      <trkpt lat="42.39736" lon="2.05968">
        <ele>2199</ele>
        <time>2026-05-14T12:53:42+00:00</time>
      </trkpt>
      <trkpt lat="42.39692" lon="2.06032">
        <ele>2203</ele>
        <time>2026-05-14T12:53:43+00:00</time>
      </trkpt>
      <trkpt lat="42.39662" lon="2.06104">
        <ele>2208</ele>
        <time>2026-05-14T12:53:44+00:00</time>
      </trkpt>
      <trkpt lat="42.39645" lon="2.06129">
        <ele>2211</ele>
        <time>2026-05-14T12:53:45+00:00</time>
      </trkpt>
      <trkpt lat="42.39628" lon="2.06166">
        <ele>2215</ele>
        <time>2026-05-14T12:53:46+00:00</time>
      </trkpt>
      <trkpt lat="42.39362" lon="2.06484">
        <ele>2269</ele>
        <time>2026-05-14T12:53:47+00:00</time>
      </trkpt>
      <trkpt lat="42.39128" lon="2.06757">
        <ele>2302</ele>
        <time>2026-05-14T12:53:48+00:00</time>
      </trkpt>
      <trkpt lat="42.39061" lon="2.06826">
        <ele>2314</ele>
        <time>2026-05-14T12:53:49+00:00</time>
      </trkpt>
      <trkpt lat="42.38884" lon="2.0711">
        <ele>2341</ele>
        <time>2026-05-14T12:53:50+00:00</time>
      </trkpt>
      <trkpt lat="42.38853" lon="2.0714">
        <ele>2345</ele>
        <time>2026-05-14T12:53:51+00:00</time>
      </trkpt>
      <trkpt lat="42.38821" lon="2.07186">
        <ele>2350</ele>
        <time>2026-05-14T12:53:52+00:00</time>
      </trkpt>
      <trkpt lat="42.388" lon="2.07225">
        <ele>2352</ele>
        <time>2026-05-14T12:53:53+00:00</time>
      </trkpt>
      <trkpt lat="42.3879" lon="2.07236">
        <ele>2354</ele>
        <time>2026-05-14T12:53:54+00:00</time>
      </trkpt>
      <trkpt lat="42.38752" lon="2.07291">
        <ele>2366</ele>
        <time>2026-05-14T12:53:55+00:00</time>
      </trkpt>
      <trkpt lat="42.38731" lon="2.07312">
        <ele>2372</ele>
        <time>2026-05-14T12:53:56+00:00</time>
      </trkpt>
      <trkpt lat="42.38711" lon="2.07325">
        <ele>2377</ele>
        <time>2026-05-14T12:53:57+00:00</time>
      </trkpt>
      <trkpt lat="42.38647" lon="2.07394">
        <ele>2392</ele>
        <time>2026-05-14T12:53:58+00:00</time>
      </trkpt>
      <trkpt lat="42.38592" lon="2.07449">
        <ele>2403</ele>
        <time>2026-05-14T12:53:59+00:00</time>
      </trkpt>
      <trkpt lat="42.38542" lon="2.07508">
        <ele>2414</ele>
        <time>2026-05-14T12:54:00+00:00</time>
      </trkpt>
      <trkpt lat="42.38529" lon="2.07517">
        <ele>2417</ele>
        <time>2026-05-14T12:54:01+00:00</time>
      </trkpt>
      <trkpt lat="42.38504" lon="2.07526">
        <ele>2424</ele>
        <time>2026-05-14T12:54:02+00:00</time>
      </trkpt>
      <trkpt lat="42.3849" lon="2.07535">
        <ele>2427</ele>
        <time>2026-05-14T12:54:03+00:00</time>
      </trkpt>
      <trkpt lat="42.38449" lon="2.07568">
        <ele>2440</ele>
        <time>2026-05-14T12:54:04+00:00</time>
      </trkpt>
      <trkpt lat="42.38359" lon="2.0765">
        <ele>2467</ele>
        <time>2026-05-14T12:54:05+00:00</time>
      </trkpt>
      <trkpt lat="42.38319" lon="2.07691">
        <ele>2478</ele>
        <time>2026-05-14T12:54:06+00:00</time>
      </trkpt>
      <trkpt lat="42.3829" lon="2.07717">
        <ele>2484</ele>
        <time>2026-05-14T12:54:07+00:00</time>
      </trkpt>
      <trkpt lat="42.38278" lon="2.07733">
        <ele>2488</ele>
        <time>2026-05-14T12:54:08+00:00</time>
      </trkpt>
      <trkpt lat="42.38256" lon="2.07774">
        <ele>2496</ele>
        <time>2026-05-14T12:54:09+00:00</time>
      </trkpt>
      <trkpt lat="42.38211" lon="2.07818">
        <ele>2508</ele>
        <time>2026-05-14T12:54:10+00:00</time>
      </trkpt>
      <trkpt lat="42.38197" lon="2.07856">
        <ele>2512</ele>
        <time>2026-05-14T12:54:11+00:00</time>
      </trkpt>
      <trkpt lat="42.38187" lon="2.07867">
        <ele>2514</ele>
        <time>2026-05-14T12:54:12+00:00</time>
      </trkpt>
      <trkpt lat="42.38168" lon="2.0788">
        <ele>2518</ele>
        <time>2026-05-14T12:54:13+00:00</time>
      </trkpt>
      <trkpt lat="42.38111" lon="2.07905">
        <ele>2523</ele>
        <time>2026-05-14T12:54:14+00:00</time>
      </trkpt>
      <trkpt lat="42.38092" lon="2.07927">
        <ele>2524</ele>
        <time>2026-05-14T12:54:15+00:00</time>
      </trkpt>
      <trkpt lat="42.38073" lon="2.07981">
        <ele>2517</ele>
        <time>2026-05-14T12:54:16+00:00</time>
      </trkpt>
      <trkpt lat="42.38023" lon="2.08103">
        <ele>2497</ele>
        <time>2026-05-14T12:54:17+00:00</time>
      </trkpt>
      <trkpt lat="42.38" lon="2.08144">
        <ele>2494</ele>
        <time>2026-05-14T12:54:18+00:00</time>
      </trkpt>
      <trkpt lat="42.37948" lon="2.08184">
        <ele>2497</ele>
        <time>2026-05-14T12:54:19+00:00</time>
      </trkpt>
      <trkpt lat="42.37934" lon="2.08192">
        <ele>2498</ele>
        <time>2026-05-14T12:54:20+00:00</time>
      </trkpt>
      <trkpt lat="42.37766" lon="2.08256">
        <ele>2534</ele>
        <time>2026-05-14T12:54:21+00:00</time>
      </trkpt>
      <trkpt lat="42.37701" lon="2.08272">
        <ele>2542</ele>
        <time>2026-05-14T12:54:22+00:00</time>
      </trkpt>
      <trkpt lat="42.37663" lon="2.08312">
        <ele>2552</ele>
        <time>2026-05-14T12:54:23+00:00</time>
      </trkpt>
      <trkpt lat="42.37641" lon="2.08393">
        <ele>2565</ele>
        <time>2026-05-14T12:54:24+00:00</time>
      </trkpt>
      <trkpt lat="42.37491" lon="2.08557">
        <ele>2615</ele>
        <time>2026-05-14T12:54:25+00:00</time>
      </trkpt>
      <trkpt lat="42.37478" lon="2.08577">
        <ele>2618</ele>
        <time>2026-05-14T12:54:26+00:00</time>
      </trkpt>
      <trkpt lat="42.37491" lon="2.08632">
        <ele>2619</ele>
        <time>2026-05-14T12:54:27+00:00</time>
      </trkpt>
      <trkpt lat="42.37492" lon="2.08658">
        <ele>2620</ele>
        <time>2026-05-14T12:54:28+00:00</time>
      </trkpt>
      <trkpt lat="42.37487" lon="2.08689">
        <ele>2620</ele>
        <time>2026-05-14T12:54:29+00:00</time>
      </trkpt>
      <trkpt lat="42.37478" lon="2.08719">
        <ele>2621</ele>
        <time>2026-05-14T12:54:30+00:00</time>
      </trkpt>
      <trkpt lat="42.37473" lon="2.08746">
        <ele>2622</ele>
        <time>2026-05-14T12:54:31+00:00</time>
      </trkpt>
      <trkpt lat="42.37469" lon="2.08798">
        <ele>2625</ele>
        <time>2026-05-14T12:54:32+00:00</time>
      </trkpt>
      <trkpt lat="42.37474" lon="2.08833">
        <ele>2624</ele>
        <time>2026-05-14T12:54:33+00:00</time>
      </trkpt>
      <trkpt lat="42.37484" lon="2.08878">
        <ele>2620</ele>
        <time>2026-05-14T12:54:34+00:00</time>
      </trkpt>
      <trkpt lat="42.37479" lon="2.08913">
        <ele>2622</ele>
        <time>2026-05-14T12:54:35+00:00</time>
      </trkpt>
      <trkpt lat="42.37482" lon="2.08945">
        <ele>2619</ele>
        <time>2026-05-14T12:54:36+00:00</time>
      </trkpt>
      <trkpt lat="42.37481" lon="2.08961">
        <ele>2619</ele>
        <time>2026-05-14T12:54:37+00:00</time>
      </trkpt>
      <trkpt lat="42.37466" lon="2.08997">
        <ele>2622</ele>
        <time>2026-05-14T12:54:38+00:00</time>
      </trkpt>
      <trkpt lat="42.37461" lon="2.09028">
        <ele>2621</ele>
        <time>2026-05-14T12:54:39+00:00</time>
      </trkpt>
      <trkpt lat="42.37463" lon="2.09046">
        <ele>2619</ele>
        <time>2026-05-14T12:54:40+00:00</time>
      </trkpt>
      <trkpt lat="42.37474" lon="2.09087">
        <ele>2613</ele>
        <time>2026-05-14T12:54:41+00:00</time>
      </trkpt>
      <trkpt lat="42.37488" lon="2.09127">
        <ele>2608</ele>
        <time>2026-05-14T12:54:42+00:00</time>
      </trkpt>
      <trkpt lat="42.37489" lon="2.09146">
        <ele>2607</ele>
        <time>2026-05-14T12:54:43+00:00</time>
      </trkpt>
      <trkpt lat="42.37481" lon="2.09185">
        <ele>2606</ele>
        <time>2026-05-14T12:54:44+00:00</time>
      </trkpt>
      <trkpt lat="42.37482" lon="2.09207">
        <ele>2606</ele>
        <time>2026-05-14T12:54:45+00:00</time>
      </trkpt>
      <trkpt lat="42.37495" lon="2.09241">
        <ele>2607</ele>
        <time>2026-05-14T12:54:46+00:00</time>
      </trkpt>
      <trkpt lat="42.37515" lon="2.09324">
        <ele>2608</ele>
        <time>2026-05-14T12:54:47+00:00</time>
      </trkpt>
      <trkpt lat="42.37523" lon="2.09332">
        <ele>2608</ele>
        <time>2026-05-14T12:54:48+00:00</time>
      </trkpt>
      <trkpt lat="42.37535" lon="2.09338">
        <ele>2608</ele>
        <time>2026-05-14T12:54:49+00:00</time>
      </trkpt>
      <trkpt lat="42.37543" lon="2.09352">
        <ele>2608</ele>
        <time>2026-05-14T12:54:50+00:00</time>
      </trkpt>
      <trkpt lat="42.37553" lon="2.0947">
        <ele>2616</ele>
        <time>2026-05-14T12:54:51+00:00</time>
      </trkpt>
      <trkpt lat="42.37562" lon="2.09482">
        <ele>2619</ele>
        <time>2026-05-14T12:54:52+00:00</time>
      </trkpt>
      <trkpt lat="42.3758" lon="2.09499">
        <ele>2624</ele>
        <time>2026-05-14T12:54:53+00:00</time>
      </trkpt>
      <trkpt lat="42.37593" lon="2.0952">
        <ele>2625</ele>
        <time>2026-05-14T12:54:54+00:00</time>
      </trkpt>
      <trkpt lat="42.37595" lon="2.09553">
        <ele>2627</ele>
        <time>2026-05-14T12:54:55+00:00</time>
      </trkpt>
      <trkpt lat="42.37582" lon="2.09595">
        <ele>2632</ele>
        <time>2026-05-14T12:54:56+00:00</time>
      </trkpt>
      <trkpt lat="42.37581" lon="2.09608">
        <ele>2632</ele>
        <time>2026-05-14T12:54:57+00:00</time>
      </trkpt>
      <trkpt lat="42.37584" lon="2.09623">
        <ele>2633</ele>
        <time>2026-05-14T12:54:58+00:00</time>
      </trkpt>
      <trkpt lat="42.37595" lon="2.09636">
        <ele>2633</ele>
        <time>2026-05-14T12:54:59+00:00</time>
      </trkpt>
      <trkpt lat="42.37628" lon="2.09656">
        <ele>2633</ele>
        <time>2026-05-14T12:55:00+00:00</time>
      </trkpt>
      <trkpt lat="42.37644" lon="2.09676">
        <ele>2634</ele>
        <time>2026-05-14T12:55:01+00:00</time>
      </trkpt>
      <trkpt lat="42.37651" lon="2.09704">
        <ele>2635</ele>
        <time>2026-05-14T12:55:02+00:00</time>
      </trkpt>
      <trkpt lat="42.37658" lon="2.09771">
        <ele>2638</ele>
        <time>2026-05-14T12:55:03+00:00</time>
      </trkpt>
      <trkpt lat="42.3767" lon="2.09819">
        <ele>2638</ele>
        <time>2026-05-14T12:55:04+00:00</time>
      </trkpt>
      <trkpt lat="42.37696" lon="2.09885">
        <ele>2632</ele>
        <time>2026-05-14T12:55:05+00:00</time>
      </trkpt>
      <trkpt lat="42.37724" lon="2.09931">
        <ele>2632</ele>
        <time>2026-05-14T12:55:06+00:00</time>
      </trkpt>
      <trkpt lat="42.37788" lon="2.10021">
        <ele>2627</ele>
        <time>2026-05-14T12:55:07+00:00</time>
      </trkpt>
      <trkpt lat="42.37812" lon="2.10086">
        <ele>2622</ele>
        <time>2026-05-14T12:55:08+00:00</time>
      </trkpt>
      <trkpt lat="42.37836" lon="2.1014">
        <ele>2621</ele>
        <time>2026-05-14T12:55:09+00:00</time>
      </trkpt>
      <trkpt lat="42.37839" lon="2.10169">
        <ele>2620</ele>
        <time>2026-05-14T12:55:10+00:00</time>
      </trkpt>
      <trkpt lat="42.37849" lon="2.10211">
        <ele>2613</ele>
        <time>2026-05-14T12:55:11+00:00</time>
      </trkpt>
      <trkpt lat="42.37917" lon="2.10292">
        <ele>2620</ele>
        <time>2026-05-14T12:55:12+00:00</time>
      </trkpt>
      <trkpt lat="42.3792" lon="2.10306">
        <ele>2621</ele>
        <time>2026-05-14T12:55:13+00:00</time>
      </trkpt>
      <trkpt lat="42.3792" lon="2.10325">
        <ele>2622</ele>
        <time>2026-05-14T12:55:14+00:00</time>
      </trkpt>
      <trkpt lat="42.3793" lon="2.1036">
        <ele>2621</ele>
        <time>2026-05-14T12:55:15+00:00</time>
      </trkpt>
      <trkpt lat="42.37954" lon="2.10407">
        <ele>2623</ele>
        <time>2026-05-14T12:55:16+00:00</time>
      </trkpt>
      <trkpt lat="42.3796" lon="2.1043">
        <ele>2625</ele>
        <time>2026-05-14T12:55:17+00:00</time>
      </trkpt>
      <trkpt lat="42.37983" lon="2.10438">
        <ele>2630</ele>
        <time>2026-05-14T12:55:18+00:00</time>
      </trkpt>
      <trkpt lat="42.37989" lon="2.10451">
        <ele>2632</ele>
        <time>2026-05-14T12:55:19+00:00</time>
      </trkpt>
      <trkpt lat="42.38001" lon="2.10493">
        <ele>2640</ele>
        <time>2026-05-14T12:55:20+00:00</time>
      </trkpt>
      <trkpt lat="42.38024" lon="2.10525">
        <ele>2638</ele>
        <time>2026-05-14T12:55:21+00:00</time>
      </trkpt>
      <trkpt lat="42.38086" lon="2.10589">
        <ele>2636</ele>
        <time>2026-05-14T12:55:22+00:00</time>
      </trkpt>
      <trkpt lat="42.38128" lon="2.10615">
        <ele>2627</ele>
        <time>2026-05-14T12:55:23+00:00</time>
      </trkpt>
      <trkpt lat="42.38164" lon="2.10665">
        <ele>2627</ele>
        <time>2026-05-14T12:55:24+00:00</time>
      </trkpt>
      <trkpt lat="42.38186" lon="2.10706">
        <ele>2632</ele>
        <time>2026-05-14T12:55:25+00:00</time>
      </trkpt>
      <trkpt lat="42.38198" lon="2.10749">
        <ele>2639</ele>
        <time>2026-05-14T12:55:26+00:00</time>
      </trkpt>
      <trkpt lat="42.38195" lon="2.10761">
        <ele>2643</ele>
        <time>2026-05-14T12:55:27+00:00</time>
      </trkpt>
      <trkpt lat="42.38193" lon="2.10799">
        <ele>2656</ele>
        <time>2026-05-14T12:55:28+00:00</time>
      </trkpt>
      <trkpt lat="42.38196" lon="2.10812">
        <ele>2660</ele>
        <time>2026-05-14T12:55:29+00:00</time>
      </trkpt>
      <trkpt lat="42.38205" lon="2.10816">
        <ele>2662</ele>
        <time>2026-05-14T12:55:30+00:00</time>
      </trkpt>
      <trkpt lat="42.38212" lon="2.10823">
        <ele>2665</ele>
        <time>2026-05-14T12:55:31+00:00</time>
      </trkpt>
      <trkpt lat="42.38214" lon="2.10834">
        <ele>2668</ele>
        <time>2026-05-14T12:55:32+00:00</time>
      </trkpt>
      <trkpt lat="42.38204" lon="2.10854">
        <ele>2675</ele>
        <time>2026-05-14T12:55:33+00:00</time>
      </trkpt>
      <trkpt lat="42.38204" lon="2.1087">
        <ele>2680</ele>
        <time>2026-05-14T12:55:34+00:00</time>
      </trkpt>
      <trkpt lat="42.382" lon="2.10875">
        <ele>2682</ele>
        <time>2026-05-14T12:55:35+00:00</time>
      </trkpt>
      <trkpt lat="42.38199" lon="2.10883">
        <ele>2685</ele>
        <time>2026-05-14T12:55:36+00:00</time>
      </trkpt>
      <trkpt lat="42.38192" lon="2.10888">
        <ele>2686</ele>
        <time>2026-05-14T12:55:37+00:00</time>
      </trkpt>
      <trkpt lat="42.38193" lon="2.10898">
        <ele>2690</ele>
        <time>2026-05-14T12:55:38+00:00</time>
      </trkpt>
      <trkpt lat="42.38188" lon="2.10898">
        <ele>2690</ele>
        <time>2026-05-14T12:55:39+00:00</time>
      </trkpt>
      <trkpt lat="42.38192" lon="2.10914">
        <ele>2695</ele>
        <time>2026-05-14T12:55:40+00:00</time>
      </trkpt>
      <trkpt lat="42.38187" lon="2.1092">
        <ele>2697</ele>
        <time>2026-05-14T12:55:41+00:00</time>
      </trkpt>
      <trkpt lat="42.38185" lon="2.10928">
        <ele>2700</ele>
        <time>2026-05-14T12:55:42+00:00</time>
      </trkpt>
      <trkpt lat="42.38192" lon="2.10938">
        <ele>2704</ele>
        <time>2026-05-14T12:55:43+00:00</time>
      </trkpt>
      <trkpt lat="42.38192" lon="2.10942">
        <ele>2705</ele>
        <time>2026-05-14T12:55:44+00:00</time>
      </trkpt>
      <trkpt lat="42.38189" lon="2.10944">
        <ele>2706</ele>
        <time>2026-05-14T12:55:45+00:00</time>
      </trkpt>
      <trkpt lat="42.38195" lon="2.10952">
        <ele>2708</ele>
        <time>2026-05-14T12:55:46+00:00</time>
      </trkpt>
      <trkpt lat="42.38192" lon="2.10957">
        <ele>2710</ele>
        <time>2026-05-14T12:55:47+00:00</time>
      </trkpt>
      <trkpt lat="42.38195" lon="2.10959">
        <ele>2711</ele>
        <time>2026-05-14T12:55:48+00:00</time>
      </trkpt>
      <trkpt lat="42.38196" lon="2.10964">
        <ele>2712</ele>
        <time>2026-05-14T12:55:49+00:00</time>
      </trkpt>
      <trkpt lat="42.38194" lon="2.10975">
        <ele>2716</ele>
        <time>2026-05-14T12:55:50+00:00</time>
      </trkpt>
      <trkpt lat="42.382" lon="2.10986">
        <ele>2719</ele>
        <time>2026-05-14T12:55:51+00:00</time>
      </trkpt>
      <trkpt lat="42.38203" lon="2.11003">
        <ele>2724</ele>
        <time>2026-05-14T12:55:52+00:00</time>
      </trkpt>
      <trkpt lat="42.38214" lon="2.11022">
        <ele>2729</ele>
        <time>2026-05-14T12:55:53+00:00</time>
      </trkpt>
      <trkpt lat="42.38218" lon="2.11036">
        <ele>2732</ele>
        <time>2026-05-14T12:55:54+00:00</time>
      </trkpt>
      <trkpt lat="42.38217" lon="2.11056">
        <ele>2739</ele>
        <time>2026-05-14T12:55:55+00:00</time>
      </trkpt>
      <trkpt lat="42.38221" lon="2.11103">
        <ele>2751</ele>
        <time>2026-05-14T12:55:56+00:00</time>
      </trkpt>
      <trkpt lat="42.38225" lon="2.11106">
        <ele>2751</ele>
        <time>2026-05-14T12:55:57+00:00</time>
      </trkpt>
      <trkpt lat="42.38228" lon="2.11127">
        <ele>2755</ele>
        <time>2026-05-14T12:55:58+00:00</time>
      </trkpt>
      <trkpt lat="42.38233" lon="2.11139">
        <ele>2757</ele>
        <time>2026-05-14T12:55:59+00:00</time>
      </trkpt>
      <trkpt lat="42.38234" lon="2.11154">
        <ele>2760</ele>
        <time>2026-05-14T12:56:00+00:00</time>
      </trkpt>
      <trkpt lat="42.3824" lon="2.11177">
        <ele>2764</ele>
        <time>2026-05-14T12:56:01+00:00</time>
      </trkpt>
      <trkpt lat="42.38241" lon="2.11198">
        <ele>2769</ele>
        <time>2026-05-14T12:56:02+00:00</time>
      </trkpt>
      <trkpt lat="42.38233" lon="2.112">
        <ele>2773</ele>
        <time>2026-05-14T12:56:03+00:00</time>
      </trkpt>
      <trkpt lat="42.38234" lon="2.11245">
        <ele>2785</ele>
        <time>2026-05-14T12:56:04+00:00</time>
      </trkpt>
      <trkpt lat="42.38232" lon="2.11251">
        <ele>2787</ele>
        <time>2026-05-14T12:56:05+00:00</time>
      </trkpt>
      <trkpt lat="42.38229" lon="2.11251">
        <ele>2788</ele>
        <time>2026-05-14T12:56:06+00:00</time>
      </trkpt>
      <trkpt lat="42.38229" lon="2.1126">
        <ele>2790</ele>
        <time>2026-05-14T12:56:07+00:00</time>
      </trkpt>
      <trkpt lat="42.38232" lon="2.11307">
        <ele>2800</ele>
        <time>2026-05-14T12:56:08+00:00</time>
      </trkpt>
      <trkpt lat="42.38235" lon="2.11324">
        <ele>2804</ele>
        <time>2026-05-14T12:56:09+00:00</time>
      </trkpt>
      <trkpt lat="42.38239" lon="2.11329">
        <ele>2804</ele>
        <time>2026-05-14T12:56:10+00:00</time>
      </trkpt>
      <trkpt lat="42.38235" lon="2.11343">
        <ele>2809</ele>
        <time>2026-05-14T12:56:11+00:00</time>
      </trkpt>
      <trkpt lat="42.38243" lon="2.11386">
        <ele>2821</ele>
        <time>2026-05-14T12:56:12+00:00</time>
      </trkpt>
      <trkpt lat="42.38242" lon="2.11391">
        <ele>2823</ele>
        <time>2026-05-14T12:56:13+00:00</time>
      </trkpt>
      <trkpt lat="42.38234" lon="2.11392">
        <ele>2824</ele>
        <time>2026-05-14T12:56:14+00:00</time>
      </trkpt>
      <trkpt lat="42.38224" lon="2.11408">
        <ele>2829</ele>
        <time>2026-05-14T12:56:15+00:00</time>
      </trkpt>
      <trkpt lat="42.38224" lon="2.11431">
        <ele>2835</ele>
        <time>2026-05-14T12:56:16+00:00</time>
      </trkpt>
      <trkpt lat="42.38217" lon="2.11435">
        <ele>2836</ele>
        <time>2026-05-14T12:56:17+00:00</time>
      </trkpt>
      <trkpt lat="42.38202" lon="2.11438">
        <ele>2836</ele>
        <time>2026-05-14T12:56:18+00:00</time>
      </trkpt>
      <trkpt lat="42.38208" lon="2.11446">
        <ele>2838</ele>
        <time>2026-05-14T12:56:19+00:00</time>
      </trkpt>
      <trkpt lat="42.3821" lon="2.11455">
        <ele>2840</ele>
        <time>2026-05-14T12:56:20+00:00</time>
      </trkpt>
      <trkpt lat="42.38213" lon="2.1149">
        <ele>2850</ele>
        <time>2026-05-14T12:56:21+00:00</time>
      </trkpt>
      <trkpt lat="42.3822" lon="2.11498">
        <ele>2854</ele>
        <time>2026-05-14T12:56:22+00:00</time>
      </trkpt>
      <trkpt lat="42.38229" lon="2.11517">
        <ele>2859</ele>
        <time>2026-05-14T12:56:23+00:00</time>
      </trkpt>
      <trkpt lat="42.38235" lon="2.11521">
        <ele>2861</ele>
        <time>2026-05-14T12:56:24+00:00</time>
      </trkpt>
      <trkpt lat="42.38242" lon="2.11557">
        <ele>2870</ele>
        <time>2026-05-14T12:56:25+00:00</time>
      </trkpt>
      <trkpt lat="42.38261" lon="2.11589">
        <ele>2880</ele>
        <time>2026-05-14T12:56:26+00:00</time>
      </trkpt>
      <trkpt lat="42.38269" lon="2.11612">
        <ele>2882</ele>
        <time>2026-05-14T12:56:27+00:00</time>
      </trkpt>
      <trkpt lat="42.38285" lon="2.11623">
        <ele>2886</ele>
        <time>2026-05-14T12:56:28+00:00</time>
      </trkpt>
      <trkpt lat="42.38297" lon="2.11625">
        <ele>2888</ele>
        <time>2026-05-14T12:56:29+00:00</time>
      </trkpt>
      <trkpt lat="42.38301" lon="2.11629">
        <ele>2890</ele>
        <time>2026-05-14T12:56:30+00:00</time>
      </trkpt>
      <trkpt lat="42.38301" lon="2.11634">
        <ele>2890</ele>
        <time>2026-05-14T12:56:31+00:00</time>
      </trkpt>
      <trkpt lat="42.38307" lon="2.11639">
        <ele>2892</ele>
        <time>2026-05-14T12:56:32+00:00</time>
      </trkpt>
      <trkpt lat="42.38308" lon="2.11645">
        <ele>2892</ele>
        <time>2026-05-14T12:56:33+00:00</time>
      </trkpt>
      <trkpt lat="42.38321" lon="2.11647">
        <ele>2896</ele>
        <time>2026-05-14T12:56:34+00:00</time>
      </trkpt>
      <trkpt lat="42.38319" lon="2.11667">
        <ele>2897</ele>
        <time>2026-05-14T12:56:35+00:00</time>
      </trkpt>
      <trkpt lat="42.38321" lon="2.11676">
        <ele>2897</ele>
        <time>2026-05-14T12:56:36+00:00</time>
      </trkpt>
      <trkpt lat="42.38324" lon="2.11679">
        <ele>2898</ele>
        <time>2026-05-14T12:56:37+00:00</time>
      </trkpt>
      <trkpt lat="42.38333" lon="2.11674">
        <ele>2901</ele>
        <time>2026-05-14T12:56:38+00:00</time>
      </trkpt>
      <trkpt lat="42.38346" lon="2.11662">
        <ele>2898</ele>
        <time>2026-05-14T12:56:39+00:00</time>
      </trkpt>
      <trkpt lat="42.38379" lon="2.11652">
        <ele>2891</ele>
        <time>2026-05-14T12:56:40+00:00</time>
      </trkpt>
      <trkpt lat="42.384" lon="2.11635">
        <ele>2886</ele>
        <time>2026-05-14T12:56:41+00:00</time>
      </trkpt>
      <trkpt lat="42.38401" lon="2.11632">
        <ele>2885</ele>
        <time>2026-05-14T12:56:42+00:00</time>
      </trkpt>
      <trkpt lat="42.38406" lon="2.11632">
        <ele>2884</ele>
        <time>2026-05-14T12:56:43+00:00</time>
      </trkpt>
      <trkpt lat="42.3841" lon="2.11636">
        <ele>2884</ele>
        <time>2026-05-14T12:56:44+00:00</time>
      </trkpt>
      <trkpt lat="42.3842" lon="2.11639">
        <ele>2882</ele>
        <time>2026-05-14T12:56:45+00:00</time>
      </trkpt>
      <trkpt lat="42.38422" lon="2.11634">
        <ele>2881</ele>
        <time>2026-05-14T12:56:46+00:00</time>
      </trkpt>
      <trkpt lat="42.38434" lon="2.1164">
        <ele>2877</ele>
        <time>2026-05-14T12:56:47+00:00</time>
      </trkpt>
      <trkpt lat="42.38445" lon="2.1163">
        <ele>2873</ele>
        <time>2026-05-14T12:56:48+00:00</time>
      </trkpt>
      <trkpt lat="42.38449" lon="2.1163">
        <ele>2871</ele>
        <time>2026-05-14T12:56:49+00:00</time>
      </trkpt>
      <trkpt lat="42.38455" lon="2.11625">
        <ele>2869</ele>
        <time>2026-05-14T12:56:50+00:00</time>
      </trkpt>
      <trkpt lat="42.38472" lon="2.11618">
        <ele>2863</ele>
        <time>2026-05-14T12:56:51+00:00</time>
      </trkpt>
      <trkpt lat="42.385" lon="2.11616">
        <ele>2853</ele>
        <time>2026-05-14T12:56:52+00:00</time>
      </trkpt>
      <trkpt lat="42.38514" lon="2.11601">
        <ele>2847</ele>
        <time>2026-05-14T12:56:53+00:00</time>
      </trkpt>
      <trkpt lat="42.3852" lon="2.116">
        <ele>2845</ele>
        <time>2026-05-14T12:56:54+00:00</time>
      </trkpt>
      <trkpt lat="42.38522" lon="2.11588">
        <ele>2844</ele>
        <time>2026-05-14T12:56:55+00:00</time>
      </trkpt>
      <trkpt lat="42.38529" lon="2.11578">
        <ele>2841</ele>
        <time>2026-05-14T12:56:56+00:00</time>
      </trkpt>
      <trkpt lat="42.38532" lon="2.11563">
        <ele>2837</ele>
        <time>2026-05-14T12:56:57+00:00</time>
      </trkpt>
      <trkpt lat="42.38555" lon="2.11554">
        <ele>2828</ele>
        <time>2026-05-14T12:56:58+00:00</time>
      </trkpt>
      <trkpt lat="42.38565" lon="2.11547">
        <ele>2824</ele>
        <time>2026-05-14T12:56:59+00:00</time>
      </trkpt>
      <trkpt lat="42.3858" lon="2.11542">
        <ele>2819</ele>
        <time>2026-05-14T12:57:00+00:00</time>
      </trkpt>
      <trkpt lat="42.38593" lon="2.11541">
        <ele>2816</ele>
        <time>2026-05-14T12:57:01+00:00</time>
      </trkpt>
      <trkpt lat="42.38613" lon="2.11525">
        <ele>2810</ele>
        <time>2026-05-14T12:57:02+00:00</time>
      </trkpt>
      <trkpt lat="42.38629" lon="2.1152">
        <ele>2806</ele>
        <time>2026-05-14T12:57:03+00:00</time>
      </trkpt>
      <trkpt lat="42.38637" lon="2.11513">
        <ele>2804</ele>
        <time>2026-05-14T12:57:04+00:00</time>
      </trkpt>
      <trkpt lat="42.38648" lon="2.1151">
        <ele>2802</ele>
        <time>2026-05-14T12:57:05+00:00</time>
      </trkpt>
      <trkpt lat="42.38672" lon="2.11511">
        <ele>2796</ele>
        <time>2026-05-14T12:57:06+00:00</time>
      </trkpt>
      <trkpt lat="42.38699" lon="2.11502">
        <ele>2790</ele>
        <time>2026-05-14T12:57:07+00:00</time>
      </trkpt>
      <trkpt lat="42.38724" lon="2.11504">
        <ele>2784</ele>
        <time>2026-05-14T12:57:08+00:00</time>
      </trkpt>
      <trkpt lat="42.3874" lon="2.11491">
        <ele>2779</ele>
        <time>2026-05-14T12:57:09+00:00</time>
      </trkpt>
      <trkpt lat="42.38746" lon="2.1149">
        <ele>2778</ele>
        <time>2026-05-14T12:57:10+00:00</time>
      </trkpt>
      <trkpt lat="42.38757" lon="2.11499">
        <ele>2777</ele>
        <time>2026-05-14T12:57:11+00:00</time>
      </trkpt>
      <trkpt lat="42.38764" lon="2.115">
        <ele>2775</ele>
        <time>2026-05-14T12:57:12+00:00</time>
      </trkpt>
      <trkpt lat="42.38807" lon="2.11492">
        <ele>2764</ele>
        <time>2026-05-14T12:57:13+00:00</time>
      </trkpt>
      <trkpt lat="42.38853" lon="2.11475">
        <ele>2756</ele>
        <time>2026-05-14T12:57:14+00:00</time>
      </trkpt>
      <trkpt lat="42.38876" lon="2.11461">
        <ele>2755</ele>
        <time>2026-05-14T12:57:15+00:00</time>
      </trkpt>
      <trkpt lat="42.38918" lon="2.11456">
        <ele>2755</ele>
        <time>2026-05-14T12:57:16+00:00</time>
      </trkpt>
      <trkpt lat="42.38932" lon="2.1146">
        <ele>2758</ele>
        <time>2026-05-14T12:57:17+00:00</time>
      </trkpt>
      <trkpt lat="42.38963" lon="2.11456">
        <ele>2765</ele>
        <time>2026-05-14T12:57:18+00:00</time>
      </trkpt>
      <trkpt lat="42.38976" lon="2.11449">
        <ele>2767</ele>
        <time>2026-05-14T12:57:19+00:00</time>
      </trkpt>
      <trkpt lat="42.39049" lon="2.11444">
        <ele>2777</ele>
        <time>2026-05-14T12:57:20+00:00</time>
      </trkpt>
      <trkpt lat="42.39085" lon="2.11434">
        <ele>2778</ele>
        <time>2026-05-14T12:57:21+00:00</time>
      </trkpt>
      <trkpt lat="42.39099" lon="2.11439">
        <ele>2778</ele>
        <time>2026-05-14T12:57:22+00:00</time>
      </trkpt>
      <trkpt lat="42.39122" lon="2.1144">
        <ele>2776</ele>
        <time>2026-05-14T12:57:23+00:00</time>
      </trkpt>
      <trkpt lat="42.39175" lon="2.11452">
        <ele>2772</ele>
        <time>2026-05-14T12:57:24+00:00</time>
      </trkpt>
      <trkpt lat="42.392" lon="2.11451">
        <ele>2770</ele>
        <time>2026-05-14T12:57:25+00:00</time>
      </trkpt>
      <trkpt lat="42.39211" lon="2.11458">
        <ele>2770</ele>
        <time>2026-05-14T12:57:26+00:00</time>
      </trkpt>
      <trkpt lat="42.39295" lon="2.11471">
        <ele>2773</ele>
        <time>2026-05-14T12:57:27+00:00</time>
      </trkpt>
      <trkpt lat="42.39368" lon="2.11496">
        <ele>2785</ele>
        <time>2026-05-14T12:57:28+00:00</time>
      </trkpt>
      <trkpt lat="42.3938" lon="2.11491">
        <ele>2786</ele>
        <time>2026-05-14T12:57:29+00:00</time>
      </trkpt>
      <trkpt lat="42.39388" lon="2.11492">
        <ele>2787</ele>
        <time>2026-05-14T12:57:30+00:00</time>
      </trkpt>
      <trkpt lat="42.39409" lon="2.11482">
        <ele>2788</ele>
        <time>2026-05-14T12:57:31+00:00</time>
      </trkpt>
      <trkpt lat="42.39415" lon="2.11488">
        <ele>2790</ele>
        <time>2026-05-14T12:57:32+00:00</time>
      </trkpt>
      <trkpt lat="42.39417" lon="2.11495">
        <ele>2791</ele>
        <time>2026-05-14T12:57:33+00:00</time>
      </trkpt>
      <trkpt lat="42.39423" lon="2.11491">
        <ele>2790</ele>
        <time>2026-05-14T12:57:34+00:00</time>
      </trkpt>
      <trkpt lat="42.39458" lon="2.11486">
        <ele>2787</ele>
        <time>2026-05-14T12:57:35+00:00</time>
      </trkpt>
      <trkpt lat="42.39482" lon="2.11503">
        <ele>2787</ele>
        <time>2026-05-14T12:57:36+00:00</time>
      </trkpt>
      <trkpt lat="42.39501" lon="2.11535">
        <ele>2778</ele>
        <time>2026-05-14T12:57:37+00:00</time>
      </trkpt>
      <trkpt lat="42.39512" lon="2.11543">
        <ele>2772</ele>
        <time>2026-05-14T12:57:38+00:00</time>
      </trkpt>
      <trkpt lat="42.39514" lon="2.11547">
        <ele>2771</ele>
        <time>2026-05-14T12:57:39+00:00</time>
      </trkpt>
      <trkpt lat="42.39526" lon="2.11553">
        <ele>2767</ele>
        <time>2026-05-14T12:57:40+00:00</time>
      </trkpt>
      <trkpt lat="42.39525" lon="2.1156">
        <ele>2766</ele>
        <time>2026-05-14T12:57:41+00:00</time>
      </trkpt>
      <trkpt lat="42.39535" lon="2.11562">
        <ele>2763</ele>
        <time>2026-05-14T12:57:42+00:00</time>
      </trkpt>
      <trkpt lat="42.39547" lon="2.11619">
        <ele>2752</ele>
        <time>2026-05-14T12:57:43+00:00</time>
      </trkpt>
      <trkpt lat="42.39537" lon="2.11665">
        <ele>2743</ele>
        <time>2026-05-14T12:57:44+00:00</time>
      </trkpt>
      <trkpt lat="42.3954" lon="2.11679">
        <ele>2740</ele>
        <time>2026-05-14T12:57:45+00:00</time>
      </trkpt>
      <trkpt lat="42.39539" lon="2.11685">
        <ele>2738</ele>
        <time>2026-05-14T12:57:46+00:00</time>
      </trkpt>
      <trkpt lat="42.39545" lon="2.11704">
        <ele>2735</ele>
        <time>2026-05-14T12:57:47+00:00</time>
      </trkpt>
      <trkpt lat="42.39562" lon="2.11727">
        <ele>2735</ele>
        <time>2026-05-14T12:57:48+00:00</time>
      </trkpt>
      <trkpt lat="42.39568" lon="2.11729">
        <ele>2737</ele>
        <time>2026-05-14T12:57:49+00:00</time>
      </trkpt>
      <trkpt lat="42.39578" lon="2.1174">
        <ele>2738</ele>
        <time>2026-05-14T12:57:50+00:00</time>
      </trkpt>
      <trkpt lat="42.3958" lon="2.11748">
        <ele>2738</ele>
        <time>2026-05-14T12:57:51+00:00</time>
      </trkpt>
      <trkpt lat="42.39594" lon="2.11759">
        <ele>2737</ele>
        <time>2026-05-14T12:57:52+00:00</time>
      </trkpt>
      <trkpt lat="42.39601" lon="2.11787">
        <ele>2737</ele>
        <time>2026-05-14T12:57:53+00:00</time>
      </trkpt>
      <trkpt lat="42.39611" lon="2.11796">
        <ele>2736</ele>
        <time>2026-05-14T12:57:54+00:00</time>
      </trkpt>
      <trkpt lat="42.3961" lon="2.11811">
        <ele>2737</ele>
        <time>2026-05-14T12:57:55+00:00</time>
      </trkpt>
      <trkpt lat="42.39618" lon="2.11827">
        <ele>2738</ele>
        <time>2026-05-14T12:57:56+00:00</time>
      </trkpt>
      <trkpt lat="42.39625" lon="2.11833">
        <ele>2739</ele>
        <time>2026-05-14T12:57:57+00:00</time>
      </trkpt>
      <trkpt lat="42.39632" lon="2.11853">
        <ele>2743</ele>
        <time>2026-05-14T12:57:58+00:00</time>
      </trkpt>
      <trkpt lat="42.39626" lon="2.11876">
        <ele>2745</ele>
        <time>2026-05-14T12:57:59+00:00</time>
      </trkpt>
      <trkpt lat="42.39632" lon="2.11902">
        <ele>2751</ele>
        <time>2026-05-14T12:58:00+00:00</time>
      </trkpt>
      <trkpt lat="42.39636" lon="2.11907">
        <ele>2753</ele>
        <time>2026-05-14T12:58:01+00:00</time>
      </trkpt>
      <trkpt lat="42.39638" lon="2.11916">
        <ele>2755</ele>
        <time>2026-05-14T12:58:02+00:00</time>
      </trkpt>
      <trkpt lat="42.39637" lon="2.11927">
        <ele>2757</ele>
        <time>2026-05-14T12:58:03+00:00</time>
      </trkpt>
      <trkpt lat="42.39641" lon="2.11941">
        <ele>2762</ele>
        <time>2026-05-14T12:58:04+00:00</time>
      </trkpt>
      <trkpt lat="42.39639" lon="2.11946">
        <ele>2763</ele>
        <time>2026-05-14T12:58:05+00:00</time>
      </trkpt>
      <trkpt lat="42.39649" lon="2.11964">
        <ele>2771</ele>
        <time>2026-05-14T12:58:06+00:00</time>
      </trkpt>
      <trkpt lat="42.39653" lon="2.11982">
        <ele>2778</ele>
        <time>2026-05-14T12:58:07+00:00</time>
      </trkpt>
      <trkpt lat="42.39658" lon="2.1199">
        <ele>2782</ele>
        <time>2026-05-14T12:58:08+00:00</time>
      </trkpt>
      <trkpt lat="42.39655" lon="2.12015">
        <ele>2787</ele>
        <time>2026-05-14T12:58:09+00:00</time>
      </trkpt>
      <trkpt lat="42.39667" lon="2.1205">
        <ele>2801</ele>
        <time>2026-05-14T12:58:10+00:00</time>
      </trkpt>
      <trkpt lat="42.39673" lon="2.12051">
        <ele>2801</ele>
        <time>2026-05-14T12:58:11+00:00</time>
      </trkpt>
      <trkpt lat="42.39671" lon="2.12057">
        <ele>2802</ele>
        <time>2026-05-14T12:58:12+00:00</time>
      </trkpt>
      <trkpt lat="42.39675" lon="2.12059">
        <ele>2802</ele>
        <time>2026-05-14T12:58:13+00:00</time>
      </trkpt>
      <trkpt lat="42.39673" lon="2.12065">
        <ele>2804</ele>
        <time>2026-05-14T12:58:14+00:00</time>
      </trkpt>
      <trkpt lat="42.39684" lon="2.12071">
        <ele>2805</ele>
        <time>2026-05-14T12:58:15+00:00</time>
      </trkpt>
      <trkpt lat="42.39686" lon="2.12079">
        <ele>2807</ele>
        <time>2026-05-14T12:58:16+00:00</time>
      </trkpt>
      <trkpt lat="42.39689" lon="2.12081">
        <ele>2808</ele>
        <time>2026-05-14T12:58:17+00:00</time>
      </trkpt>
      <trkpt lat="42.39688" lon="2.12095">
        <ele>2810</ele>
        <time>2026-05-14T12:58:18+00:00</time>
      </trkpt>
      <trkpt lat="42.39691" lon="2.12101">
        <ele>2811</ele>
        <time>2026-05-14T12:58:19+00:00</time>
      </trkpt>
      <trkpt lat="42.39689" lon="2.1211">
        <ele>2813</ele>
        <time>2026-05-14T12:58:20+00:00</time>
      </trkpt>
      <trkpt lat="42.39691" lon="2.12122">
        <ele>2815</ele>
        <time>2026-05-14T12:58:21+00:00</time>
      </trkpt>
      <trkpt lat="42.39699" lon="2.12126">
        <ele>2816</ele>
        <time>2026-05-14T12:58:22+00:00</time>
      </trkpt>
      <trkpt lat="42.39709" lon="2.12127">
        <ele>2816</ele>
        <time>2026-05-14T12:58:23+00:00</time>
      </trkpt>
      <trkpt lat="42.39707" lon="2.12132">
        <ele>2817</ele>
        <time>2026-05-14T12:58:24+00:00</time>
      </trkpt>
      <trkpt lat="42.397" lon="2.12136">
        <ele>2818</ele>
        <time>2026-05-14T12:58:25+00:00</time>
      </trkpt>
      <trkpt lat="42.39733" lon="2.12177">
        <ele>2823</ele>
        <time>2026-05-14T12:58:26+00:00</time>
      </trkpt>
      <trkpt lat="42.3976" lon="2.12161">
        <ele>2822</ele>
        <time>2026-05-14T12:58:27+00:00</time>
      </trkpt>
      <trkpt lat="42.39789" lon="2.12161">
        <ele>2815</ele>
        <time>2026-05-14T12:58:28+00:00</time>
      </trkpt>
      <trkpt lat="42.39806" lon="2.1217">
        <ele>2811</ele>
        <time>2026-05-14T12:58:29+00:00</time>
      </trkpt>
      <trkpt lat="42.39837" lon="2.12167">
        <ele>2805</ele>
        <time>2026-05-14T12:58:30+00:00</time>
      </trkpt>
      <trkpt lat="42.39862" lon="2.12159">
        <ele>2802</ele>
        <time>2026-05-14T12:58:31+00:00</time>
      </trkpt>
      <trkpt lat="42.39884" lon="2.12164">
        <ele>2803</ele>
        <time>2026-05-14T12:58:32+00:00</time>
      </trkpt>
      <trkpt lat="42.39904" lon="2.12173">
        <ele>2803</ele>
        <time>2026-05-14T12:58:33+00:00</time>
      </trkpt>
      <trkpt lat="42.39919" lon="2.12187">
        <ele>2801</ele>
        <time>2026-05-14T12:58:34+00:00</time>
      </trkpt>
      <trkpt lat="42.39923" lon="2.12195">
        <ele>2800</ele>
        <time>2026-05-14T12:58:35+00:00</time>
      </trkpt>
      <trkpt lat="42.39996" lon="2.12261">
        <ele>2796</ele>
        <time>2026-05-14T12:58:36+00:00</time>
      </trkpt>
      <trkpt lat="42.40005" lon="2.12284">
        <ele>2791</ele>
        <time>2026-05-14T12:58:37+00:00</time>
      </trkpt>
      <trkpt lat="42.40025" lon="2.12311">
        <ele>2784</ele>
        <time>2026-05-14T12:58:38+00:00</time>
      </trkpt>
      <trkpt lat="42.40041" lon="2.12313">
        <ele>2782</ele>
        <time>2026-05-14T12:58:39+00:00</time>
      </trkpt>
      <trkpt lat="42.4005" lon="2.12309">
        <ele>2782</ele>
        <time>2026-05-14T12:58:40+00:00</time>
      </trkpt>
      <trkpt lat="42.40106" lon="2.12306">
        <ele>2773</ele>
        <time>2026-05-14T12:58:41+00:00</time>
      </trkpt>
      <trkpt lat="42.40116" lon="2.12303">
        <ele>2772</ele>
        <time>2026-05-14T12:58:42+00:00</time>
      </trkpt>
      <trkpt lat="42.40124" lon="2.12307">
        <ele>2770</ele>
        <time>2026-05-14T12:58:43+00:00</time>
      </trkpt>
      <trkpt lat="42.40131" lon="2.12307">
        <ele>2768</ele>
        <time>2026-05-14T12:58:44+00:00</time>
      </trkpt>
      <trkpt lat="42.40139" lon="2.12299">
        <ele>2768</ele>
        <time>2026-05-14T12:58:45+00:00</time>
      </trkpt>
      <trkpt lat="42.40186" lon="2.12292">
        <ele>2759</ele>
        <time>2026-05-14T12:58:46+00:00</time>
      </trkpt>
      <trkpt lat="42.40281" lon="2.12294">
        <ele>2738</ele>
        <time>2026-05-14T12:58:47+00:00</time>
      </trkpt>
      <trkpt lat="42.40334" lon="2.12308">
        <ele>2723</ele>
        <time>2026-05-14T12:58:48+00:00</time>
      </trkpt>
      <trkpt lat="42.40341" lon="2.12316">
        <ele>2720</ele>
        <time>2026-05-14T12:58:49+00:00</time>
      </trkpt>
      <trkpt lat="42.40374" lon="2.12317">
        <ele>2709</ele>
        <time>2026-05-14T12:58:50+00:00</time>
      </trkpt>
      <trkpt lat="42.40399" lon="2.12314">
        <ele>2700</ele>
        <time>2026-05-14T12:58:51+00:00</time>
      </trkpt>
      <trkpt lat="42.40404" lon="2.12309">
        <ele>2699</ele>
        <time>2026-05-14T12:58:52+00:00</time>
      </trkpt>
      <trkpt lat="42.4042" lon="2.12313">
        <ele>2693</ele>
        <time>2026-05-14T12:58:53+00:00</time>
      </trkpt>
      <trkpt lat="42.40428" lon="2.12312">
        <ele>2691</ele>
        <time>2026-05-14T12:58:54+00:00</time>
      </trkpt>
      <trkpt lat="42.40434" lon="2.12303">
        <ele>2689</ele>
        <time>2026-05-14T12:58:55+00:00</time>
      </trkpt>
      <trkpt lat="42.40459" lon="2.12284">
        <ele>2681</ele>
        <time>2026-05-14T12:58:56+00:00</time>
      </trkpt>
      <trkpt lat="42.40468" lon="2.12293">
        <ele>2678</ele>
        <time>2026-05-14T12:58:57+00:00</time>
      </trkpt>
      <trkpt lat="42.40473" lon="2.12314">
        <ele>2676</ele>
        <time>2026-05-14T12:58:58+00:00</time>
      </trkpt>
      <trkpt lat="42.40513" lon="2.12323">
        <ele>2665</ele>
        <time>2026-05-14T12:58:59+00:00</time>
      </trkpt>
      <trkpt lat="42.40536" lon="2.12344">
        <ele>2659</ele>
        <time>2026-05-14T12:59:00+00:00</time>
      </trkpt>
      <trkpt lat="42.40551" lon="2.12348">
        <ele>2655</ele>
        <time>2026-05-14T12:59:01+00:00</time>
      </trkpt>
      <trkpt lat="42.40563" lon="2.12347">
        <ele>2653</ele>
        <time>2026-05-14T12:59:02+00:00</time>
      </trkpt>
      <trkpt lat="42.40593" lon="2.12352">
        <ele>2646</ele>
        <time>2026-05-14T12:59:03+00:00</time>
      </trkpt>
      <trkpt lat="42.40616" lon="2.12352">
        <ele>2639</ele>
        <time>2026-05-14T12:59:04+00:00</time>
      </trkpt>
      <trkpt lat="42.40633" lon="2.12358">
        <ele>2634</ele>
        <time>2026-05-14T12:59:05+00:00</time>
      </trkpt>
      <trkpt lat="42.4064" lon="2.1237">
        <ele>2631</ele>
        <time>2026-05-14T12:59:06+00:00</time>
      </trkpt>
      <trkpt lat="42.40663" lon="2.12387">
        <ele>2625</ele>
        <time>2026-05-14T12:59:07+00:00</time>
      </trkpt>
      <trkpt lat="42.40674" lon="2.12389">
        <ele>2623</ele>
        <time>2026-05-14T12:59:08+00:00</time>
      </trkpt>
      <trkpt lat="42.40725" lon="2.12417">
        <ele>2619</ele>
        <time>2026-05-14T12:59:09+00:00</time>
      </trkpt>
      <trkpt lat="42.40744" lon="2.12436">
        <ele>2612</ele>
        <time>2026-05-14T12:59:10+00:00</time>
      </trkpt>
      <trkpt lat="42.40773" lon="2.12451">
        <ele>2605</ele>
        <time>2026-05-14T12:59:11+00:00</time>
      </trkpt>
      <trkpt lat="42.40812" lon="2.12464">
        <ele>2600</ele>
        <time>2026-05-14T12:59:12+00:00</time>
      </trkpt>
      <trkpt lat="42.40842" lon="2.12486">
        <ele>2601</ele>
        <time>2026-05-14T12:59:13+00:00</time>
      </trkpt>
      <trkpt lat="42.40845" lon="2.12485">
        <ele>2601</ele>
        <time>2026-05-14T12:59:14+00:00</time>
      </trkpt>
      <trkpt lat="42.40855" lon="2.1229">
        <ele>2544</ele>
        <time>2026-05-14T12:59:15+00:00</time>
      </trkpt>
      <trkpt lat="42.40828" lon="2.12215">
        <ele>2532</ele>
        <time>2026-05-14T12:59:16+00:00</time>
      </trkpt>
      <trkpt lat="42.40823" lon="2.12178">
        <ele>2522</ele>
        <time>2026-05-14T12:59:17+00:00</time>
      </trkpt>
      <trkpt lat="42.40852" lon="2.1216">
        <ele>2504</ele>
        <time>2026-05-14T12:59:18+00:00</time>
      </trkpt>
      <trkpt lat="42.40844" lon="2.12135">
        <ele>2501</ele>
        <time>2026-05-14T12:59:19+00:00</time>
      </trkpt>
      <trkpt lat="42.40809" lon="2.12094">
        <ele>2507</ele>
        <time>2026-05-14T12:59:20+00:00</time>
      </trkpt>
      <trkpt lat="42.40811" lon="2.12052">
        <ele>2497</ele>
        <time>2026-05-14T12:59:21+00:00</time>
      </trkpt>
      <trkpt lat="42.40816" lon="2.1204">
        <ele>2493</ele>
        <time>2026-05-14T12:59:22+00:00</time>
      </trkpt>
      <trkpt lat="42.40817" lon="2.12025">
        <ele>2489</ele>
        <time>2026-05-14T12:59:23+00:00</time>
      </trkpt>
      <trkpt lat="42.408" lon="2.12001">
        <ele>2493</ele>
        <time>2026-05-14T12:59:24+00:00</time>
      </trkpt>
      <trkpt lat="42.40778" lon="2.11949">
        <ele>2492</ele>
        <time>2026-05-14T12:59:25+00:00</time>
      </trkpt>
      <trkpt lat="42.40771" lon="2.11937">
        <ele>2493</ele>
        <time>2026-05-14T12:59:26+00:00</time>
      </trkpt>
      <trkpt lat="42.40766" lon="2.11934">
        <ele>2495</ele>
        <time>2026-05-14T12:59:27+00:00</time>
      </trkpt>
      <trkpt lat="42.40751" lon="2.11892">
        <ele>2492</ele>
        <time>2026-05-14T12:59:28+00:00</time>
      </trkpt>
      <trkpt lat="42.40754" lon="2.11878">
        <ele>2487</ele>
        <time>2026-05-14T12:59:29+00:00</time>
      </trkpt>
      <trkpt lat="42.40753" lon="2.11871">
        <ele>2485</ele>
        <time>2026-05-14T12:59:30+00:00</time>
      </trkpt>
      <trkpt lat="42.4075" lon="2.11868">
        <ele>2486</ele>
        <time>2026-05-14T12:59:31+00:00</time>
      </trkpt>
      <trkpt lat="42.4075" lon="2.11856">
        <ele>2483</ele>
        <time>2026-05-14T12:59:32+00:00</time>
      </trkpt>
      <trkpt lat="42.40746" lon="2.11846">
        <ele>2482</ele>
        <time>2026-05-14T12:59:33+00:00</time>
      </trkpt>
      <trkpt lat="42.40741" lon="2.11842">
        <ele>2483</ele>
        <time>2026-05-14T12:59:34+00:00</time>
      </trkpt>
      <trkpt lat="42.40732" lon="2.11815">
        <ele>2482</ele>
        <time>2026-05-14T12:59:35+00:00</time>
      </trkpt>
      <trkpt lat="42.4073" lon="2.11804">
        <ele>2481</ele>
        <time>2026-05-14T12:59:36+00:00</time>
      </trkpt>
      <trkpt lat="42.40732" lon="2.11791">
        <ele>2477</ele>
        <time>2026-05-14T12:59:37+00:00</time>
      </trkpt>
      <trkpt lat="42.40727" lon="2.11772">
        <ele>2476</ele>
        <time>2026-05-14T12:59:38+00:00</time>
      </trkpt>
      <trkpt lat="42.40726" lon="2.11758">
        <ele>2474</ele>
        <time>2026-05-14T12:59:39+00:00</time>
      </trkpt>
      <trkpt lat="42.40722" lon="2.11748">
        <ele>2474</ele>
        <time>2026-05-14T12:59:40+00:00</time>
      </trkpt>
      <trkpt lat="42.40712" lon="2.11675">
        <ele>2466</ele>
        <time>2026-05-14T12:59:41+00:00</time>
      </trkpt>
      <trkpt lat="42.40707" lon="2.11668">
        <ele>2466</ele>
        <time>2026-05-14T12:59:42+00:00</time>
      </trkpt>
      <trkpt lat="42.40706" lon="2.1165">
        <ele>2463</ele>
        <time>2026-05-14T12:59:43+00:00</time>
      </trkpt>
      <trkpt lat="42.40699" lon="2.11617">
        <ele>2458</ele>
        <time>2026-05-14T12:59:44+00:00</time>
      </trkpt>
      <trkpt lat="42.4068" lon="2.11591">
        <ele>2458</ele>
        <time>2026-05-14T12:59:45+00:00</time>
      </trkpt>
      <trkpt lat="42.40656" lon="2.11565">
        <ele>2457</ele>
        <time>2026-05-14T12:59:46+00:00</time>
      </trkpt>
      <trkpt lat="42.40656" lon="2.11552">
        <ele>2451</ele>
        <time>2026-05-14T12:59:47+00:00</time>
      </trkpt>
      <trkpt lat="42.40646" lon="2.11543">
        <ele>2450</ele>
        <time>2026-05-14T12:59:48+00:00</time>
      </trkpt>
      <trkpt lat="42.40644" lon="2.11536">
        <ele>2448</ele>
        <time>2026-05-14T12:59:49+00:00</time>
      </trkpt>
      <trkpt lat="42.40628" lon="2.11524">
        <ele>2447</ele>
        <time>2026-05-14T12:59:50+00:00</time>
      </trkpt>
      <trkpt lat="42.40625" lon="2.11518">
        <ele>2445</ele>
        <time>2026-05-14T12:59:51+00:00</time>
      </trkpt>
      <trkpt lat="42.40616" lon="2.11511">
        <ele>2444</ele>
        <time>2026-05-14T12:59:52+00:00</time>
      </trkpt>
      <trkpt lat="42.40612" lon="2.11501">
        <ele>2441</ele>
        <time>2026-05-14T12:59:53+00:00</time>
      </trkpt>
      <trkpt lat="42.40598" lon="2.11485">
        <ele>2436</ele>
        <time>2026-05-14T12:59:54+00:00</time>
      </trkpt>
      <trkpt lat="42.40571" lon="2.11466">
        <ele>2432</ele>
        <time>2026-05-14T12:59:55+00:00</time>
      </trkpt>
      <trkpt lat="42.40568" lon="2.11458">
        <ele>2429</ele>
        <time>2026-05-14T12:59:56+00:00</time>
      </trkpt>
      <trkpt lat="42.40556" lon="2.11454">
        <ele>2429</ele>
        <time>2026-05-14T12:59:57+00:00</time>
      </trkpt>
      <trkpt lat="42.40528" lon="2.11423">
        <ele>2419</ele>
        <time>2026-05-14T12:59:58+00:00</time>
      </trkpt>
      <trkpt lat="42.40504" lon="2.11411">
        <ele>2418</ele>
        <time>2026-05-14T12:59:59+00:00</time>
      </trkpt>
      <trkpt lat="42.40495" lon="2.1141">
        <ele>2419</ele>
        <time>2026-05-14T13:00:00+00:00</time>
      </trkpt>
      <trkpt lat="42.40488" lon="2.11404">
        <ele>2418</ele>
        <time>2026-05-14T13:00:01+00:00</time>
      </trkpt>
      <trkpt lat="42.40498" lon="2.11392">
        <ele>2411</ele>
        <time>2026-05-14T13:00:02+00:00</time>
      </trkpt>
      <trkpt lat="42.40453" lon="2.11382">
        <ele>2418</ele>
        <time>2026-05-14T13:00:03+00:00</time>
      </trkpt>
      <trkpt lat="42.40451" lon="2.11374">
        <ele>2416</ele>
        <time>2026-05-14T13:00:04+00:00</time>
      </trkpt>
      <trkpt lat="42.40428" lon="2.11345">
        <ele>2412</ele>
        <time>2026-05-14T13:00:05+00:00</time>
      </trkpt>
      <trkpt lat="42.40416" lon="2.11323">
        <ele>2408</ele>
        <time>2026-05-14T13:00:06+00:00</time>
      </trkpt>
      <trkpt lat="42.40412" lon="2.11306">
        <ele>2405</ele>
        <time>2026-05-14T13:00:07+00:00</time>
      </trkpt>
      <trkpt lat="42.40398" lon="2.11275">
        <ele>2404</ele>
        <time>2026-05-14T13:00:08+00:00</time>
      </trkpt>
      <trkpt lat="42.40395" lon="2.11254">
        <ele>2399</ele>
        <time>2026-05-14T13:00:09+00:00</time>
      </trkpt>
      <trkpt lat="42.40397" lon="2.11241">
        <ele>2396</ele>
        <time>2026-05-14T13:00:10+00:00</time>
      </trkpt>
      <trkpt lat="42.40381" lon="2.11192">
        <ele>2397</ele>
        <time>2026-05-14T13:00:11+00:00</time>
      </trkpt>
      <trkpt lat="42.40374" lon="2.11177">
        <ele>2397</ele>
        <time>2026-05-14T13:00:12+00:00</time>
      </trkpt>
      <trkpt lat="42.40372" lon="2.1114">
        <ele>2393</ele>
        <time>2026-05-14T13:00:13+00:00</time>
      </trkpt>
      <trkpt lat="42.40375" lon="2.11117">
        <ele>2389</ele>
        <time>2026-05-14T13:00:14+00:00</time>
      </trkpt>
      <trkpt lat="42.4035" lon="2.11083">
        <ele>2393</ele>
        <time>2026-05-14T13:00:15+00:00</time>
      </trkpt>
      <trkpt lat="42.40334" lon="2.1107">
        <ele>2396</ele>
        <time>2026-05-14T13:00:16+00:00</time>
      </trkpt>
      <trkpt lat="42.40313" lon="2.11">
        <ele>2393</ele>
        <time>2026-05-14T13:00:17+00:00</time>
      </trkpt>
      <trkpt lat="42.40298" lon="2.10883">
        <ele>2400</ele>
        <time>2026-05-14T13:00:18+00:00</time>
      </trkpt>
      <trkpt lat="42.40308" lon="2.10829">
        <ele>2403</ele>
        <time>2026-05-14T13:00:19+00:00</time>
      </trkpt>
      <trkpt lat="42.40321" lon="2.10794">
        <ele>2410</ele>
        <time>2026-05-14T13:00:20+00:00</time>
      </trkpt>
      <trkpt lat="42.40338" lon="2.10778">
        <ele>2411</ele>
        <time>2026-05-14T13:00:21+00:00</time>
      </trkpt>
      <trkpt lat="42.40434" lon="2.10749">
        <ele>2406</ele>
        <time>2026-05-14T13:00:22+00:00</time>
      </trkpt>
      <trkpt lat="42.4048" lon="2.10754">
        <ele>2402</ele>
        <time>2026-05-14T13:00:23+00:00</time>
      </trkpt>
      <trkpt lat="42.40528" lon="2.10745">
        <ele>2398</ele>
        <time>2026-05-14T13:00:24+00:00</time>
      </trkpt>
      <trkpt lat="42.40545" lon="2.10732">
        <ele>2400</ele>
        <time>2026-05-14T13:00:25+00:00</time>
      </trkpt>
      <trkpt lat="42.4057" lon="2.10703">
        <ele>2405</ele>
        <time>2026-05-14T13:00:26+00:00</time>
      </trkpt>
      <trkpt lat="42.40587" lon="2.1069">
        <ele>2405</ele>
        <time>2026-05-14T13:00:27+00:00</time>
      </trkpt>
      <trkpt lat="42.40594" lon="2.1068">
        <ele>2407</ele>
        <time>2026-05-14T13:00:28+00:00</time>
      </trkpt>
      <trkpt lat="42.40597" lon="2.10659">
        <ele>2411</ele>
        <time>2026-05-14T13:00:29+00:00</time>
      </trkpt>
      <trkpt lat="42.40594" lon="2.10625">
        <ele>2411</ele>
        <time>2026-05-14T13:00:30+00:00</time>
      </trkpt>
      <trkpt lat="42.40612" lon="2.10589">
        <ele>2406</ele>
        <time>2026-05-14T13:00:31+00:00</time>
      </trkpt>
      <trkpt lat="42.40615" lon="2.10572">
        <ele>2403</ele>
        <time>2026-05-14T13:00:32+00:00</time>
      </trkpt>
      <trkpt lat="42.40621" lon="2.1049">
        <ele>2390</ele>
        <time>2026-05-14T13:00:33+00:00</time>
      </trkpt>
      <trkpt lat="42.40615" lon="2.10439">
        <ele>2380</ele>
        <time>2026-05-14T13:00:34+00:00</time>
      </trkpt>
      <trkpt lat="42.40598" lon="2.10385">
        <ele>2367</ele>
        <time>2026-05-14T13:00:35+00:00</time>
      </trkpt>
      <trkpt lat="42.4059" lon="2.10371">
        <ele>2363</ele>
        <time>2026-05-14T13:00:36+00:00</time>
      </trkpt>
      <trkpt lat="42.40583" lon="2.10364">
        <ele>2362</ele>
        <time>2026-05-14T13:00:37+00:00</time>
      </trkpt>
      <trkpt lat="42.40581" lon="2.10356">
        <ele>2359</ele>
        <time>2026-05-14T13:00:38+00:00</time>
      </trkpt>
      <trkpt lat="42.40566" lon="2.10345">
        <ele>2359</ele>
        <time>2026-05-14T13:00:39+00:00</time>
      </trkpt>
      <trkpt lat="42.40556" lon="2.10333">
        <ele>2357</ele>
        <time>2026-05-14T13:00:40+00:00</time>
      </trkpt>
      <trkpt lat="42.40539" lon="2.10322">
        <ele>2358</ele>
        <time>2026-05-14T13:00:41+00:00</time>
      </trkpt>
      <trkpt lat="42.40521" lon="2.10306">
        <ele>2356</ele>
        <time>2026-05-14T13:00:42+00:00</time>
      </trkpt>
      <trkpt lat="42.4047" lon="2.10248">
        <ele>2346</ele>
        <time>2026-05-14T13:00:43+00:00</time>
      </trkpt>
      <trkpt lat="42.40459" lon="2.10228">
        <ele>2344</ele>
        <time>2026-05-14T13:00:44+00:00</time>
      </trkpt>
      <trkpt lat="42.4044" lon="2.10202">
        <ele>2344</ele>
        <time>2026-05-14T13:00:45+00:00</time>
      </trkpt>
      <trkpt lat="42.40437" lon="2.10185">
        <ele>2341</ele>
        <time>2026-05-14T13:00:46+00:00</time>
      </trkpt>
      <trkpt lat="42.40439" lon="2.10144">
        <ele>2334</ele>
        <time>2026-05-14T13:00:47+00:00</time>
      </trkpt>
      <trkpt lat="42.40433" lon="2.1012">
        <ele>2334</ele>
        <time>2026-05-14T13:00:48+00:00</time>
      </trkpt>
      <trkpt lat="42.40429" lon="2.10085">
        <ele>2333</ele>
        <time>2026-05-14T13:00:49+00:00</time>
      </trkpt>
      <trkpt lat="42.4043" lon="2.10075">
        <ele>2333</ele>
        <time>2026-05-14T13:00:50+00:00</time>
      </trkpt>
      <trkpt lat="42.40437" lon="2.10056">
        <ele>2333</ele>
        <time>2026-05-14T13:00:51+00:00</time>
      </trkpt>
      <trkpt lat="42.40449" lon="2.10035">
        <ele>2331</ele>
        <time>2026-05-14T13:00:52+00:00</time>
      </trkpt>
      <trkpt lat="42.40496" lon="2.09991">
        <ele>2325</ele>
        <time>2026-05-14T13:00:53+00:00</time>
      </trkpt>
      <trkpt lat="42.40503" lon="2.09967">
        <ele>2327</ele>
        <time>2026-05-14T13:00:54+00:00</time>
      </trkpt>
      <trkpt lat="42.40507" lon="2.0993">
        <ele>2332</ele>
        <time>2026-05-14T13:00:55+00:00</time>
      </trkpt>
      <trkpt lat="42.40518" lon="2.09901">
        <ele>2334</ele>
        <time>2026-05-14T13:00:56+00:00</time>
      </trkpt>
      <trkpt lat="42.40535" lon="2.09869">
        <ele>2336</ele>
        <time>2026-05-14T13:00:57+00:00</time>
      </trkpt>
      <trkpt lat="42.40555" lon="2.0984">
        <ele>2337</ele>
        <time>2026-05-14T13:00:58+00:00</time>
      </trkpt>
      <trkpt lat="42.40584" lon="2.09805">
        <ele>2333</ele>
        <time>2026-05-14T13:00:59+00:00</time>
      </trkpt>
      <trkpt lat="42.406" lon="2.09776">
        <ele>2332</ele>
        <time>2026-05-14T13:01:00+00:00</time>
      </trkpt>
      <trkpt lat="42.40617" lon="2.09714">
        <ele>2335</ele>
        <time>2026-05-14T13:01:01+00:00</time>
      </trkpt>
      <trkpt lat="42.40617" lon="2.09661">
        <ele>2340</ele>
        <time>2026-05-14T13:01:02+00:00</time>
      </trkpt>
      <trkpt lat="42.40635" lon="2.09615">
        <ele>2342</ele>
        <time>2026-05-14T13:01:03+00:00</time>
      </trkpt>
      <trkpt lat="42.40655" lon="2.09578">
        <ele>2340</ele>
        <time>2026-05-14T13:01:04+00:00</time>
      </trkpt>
      <trkpt lat="42.40678" lon="2.09524">
        <ele>2338</ele>
        <time>2026-05-14T13:01:05+00:00</time>
      </trkpt>
      <trkpt lat="42.40703" lon="2.09456">
        <ele>2342</ele>
        <time>2026-05-14T13:01:06+00:00</time>
      </trkpt>
      <trkpt lat="42.40732" lon="2.09423">
        <ele>2339</ele>
        <time>2026-05-14T13:01:07+00:00</time>
      </trkpt>
      <trkpt lat="42.40742" lon="2.09402">
        <ele>2338</ele>
        <time>2026-05-14T13:01:08+00:00</time>
      </trkpt>
      <trkpt lat="42.40748" lon="2.09368">
        <ele>2337</ele>
        <time>2026-05-14T13:01:09+00:00</time>
      </trkpt>
      <trkpt lat="42.40742" lon="2.09287">
        <ele>2343</ele>
        <time>2026-05-14T13:01:10+00:00</time>
      </trkpt>
      <trkpt lat="42.40761" lon="2.09216">
        <ele>2343</ele>
        <time>2026-05-14T13:01:11+00:00</time>
      </trkpt>
      <trkpt lat="42.40785" lon="2.0919">
        <ele>2338</ele>
        <time>2026-05-14T13:01:12+00:00</time>
      </trkpt>
      <trkpt lat="42.40836" lon="2.09119">
        <ele>2332</ele>
        <time>2026-05-14T13:01:13+00:00</time>
      </trkpt>
      <trkpt lat="42.40838" lon="2.0911">
        <ele>2333</ele>
        <time>2026-05-14T13:01:14+00:00</time>
      </trkpt>
      <trkpt lat="42.40865" lon="2.09083">
        <ele>2330</ele>
        <time>2026-05-14T13:01:15+00:00</time>
      </trkpt>
      <trkpt lat="42.40896" lon="2.09029">
        <ele>2324</ele>
        <time>2026-05-14T13:01:16+00:00</time>
      </trkpt>
      <trkpt lat="42.40904" lon="2.09009">
        <ele>2323</ele>
        <time>2026-05-14T13:01:17+00:00</time>
      </trkpt>
      <trkpt lat="42.40914" lon="2.08995">
        <ele>2321</ele>
        <time>2026-05-14T13:01:18+00:00</time>
      </trkpt>
      <trkpt lat="42.4092" lon="2.08966">
        <ele>2324</ele>
        <time>2026-05-14T13:01:19+00:00</time>
      </trkpt>
      <trkpt lat="42.40932" lon="2.08934">
        <ele>2327</ele>
        <time>2026-05-14T13:01:20+00:00</time>
      </trkpt>
      <trkpt lat="42.40973" lon="2.08882">
        <ele>2324</ele>
        <time>2026-05-14T13:01:21+00:00</time>
      </trkpt>
      <trkpt lat="42.40999" lon="2.08858">
        <ele>2321</ele>
        <time>2026-05-14T13:01:22+00:00</time>
      </trkpt>
      <trkpt lat="42.41055" lon="2.08763">
        <ele>2314</ele>
        <time>2026-05-14T13:01:23+00:00</time>
      </trkpt>
      <trkpt lat="42.41091" lon="2.0872">
        <ele>2311</ele>
        <time>2026-05-14T13:01:24+00:00</time>
      </trkpt>
      <trkpt lat="42.41112" lon="2.087">
        <ele>2308</ele>
        <time>2026-05-14T13:01:25+00:00</time>
      </trkpt>
      <trkpt lat="42.41176" lon="2.08666">
        <ele>2297</ele>
        <time>2026-05-14T13:01:26+00:00</time>
      </trkpt>
      <trkpt lat="42.41259" lon="2.08627">
        <ele>2286</ele>
        <time>2026-05-14T13:01:27+00:00</time>
      </trkpt>
      <trkpt lat="42.41303" lon="2.086">
        <ele>2281</ele>
        <time>2026-05-14T13:01:28+00:00</time>
      </trkpt>
      <trkpt lat="42.41359" lon="2.08559">
        <ele>2276</ele>
        <time>2026-05-14T13:01:29+00:00</time>
      </trkpt>
      <trkpt lat="42.41418" lon="2.08524">
        <ele>2269</ele>
        <time>2026-05-14T13:01:30+00:00</time>
      </trkpt>
      <trkpt lat="42.41529" lon="2.08436">
        <ele>2258</ele>
        <time>2026-05-14T13:01:31+00:00</time>
      </trkpt>
      <trkpt lat="42.41564" lon="2.08429">
        <ele>2251</ele>
        <time>2026-05-14T13:01:32+00:00</time>
      </trkpt>
      <trkpt lat="42.4162" lon="2.08423">
        <ele>2238</ele>
        <time>2026-05-14T13:01:33+00:00</time>
      </trkpt>
      <trkpt lat="42.41748" lon="2.08358">
        <ele>2223</ele>
        <time>2026-05-14T13:01:34+00:00</time>
      </trkpt>
      <trkpt lat="42.41765" lon="2.08328">
        <ele>2223</ele>
        <time>2026-05-14T13:01:35+00:00</time>
      </trkpt>
      <trkpt lat="42.41816" lon="2.08276">
        <ele>2222</ele>
        <time>2026-05-14T13:01:36+00:00</time>
      </trkpt>
      <trkpt lat="42.41896" lon="2.08225">
        <ele>2211</ele>
        <time>2026-05-14T13:01:37+00:00</time>
      </trkpt>
      <trkpt lat="42.4203" lon="2.08161">
        <ele>2188</ele>
        <time>2026-05-14T13:01:38+00:00</time>
      </trkpt>
      <trkpt lat="42.4211" lon="2.081">
        <ele>2185</ele>
        <time>2026-05-14T13:01:39+00:00</time>
      </trkpt>
      <trkpt lat="42.42193" lon="2.07988">
        <ele>2183</ele>
        <time>2026-05-14T13:01:40+00:00</time>
      </trkpt>
      <trkpt lat="42.42249" lon="2.07917">
        <ele>2181</ele>
        <time>2026-05-14T13:01:41+00:00</time>
      </trkpt>
      <trkpt lat="42.42282" lon="2.07859">
        <ele>2182</ele>
        <time>2026-05-14T13:01:42+00:00</time>
      </trkpt>
      <trkpt lat="42.42302" lon="2.07806">
        <ele>2181</ele>
        <time>2026-05-14T13:01:43+00:00</time>
      </trkpt>
      <trkpt lat="42.42302" lon="2.07772">
        <ele>2177</ele>
        <time>2026-05-14T13:01:44+00:00</time>
      </trkpt>
      <trkpt lat="42.42294" lon="2.07672">
        <ele>2154</ele>
        <time>2026-05-14T13:01:45+00:00</time>
      </trkpt>
      <trkpt lat="42.42295" lon="2.0758">
        <ele>2138</ele>
        <time>2026-05-14T13:01:46+00:00</time>
      </trkpt>
      <trkpt lat="42.42303" lon="2.07538">
        <ele>2131</ele>
        <time>2026-05-14T13:01:47+00:00</time>
      </trkpt>
      <trkpt lat="42.42316" lon="2.07501">
        <ele>2124</ele>
        <time>2026-05-14T13:01:48+00:00</time>
      </trkpt>
      <trkpt lat="42.42339" lon="2.07479">
        <ele>2118</ele>
        <time>2026-05-14T13:01:49+00:00</time>
      </trkpt>
      <trkpt lat="42.42413" lon="2.07448">
        <ele>2108</ele>
        <time>2026-05-14T13:01:50+00:00</time>
      </trkpt>
      <trkpt lat="42.42431" lon="2.07427">
        <ele>2104</ele>
        <time>2026-05-14T13:01:51+00:00</time>
      </trkpt>
      <trkpt lat="42.42446" lon="2.07391">
        <ele>2097</ele>
        <time>2026-05-14T13:01:52+00:00</time>
      </trkpt>
      <trkpt lat="42.42452" lon="2.07311">
        <ele>2079</ele>
        <time>2026-05-14T13:01:53+00:00</time>
      </trkpt>
      <trkpt lat="42.42467" lon="2.07214">
        <ele>2052</ele>
        <time>2026-05-14T13:01:54+00:00</time>
      </trkpt>
      <trkpt lat="42.42468" lon="2.07175">
        <ele>2039</ele>
        <time>2026-05-14T13:01:55+00:00</time>
      </trkpt>
      <trkpt lat="42.42492" lon="2.07075">
        <ele>2003</ele>
        <time>2026-05-14T13:01:56+00:00</time>
      </trkpt>
      <trkpt lat="42.4249" lon="2.0702">
        <ele>1984</ele>
        <time>2026-05-14T13:01:57+00:00</time>
      </trkpt>
      <trkpt lat="42.42464" lon="2.06972">
        <ele>1961</ele>
        <time>2026-05-14T13:01:58+00:00</time>
      </trkpt>
      <trkpt lat="42.42455" lon="2.06941">
        <ele>1947</ele>
        <time>2026-05-14T13:01:59+00:00</time>
      </trkpt>
      <trkpt lat="42.42454" lon="2.06929">
        <ele>1942</ele>
        <time>2026-05-14T13:02:00+00:00</time>
      </trkpt>
      <trkpt lat="42.42494" lon="2.0689">
        <ele>1938</ele>
        <time>2026-05-14T13:02:01+00:00</time>
      </trkpt>
      <trkpt lat="42.42523" lon="2.06886">
        <ele>1934</ele>
        <time>2026-05-14T13:02:02+00:00</time>
      </trkpt>
      <trkpt lat="42.42567" lon="2.0689">
        <ele>1928</ele>
        <time>2026-05-14T13:02:03+00:00</time>
      </trkpt>
      <trkpt lat="42.4259" lon="2.06887">
        <ele>1924</ele>
        <time>2026-05-14T13:02:04+00:00</time>
      </trkpt>
      <trkpt lat="42.42627" lon="2.06874">
        <ele>1917</ele>
        <time>2026-05-14T13:02:05+00:00</time>
      </trkpt>
      <trkpt lat="42.42648" lon="2.06863">
        <ele>1911</ele>
        <time>2026-05-14T13:02:06+00:00</time>
      </trkpt>
      <trkpt lat="42.4266" lon="2.0684">
        <ele>1903</ele>
        <time>2026-05-14T13:02:07+00:00</time>
      </trkpt>
      <trkpt lat="42.42677" lon="2.06816">
        <ele>1898</ele>
        <time>2026-05-14T13:02:08+00:00</time>
      </trkpt>
      <trkpt lat="42.42675" lon="2.06807">
        <ele>1894</ele>
        <time>2026-05-14T13:02:09+00:00</time>
      </trkpt>
      <trkpt lat="42.42665" lon="2.06802">
        <ele>1890</ele>
        <time>2026-05-14T13:02:10+00:00</time>
      </trkpt>
      <trkpt lat="42.42643" lon="2.06807">
        <ele>1893</ele>
        <time>2026-05-14T13:02:11+00:00</time>
      </trkpt>
      <trkpt lat="42.42644" lon="2.06798">
        <ele>1890</ele>
        <time>2026-05-14T13:02:12+00:00</time>
      </trkpt>
      <trkpt lat="42.42647" lon="2.06795">
        <ele>1889</ele>
        <time>2026-05-14T13:02:13+00:00</time>
      </trkpt>
      <trkpt lat="42.42658" lon="2.06792">
        <ele>1888</ele>
        <time>2026-05-14T13:02:14+00:00</time>
      </trkpt>
      <trkpt lat="42.42685" lon="2.06745">
        <ele>1879</ele>
        <time>2026-05-14T13:02:15+00:00</time>
      </trkpt>
      <trkpt lat="42.42694" lon="2.06739">
        <ele>1880</ele>
        <time>2026-05-14T13:02:16+00:00</time>
      </trkpt>
      <trkpt lat="42.42697" lon="2.06697">
        <ele>1870</ele>
        <time>2026-05-14T13:02:17+00:00</time>
      </trkpt>
      <trkpt lat="42.42721" lon="2.06593">
        <ele>1853</ele>
        <time>2026-05-14T13:02:18+00:00</time>
      </trkpt>
      <trkpt lat="42.42731" lon="2.06565">
        <ele>1849</ele>
        <time>2026-05-14T13:02:19+00:00</time>
      </trkpt>
      <trkpt lat="42.42744" lon="2.06548">
        <ele>1849</ele>
        <time>2026-05-14T13:02:20+00:00</time>
      </trkpt>
      <trkpt lat="42.42815" lon="2.06477">
        <ele>1840</ele>
        <time>2026-05-14T13:02:21+00:00</time>
      </trkpt>
      <trkpt lat="42.42825" lon="2.06462">
        <ele>1838</ele>
        <time>2026-05-14T13:02:22+00:00</time>
      </trkpt>
      <trkpt lat="42.42829" lon="2.06451">
        <ele>1836</ele>
        <time>2026-05-14T13:02:23+00:00</time>
      </trkpt>
      <trkpt lat="42.42826" lon="2.06447">
        <ele>1834</ele>
        <time>2026-05-14T13:02:24+00:00</time>
      </trkpt>
      <trkpt lat="42.42813" lon="2.06452">
        <ele>1832</ele>
        <time>2026-05-14T13:02:25+00:00</time>
      </trkpt>
      <trkpt lat="42.42774" lon="2.0645">
        <ele>1822</ele>
        <time>2026-05-14T13:02:26+00:00</time>
      </trkpt>
      <trkpt lat="42.42771" lon="2.06448">
        <ele>1820</ele>
        <time>2026-05-14T13:02:27+00:00</time>
      </trkpt>
      <trkpt lat="42.4281" lon="2.06412">
        <ele>1819</ele>
        <time>2026-05-14T13:02:28+00:00</time>
      </trkpt>
      <trkpt lat="42.42824" lon="2.06403">
        <ele>1822</ele>
        <time>2026-05-14T13:02:29+00:00</time>
      </trkpt>
      <trkpt lat="42.42832" lon="2.06404">
        <ele>1825</ele>
        <time>2026-05-14T13:02:30+00:00</time>
      </trkpt>
      <trkpt lat="42.42833" lon="2.06399">
        <ele>1825</ele>
        <time>2026-05-14T13:02:31+00:00</time>
      </trkpt>
      <trkpt lat="42.42824" lon="2.06368">
        <ele>1817</ele>
        <time>2026-05-14T13:02:32+00:00</time>
      </trkpt>
      <trkpt lat="42.42818" lon="2.06314">
        <ele>1807</ele>
        <time>2026-05-14T13:02:33+00:00</time>
      </trkpt>
      <trkpt lat="42.42808" lon="2.06277">
        <ele>1797</ele>
        <time>2026-05-14T13:02:34+00:00</time>
      </trkpt>
      <trkpt lat="42.42808" lon="2.06261">
        <ele>1795</ele>
        <time>2026-05-14T13:02:35+00:00</time>
      </trkpt>
      <trkpt lat="42.42832" lon="2.06177">
        <ele>1787</ele>
        <time>2026-05-14T13:02:36+00:00</time>
      </trkpt>
      <trkpt lat="42.42841" lon="2.06163">
        <ele>1788</ele>
        <time>2026-05-14T13:02:37+00:00</time>
      </trkpt>
      <trkpt lat="42.42846" lon="2.06148">
        <ele>1788</ele>
        <time>2026-05-14T13:02:38+00:00</time>
      </trkpt>
      <trkpt lat="42.4284" lon="2.06117">
        <ele>1781</ele>
        <time>2026-05-14T13:02:39+00:00</time>
      </trkpt>
      <trkpt lat="42.42838" lon="2.06012">
        <ele>1772</ele>
        <time>2026-05-14T13:02:40+00:00</time>
      </trkpt>
      <trkpt lat="42.42832" lon="2.05969">
        <ele>1767</ele>
        <time>2026-05-14T13:02:41+00:00</time>
      </trkpt>
      <trkpt lat="42.42826" lon="2.05963">
        <ele>1765</ele>
        <time>2026-05-14T13:02:42+00:00</time>
      </trkpt>
      <trkpt lat="42.42789" lon="2.05964">
        <ele>1754</ele>
        <time>2026-05-14T13:02:43+00:00</time>
      </trkpt>
      <trkpt lat="42.42776" lon="2.05969">
        <ele>1751</ele>
        <time>2026-05-14T13:02:44+00:00</time>
      </trkpt>
      <trkpt lat="42.42761" lon="2.05954">
        <ele>1746</ele>
        <time>2026-05-14T13:02:45+00:00</time>
      </trkpt>
      <trkpt lat="42.42753" lon="2.05931">
        <ele>1743</ele>
        <time>2026-05-14T13:02:46+00:00</time>
      </trkpt>
      <trkpt lat="42.42752" lon="2.05902">
        <ele>1740</ele>
        <time>2026-05-14T13:02:47+00:00</time>
      </trkpt>
      <trkpt lat="42.42755" lon="2.05871">
        <ele>1735</ele>
        <time>2026-05-14T13:02:48+00:00</time>
      </trkpt>
      <trkpt lat="42.42778" lon="2.05831">
        <ele>1733</ele>
        <time>2026-05-14T13:02:49+00:00</time>
      </trkpt>
      <trkpt lat="42.4281" lon="2.05796">
        <ele>1728</ele>
        <time>2026-05-14T13:02:50+00:00</time>
      </trkpt>
      <trkpt lat="42.42841" lon="2.05772">
        <ele>1725</ele>
        <time>2026-05-14T13:02:51+00:00</time>
      </trkpt>
      <trkpt lat="42.4292" lon="2.0574">
        <ele>1722</ele>
        <time>2026-05-14T13:02:52+00:00</time>
      </trkpt>
      <trkpt lat="42.42942" lon="2.05741">
        <ele>1720</ele>
        <time>2026-05-14T13:02:53+00:00</time>
      </trkpt>
      <trkpt lat="42.4295" lon="2.0574">
        <ele>1719</ele>
        <time>2026-05-14T13:02:54+00:00</time>
      </trkpt>
      <trkpt lat="42.42954" lon="2.05736">
        <ele>1716</ele>
        <time>2026-05-14T13:02:55+00:00</time>
      </trkpt>
      <trkpt lat="42.42943" lon="2.05727">
        <ele>1713</ele>
        <time>2026-05-14T13:02:56+00:00</time>
      </trkpt>
      <trkpt lat="42.42879" lon="2.05717">
        <ele>1707</ele>
        <time>2026-05-14T13:02:57+00:00</time>
      </trkpt>
      <trkpt lat="42.4285" lon="2.05722">
        <ele>1706</ele>
        <time>2026-05-14T13:02:58+00:00</time>
      </trkpt>
      <trkpt lat="42.42823" lon="2.05723">
        <ele>1703</ele>
        <time>2026-05-14T13:02:59+00:00</time>
      </trkpt>
      <trkpt lat="42.42736" lon="2.05757">
        <ele>1697</ele>
        <time>2026-05-14T13:03:00+00:00</time>
      </trkpt>
      <trkpt lat="42.42717" lon="2.05771">
        <ele>1694</ele>
        <time>2026-05-14T13:03:01+00:00</time>
      </trkpt>
      <trkpt lat="42.42715" lon="2.05761">
        <ele>1691</ele>
        <time>2026-05-14T13:03:02+00:00</time>
      </trkpt>
      <trkpt lat="42.42764" lon="2.05722">
        <ele>1693</ele>
        <time>2026-05-14T13:03:03+00:00</time>
      </trkpt>
      <trkpt lat="42.42819" lon="2.05693">
        <ele>1692</ele>
        <time>2026-05-14T13:03:04+00:00</time>
      </trkpt>
      <trkpt lat="42.42821" lon="2.05687">
        <ele>1690</ele>
        <time>2026-05-14T13:03:05+00:00</time>
      </trkpt>
      <trkpt lat="42.42806" lon="2.05683">
        <ele>1687</ele>
        <time>2026-05-14T13:03:06+00:00</time>
      </trkpt>
      <trkpt lat="42.42713" lon="2.05694">
        <ele>1674</ele>
        <time>2026-05-14T13:03:07+00:00</time>
      </trkpt>
      <trkpt lat="42.42681" lon="2.0571">
        <ele>1670</ele>
        <time>2026-05-14T13:03:08+00:00</time>
      </trkpt>
      <trkpt lat="42.4267" lon="2.05719">
        <ele>1668</ele>
        <time>2026-05-14T13:03:09+00:00</time>
      </trkpt>
      <trkpt lat="42.42666" lon="2.05716">
        <ele>1667</ele>
        <time>2026-05-14T13:03:10+00:00</time>
      </trkpt>
      <trkpt lat="42.4267" lon="2.05703">
        <ele>1665</ele>
        <time>2026-05-14T13:03:11+00:00</time>
      </trkpt>
      <trkpt lat="42.4268" lon="2.05687">
        <ele>1665</ele>
        <time>2026-05-14T13:03:12+00:00</time>
      </trkpt>
      <trkpt lat="42.42715" lon="2.05651">
        <ele>1661</ele>
        <time>2026-05-14T13:03:13+00:00</time>
      </trkpt>
      <trkpt lat="42.4273" lon="2.05639">
        <ele>1659</ele>
        <time>2026-05-14T13:03:14+00:00</time>
      </trkpt>
      <trkpt lat="42.42749" lon="2.05634">
        <ele>1661</ele>
        <time>2026-05-14T13:03:15+00:00</time>
      </trkpt>
      <trkpt lat="42.42753" lon="2.0563">
        <ele>1659</ele>
        <time>2026-05-14T13:03:16+00:00</time>
      </trkpt>
      <trkpt lat="42.4275" lon="2.05626">
        <ele>1657</ele>
        <time>2026-05-14T13:03:17+00:00</time>
      </trkpt>
      <trkpt lat="42.42735" lon="2.05623">
        <ele>1653</ele>
        <time>2026-05-14T13:03:18+00:00</time>
      </trkpt>
      <trkpt lat="42.42706" lon="2.05628">
        <ele>1650</ele>
        <time>2026-05-14T13:03:19+00:00</time>
      </trkpt>
      <trkpt lat="42.4264" lon="2.05651">
        <ele>1643</ele>
        <time>2026-05-14T13:03:20+00:00</time>
      </trkpt>
      <trkpt lat="42.42628" lon="2.05663">
        <ele>1643</ele>
        <time>2026-05-14T13:03:21+00:00</time>
      </trkpt>
      <trkpt lat="42.42621" lon="2.05665">
        <ele>1641</ele>
        <time>2026-05-14T13:03:22+00:00</time>
      </trkpt>
      <trkpt lat="42.42617" lon="2.05662">
        <ele>1638</ele>
        <time>2026-05-14T13:03:23+00:00</time>
      </trkpt>
      <trkpt lat="42.42621" lon="2.05637">
        <ele>1633</ele>
        <time>2026-05-14T13:03:24+00:00</time>
      </trkpt>
      <trkpt lat="42.42634" lon="2.05619">
        <ele>1631</ele>
        <time>2026-05-14T13:03:25+00:00</time>
      </trkpt>
      <trkpt lat="42.42646" lon="2.05608">
        <ele>1631</ele>
        <time>2026-05-14T13:03:26+00:00</time>
      </trkpt>
      <trkpt lat="42.4269" lon="2.05591">
        <ele>1633</ele>
        <time>2026-05-14T13:03:27+00:00</time>
      </trkpt>
      <trkpt lat="42.42726" lon="2.05581">
        <ele>1634</ele>
        <time>2026-05-14T13:03:28+00:00</time>
      </trkpt>
      <trkpt lat="42.42731" lon="2.05578">
        <ele>1633</ele>
        <time>2026-05-14T13:03:29+00:00</time>
      </trkpt>
      <trkpt lat="42.42731" lon="2.0557">
        <ele>1629</ele>
        <time>2026-05-14T13:03:30+00:00</time>
      </trkpt>
      <trkpt lat="42.42701" lon="2.05565">
        <ele>1622</ele>
        <time>2026-05-14T13:03:31+00:00</time>
      </trkpt>
      <trkpt lat="42.42671" lon="2.05566">
        <ele>1618</ele>
        <time>2026-05-14T13:03:32+00:00</time>
      </trkpt>
      <trkpt lat="42.42642" lon="2.05553">
        <ele>1606</ele>
        <time>2026-05-14T13:03:33+00:00</time>
      </trkpt>
      <trkpt lat="42.4262" lon="2.05551">
        <ele>1601</ele>
        <time>2026-05-14T13:03:34+00:00</time>
      </trkpt>
      <trkpt lat="42.42605" lon="2.05545">
        <ele>1595</ele>
        <time>2026-05-14T13:03:35+00:00</time>
      </trkpt>
      <trkpt lat="42.42585" lon="2.05556">
        <ele>1597</ele>
        <time>2026-05-14T13:03:36+00:00</time>
      </trkpt>
      <trkpt lat="42.42577" lon="2.05577">
        <ele>1604</ele>
        <time>2026-05-14T13:03:37+00:00</time>
      </trkpt>
      <trkpt lat="42.42571" lon="2.05613">
        <ele>1610</ele>
        <time>2026-05-14T13:03:38+00:00</time>
      </trkpt>
      <trkpt lat="42.42543" lon="2.05661">
        <ele>1603</ele>
        <time>2026-05-14T13:03:39+00:00</time>
      </trkpt>
      <trkpt lat="42.42532" lon="2.0571">
        <ele>1600</ele>
        <time>2026-05-14T13:03:40+00:00</time>
      </trkpt>
      <trkpt lat="42.4253" lon="2.05736">
        <ele>1601</ele>
        <time>2026-05-14T13:03:41+00:00</time>
      </trkpt>
      <trkpt lat="42.42538" lon="2.05754">
        <ele>1606</ele>
        <time>2026-05-14T13:03:42+00:00</time>
      </trkpt>
      <trkpt lat="42.42556" lon="2.05781">
        <ele>1615</ele>
        <time>2026-05-14T13:03:43+00:00</time>
      </trkpt>
      <trkpt lat="42.42556" lon="2.05817">
        <ele>1615</ele>
        <time>2026-05-14T13:03:44+00:00</time>
      </trkpt>
      <trkpt lat="42.4255" lon="2.05845">
        <ele>1615</ele>
        <time>2026-05-14T13:03:45+00:00</time>
      </trkpt>
      <trkpt lat="42.4253" lon="2.05919">
        <ele>1617</ele>
        <time>2026-05-14T13:03:46+00:00</time>
      </trkpt>
      <trkpt lat="42.42521" lon="2.05963">
        <ele>1621</ele>
        <time>2026-05-14T13:03:47+00:00</time>
      </trkpt>
      <trkpt lat="42.42513" lon="2.05983">
        <ele>1621</ele>
        <time>2026-05-14T13:03:48+00:00</time>
      </trkpt>
      <trkpt lat="42.42503" lon="2.05977">
        <ele>1617</ele>
        <time>2026-05-14T13:03:49+00:00</time>
      </trkpt>
      <trkpt lat="42.42487" lon="2.06009">
        <ele>1627</ele>
        <time>2026-05-14T13:03:50+00:00</time>
      </trkpt>
      <trkpt lat="42.42481" lon="2.06003">
        <ele>1628</ele>
        <time>2026-05-14T13:03:51+00:00</time>
      </trkpt>
      <trkpt lat="42.42476" lon="2.05934">
        <ele>1620</ele>
        <time>2026-05-14T13:03:52+00:00</time>
      </trkpt>
      <trkpt lat="42.42467" lon="2.05878">
        <ele>1615</ele>
        <time>2026-05-14T13:03:53+00:00</time>
      </trkpt>
      <trkpt lat="42.42432" lon="2.0578">
        <ele>1611</ele>
        <time>2026-05-14T13:03:54+00:00</time>
      </trkpt>
      <trkpt lat="42.42397" lon="2.05746">
        <ele>1612</ele>
        <time>2026-05-14T13:03:55+00:00</time>
      </trkpt>
      <trkpt lat="42.42384" lon="2.05716">
        <ele>1603</ele>
        <time>2026-05-14T13:03:56+00:00</time>
      </trkpt>
      <trkpt lat="42.42365" lon="2.05686">
        <ele>1594</ele>
        <time>2026-05-14T13:03:57+00:00</time>
      </trkpt>
      <trkpt lat="42.42316" lon="2.05661">
        <ele>1586</ele>
        <time>2026-05-14T13:03:58+00:00</time>
      </trkpt>
      <trkpt lat="42.42245" lon="2.05612">
        <ele>1548</ele>
        <time>2026-05-14T13:03:59+00:00</time>
      </trkpt>
      <trkpt lat="42.42218" lon="2.05596">
        <ele>1533</ele>
        <time>2026-05-14T13:04:00+00:00</time>
      </trkpt>
      <trkpt lat="42.42207" lon="2.05597">
        <ele>1532</ele>
        <time>2026-05-14T13:04:01+00:00</time>
      </trkpt>
      <trkpt lat="42.42195" lon="2.05592">
        <ele>1527</ele>
        <time>2026-05-14T13:04:02+00:00</time>
      </trkpt>
      <trkpt lat="42.42182" lon="2.05593">
        <ele>1526</ele>
        <time>2026-05-14T13:04:03+00:00</time>
      </trkpt>
      <trkpt lat="42.42172" lon="2.05598">
        <ele>1527</ele>
        <time>2026-05-14T13:04:04+00:00</time>
      </trkpt>
      <trkpt lat="42.4216" lon="2.05609">
        <ele>1531</ele>
        <time>2026-05-14T13:04:05+00:00</time>
      </trkpt>
      <trkpt lat="42.42159" lon="2.05599">
        <ele>1527</ele>
        <time>2026-05-14T13:04:06+00:00</time>
      </trkpt>
      <trkpt lat="42.42174" lon="2.05574">
        <ele>1521</ele>
        <time>2026-05-14T13:04:07+00:00</time>
      </trkpt>
      <trkpt lat="42.4216" lon="2.05533">
        <ele>1526</ele>
        <time>2026-05-14T13:04:08+00:00</time>
      </trkpt>
      <trkpt lat="42.42231" lon="2.05441">
        <ele>1547</ele>
        <time>2026-05-14T13:04:09+00:00</time>
      </trkpt>
      <trkpt lat="42.42237" lon="2.05411">
        <ele>1558</ele>
        <time>2026-05-14T13:04:10+00:00</time>
      </trkpt>
      <trkpt lat="42.42239" lon="2.05319">
        <ele>1600</ele>
        <time>2026-05-14T13:04:11+00:00</time>
      </trkpt>
      <trkpt lat="42.42246" lon="2.05256">
        <ele>1625</ele>
        <time>2026-05-14T13:04:12+00:00</time>
      </trkpt>
      <trkpt lat="42.42221" lon="2.05241">
        <ele>1628</ele>
        <time>2026-05-14T13:04:13+00:00</time>
      </trkpt>
      <trkpt lat="42.42171" lon="2.05177">
        <ele>1647</ele>
        <time>2026-05-14T13:04:14+00:00</time>
      </trkpt>
      <trkpt lat="42.42138" lon="2.05166">
        <ele>1655</ele>
        <time>2026-05-14T13:04:15+00:00</time>
      </trkpt>
      <trkpt lat="42.42113" lon="2.05164">
        <ele>1659</ele>
        <time>2026-05-14T13:04:16+00:00</time>
      </trkpt>
      <trkpt lat="42.42088" lon="2.05167">
        <ele>1662</ele>
        <time>2026-05-14T13:04:17+00:00</time>
      </trkpt>
      <trkpt lat="42.42032" lon="2.05188">
        <ele>1678</ele>
        <time>2026-05-14T13:04:18+00:00</time>
      </trkpt>
      <trkpt lat="42.42005" lon="2.05203">
        <ele>1684</ele>
        <time>2026-05-14T13:04:19+00:00</time>
      </trkpt>
      <trkpt lat="42.41993" lon="2.05215">
        <ele>1686</ele>
        <time>2026-05-14T13:04:20+00:00</time>
      </trkpt>
      <trkpt lat="42.4195" lon="2.05279">
        <ele>1690</ele>
        <time>2026-05-14T13:04:21+00:00</time>
      </trkpt>
      <trkpt lat="42.41931" lon="2.05296">
        <ele>1694</ele>
        <time>2026-05-14T13:04:22+00:00</time>
      </trkpt>
      <trkpt lat="42.41901" lon="2.05315">
        <ele>1701</ele>
        <time>2026-05-14T13:04:23+00:00</time>
      </trkpt>
      <trkpt lat="42.41786" lon="2.05356">
        <ele>1726</ele>
        <time>2026-05-14T13:04:24+00:00</time>
      </trkpt>
      <trkpt lat="42.41661" lon="2.0542">
        <ele>1749</ele>
        <time>2026-05-14T13:04:25+00:00</time>
      </trkpt>
      <trkpt lat="42.41611" lon="2.05467">
        <ele>1755</ele>
        <time>2026-05-14T13:04:26+00:00</time>
      </trkpt>
      <trkpt lat="42.41585" lon="2.05495">
        <ele>1758</ele>
        <time>2026-05-14T13:04:27+00:00</time>
      </trkpt>
      <trkpt lat="42.41511" lon="2.05547">
        <ele>1768</ele>
        <time>2026-05-14T13:04:28+00:00</time>
      </trkpt>
      <trkpt lat="42.41376" lon="2.05615">
        <ele>1794</ele>
        <time>2026-05-14T13:04:29+00:00</time>
      </trkpt>
      <trkpt lat="42.41323" lon="2.05665">
        <ele>1802</ele>
        <time>2026-05-14T13:04:30+00:00</time>
      </trkpt>
      <trkpt lat="42.41236" lon="2.05761">
        <ele>1818</ele>
        <time>2026-05-14T13:04:31+00:00</time>
      </trkpt>
      <trkpt lat="42.41203" lon="2.0579">
        <ele>1821</ele>
        <time>2026-05-14T13:04:32+00:00</time>
      </trkpt>
      <trkpt lat="42.41189" lon="2.05789">
        <ele>1826</ele>
        <time>2026-05-14T13:04:33+00:00</time>
      </trkpt>
      <trkpt lat="42.41162" lon="2.05811">
        <ele>1830</ele>
        <time>2026-05-14T13:04:34+00:00</time>
      </trkpt>
      <trkpt lat="42.41129" lon="2.05826">
        <ele>1834</ele>
        <time>2026-05-14T13:04:35+00:00</time>
      </trkpt>
      <trkpt lat="42.4111" lon="2.05832">
        <ele>1836</ele>
        <time>2026-05-14T13:04:36+00:00</time>
      </trkpt>
      <trkpt lat="42.41082" lon="2.05835">
        <ele>1842</ele>
        <time>2026-05-14T13:04:37+00:00</time>
      </trkpt>
      <trkpt lat="42.41077" lon="2.05835">
        <ele>1842</ele>
        <time>2026-05-14T13:04:38+00:00</time>
      </trkpt>
      <trkpt lat="42.4107" lon="2.05792">
        <ele>1851</ele>
        <time>2026-05-14T13:04:39+00:00</time>
      </trkpt>
    </trkseg>
  </trk>
</gpx>
