<?xml version="1.0" encoding="UTF-8"?>
<gpx xmlns="http://www.topografix.com/GPX/1/1" xmlns:xsi="http://www.w3.org/2001/XMLSchema-instance" version="1.1" creator="phpGPX/1.3.0" xsi:schemaLocation="http://www.topografix.com/GPX/1/1 http://www.topografix.com/GPX/1/1/gpx.xsd">
  <metadata>
    <time>2026-05-14T09:44:22+00:00</time>
  </metadata>
  <trk>
    <name>La grande boucle est</name>
    <trkseg>
      <trkpt lat="49.62857" lon="-1.56669">
        <ele>33</ele>
        <time>2026-05-14T09:44:23+00:00</time>
      </trkpt>
      <trkpt lat="49.62857" lon="-1.56711">
        <ele>29</ele>
        <time>2026-05-14T09:44:24+00:00</time>
      </trkpt>
      <trkpt lat="49.62857" lon="-1.56669">
        <ele>33</ele>
        <time>2026-05-14T09:44:25+00:00</time>
      </trkpt>
      <trkpt lat="49.62857" lon="-1.56711">
        <ele>29</ele>
        <time>2026-05-14T09:44:26+00:00</time>
      </trkpt>
      <trkpt lat="49.62863" lon="-1.56718">
        <ele>29</ele>
        <time>2026-05-14T09:44:27+00:00</time>
      </trkpt>
      <trkpt lat="49.63021" lon="-1.56724">
        <ele>27</ele>
        <time>2026-05-14T09:44:28+00:00</time>
      </trkpt>
      <trkpt lat="49.63063" lon="-1.56753">
        <ele>25</ele>
        <time>2026-05-14T09:44:29+00:00</time>
      </trkpt>
      <trkpt lat="49.63434" lon="-1.56948">
        <ele>22</ele>
        <time>2026-05-14T09:44:30+00:00</time>
      </trkpt>
      <trkpt lat="49.63446" lon="-1.56945">
        <ele>22</ele>
        <time>2026-05-14T09:44:31+00:00</time>
      </trkpt>
      <trkpt lat="49.63457" lon="-1.5691">
        <ele>23</ele>
        <time>2026-05-14T09:44:32+00:00</time>
      </trkpt>
      <trkpt lat="49.63475" lon="-1.56919">
        <ele>23</ele>
        <time>2026-05-14T09:44:33+00:00</time>
      </trkpt>
      <trkpt lat="49.63504" lon="-1.56806">
        <ele>28</ele>
        <time>2026-05-14T09:44:34+00:00</time>
      </trkpt>
      <trkpt lat="49.63499" lon="-1.56773">
        <ele>30</ele>
        <time>2026-05-14T09:44:35+00:00</time>
      </trkpt>
      <trkpt lat="49.63508" lon="-1.56765">
        <ele>30</ele>
        <time>2026-05-14T09:44:36+00:00</time>
      </trkpt>
      <trkpt lat="49.63531" lon="-1.56687">
        <ele>33</ele>
        <time>2026-05-14T09:44:37+00:00</time>
      </trkpt>
      <trkpt lat="49.63541" lon="-1.56678">
        <ele>33</ele>
        <time>2026-05-14T09:44:38+00:00</time>
      </trkpt>
      <trkpt lat="49.63566" lon="-1.56642">
        <ele>33</ele>
        <time>2026-05-14T09:44:39+00:00</time>
      </trkpt>
      <trkpt lat="49.63569" lon="-1.56634">
        <ele>33</ele>
        <time>2026-05-14T09:44:40+00:00</time>
      </trkpt>
      <trkpt lat="49.63566" lon="-1.56642">
        <ele>33</ele>
        <time>2026-05-14T09:44:41+00:00</time>
      </trkpt>
      <trkpt lat="49.63569" lon="-1.56634">
        <ele>33</ele>
        <time>2026-05-14T09:44:42+00:00</time>
      </trkpt>
      <trkpt lat="49.63574" lon="-1.56638">
        <ele>33</ele>
        <time>2026-05-14T09:44:43+00:00</time>
      </trkpt>
      <trkpt lat="49.63574" lon="-1.56656">
        <ele>32</ele>
        <time>2026-05-14T09:44:44+00:00</time>
      </trkpt>
      <trkpt lat="49.63576" lon="-1.56662">
        <ele>32</ele>
        <time>2026-05-14T09:44:45+00:00</time>
      </trkpt>
      <trkpt lat="49.63581" lon="-1.56664">
        <ele>31</ele>
        <time>2026-05-14T09:44:46+00:00</time>
      </trkpt>
      <trkpt lat="49.63625" lon="-1.56648">
        <ele>31</ele>
        <time>2026-05-14T09:44:47+00:00</time>
      </trkpt>
      <trkpt lat="49.63635" lon="-1.5665">
        <ele>31</ele>
        <time>2026-05-14T09:44:48+00:00</time>
      </trkpt>
      <trkpt lat="49.6365" lon="-1.56663">
        <ele>30</ele>
        <time>2026-05-14T09:44:49+00:00</time>
      </trkpt>
      <trkpt lat="49.63658" lon="-1.5666">
        <ele>30</ele>
        <time>2026-05-14T09:44:50+00:00</time>
      </trkpt>
      <trkpt lat="49.63667" lon="-1.56605">
        <ele>32</ele>
        <time>2026-05-14T09:44:51+00:00</time>
      </trkpt>
      <trkpt lat="49.6368" lon="-1.56609">
        <ele>32</ele>
        <time>2026-05-14T09:44:52+00:00</time>
      </trkpt>
      <trkpt lat="49.63685" lon="-1.56613">
        <ele>32</ele>
        <time>2026-05-14T09:44:53+00:00</time>
      </trkpt>
      <trkpt lat="49.63717" lon="-1.56615">
        <ele>32</ele>
        <time>2026-05-14T09:44:54+00:00</time>
      </trkpt>
      <trkpt lat="49.63731" lon="-1.56656">
        <ele>30</ele>
        <time>2026-05-14T09:44:55+00:00</time>
      </trkpt>
      <trkpt lat="49.63737" lon="-1.56683">
        <ele>29</ele>
        <time>2026-05-14T09:44:56+00:00</time>
      </trkpt>
      <trkpt lat="49.63771" lon="-1.56661">
        <ele>29</ele>
        <time>2026-05-14T09:44:57+00:00</time>
      </trkpt>
      <trkpt lat="49.63795" lon="-1.56662">
        <ele>28</ele>
        <time>2026-05-14T09:44:58+00:00</time>
      </trkpt>
      <trkpt lat="49.63817" lon="-1.56668">
        <ele>27</ele>
        <time>2026-05-14T09:44:59+00:00</time>
      </trkpt>
      <trkpt lat="49.63884" lon="-1.56714">
        <ele>26</ele>
        <time>2026-05-14T09:45:00+00:00</time>
      </trkpt>
      <trkpt lat="49.63907" lon="-1.56647">
        <ele>28</ele>
        <time>2026-05-14T09:45:01+00:00</time>
      </trkpt>
      <trkpt lat="49.63936" lon="-1.56598">
        <ele>29</ele>
        <time>2026-05-14T09:45:02+00:00</time>
      </trkpt>
      <trkpt lat="49.63947" lon="-1.56567">
        <ele>29</ele>
        <time>2026-05-14T09:45:03+00:00</time>
      </trkpt>
      <trkpt lat="49.6395" lon="-1.56546">
        <ele>30</ele>
        <time>2026-05-14T09:45:04+00:00</time>
      </trkpt>
      <trkpt lat="49.6397" lon="-1.56514">
        <ele>31</ele>
        <time>2026-05-14T09:45:05+00:00</time>
      </trkpt>
      <trkpt lat="49.6399" lon="-1.56496">
        <ele>32</ele>
        <time>2026-05-14T09:45:06+00:00</time>
      </trkpt>
      <trkpt lat="49.64007" lon="-1.56516">
        <ele>32</ele>
        <time>2026-05-14T09:45:07+00:00</time>
      </trkpt>
      <trkpt lat="49.64046" lon="-1.5648">
        <ele>37</ele>
        <time>2026-05-14T09:45:08+00:00</time>
      </trkpt>
      <trkpt lat="49.64096" lon="-1.56484">
        <ele>41</ele>
        <time>2026-05-14T09:45:09+00:00</time>
      </trkpt>
      <trkpt lat="49.64138" lon="-1.56499">
        <ele>44</ele>
        <time>2026-05-14T09:45:10+00:00</time>
      </trkpt>
      <trkpt lat="49.64141" lon="-1.56497">
        <ele>44</ele>
        <time>2026-05-14T09:45:11+00:00</time>
      </trkpt>
      <trkpt lat="49.64141" lon="-1.56491">
        <ele>45</ele>
        <time>2026-05-14T09:45:12+00:00</time>
      </trkpt>
      <trkpt lat="49.64117" lon="-1.56457">
        <ele>46</ele>
        <time>2026-05-14T09:45:13+00:00</time>
      </trkpt>
      <trkpt lat="49.64113" lon="-1.56421">
        <ele>48</ele>
        <time>2026-05-14T09:45:14+00:00</time>
      </trkpt>
      <trkpt lat="49.64131" lon="-1.56415">
        <ele>51</ele>
        <time>2026-05-14T09:45:15+00:00</time>
      </trkpt>
      <trkpt lat="49.64279" lon="-1.5642">
        <ele>67</ele>
        <time>2026-05-14T09:45:16+00:00</time>
      </trkpt>
      <trkpt lat="49.64283" lon="-1.56422">
        <ele>68</ele>
        <time>2026-05-14T09:45:17+00:00</time>
      </trkpt>
      <trkpt lat="49.64293" lon="-1.56456">
        <ele>66</ele>
        <time>2026-05-14T09:45:18+00:00</time>
      </trkpt>
      <trkpt lat="49.64353" lon="-1.56509">
        <ele>67</ele>
        <time>2026-05-14T09:45:19+00:00</time>
      </trkpt>
      <trkpt lat="49.64394" lon="-1.56536">
        <ele>68</ele>
        <time>2026-05-14T09:45:20+00:00</time>
      </trkpt>
      <trkpt lat="49.64432" lon="-1.56512">
        <ele>72</ele>
        <time>2026-05-14T09:45:21+00:00</time>
      </trkpt>
      <trkpt lat="49.64475" lon="-1.56479">
        <ele>75</ele>
        <time>2026-05-14T09:45:22+00:00</time>
      </trkpt>
      <trkpt lat="49.64473" lon="-1.5644">
        <ele>75</ele>
        <time>2026-05-14T09:45:23+00:00</time>
      </trkpt>
      <trkpt lat="49.64469" lon="-1.56427">
        <ele>75</ele>
        <time>2026-05-14T09:45:24+00:00</time>
      </trkpt>
      <trkpt lat="49.64412" lon="-1.56338">
        <ele>76</ele>
        <time>2026-05-14T09:45:25+00:00</time>
      </trkpt>
      <trkpt lat="49.64376" lon="-1.56265">
        <ele>77</ele>
        <time>2026-05-14T09:45:26+00:00</time>
      </trkpt>
      <trkpt lat="49.6436" lon="-1.56223">
        <ele>78</ele>
        <time>2026-05-14T09:45:27+00:00</time>
      </trkpt>
      <trkpt lat="49.64253" lon="-1.55866">
        <ele>79</ele>
        <time>2026-05-14T09:45:28+00:00</time>
      </trkpt>
      <trkpt lat="49.64209" lon="-1.55704">
        <ele>73</ele>
        <time>2026-05-14T09:45:29+00:00</time>
      </trkpt>
      <trkpt lat="49.64158" lon="-1.55555">
        <ele>74</ele>
        <time>2026-05-14T09:45:30+00:00</time>
      </trkpt>
      <trkpt lat="49.6413" lon="-1.55485">
        <ele>77</ele>
        <time>2026-05-14T09:45:31+00:00</time>
      </trkpt>
      <trkpt lat="49.64132" lon="-1.55467">
        <ele>78</ele>
        <time>2026-05-14T09:45:32+00:00</time>
      </trkpt>
      <trkpt lat="49.64151" lon="-1.55416">
        <ele>80</ele>
        <time>2026-05-14T09:45:33+00:00</time>
      </trkpt>
      <trkpt lat="49.64164" lon="-1.55362">
        <ele>84</ele>
        <time>2026-05-14T09:45:34+00:00</time>
      </trkpt>
      <trkpt lat="49.64169" lon="-1.55312">
        <ele>87</ele>
        <time>2026-05-14T09:45:35+00:00</time>
      </trkpt>
      <trkpt lat="49.64166" lon="-1.55211">
        <ele>92</ele>
        <time>2026-05-14T09:45:36+00:00</time>
      </trkpt>
      <trkpt lat="49.64176" lon="-1.5522">
        <ele>92</ele>
        <time>2026-05-14T09:45:37+00:00</time>
      </trkpt>
      <trkpt lat="49.64223" lon="-1.55302">
        <ele>92</ele>
        <time>2026-05-14T09:45:38+00:00</time>
      </trkpt>
      <trkpt lat="49.64288" lon="-1.5539">
        <ele>91</ele>
        <time>2026-05-14T09:45:39+00:00</time>
      </trkpt>
      <trkpt lat="49.6435" lon="-1.55439">
        <ele>90</ele>
        <time>2026-05-14T09:45:40+00:00</time>
      </trkpt>
      <trkpt lat="49.64388" lon="-1.55488">
        <ele>88</ele>
        <time>2026-05-14T09:45:41+00:00</time>
      </trkpt>
      <trkpt lat="49.64408" lon="-1.55553">
        <ele>86</ele>
        <time>2026-05-14T09:45:42+00:00</time>
      </trkpt>
      <trkpt lat="49.64432" lon="-1.55642">
        <ele>84</ele>
        <time>2026-05-14T09:45:43+00:00</time>
      </trkpt>
      <trkpt lat="49.64436" lon="-1.55935">
        <ele>84</ele>
        <time>2026-05-14T09:45:44+00:00</time>
      </trkpt>
      <trkpt lat="49.64434" lon="-1.56021">
        <ele>83</ele>
        <time>2026-05-14T09:45:45+00:00</time>
      </trkpt>
      <trkpt lat="49.64443" lon="-1.56108">
        <ele>81</ele>
        <time>2026-05-14T09:45:46+00:00</time>
      </trkpt>
      <trkpt lat="49.64463" lon="-1.56237">
        <ele>79</ele>
        <time>2026-05-14T09:45:47+00:00</time>
      </trkpt>
      <trkpt lat="49.64476" lon="-1.56267">
        <ele>78</ele>
        <time>2026-05-14T09:45:48+00:00</time>
      </trkpt>
      <trkpt lat="49.64527" lon="-1.5632">
        <ele>77</ele>
        <time>2026-05-14T09:45:49+00:00</time>
      </trkpt>
      <trkpt lat="49.64545" lon="-1.56331">
        <ele>76</ele>
        <time>2026-05-14T09:45:50+00:00</time>
      </trkpt>
      <trkpt lat="49.64554" lon="-1.5633">
        <ele>76</ele>
        <time>2026-05-14T09:45:51+00:00</time>
      </trkpt>
      <trkpt lat="49.64648" lon="-1.56378">
        <ele>68</ele>
        <time>2026-05-14T09:45:52+00:00</time>
      </trkpt>
      <trkpt lat="49.64685" lon="-1.56391">
        <ele>62</ele>
        <time>2026-05-14T09:45:53+00:00</time>
      </trkpt>
      <trkpt lat="49.64704" lon="-1.56378">
        <ele>59</ele>
        <time>2026-05-14T09:45:54+00:00</time>
      </trkpt>
      <trkpt lat="49.64718" lon="-1.56356">
        <ele>58</ele>
        <time>2026-05-14T09:45:55+00:00</time>
      </trkpt>
      <trkpt lat="49.64731" lon="-1.56352">
        <ele>56</ele>
        <time>2026-05-14T09:45:56+00:00</time>
      </trkpt>
      <trkpt lat="49.64737" lon="-1.5636">
        <ele>54</ele>
        <time>2026-05-14T09:45:57+00:00</time>
      </trkpt>
      <trkpt lat="49.64737" lon="-1.56372">
        <ele>54</ele>
        <time>2026-05-14T09:45:58+00:00</time>
      </trkpt>
      <trkpt lat="49.64734" lon="-1.56386">
        <ele>53</ele>
        <time>2026-05-14T09:45:59+00:00</time>
      </trkpt>
      <trkpt lat="49.64728" lon="-1.56397">
        <ele>54</ele>
        <time>2026-05-14T09:46:00+00:00</time>
      </trkpt>
      <trkpt lat="49.64727" lon="-1.56405">
        <ele>54</ele>
        <time>2026-05-14T09:46:01+00:00</time>
      </trkpt>
      <trkpt lat="49.6473" lon="-1.56412">
        <ele>53</ele>
        <time>2026-05-14T09:46:02+00:00</time>
      </trkpt>
      <trkpt lat="49.64739" lon="-1.56413">
        <ele>51</ele>
        <time>2026-05-14T09:46:03+00:00</time>
      </trkpt>
      <trkpt lat="49.64755" lon="-1.56393">
        <ele>49</ele>
        <time>2026-05-14T09:46:04+00:00</time>
      </trkpt>
      <trkpt lat="49.64761" lon="-1.56379">
        <ele>49</ele>
        <time>2026-05-14T09:46:05+00:00</time>
      </trkpt>
      <trkpt lat="49.64765" lon="-1.5636">
        <ele>49</ele>
        <time>2026-05-14T09:46:06+00:00</time>
      </trkpt>
      <trkpt lat="49.64758" lon="-1.56305">
        <ele>51</ele>
        <time>2026-05-14T09:46:07+00:00</time>
      </trkpt>
      <trkpt lat="49.64756" lon="-1.56253">
        <ele>51</ele>
        <time>2026-05-14T09:46:08+00:00</time>
      </trkpt>
      <trkpt lat="49.64764" lon="-1.56244">
        <ele>49</ele>
        <time>2026-05-14T09:46:09+00:00</time>
      </trkpt>
      <trkpt lat="49.64775" lon="-1.56223">
        <ele>48</ele>
        <time>2026-05-14T09:46:10+00:00</time>
      </trkpt>
      <trkpt lat="49.64784" lon="-1.56194">
        <ele>46</ele>
        <time>2026-05-14T09:46:11+00:00</time>
      </trkpt>
      <trkpt lat="49.6483" lon="-1.56003">
        <ele>45</ele>
        <time>2026-05-14T09:46:12+00:00</time>
      </trkpt>
      <trkpt lat="49.6484" lon="-1.55926">
        <ele>47</ele>
        <time>2026-05-14T09:46:13+00:00</time>
      </trkpt>
      <trkpt lat="49.64844" lon="-1.55911">
        <ele>47</ele>
        <time>2026-05-14T09:46:14+00:00</time>
      </trkpt>
      <trkpt lat="49.64862" lon="-1.55866">
        <ele>44</ele>
        <time>2026-05-14T09:46:15+00:00</time>
      </trkpt>
      <trkpt lat="49.64889" lon="-1.55782">
        <ele>42</ele>
        <time>2026-05-14T09:46:16+00:00</time>
      </trkpt>
      <trkpt lat="49.64913" lon="-1.55731">
        <ele>42</ele>
        <time>2026-05-14T09:46:17+00:00</time>
      </trkpt>
      <trkpt lat="49.64929" lon="-1.55684">
        <ele>41</ele>
        <time>2026-05-14T09:46:18+00:00</time>
      </trkpt>
      <trkpt lat="49.64952" lon="-1.55657">
        <ele>38</ele>
        <time>2026-05-14T09:46:19+00:00</time>
      </trkpt>
      <trkpt lat="49.64969" lon="-1.55655">
        <ele>35</ele>
        <time>2026-05-14T09:46:20+00:00</time>
      </trkpt>
      <trkpt lat="49.64993" lon="-1.55657">
        <ele>31</ele>
        <time>2026-05-14T09:46:21+00:00</time>
      </trkpt>
      <trkpt lat="49.65001" lon="-1.55662">
        <ele>30</ele>
        <time>2026-05-14T09:46:22+00:00</time>
      </trkpt>
      <trkpt lat="49.65019" lon="-1.55667">
        <ele>27</ele>
        <time>2026-05-14T09:46:23+00:00</time>
      </trkpt>
      <trkpt lat="49.65038" lon="-1.55656">
        <ele>25</ele>
        <time>2026-05-14T09:46:24+00:00</time>
      </trkpt>
      <trkpt lat="49.65052" lon="-1.55635">
        <ele>24</ele>
        <time>2026-05-14T09:46:25+00:00</time>
      </trkpt>
      <trkpt lat="49.65072" lon="-1.55576">
        <ele>24</ele>
        <time>2026-05-14T09:46:26+00:00</time>
      </trkpt>
      <trkpt lat="49.65083" lon="-1.5556">
        <ele>22</ele>
        <time>2026-05-14T09:46:27+00:00</time>
      </trkpt>
      <trkpt lat="49.65111" lon="-1.55473">
        <ele>21</ele>
        <time>2026-05-14T09:46:28+00:00</time>
      </trkpt>
      <trkpt lat="49.65122" lon="-1.55426">
        <ele>21</ele>
        <time>2026-05-14T09:46:29+00:00</time>
      </trkpt>
      <trkpt lat="49.65125" lon="-1.55305">
        <ele>26</ele>
        <time>2026-05-14T09:46:30+00:00</time>
      </trkpt>
      <trkpt lat="49.65123" lon="-1.55289">
        <ele>27</ele>
        <time>2026-05-14T09:46:31+00:00</time>
      </trkpt>
      <trkpt lat="49.651" lon="-1.55313">
        <ele>29</ele>
        <time>2026-05-14T09:46:32+00:00</time>
      </trkpt>
      <trkpt lat="49.65088" lon="-1.55276">
        <ele>32</ele>
        <time>2026-05-14T09:46:33+00:00</time>
      </trkpt>
      <trkpt lat="49.65068" lon="-1.55196">
        <ele>35</ele>
        <time>2026-05-14T09:46:34+00:00</time>
      </trkpt>
      <trkpt lat="49.65048" lon="-1.55151">
        <ele>38</ele>
        <time>2026-05-14T09:46:35+00:00</time>
      </trkpt>
      <trkpt lat="49.65037" lon="-1.55118">
        <ele>39</ele>
        <time>2026-05-14T09:46:36+00:00</time>
      </trkpt>
      <trkpt lat="49.65034" lon="-1.55089">
        <ele>39</ele>
        <time>2026-05-14T09:46:37+00:00</time>
      </trkpt>
      <trkpt lat="49.65032" lon="-1.54938">
        <ele>33</ele>
        <time>2026-05-14T09:46:38+00:00</time>
      </trkpt>
      <trkpt lat="49.65026" lon="-1.54874">
        <ele>32</ele>
        <time>2026-05-14T09:46:39+00:00</time>
      </trkpt>
      <trkpt lat="49.64975" lon="-1.54868">
        <ele>41</ele>
        <time>2026-05-14T09:46:40+00:00</time>
      </trkpt>
      <trkpt lat="49.6497" lon="-1.54864">
        <ele>43</ele>
        <time>2026-05-14T09:46:41+00:00</time>
      </trkpt>
      <trkpt lat="49.64965" lon="-1.54855">
        <ele>43</ele>
        <time>2026-05-14T09:46:42+00:00</time>
      </trkpt>
      <trkpt lat="49.64965" lon="-1.54847">
        <ele>43</ele>
        <time>2026-05-14T09:46:43+00:00</time>
      </trkpt>
      <trkpt lat="49.64959" lon="-1.54838">
        <ele>44</ele>
        <time>2026-05-14T09:46:44+00:00</time>
      </trkpt>
      <trkpt lat="49.64958" lon="-1.54781">
        <ele>44</ele>
        <time>2026-05-14T09:46:45+00:00</time>
      </trkpt>
      <trkpt lat="49.64951" lon="-1.54755">
        <ele>46</ele>
        <time>2026-05-14T09:46:46+00:00</time>
      </trkpt>
      <trkpt lat="49.6496" lon="-1.54697">
        <ele>45</ele>
        <time>2026-05-14T09:46:47+00:00</time>
      </trkpt>
      <trkpt lat="49.64986" lon="-1.54572">
        <ele>44</ele>
        <time>2026-05-14T09:46:48+00:00</time>
      </trkpt>
      <trkpt lat="49.65008" lon="-1.54521">
        <ele>41</ele>
        <time>2026-05-14T09:46:49+00:00</time>
      </trkpt>
      <trkpt lat="49.64998" lon="-1.54503">
        <ele>43</ele>
        <time>2026-05-14T09:46:50+00:00</time>
      </trkpt>
      <trkpt lat="49.64952" lon="-1.54508">
        <ele>54</ele>
        <time>2026-05-14T09:46:51+00:00</time>
      </trkpt>
      <trkpt lat="49.64945" lon="-1.545">
        <ele>56</ele>
        <time>2026-05-14T09:46:52+00:00</time>
      </trkpt>
      <trkpt lat="49.64941" lon="-1.54478">
        <ele>57</ele>
        <time>2026-05-14T09:46:53+00:00</time>
      </trkpt>
      <trkpt lat="49.64911" lon="-1.54412">
        <ele>65</ele>
        <time>2026-05-14T09:46:54+00:00</time>
      </trkpt>
      <trkpt lat="49.64904" lon="-1.54385">
        <ele>65</ele>
        <time>2026-05-14T09:46:55+00:00</time>
      </trkpt>
      <trkpt lat="49.64902" lon="-1.54363">
        <ele>65</ele>
        <time>2026-05-14T09:46:56+00:00</time>
      </trkpt>
      <trkpt lat="49.64905" lon="-1.54333">
        <ele>65</ele>
        <time>2026-05-14T09:46:57+00:00</time>
      </trkpt>
      <trkpt lat="49.64904" lon="-1.54321">
        <ele>65</ele>
        <time>2026-05-14T09:46:58+00:00</time>
      </trkpt>
      <trkpt lat="49.64899" lon="-1.54306">
        <ele>65</ele>
        <time>2026-05-14T09:46:59+00:00</time>
      </trkpt>
      <trkpt lat="49.64876" lon="-1.54296">
        <ele>68</ele>
        <time>2026-05-14T09:47:00+00:00</time>
      </trkpt>
      <trkpt lat="49.64848" lon="-1.54295">
        <ele>71</ele>
        <time>2026-05-14T09:47:01+00:00</time>
      </trkpt>
      <trkpt lat="49.64782" lon="-1.54282">
        <ele>77</ele>
        <time>2026-05-14T09:47:02+00:00</time>
      </trkpt>
      <trkpt lat="49.64762" lon="-1.54271">
        <ele>79</ele>
        <time>2026-05-14T09:47:03+00:00</time>
      </trkpt>
      <trkpt lat="49.64749" lon="-1.54233">
        <ele>79</ele>
        <time>2026-05-14T09:47:04+00:00</time>
      </trkpt>
      <trkpt lat="49.64719" lon="-1.54069">
        <ele>83</ele>
        <time>2026-05-14T09:47:05+00:00</time>
      </trkpt>
      <trkpt lat="49.64698" lon="-1.53987">
        <ele>84</ele>
        <time>2026-05-14T09:47:06+00:00</time>
      </trkpt>
      <trkpt lat="49.64691" lon="-1.53981">
        <ele>84</ele>
        <time>2026-05-14T09:47:07+00:00</time>
      </trkpt>
      <trkpt lat="49.64681" lon="-1.53957">
        <ele>85</ele>
        <time>2026-05-14T09:47:08+00:00</time>
      </trkpt>
      <trkpt lat="49.64663" lon="-1.53881">
        <ele>88</ele>
        <time>2026-05-14T09:47:09+00:00</time>
      </trkpt>
      <trkpt lat="49.64651" lon="-1.53844">
        <ele>90</ele>
        <time>2026-05-14T09:47:10+00:00</time>
      </trkpt>
      <trkpt lat="49.64622" lon="-1.53732">
        <ele>94</ele>
        <time>2026-05-14T09:47:11+00:00</time>
      </trkpt>
      <trkpt lat="49.64607" lon="-1.5369">
        <ele>94</ele>
        <time>2026-05-14T09:47:12+00:00</time>
      </trkpt>
      <trkpt lat="49.646" lon="-1.53663">
        <ele>95</ele>
        <time>2026-05-14T09:47:13+00:00</time>
      </trkpt>
      <trkpt lat="49.64601" lon="-1.53646">
        <ele>95</ele>
        <time>2026-05-14T09:47:14+00:00</time>
      </trkpt>
      <trkpt lat="49.6466" lon="-1.53691">
        <ele>93</ele>
        <time>2026-05-14T09:47:15+00:00</time>
      </trkpt>
      <trkpt lat="49.64768" lon="-1.5376">
        <ele>85</ele>
        <time>2026-05-14T09:47:16+00:00</time>
      </trkpt>
      <trkpt lat="49.64777" lon="-1.5377">
        <ele>85</ele>
        <time>2026-05-14T09:47:17+00:00</time>
      </trkpt>
      <trkpt lat="49.64918" lon="-1.53792">
        <ele>81</ele>
        <time>2026-05-14T09:47:18+00:00</time>
      </trkpt>
      <trkpt lat="49.64953" lon="-1.53791">
        <ele>80</ele>
        <time>2026-05-14T09:47:19+00:00</time>
      </trkpt>
      <trkpt lat="49.65058" lon="-1.53768">
        <ele>79</ele>
        <time>2026-05-14T09:47:20+00:00</time>
      </trkpt>
      <trkpt lat="49.65082" lon="-1.53753">
        <ele>80</ele>
        <time>2026-05-14T09:47:21+00:00</time>
      </trkpt>
      <trkpt lat="49.65114" lon="-1.53721">
        <ele>79</ele>
        <time>2026-05-14T09:47:22+00:00</time>
      </trkpt>
      <trkpt lat="49.65162" lon="-1.53642">
        <ele>76</ele>
        <time>2026-05-14T09:47:23+00:00</time>
      </trkpt>
      <trkpt lat="49.65151" lon="-1.53453">
        <ele>76</ele>
        <time>2026-05-14T09:47:24+00:00</time>
      </trkpt>
      <trkpt lat="49.65113" lon="-1.53411">
        <ele>79</ele>
        <time>2026-05-14T09:47:25+00:00</time>
      </trkpt>
      <trkpt lat="49.65145" lon="-1.53326">
        <ele>72</ele>
        <time>2026-05-14T09:47:26+00:00</time>
      </trkpt>
      <trkpt lat="49.65135" lon="-1.53321">
        <ele>72</ele>
        <time>2026-05-14T09:47:27+00:00</time>
      </trkpt>
      <trkpt lat="49.6514" lon="-1.53295">
        <ele>69</ele>
        <time>2026-05-14T09:47:28+00:00</time>
      </trkpt>
      <trkpt lat="49.65141" lon="-1.53254">
        <ele>65</ele>
        <time>2026-05-14T09:47:29+00:00</time>
      </trkpt>
      <trkpt lat="49.65152" lon="-1.53221">
        <ele>60</ele>
        <time>2026-05-14T09:47:30+00:00</time>
      </trkpt>
      <trkpt lat="49.65171" lon="-1.53199">
        <ele>54</ele>
        <time>2026-05-14T09:47:31+00:00</time>
      </trkpt>
      <trkpt lat="49.65181" lon="-1.53178">
        <ele>49</ele>
        <time>2026-05-14T09:47:32+00:00</time>
      </trkpt>
      <trkpt lat="49.65193" lon="-1.53127">
        <ele>39</ele>
        <time>2026-05-14T09:47:33+00:00</time>
      </trkpt>
      <trkpt lat="49.65171" lon="-1.53143">
        <ele>44</ele>
        <time>2026-05-14T09:47:34+00:00</time>
      </trkpt>
      <trkpt lat="49.65147" lon="-1.53154">
        <ele>48</ele>
        <time>2026-05-14T09:47:35+00:00</time>
      </trkpt>
      <trkpt lat="49.65132" lon="-1.53174">
        <ele>52</ele>
        <time>2026-05-14T09:47:36+00:00</time>
      </trkpt>
      <trkpt lat="49.65112" lon="-1.53185">
        <ele>54</ele>
        <time>2026-05-14T09:47:37+00:00</time>
      </trkpt>
      <trkpt lat="49.65088" lon="-1.53203">
        <ele>57</ele>
        <time>2026-05-14T09:47:38+00:00</time>
      </trkpt>
      <trkpt lat="49.6504" lon="-1.5322">
        <ele>62</ele>
        <time>2026-05-14T09:47:39+00:00</time>
      </trkpt>
      <trkpt lat="49.65003" lon="-1.53228">
        <ele>64</ele>
        <time>2026-05-14T09:47:40+00:00</time>
      </trkpt>
      <trkpt lat="49.6499" lon="-1.53245">
        <ele>65</ele>
        <time>2026-05-14T09:47:41+00:00</time>
      </trkpt>
      <trkpt lat="49.64964" lon="-1.5325">
        <ele>69</ele>
        <time>2026-05-14T09:47:42+00:00</time>
      </trkpt>
      <trkpt lat="49.64933" lon="-1.53247">
        <ele>73</ele>
        <time>2026-05-14T09:47:43+00:00</time>
      </trkpt>
      <trkpt lat="49.64901" lon="-1.53239">
        <ele>76</ele>
        <time>2026-05-14T09:47:44+00:00</time>
      </trkpt>
      <trkpt lat="49.64872" lon="-1.53222">
        <ele>78</ele>
        <time>2026-05-14T09:47:45+00:00</time>
      </trkpt>
      <trkpt lat="49.64817" lon="-1.53203">
        <ele>81</ele>
        <time>2026-05-14T09:47:46+00:00</time>
      </trkpt>
      <trkpt lat="49.64812" lon="-1.5319">
        <ele>80</ele>
        <time>2026-05-14T09:47:47+00:00</time>
      </trkpt>
      <trkpt lat="49.64812" lon="-1.53162">
        <ele>79</ele>
        <time>2026-05-14T09:47:48+00:00</time>
      </trkpt>
      <trkpt lat="49.64816" lon="-1.53142">
        <ele>80</ele>
        <time>2026-05-14T09:47:49+00:00</time>
      </trkpt>
      <trkpt lat="49.64831" lon="-1.53126">
        <ele>80</ele>
        <time>2026-05-14T09:47:50+00:00</time>
      </trkpt>
      <trkpt lat="49.64846" lon="-1.53122">
        <ele>80</ele>
        <time>2026-05-14T09:47:51+00:00</time>
      </trkpt>
      <trkpt lat="49.64852" lon="-1.53112">
        <ele>80</ele>
        <time>2026-05-14T09:47:52+00:00</time>
      </trkpt>
      <trkpt lat="49.64862" lon="-1.53119">
        <ele>79</ele>
        <time>2026-05-14T09:47:53+00:00</time>
      </trkpt>
      <trkpt lat="49.64867" lon="-1.5314">
        <ele>78</ele>
        <time>2026-05-14T09:47:54+00:00</time>
      </trkpt>
      <trkpt lat="49.64874" lon="-1.53151">
        <ele>76</ele>
        <time>2026-05-14T09:47:55+00:00</time>
      </trkpt>
      <trkpt lat="49.64897" lon="-1.53158">
        <ele>75</ele>
        <time>2026-05-14T09:47:56+00:00</time>
      </trkpt>
      <trkpt lat="49.64928" lon="-1.53176">
        <ele>72</ele>
        <time>2026-05-14T09:47:57+00:00</time>
      </trkpt>
      <trkpt lat="49.64985" lon="-1.53184">
        <ele>66</ele>
        <time>2026-05-14T09:47:58+00:00</time>
      </trkpt>
      <trkpt lat="49.65021" lon="-1.53177">
        <ele>61</ele>
        <time>2026-05-14T09:47:59+00:00</time>
      </trkpt>
      <trkpt lat="49.6505" lon="-1.53178">
        <ele>58</ele>
        <time>2026-05-14T09:48:00+00:00</time>
      </trkpt>
      <trkpt lat="49.6509" lon="-1.53166">
        <ele>52</ele>
        <time>2026-05-14T09:48:01+00:00</time>
      </trkpt>
      <trkpt lat="49.65097" lon="-1.53155">
        <ele>51</ele>
        <time>2026-05-14T09:48:02+00:00</time>
      </trkpt>
      <trkpt lat="49.65136" lon="-1.5315">
        <ele>48</ele>
        <time>2026-05-14T09:48:03+00:00</time>
      </trkpt>
      <trkpt lat="49.6516" lon="-1.53134">
        <ele>44</ele>
        <time>2026-05-14T09:48:04+00:00</time>
      </trkpt>
      <trkpt lat="49.65176" lon="-1.53107">
        <ele>38</ele>
        <time>2026-05-14T09:48:05+00:00</time>
      </trkpt>
      <trkpt lat="49.6519" lon="-1.53071">
        <ele>33</ele>
        <time>2026-05-14T09:48:06+00:00</time>
      </trkpt>
      <trkpt lat="49.65161" lon="-1.53037">
        <ele>33</ele>
        <time>2026-05-14T09:48:07+00:00</time>
      </trkpt>
      <trkpt lat="49.65114" lon="-1.53007">
        <ele>35</ele>
        <time>2026-05-14T09:48:08+00:00</time>
      </trkpt>
      <trkpt lat="49.65077" lon="-1.53009">
        <ele>40</ele>
        <time>2026-05-14T09:48:09+00:00</time>
      </trkpt>
      <trkpt lat="49.65071" lon="-1.52999">
        <ele>40</ele>
        <time>2026-05-14T09:48:10+00:00</time>
      </trkpt>
      <trkpt lat="49.65064" lon="-1.52973">
        <ele>40</ele>
        <time>2026-05-14T09:48:11+00:00</time>
      </trkpt>
      <trkpt lat="49.65051" lon="-1.52946">
        <ele>41</ele>
        <time>2026-05-14T09:48:12+00:00</time>
      </trkpt>
      <trkpt lat="49.65027" lon="-1.52964">
        <ele>45</ele>
        <time>2026-05-14T09:48:13+00:00</time>
      </trkpt>
      <trkpt lat="49.65012" lon="-1.52958">
        <ele>46</ele>
        <time>2026-05-14T09:48:14+00:00</time>
      </trkpt>
      <trkpt lat="49.64997" lon="-1.52946">
        <ele>47</ele>
        <time>2026-05-14T09:48:15+00:00</time>
      </trkpt>
      <trkpt lat="49.64983" lon="-1.52921">
        <ele>48</ele>
        <time>2026-05-14T09:48:16+00:00</time>
      </trkpt>
      <trkpt lat="49.64969" lon="-1.52889">
        <ele>51</ele>
        <time>2026-05-14T09:48:17+00:00</time>
      </trkpt>
      <trkpt lat="49.64942" lon="-1.5281">
        <ele>55</ele>
        <time>2026-05-14T09:48:18+00:00</time>
      </trkpt>
      <trkpt lat="49.64926" lon="-1.52776">
        <ele>57</ele>
        <time>2026-05-14T09:48:19+00:00</time>
      </trkpt>
      <trkpt lat="49.64877" lon="-1.52727">
        <ele>65</ele>
        <time>2026-05-14T09:48:20+00:00</time>
      </trkpt>
      <trkpt lat="49.6483" lon="-1.52724">
        <ele>74</ele>
        <time>2026-05-14T09:48:21+00:00</time>
      </trkpt>
      <trkpt lat="49.64778" lon="-1.52704">
        <ele>78</ele>
        <time>2026-05-14T09:48:22+00:00</time>
      </trkpt>
      <trkpt lat="49.64743" lon="-1.52699">
        <ele>81</ele>
        <time>2026-05-14T09:48:23+00:00</time>
      </trkpt>
      <trkpt lat="49.64719" lon="-1.52691">
        <ele>83</ele>
        <time>2026-05-14T09:48:24+00:00</time>
      </trkpt>
      <trkpt lat="49.64702" lon="-1.52698">
        <ele>85</ele>
        <time>2026-05-14T09:48:25+00:00</time>
      </trkpt>
      <trkpt lat="49.64687" lon="-1.52688">
        <ele>86</ele>
        <time>2026-05-14T09:48:26+00:00</time>
      </trkpt>
      <trkpt lat="49.6466" lon="-1.52682">
        <ele>89</ele>
        <time>2026-05-14T09:48:27+00:00</time>
      </trkpt>
      <trkpt lat="49.64646" lon="-1.52673">
        <ele>89</ele>
        <time>2026-05-14T09:48:28+00:00</time>
      </trkpt>
      <trkpt lat="49.6462" lon="-1.52622">
        <ele>88</ele>
        <time>2026-05-14T09:48:29+00:00</time>
      </trkpt>
      <trkpt lat="49.64579" lon="-1.52591">
        <ele>91</ele>
        <time>2026-05-14T09:48:30+00:00</time>
      </trkpt>
      <trkpt lat="49.64513" lon="-1.52556">
        <ele>94</ele>
        <time>2026-05-14T09:48:31+00:00</time>
      </trkpt>
      <trkpt lat="49.64489" lon="-1.52562">
        <ele>96</ele>
        <time>2026-05-14T09:48:32+00:00</time>
      </trkpt>
      <trkpt lat="49.64421" lon="-1.52599">
        <ele>97</ele>
        <time>2026-05-14T09:48:33+00:00</time>
      </trkpt>
      <trkpt lat="49.64409" lon="-1.52557">
        <ele>97</ele>
        <time>2026-05-14T09:48:34+00:00</time>
      </trkpt>
      <trkpt lat="49.64352" lon="-1.52405">
        <ele>95</ele>
        <time>2026-05-14T09:48:35+00:00</time>
      </trkpt>
      <trkpt lat="49.64336" lon="-1.52376">
        <ele>94</ele>
        <time>2026-05-14T09:48:36+00:00</time>
      </trkpt>
      <trkpt lat="49.64326" lon="-1.52374">
        <ele>93</ele>
        <time>2026-05-14T09:48:37+00:00</time>
      </trkpt>
      <trkpt lat="49.64306" lon="-1.52376">
        <ele>93</ele>
        <time>2026-05-14T09:48:38+00:00</time>
      </trkpt>
      <trkpt lat="49.64291" lon="-1.52382">
        <ele>93</ele>
        <time>2026-05-14T09:48:39+00:00</time>
      </trkpt>
      <trkpt lat="49.64263" lon="-1.52412">
        <ele>93</ele>
        <time>2026-05-14T09:48:40+00:00</time>
      </trkpt>
      <trkpt lat="49.64234" lon="-1.52464">
        <ele>95</ele>
        <time>2026-05-14T09:48:41+00:00</time>
      </trkpt>
      <trkpt lat="49.64222" lon="-1.52479">
        <ele>95</ele>
        <time>2026-05-14T09:48:42+00:00</time>
      </trkpt>
      <trkpt lat="49.64219" lon="-1.52537">
        <ele>98</ele>
        <time>2026-05-14T09:48:43+00:00</time>
      </trkpt>
      <trkpt lat="49.64217" lon="-1.52535">
        <ele>98</ele>
        <time>2026-05-14T09:48:44+00:00</time>
      </trkpt>
      <trkpt lat="49.64188" lon="-1.52553">
        <ele>99</ele>
        <time>2026-05-14T09:48:45+00:00</time>
      </trkpt>
      <trkpt lat="49.64147" lon="-1.52588">
        <ele>100</ele>
        <time>2026-05-14T09:48:46+00:00</time>
      </trkpt>
      <trkpt lat="49.6411" lon="-1.52624">
        <ele>101</ele>
        <time>2026-05-14T09:48:47+00:00</time>
      </trkpt>
      <trkpt lat="49.6409" lon="-1.52623">
        <ele>100</ele>
        <time>2026-05-14T09:48:48+00:00</time>
      </trkpt>
      <trkpt lat="49.64067" lon="-1.52617">
        <ele>100</ele>
        <time>2026-05-14T09:48:49+00:00</time>
      </trkpt>
      <trkpt lat="49.64054" lon="-1.52609">
        <ele>100</ele>
        <time>2026-05-14T09:48:50+00:00</time>
      </trkpt>
      <trkpt lat="49.64042" lon="-1.52599">
        <ele>99</ele>
        <time>2026-05-14T09:48:51+00:00</time>
      </trkpt>
      <trkpt lat="49.64027" lon="-1.5258">
        <ele>99</ele>
        <time>2026-05-14T09:48:52+00:00</time>
      </trkpt>
      <trkpt lat="49.64022" lon="-1.52572">
        <ele>99</ele>
        <time>2026-05-14T09:48:53+00:00</time>
      </trkpt>
      <trkpt lat="49.64022" lon="-1.5256">
        <ele>99</ele>
        <time>2026-05-14T09:48:54+00:00</time>
      </trkpt>
      <trkpt lat="49.64008" lon="-1.52555">
        <ele>99</ele>
        <time>2026-05-14T09:48:55+00:00</time>
      </trkpt>
      <trkpt lat="49.63997" lon="-1.52544">
        <ele>99</ele>
        <time>2026-05-14T09:48:56+00:00</time>
      </trkpt>
      <trkpt lat="49.63984" lon="-1.52576">
        <ele>100</ele>
        <time>2026-05-14T09:48:57+00:00</time>
      </trkpt>
      <trkpt lat="49.63972" lon="-1.52662">
        <ele>105</ele>
        <time>2026-05-14T09:48:58+00:00</time>
      </trkpt>
      <trkpt lat="49.6397" lon="-1.52722">
        <ele>106</ele>
        <time>2026-05-14T09:48:59+00:00</time>
      </trkpt>
      <trkpt lat="49.6395" lon="-1.52825">
        <ele>108</ele>
        <time>2026-05-14T09:49:00+00:00</time>
      </trkpt>
      <trkpt lat="49.63953" lon="-1.53043">
        <ele>109</ele>
        <time>2026-05-14T09:49:01+00:00</time>
      </trkpt>
      <trkpt lat="49.63951" lon="-1.53102">
        <ele>108</ele>
        <time>2026-05-14T09:49:02+00:00</time>
      </trkpt>
      <trkpt lat="49.63947" lon="-1.53139">
        <ele>108</ele>
        <time>2026-05-14T09:49:03+00:00</time>
      </trkpt>
      <trkpt lat="49.63956" lon="-1.53269">
        <ele>105</ele>
        <time>2026-05-14T09:49:04+00:00</time>
      </trkpt>
      <trkpt lat="49.63958" lon="-1.53485">
        <ele>101</ele>
        <time>2026-05-14T09:49:05+00:00</time>
      </trkpt>
      <trkpt lat="49.63963" lon="-1.53565">
        <ele>100</ele>
        <time>2026-05-14T09:49:06+00:00</time>
      </trkpt>
      <trkpt lat="49.63961" lon="-1.53602">
        <ele>100</ele>
        <time>2026-05-14T09:49:07+00:00</time>
      </trkpt>
      <trkpt lat="49.63902" lon="-1.53623">
        <ele>101</ele>
        <time>2026-05-14T09:49:08+00:00</time>
      </trkpt>
      <trkpt lat="49.63878" lon="-1.53635">
        <ele>101</ele>
        <time>2026-05-14T09:49:09+00:00</time>
      </trkpt>
      <trkpt lat="49.63859" lon="-1.53653">
        <ele>102</ele>
        <time>2026-05-14T09:49:10+00:00</time>
      </trkpt>
      <trkpt lat="49.63773" lon="-1.53643">
        <ele>103</ele>
        <time>2026-05-14T09:49:11+00:00</time>
      </trkpt>
      <trkpt lat="49.63765" lon="-1.53639">
        <ele>103</ele>
        <time>2026-05-14T09:49:12+00:00</time>
      </trkpt>
      <trkpt lat="49.63761" lon="-1.53631">
        <ele>103</ele>
        <time>2026-05-14T09:49:13+00:00</time>
      </trkpt>
      <trkpt lat="49.6376" lon="-1.53619">
        <ele>103</ele>
        <time>2026-05-14T09:49:14+00:00</time>
      </trkpt>
      <trkpt lat="49.6377" lon="-1.53573">
        <ele>103</ele>
        <time>2026-05-14T09:49:15+00:00</time>
      </trkpt>
      <trkpt lat="49.63765" lon="-1.53489">
        <ele>105</ele>
        <time>2026-05-14T09:49:16+00:00</time>
      </trkpt>
      <trkpt lat="49.637" lon="-1.53489">
        <ele>107</ele>
        <time>2026-05-14T09:49:17+00:00</time>
      </trkpt>
      <trkpt lat="49.63677" lon="-1.53499">
        <ele>108</ele>
        <time>2026-05-14T09:49:18+00:00</time>
      </trkpt>
      <trkpt lat="49.6363" lon="-1.53531">
        <ele>108</ele>
        <time>2026-05-14T09:49:19+00:00</time>
      </trkpt>
      <trkpt lat="49.63549" lon="-1.53553">
        <ele>110</ele>
        <time>2026-05-14T09:49:20+00:00</time>
      </trkpt>
      <trkpt lat="49.63537" lon="-1.53543">
        <ele>111</ele>
        <time>2026-05-14T09:49:21+00:00</time>
      </trkpt>
      <trkpt lat="49.63491" lon="-1.53479">
        <ele>114</ele>
        <time>2026-05-14T09:49:22+00:00</time>
      </trkpt>
      <trkpt lat="49.63475" lon="-1.53443">
        <ele>115</ele>
        <time>2026-05-14T09:49:23+00:00</time>
      </trkpt>
      <trkpt lat="49.63459" lon="-1.53414">
        <ele>115</ele>
        <time>2026-05-14T09:49:24+00:00</time>
      </trkpt>
      <trkpt lat="49.63443" lon="-1.53395">
        <ele>116</ele>
        <time>2026-05-14T09:49:25+00:00</time>
      </trkpt>
      <trkpt lat="49.63417" lon="-1.53375">
        <ele>116</ele>
        <time>2026-05-14T09:49:26+00:00</time>
      </trkpt>
      <trkpt lat="49.63357" lon="-1.53356">
        <ele>117</ele>
        <time>2026-05-14T09:49:27+00:00</time>
      </trkpt>
      <trkpt lat="49.63346" lon="-1.53349">
        <ele>118</ele>
        <time>2026-05-14T09:49:28+00:00</time>
      </trkpt>
      <trkpt lat="49.63342" lon="-1.53358">
        <ele>118</ele>
        <time>2026-05-14T09:49:29+00:00</time>
      </trkpt>
      <trkpt lat="49.63333" lon="-1.53365">
        <ele>118</ele>
        <time>2026-05-14T09:49:30+00:00</time>
      </trkpt>
      <trkpt lat="49.63292" lon="-1.53383">
        <ele>118</ele>
        <time>2026-05-14T09:49:31+00:00</time>
      </trkpt>
      <trkpt lat="49.63272" lon="-1.534">
        <ele>119</ele>
        <time>2026-05-14T09:49:32+00:00</time>
      </trkpt>
      <trkpt lat="49.63255" lon="-1.53405">
        <ele>119</ele>
        <time>2026-05-14T09:49:33+00:00</time>
      </trkpt>
      <trkpt lat="49.63232" lon="-1.53424">
        <ele>120</ele>
        <time>2026-05-14T09:49:34+00:00</time>
      </trkpt>
      <trkpt lat="49.63149" lon="-1.53516">
        <ele>120</ele>
        <time>2026-05-14T09:49:35+00:00</time>
      </trkpt>
      <trkpt lat="49.63137" lon="-1.53526">
        <ele>120</ele>
        <time>2026-05-14T09:49:36+00:00</time>
      </trkpt>
      <trkpt lat="49.63108" lon="-1.53541">
        <ele>121</ele>
        <time>2026-05-14T09:49:37+00:00</time>
      </trkpt>
      <trkpt lat="49.63023" lon="-1.53572">
        <ele>123</ele>
        <time>2026-05-14T09:49:38+00:00</time>
      </trkpt>
      <trkpt lat="49.63038" lon="-1.53611">
        <ele>122</ele>
        <time>2026-05-14T09:49:39+00:00</time>
      </trkpt>
      <trkpt lat="49.63049" lon="-1.53656">
        <ele>123</ele>
        <time>2026-05-14T09:49:40+00:00</time>
      </trkpt>
      <trkpt lat="49.6308" lon="-1.53679">
        <ele>122</ele>
        <time>2026-05-14T09:49:41+00:00</time>
      </trkpt>
      <trkpt lat="49.63128" lon="-1.53733">
        <ele>122</ele>
        <time>2026-05-14T09:49:42+00:00</time>
      </trkpt>
      <trkpt lat="49.63192" lon="-1.53817">
        <ele>121</ele>
        <time>2026-05-14T09:49:43+00:00</time>
      </trkpt>
      <trkpt lat="49.6321" lon="-1.53835">
        <ele>120</ele>
        <time>2026-05-14T09:49:44+00:00</time>
      </trkpt>
      <trkpt lat="49.63292" lon="-1.53888">
        <ele>118</ele>
        <time>2026-05-14T09:49:45+00:00</time>
      </trkpt>
      <trkpt lat="49.63304" lon="-1.53888">
        <ele>118</ele>
        <time>2026-05-14T09:49:46+00:00</time>
      </trkpt>
      <trkpt lat="49.63308" lon="-1.53883">
        <ele>118</ele>
        <time>2026-05-14T09:49:47+00:00</time>
      </trkpt>
      <trkpt lat="49.63306" lon="-1.539">
        <ele>118</ele>
        <time>2026-05-14T09:49:48+00:00</time>
      </trkpt>
      <trkpt lat="49.63329" lon="-1.54134">
        <ele>123</ele>
        <time>2026-05-14T09:49:49+00:00</time>
      </trkpt>
      <trkpt lat="49.63357" lon="-1.54375">
        <ele>126</ele>
        <time>2026-05-14T09:49:50+00:00</time>
      </trkpt>
      <trkpt lat="49.63366" lon="-1.54484">
        <ele>128</ele>
        <time>2026-05-14T09:49:51+00:00</time>
      </trkpt>
      <trkpt lat="49.63372" lon="-1.54529">
        <ele>127</ele>
        <time>2026-05-14T09:49:52+00:00</time>
      </trkpt>
      <trkpt lat="49.63377" lon="-1.54537">
        <ele>127</ele>
        <time>2026-05-14T09:49:53+00:00</time>
      </trkpt>
      <trkpt lat="49.63386" lon="-1.54606">
        <ele>126</ele>
        <time>2026-05-14T09:49:54+00:00</time>
      </trkpt>
      <trkpt lat="49.6339" lon="-1.54615">
        <ele>126</ele>
        <time>2026-05-14T09:49:55+00:00</time>
      </trkpt>
      <trkpt lat="49.63427" lon="-1.54633">
        <ele>126</ele>
        <time>2026-05-14T09:49:56+00:00</time>
      </trkpt>
      <trkpt lat="49.63438" lon="-1.54678">
        <ele>125</ele>
        <time>2026-05-14T09:49:57+00:00</time>
      </trkpt>
      <trkpt lat="49.63478" lon="-1.547">
        <ele>124</ele>
        <time>2026-05-14T09:49:58+00:00</time>
      </trkpt>
      <trkpt lat="49.63498" lon="-1.54761">
        <ele>123</ele>
        <time>2026-05-14T09:49:59+00:00</time>
      </trkpt>
      <trkpt lat="49.63516" lon="-1.54843">
        <ele>119</ele>
        <time>2026-05-14T09:50:00+00:00</time>
      </trkpt>
      <trkpt lat="49.6351" lon="-1.54858">
        <ele>119</ele>
        <time>2026-05-14T09:50:01+00:00</time>
      </trkpt>
      <trkpt lat="49.63513" lon="-1.5489">
        <ele>118</ele>
        <time>2026-05-14T09:50:02+00:00</time>
      </trkpt>
      <trkpt lat="49.63513" lon="-1.54932">
        <ele>116</ele>
        <time>2026-05-14T09:50:03+00:00</time>
      </trkpt>
      <trkpt lat="49.63507" lon="-1.54949">
        <ele>116</ele>
        <time>2026-05-14T09:50:04+00:00</time>
      </trkpt>
      <trkpt lat="49.63446" lon="-1.55057">
        <ele>114</ele>
        <time>2026-05-14T09:50:05+00:00</time>
      </trkpt>
      <trkpt lat="49.63388" lon="-1.55178">
        <ele>109</ele>
        <time>2026-05-14T09:50:06+00:00</time>
      </trkpt>
      <trkpt lat="49.6331" lon="-1.55379">
        <ele>104</ele>
        <time>2026-05-14T09:50:07+00:00</time>
      </trkpt>
      <trkpt lat="49.63305" lon="-1.55407">
        <ele>102</ele>
        <time>2026-05-14T09:50:08+00:00</time>
      </trkpt>
      <trkpt lat="49.63306" lon="-1.55459">
        <ele>99</ele>
        <time>2026-05-14T09:50:09+00:00</time>
      </trkpt>
      <trkpt lat="49.63321" lon="-1.55578">
        <ele>90</ele>
        <time>2026-05-14T09:50:10+00:00</time>
      </trkpt>
      <trkpt lat="49.63342" lon="-1.55619">
        <ele>85</ele>
        <time>2026-05-14T09:50:11+00:00</time>
      </trkpt>
      <trkpt lat="49.63333" lon="-1.55619">
        <ele>86</ele>
        <time>2026-05-14T09:50:12+00:00</time>
      </trkpt>
      <trkpt lat="49.63321" lon="-1.55613">
        <ele>87</ele>
        <time>2026-05-14T09:50:13+00:00</time>
      </trkpt>
      <trkpt lat="49.633" lon="-1.55591">
        <ele>90</ele>
        <time>2026-05-14T09:50:14+00:00</time>
      </trkpt>
      <trkpt lat="49.63286" lon="-1.55564">
        <ele>93</ele>
        <time>2026-05-14T09:50:15+00:00</time>
      </trkpt>
      <trkpt lat="49.63236" lon="-1.55523">
        <ele>99</ele>
        <time>2026-05-14T09:50:16+00:00</time>
      </trkpt>
      <trkpt lat="49.63094" lon="-1.55496">
        <ele>102</ele>
        <time>2026-05-14T09:50:17+00:00</time>
      </trkpt>
      <trkpt lat="49.62924" lon="-1.55491">
        <ele>86</ele>
        <time>2026-05-14T09:50:18+00:00</time>
      </trkpt>
      <trkpt lat="49.62893" lon="-1.55482">
        <ele>85</ele>
        <time>2026-05-14T09:50:19+00:00</time>
      </trkpt>
      <trkpt lat="49.62882" lon="-1.55472">
        <ele>85</ele>
        <time>2026-05-14T09:50:20+00:00</time>
      </trkpt>
      <trkpt lat="49.62871" lon="-1.55466">
        <ele>85</ele>
        <time>2026-05-14T09:50:21+00:00</time>
      </trkpt>
      <trkpt lat="49.62863" lon="-1.55468">
        <ele>84</ele>
        <time>2026-05-14T09:50:22+00:00</time>
      </trkpt>
      <trkpt lat="49.62852" lon="-1.55456">
        <ele>85</ele>
        <time>2026-05-14T09:50:23+00:00</time>
      </trkpt>
      <trkpt lat="49.62823" lon="-1.5544">
        <ele>85</ele>
        <time>2026-05-14T09:50:24+00:00</time>
      </trkpt>
      <trkpt lat="49.62799" lon="-1.55418">
        <ele>86</ele>
        <time>2026-05-14T09:50:25+00:00</time>
      </trkpt>
      <trkpt lat="49.62766" lon="-1.55398">
        <ele>87</ele>
        <time>2026-05-14T09:50:26+00:00</time>
      </trkpt>
      <trkpt lat="49.62734" lon="-1.55415">
        <ele>87</ele>
        <time>2026-05-14T09:50:27+00:00</time>
      </trkpt>
      <trkpt lat="49.62713" lon="-1.55487">
        <ele>86</ele>
        <time>2026-05-14T09:50:28+00:00</time>
      </trkpt>
      <trkpt lat="49.62688" lon="-1.55547">
        <ele>88</ele>
        <time>2026-05-14T09:50:29+00:00</time>
      </trkpt>
      <trkpt lat="49.62663" lon="-1.55562">
        <ele>91</ele>
        <time>2026-05-14T09:50:30+00:00</time>
      </trkpt>
      <trkpt lat="49.62626" lon="-1.55561">
        <ele>93</ele>
        <time>2026-05-14T09:50:31+00:00</time>
      </trkpt>
      <trkpt lat="49.62635" lon="-1.5564">
        <ele>88</ele>
        <time>2026-05-14T09:50:32+00:00</time>
      </trkpt>
      <trkpt lat="49.62629" lon="-1.55853">
        <ele>77</ele>
        <time>2026-05-14T09:50:33+00:00</time>
      </trkpt>
      <trkpt lat="49.62631" lon="-1.55872">
        <ele>76</ele>
        <time>2026-05-14T09:50:34+00:00</time>
      </trkpt>
      <trkpt lat="49.62642" lon="-1.55898">
        <ele>75</ele>
        <time>2026-05-14T09:50:35+00:00</time>
      </trkpt>
      <trkpt lat="49.62658" lon="-1.55921">
        <ele>74</ele>
        <time>2026-05-14T09:50:36+00:00</time>
      </trkpt>
      <trkpt lat="49.62687" lon="-1.55998">
        <ele>72</ele>
        <time>2026-05-14T09:50:37+00:00</time>
      </trkpt>
      <trkpt lat="49.62849" lon="-1.56527">
        <ele>42</ele>
        <time>2026-05-14T09:50:38+00:00</time>
      </trkpt>
      <trkpt lat="49.62854" lon="-1.56553">
        <ele>41</ele>
        <time>2026-05-14T09:50:39+00:00</time>
      </trkpt>
      <trkpt lat="49.6285" lon="-1.56636">
        <ele>36</ele>
        <time>2026-05-14T09:50:40+00:00</time>
      </trkpt>
      <trkpt lat="49.62857" lon="-1.56669">
        <ele>33</ele>
        <time>2026-05-14T09:50:41+00:00</time>
      </trkpt>
      <trkpt lat="49.62857" lon="-1.56711">
        <ele>29</ele>
        <time>2026-05-14T09:50:42+00:00</time>
      </trkpt>
      <trkpt lat="49.62839" lon="-1.56714">
        <ele>29</ele>
        <time>2026-05-14T09:50:43+00:00</time>
      </trkpt>
      <trkpt lat="49.62806" lon="-1.56733">
        <ele>28</ele>
        <time>2026-05-14T09:50:44+00:00</time>
      </trkpt>
      <trkpt lat="49.62755" lon="-1.56744">
        <ele>28</ele>
        <time>2026-05-14T09:50:45+00:00</time>
      </trkpt>
      <trkpt lat="49.62667" lon="-1.56771">
        <ele>27</ele>
        <time>2026-05-14T09:50:46+00:00</time>
      </trkpt>
      <trkpt lat="49.62648" lon="-1.56767">
        <ele>28</ele>
        <time>2026-05-14T09:50:47+00:00</time>
      </trkpt>
      <trkpt lat="49.62606" lon="-1.56737">
        <ele>30</ele>
        <time>2026-05-14T09:50:48+00:00</time>
      </trkpt>
      <trkpt lat="49.62577" lon="-1.56731">
        <ele>31</ele>
        <time>2026-05-14T09:50:49+00:00</time>
      </trkpt>
      <trkpt lat="49.62572" lon="-1.56733">
        <ele>31</ele>
        <time>2026-05-14T09:50:50+00:00</time>
      </trkpt>
      <trkpt lat="49.6257" lon="-1.56738">
        <ele>31</ele>
        <time>2026-05-14T09:50:51+00:00</time>
      </trkpt>
      <trkpt lat="49.62578" lon="-1.56799">
        <ele>29</ele>
        <time>2026-05-14T09:50:52+00:00</time>
      </trkpt>
      <trkpt lat="49.62577" lon="-1.56847">
        <ele>28</ele>
        <time>2026-05-14T09:50:53+00:00</time>
      </trkpt>
      <trkpt lat="49.62573" lon="-1.56859">
        <ele>27</ele>
        <time>2026-05-14T09:50:54+00:00</time>
      </trkpt>
      <trkpt lat="49.62559" lon="-1.56878">
        <ele>27</ele>
        <time>2026-05-14T09:50:55+00:00</time>
      </trkpt>
      <trkpt lat="49.62501" lon="-1.56934">
        <ele>29</ele>
        <time>2026-05-14T09:50:56+00:00</time>
      </trkpt>
      <trkpt lat="49.62487" lon="-1.56945">
        <ele>30</ele>
        <time>2026-05-14T09:50:57+00:00</time>
      </trkpt>
      <trkpt lat="49.62456" lon="-1.56959">
        <ele>32</ele>
        <time>2026-05-14T09:50:58+00:00</time>
      </trkpt>
      <trkpt lat="49.62451" lon="-1.56967">
        <ele>32</ele>
        <time>2026-05-14T09:50:59+00:00</time>
      </trkpt>
      <trkpt lat="49.6245" lon="-1.5703">
        <ele>31</ele>
        <time>2026-05-14T09:51:00+00:00</time>
      </trkpt>
      <trkpt lat="49.62434" lon="-1.57071">
        <ele>32</ele>
        <time>2026-05-14T09:51:01+00:00</time>
      </trkpt>
      <trkpt lat="49.62433" lon="-1.57094">
        <ele>32</ele>
        <time>2026-05-14T09:51:02+00:00</time>
      </trkpt>
      <trkpt lat="49.62414" lon="-1.57134">
        <ele>34</ele>
        <time>2026-05-14T09:51:03+00:00</time>
      </trkpt>
      <trkpt lat="49.62384" lon="-1.5712">
        <ele>38</ele>
        <time>2026-05-14T09:51:04+00:00</time>
      </trkpt>
      <trkpt lat="49.62355" lon="-1.57098">
        <ele>42</ele>
        <time>2026-05-14T09:51:05+00:00</time>
      </trkpt>
      <trkpt lat="49.62344" lon="-1.57096">
        <ele>43</ele>
        <time>2026-05-14T09:51:06+00:00</time>
      </trkpt>
      <trkpt lat="49.6231" lon="-1.57112">
        <ele>47</ele>
        <time>2026-05-14T09:51:07+00:00</time>
      </trkpt>
      <trkpt lat="49.62293" lon="-1.57146">
        <ele>50</ele>
        <time>2026-05-14T09:51:08+00:00</time>
      </trkpt>
      <trkpt lat="49.6227" lon="-1.57161">
        <ele>52</ele>
        <time>2026-05-14T09:51:09+00:00</time>
      </trkpt>
      <trkpt lat="49.62233" lon="-1.57174">
        <ele>55</ele>
        <time>2026-05-14T09:51:10+00:00</time>
      </trkpt>
      <trkpt lat="49.62055" lon="-1.57322">
        <ele>69</ele>
        <time>2026-05-14T09:51:11+00:00</time>
      </trkpt>
      <trkpt lat="49.62019" lon="-1.57342">
        <ele>71</ele>
        <time>2026-05-14T09:51:12+00:00</time>
      </trkpt>
      <trkpt lat="49.6195" lon="-1.57367">
        <ele>74</ele>
        <time>2026-05-14T09:51:13+00:00</time>
      </trkpt>
      <trkpt lat="49.61916" lon="-1.57384">
        <ele>76</ele>
        <time>2026-05-14T09:51:14+00:00</time>
      </trkpt>
      <trkpt lat="49.61896" lon="-1.57389">
        <ele>77</ele>
        <time>2026-05-14T09:51:15+00:00</time>
      </trkpt>
      <trkpt lat="49.61855" lon="-1.57388">
        <ele>80</ele>
        <time>2026-05-14T09:51:16+00:00</time>
      </trkpt>
      <trkpt lat="49.61834" lon="-1.57391">
        <ele>81</ele>
        <time>2026-05-14T09:51:17+00:00</time>
      </trkpt>
      <trkpt lat="49.61766" lon="-1.57419">
        <ele>87</ele>
        <time>2026-05-14T09:51:18+00:00</time>
      </trkpt>
      <trkpt lat="49.61748" lon="-1.57412">
        <ele>88</ele>
        <time>2026-05-14T09:51:19+00:00</time>
      </trkpt>
      <trkpt lat="49.61737" lon="-1.57411">
        <ele>89</ele>
        <time>2026-05-14T09:51:20+00:00</time>
      </trkpt>
      <trkpt lat="49.61509" lon="-1.57458">
        <ele>102</ele>
        <time>2026-05-14T09:51:21+00:00</time>
      </trkpt>
      <trkpt lat="49.6146" lon="-1.57465">
        <ele>104</ele>
        <time>2026-05-14T09:51:22+00:00</time>
      </trkpt>
      <trkpt lat="49.61414" lon="-1.57479">
        <ele>105</ele>
        <time>2026-05-14T09:51:23+00:00</time>
      </trkpt>
      <trkpt lat="49.61336" lon="-1.57513">
        <ele>105</ele>
        <time>2026-05-14T09:51:24+00:00</time>
      </trkpt>
      <trkpt lat="49.61309" lon="-1.57529">
        <ele>105</ele>
        <time>2026-05-14T09:51:25+00:00</time>
      </trkpt>
      <trkpt lat="49.61288" lon="-1.57555">
        <ele>104</ele>
        <time>2026-05-14T09:51:26+00:00</time>
      </trkpt>
      <trkpt lat="49.61247" lon="-1.57628">
        <ele>103</ele>
        <time>2026-05-14T09:51:27+00:00</time>
      </trkpt>
      <trkpt lat="49.61225" lon="-1.57644">
        <ele>103</ele>
        <time>2026-05-14T09:51:28+00:00</time>
      </trkpt>
      <trkpt lat="49.61175" lon="-1.57664">
        <ele>103</ele>
        <time>2026-05-14T09:51:29+00:00</time>
      </trkpt>
      <trkpt lat="49.61102" lon="-1.57671">
        <ele>101</ele>
        <time>2026-05-14T09:51:30+00:00</time>
      </trkpt>
      <trkpt lat="49.61022" lon="-1.57702">
        <ele>99</ele>
        <time>2026-05-14T09:51:31+00:00</time>
      </trkpt>
      <trkpt lat="49.60979" lon="-1.57725">
        <ele>97</ele>
        <time>2026-05-14T09:51:32+00:00</time>
      </trkpt>
      <trkpt lat="49.60929" lon="-1.57784">
        <ele>96</ele>
        <time>2026-05-14T09:51:33+00:00</time>
      </trkpt>
      <trkpt lat="49.60918" lon="-1.57729">
        <ele>94</ele>
        <time>2026-05-14T09:51:34+00:00</time>
      </trkpt>
      <trkpt lat="49.60912" lon="-1.57718">
        <ele>93</ele>
        <time>2026-05-14T09:51:35+00:00</time>
      </trkpt>
      <trkpt lat="49.60905" lon="-1.57713">
        <ele>92</ele>
        <time>2026-05-14T09:51:36+00:00</time>
      </trkpt>
      <trkpt lat="49.60889" lon="-1.57722">
        <ele>89</ele>
        <time>2026-05-14T09:51:37+00:00</time>
      </trkpt>
      <trkpt lat="49.60876" lon="-1.57742">
        <ele>87</ele>
        <time>2026-05-14T09:51:38+00:00</time>
      </trkpt>
      <trkpt lat="49.60868" lon="-1.57765">
        <ele>86</ele>
        <time>2026-05-14T09:51:39+00:00</time>
      </trkpt>
      <trkpt lat="49.60866" lon="-1.57789">
        <ele>86</ele>
        <time>2026-05-14T09:51:40+00:00</time>
      </trkpt>
      <trkpt lat="49.60857" lon="-1.57822">
        <ele>86</ele>
        <time>2026-05-14T09:51:41+00:00</time>
      </trkpt>
      <trkpt lat="49.60836" lon="-1.5786">
        <ele>84</ele>
        <time>2026-05-14T09:51:42+00:00</time>
      </trkpt>
      <trkpt lat="49.60831" lon="-1.57861">
        <ele>84</ele>
        <time>2026-05-14T09:51:43+00:00</time>
      </trkpt>
      <trkpt lat="49.60826" lon="-1.57857">
        <ele>84</ele>
        <time>2026-05-14T09:51:44+00:00</time>
      </trkpt>
      <trkpt lat="49.60823" lon="-1.5785">
        <ele>83</ele>
        <time>2026-05-14T09:51:45+00:00</time>
      </trkpt>
      <trkpt lat="49.60813" lon="-1.57771">
        <ele>80</ele>
        <time>2026-05-14T09:51:46+00:00</time>
      </trkpt>
      <trkpt lat="49.60808" lon="-1.57754">
        <ele>79</ele>
        <time>2026-05-14T09:51:47+00:00</time>
      </trkpt>
      <trkpt lat="49.60787" lon="-1.57715">
        <ele>77</ele>
        <time>2026-05-14T09:51:48+00:00</time>
      </trkpt>
      <trkpt lat="49.6076" lon="-1.57674">
        <ele>73</ele>
        <time>2026-05-14T09:51:49+00:00</time>
      </trkpt>
      <trkpt lat="49.60744" lon="-1.57628">
        <ele>71</ele>
        <time>2026-05-14T09:51:50+00:00</time>
      </trkpt>
      <trkpt lat="49.60746" lon="-1.57596">
        <ele>70</ele>
        <time>2026-05-14T09:51:51+00:00</time>
      </trkpt>
      <trkpt lat="49.60758" lon="-1.57557">
        <ele>71</ele>
        <time>2026-05-14T09:51:52+00:00</time>
      </trkpt>
      <trkpt lat="49.60785" lon="-1.5749">
        <ele>71</ele>
        <time>2026-05-14T09:51:53+00:00</time>
      </trkpt>
      <trkpt lat="49.60789" lon="-1.57461">
        <ele>68</ele>
        <time>2026-05-14T09:51:54+00:00</time>
      </trkpt>
      <trkpt lat="49.60787" lon="-1.57424">
        <ele>66</ele>
        <time>2026-05-14T09:51:55+00:00</time>
      </trkpt>
      <trkpt lat="49.60754" lon="-1.57366">
        <ele>63</ele>
        <time>2026-05-14T09:51:56+00:00</time>
      </trkpt>
      <trkpt lat="49.60715" lon="-1.57287">
        <ele>63</ele>
        <time>2026-05-14T09:51:57+00:00</time>
      </trkpt>
      <trkpt lat="49.60719" lon="-1.5727">
        <ele>61</ele>
        <time>2026-05-14T09:51:58+00:00</time>
      </trkpt>
      <trkpt lat="49.6064" lon="-1.57105">
        <ele>63</ele>
        <time>2026-05-14T09:51:59+00:00</time>
      </trkpt>
      <trkpt lat="49.60604" lon="-1.57039">
        <ele>67</ele>
        <time>2026-05-14T09:52:00+00:00</time>
      </trkpt>
      <trkpt lat="49.60585" lon="-1.57029">
        <ele>67</ele>
        <time>2026-05-14T09:52:01+00:00</time>
      </trkpt>
      <trkpt lat="49.60547" lon="-1.57015">
        <ele>69</ele>
        <time>2026-05-14T09:52:02+00:00</time>
      </trkpt>
      <trkpt lat="49.60488" lon="-1.57007">
        <ele>71</ele>
        <time>2026-05-14T09:52:03+00:00</time>
      </trkpt>
      <trkpt lat="49.60418" lon="-1.57019">
        <ele>77</ele>
        <time>2026-05-14T09:52:04+00:00</time>
      </trkpt>
      <trkpt lat="49.60398" lon="-1.57027">
        <ele>77</ele>
        <time>2026-05-14T09:52:05+00:00</time>
      </trkpt>
      <trkpt lat="49.6037" lon="-1.57055">
        <ele>73</ele>
        <time>2026-05-14T09:52:06+00:00</time>
      </trkpt>
      <trkpt lat="49.60289" lon="-1.57112">
        <ele>68</ele>
        <time>2026-05-14T09:52:07+00:00</time>
      </trkpt>
      <trkpt lat="49.60269" lon="-1.5712">
        <ele>68</ele>
        <time>2026-05-14T09:52:08+00:00</time>
      </trkpt>
      <trkpt lat="49.60214" lon="-1.57131">
        <ele>74</ele>
        <time>2026-05-14T09:52:09+00:00</time>
      </trkpt>
      <trkpt lat="49.6016" lon="-1.57179">
        <ele>80</ele>
        <time>2026-05-14T09:52:10+00:00</time>
      </trkpt>
      <trkpt lat="49.60116" lon="-1.57189">
        <ele>85</ele>
        <time>2026-05-14T09:52:11+00:00</time>
      </trkpt>
      <trkpt lat="49.60106" lon="-1.57188">
        <ele>87</ele>
        <time>2026-05-14T09:52:12+00:00</time>
      </trkpt>
      <trkpt lat="49.60015" lon="-1.57245">
        <ele>91</ele>
        <time>2026-05-14T09:52:13+00:00</time>
      </trkpt>
      <trkpt lat="49.59969" lon="-1.57312">
        <ele>86</ele>
        <time>2026-05-14T09:52:14+00:00</time>
      </trkpt>
      <trkpt lat="49.59937" lon="-1.57351">
        <ele>85</ele>
        <time>2026-05-14T09:52:15+00:00</time>
      </trkpt>
      <trkpt lat="49.59882" lon="-1.57403">
        <ele>85</ele>
        <time>2026-05-14T09:52:16+00:00</time>
      </trkpt>
      <trkpt lat="49.5981" lon="-1.57513">
        <ele>83</ele>
        <time>2026-05-14T09:52:17+00:00</time>
      </trkpt>
      <trkpt lat="49.59703" lon="-1.57719">
        <ele>86</ele>
        <time>2026-05-14T09:52:18+00:00</time>
      </trkpt>
      <trkpt lat="49.59666" lon="-1.5778">
        <ele>84</ele>
        <time>2026-05-14T09:52:19+00:00</time>
      </trkpt>
      <trkpt lat="49.597" lon="-1.57796">
        <ele>86</ele>
        <time>2026-05-14T09:52:20+00:00</time>
      </trkpt>
      <trkpt lat="49.5971" lon="-1.57803">
        <ele>87</ele>
        <time>2026-05-14T09:52:21+00:00</time>
      </trkpt>
      <trkpt lat="49.59711" lon="-1.57811">
        <ele>87</ele>
        <time>2026-05-14T09:52:22+00:00</time>
      </trkpt>
      <trkpt lat="49.59626" lon="-1.58003">
        <ele>93</ele>
        <time>2026-05-14T09:52:23+00:00</time>
      </trkpt>
      <trkpt lat="49.59611" lon="-1.58024">
        <ele>93</ele>
        <time>2026-05-14T09:52:24+00:00</time>
      </trkpt>
      <trkpt lat="49.59592" lon="-1.58042">
        <ele>90</ele>
        <time>2026-05-14T09:52:25+00:00</time>
      </trkpt>
      <trkpt lat="49.59554" lon="-1.5811">
        <ele>94</ele>
        <time>2026-05-14T09:52:26+00:00</time>
      </trkpt>
      <trkpt lat="49.59527" lon="-1.58129">
        <ele>94</ele>
        <time>2026-05-14T09:52:27+00:00</time>
      </trkpt>
      <trkpt lat="49.59484" lon="-1.58145">
        <ele>93</ele>
        <time>2026-05-14T09:52:28+00:00</time>
      </trkpt>
      <trkpt lat="49.59469" lon="-1.5816">
        <ele>94</ele>
        <time>2026-05-14T09:52:29+00:00</time>
      </trkpt>
      <trkpt lat="49.59427" lon="-1.58172">
        <ele>91</ele>
        <time>2026-05-14T09:52:30+00:00</time>
      </trkpt>
      <trkpt lat="49.59397" lon="-1.58224">
        <ele>96</ele>
        <time>2026-05-14T09:52:31+00:00</time>
      </trkpt>
      <trkpt lat="49.59361" lon="-1.58296">
        <ele>103</ele>
        <time>2026-05-14T09:52:32+00:00</time>
      </trkpt>
      <trkpt lat="49.59358" lon="-1.58376">
        <ele>107</ele>
        <time>2026-05-14T09:52:33+00:00</time>
      </trkpt>
      <trkpt lat="49.59383" lon="-1.58497">
        <ele>108</ele>
        <time>2026-05-14T09:52:34+00:00</time>
      </trkpt>
      <trkpt lat="49.59345" lon="-1.58625">
        <ele>109</ele>
        <time>2026-05-14T09:52:35+00:00</time>
      </trkpt>
      <trkpt lat="49.59317" lon="-1.58682">
        <ele>113</ele>
        <time>2026-05-14T09:52:36+00:00</time>
      </trkpt>
      <trkpt lat="49.59285" lon="-1.58822">
        <ele>122</ele>
        <time>2026-05-14T09:52:37+00:00</time>
      </trkpt>
      <trkpt lat="49.59251" lon="-1.58986">
        <ele>125</ele>
        <time>2026-05-14T09:52:38+00:00</time>
      </trkpt>
      <trkpt lat="49.59249" lon="-1.59041">
        <ele>129</ele>
        <time>2026-05-14T09:52:39+00:00</time>
      </trkpt>
      <trkpt lat="49.59209" lon="-1.59178">
        <ele>142</ele>
        <time>2026-05-14T09:52:40+00:00</time>
      </trkpt>
      <trkpt lat="49.59187" lon="-1.59277">
        <ele>146</ele>
        <time>2026-05-14T09:52:41+00:00</time>
      </trkpt>
      <trkpt lat="49.59156" lon="-1.59556">
        <ele>151</ele>
        <time>2026-05-14T09:52:42+00:00</time>
      </trkpt>
      <trkpt lat="49.59137" lon="-1.59579">
        <ele>152</ele>
        <time>2026-05-14T09:52:43+00:00</time>
      </trkpt>
      <trkpt lat="49.5894" lon="-1.59625">
        <ele>157</ele>
        <time>2026-05-14T09:52:44+00:00</time>
      </trkpt>
      <trkpt lat="49.58911" lon="-1.59634">
        <ele>157</ele>
        <time>2026-05-14T09:52:45+00:00</time>
      </trkpt>
      <trkpt lat="49.58855" lon="-1.59631">
        <ele>155</ele>
        <time>2026-05-14T09:52:46+00:00</time>
      </trkpt>
      <trkpt lat="49.58835" lon="-1.59617">
        <ele>153</ele>
        <time>2026-05-14T09:52:47+00:00</time>
      </trkpt>
      <trkpt lat="49.58819" lon="-1.59576">
        <ele>151</ele>
        <time>2026-05-14T09:52:48+00:00</time>
      </trkpt>
      <trkpt lat="49.58814" lon="-1.59545">
        <ele>150</ele>
        <time>2026-05-14T09:52:49+00:00</time>
      </trkpt>
      <trkpt lat="49.58804" lon="-1.59533">
        <ele>149</ele>
        <time>2026-05-14T09:52:50+00:00</time>
      </trkpt>
      <trkpt lat="49.58782" lon="-1.59532">
        <ele>148</ele>
        <time>2026-05-14T09:52:51+00:00</time>
      </trkpt>
      <trkpt lat="49.58766" lon="-1.59543">
        <ele>148</ele>
        <time>2026-05-14T09:52:52+00:00</time>
      </trkpt>
      <trkpt lat="49.58752" lon="-1.59521">
        <ele>146</ele>
        <time>2026-05-14T09:52:53+00:00</time>
      </trkpt>
      <trkpt lat="49.58677" lon="-1.59454">
        <ele>146</ele>
        <time>2026-05-14T09:52:54+00:00</time>
      </trkpt>
      <trkpt lat="49.58638" lon="-1.59409">
        <ele>145</ele>
        <time>2026-05-14T09:52:55+00:00</time>
      </trkpt>
      <trkpt lat="49.58612" lon="-1.5937">
        <ele>144</ele>
        <time>2026-05-14T09:52:56+00:00</time>
      </trkpt>
      <trkpt lat="49.58595" lon="-1.5934">
        <ele>143</ele>
        <time>2026-05-14T09:52:57+00:00</time>
      </trkpt>
      <trkpt lat="49.58562" lon="-1.59254">
        <ele>139</ele>
        <time>2026-05-14T09:52:58+00:00</time>
      </trkpt>
      <trkpt lat="49.58522" lon="-1.59083">
        <ele>138</ele>
        <time>2026-05-14T09:52:59+00:00</time>
      </trkpt>
      <trkpt lat="49.5853" lon="-1.59071">
        <ele>137</ele>
        <time>2026-05-14T09:53:00+00:00</time>
      </trkpt>
      <trkpt lat="49.58533" lon="-1.59051">
        <ele>137</ele>
        <time>2026-05-14T09:53:01+00:00</time>
      </trkpt>
      <trkpt lat="49.5854" lon="-1.59042">
        <ele>136</ele>
        <time>2026-05-14T09:53:02+00:00</time>
      </trkpt>
      <trkpt lat="49.58545" lon="-1.59044">
        <ele>135</ele>
        <time>2026-05-14T09:53:03+00:00</time>
      </trkpt>
      <trkpt lat="49.58548" lon="-1.59049">
        <ele>135</ele>
        <time>2026-05-14T09:53:04+00:00</time>
      </trkpt>
      <trkpt lat="49.5855" lon="-1.59079">
        <ele>135</ele>
        <time>2026-05-14T09:53:05+00:00</time>
      </trkpt>
      <trkpt lat="49.58553" lon="-1.59084">
        <ele>135</ele>
        <time>2026-05-14T09:53:06+00:00</time>
      </trkpt>
      <trkpt lat="49.5856" lon="-1.59084">
        <ele>134</ele>
        <time>2026-05-14T09:53:07+00:00</time>
      </trkpt>
      <trkpt lat="49.58568" lon="-1.59071">
        <ele>133</ele>
        <time>2026-05-14T09:53:08+00:00</time>
      </trkpt>
      <trkpt lat="49.58585" lon="-1.59018">
        <ele>128</ele>
        <time>2026-05-14T09:53:09+00:00</time>
      </trkpt>
      <trkpt lat="49.58596" lon="-1.58696">
        <ele>125</ele>
        <time>2026-05-14T09:53:10+00:00</time>
      </trkpt>
      <trkpt lat="49.58602" lon="-1.58423">
        <ele>116</ele>
        <time>2026-05-14T09:53:11+00:00</time>
      </trkpt>
      <trkpt lat="49.58618" lon="-1.5816">
        <ele>105</ele>
        <time>2026-05-14T09:53:12+00:00</time>
      </trkpt>
      <trkpt lat="49.58633" lon="-1.58091">
        <ele>101</ele>
        <time>2026-05-14T09:53:13+00:00</time>
      </trkpt>
      <trkpt lat="49.58658" lon="-1.58062">
        <ele>96</ele>
        <time>2026-05-14T09:53:14+00:00</time>
      </trkpt>
      <trkpt lat="49.58731" lon="-1.58122">
        <ele>95</ele>
        <time>2026-05-14T09:53:15+00:00</time>
      </trkpt>
      <trkpt lat="49.58783" lon="-1.58152">
        <ele>98</ele>
        <time>2026-05-14T09:53:16+00:00</time>
      </trkpt>
      <trkpt lat="49.58818" lon="-1.58166">
        <ele>100</ele>
        <time>2026-05-14T09:53:17+00:00</time>
      </trkpt>
      <trkpt lat="49.58851" lon="-1.5814">
        <ele>99</ele>
        <time>2026-05-14T09:53:18+00:00</time>
      </trkpt>
      <trkpt lat="49.58891" lon="-1.5807">
        <ele>96</ele>
        <time>2026-05-14T09:53:19+00:00</time>
      </trkpt>
      <trkpt lat="49.58923" lon="-1.58045">
        <ele>98</ele>
        <time>2026-05-14T09:53:20+00:00</time>
      </trkpt>
      <trkpt lat="49.5904" lon="-1.58042">
        <ele>96</ele>
        <time>2026-05-14T09:53:21+00:00</time>
      </trkpt>
      <trkpt lat="49.59125" lon="-1.58035">
        <ele>96</ele>
        <time>2026-05-14T09:53:22+00:00</time>
      </trkpt>
      <trkpt lat="49.59215" lon="-1.58066">
        <ele>91</ele>
        <time>2026-05-14T09:53:23+00:00</time>
      </trkpt>
      <trkpt lat="49.59428" lon="-1.58056">
        <ele>89</ele>
        <time>2026-05-14T09:53:24+00:00</time>
      </trkpt>
      <trkpt lat="49.59516" lon="-1.58016">
        <ele>89</ele>
        <time>2026-05-14T09:53:25+00:00</time>
      </trkpt>
      <trkpt lat="49.59582" lon="-1.57951">
        <ele>87</ele>
        <time>2026-05-14T09:53:26+00:00</time>
      </trkpt>
      <trkpt lat="49.59628" lon="-1.57839">
        <ele>88</ele>
        <time>2026-05-14T09:53:27+00:00</time>
      </trkpt>
      <trkpt lat="49.59649" lon="-1.5778">
        <ele>86</ele>
        <time>2026-05-14T09:53:28+00:00</time>
      </trkpt>
      <trkpt lat="49.59666" lon="-1.5778">
        <ele>84</ele>
        <time>2026-05-14T09:53:29+00:00</time>
      </trkpt>
      <trkpt lat="49.59703" lon="-1.57719">
        <ele>86</ele>
        <time>2026-05-14T09:53:30+00:00</time>
      </trkpt>
      <trkpt lat="49.5981" lon="-1.57513">
        <ele>83</ele>
        <time>2026-05-14T09:53:31+00:00</time>
      </trkpt>
      <trkpt lat="49.59882" lon="-1.57403">
        <ele>85</ele>
        <time>2026-05-14T09:53:32+00:00</time>
      </trkpt>
      <trkpt lat="49.59937" lon="-1.57351">
        <ele>85</ele>
        <time>2026-05-14T09:53:33+00:00</time>
      </trkpt>
      <trkpt lat="49.59969" lon="-1.57312">
        <ele>86</ele>
        <time>2026-05-14T09:53:34+00:00</time>
      </trkpt>
      <trkpt lat="49.60015" lon="-1.57245">
        <ele>91</ele>
        <time>2026-05-14T09:53:35+00:00</time>
      </trkpt>
      <trkpt lat="49.60106" lon="-1.57188">
        <ele>87</ele>
        <time>2026-05-14T09:53:36+00:00</time>
      </trkpt>
      <trkpt lat="49.60116" lon="-1.57189">
        <ele>85</ele>
        <time>2026-05-14T09:53:37+00:00</time>
      </trkpt>
      <trkpt lat="49.6016" lon="-1.57179">
        <ele>80</ele>
        <time>2026-05-14T09:53:38+00:00</time>
      </trkpt>
      <trkpt lat="49.60214" lon="-1.57131">
        <ele>74</ele>
        <time>2026-05-14T09:53:39+00:00</time>
      </trkpt>
      <trkpt lat="49.60269" lon="-1.5712">
        <ele>68</ele>
        <time>2026-05-14T09:53:40+00:00</time>
      </trkpt>
      <trkpt lat="49.60289" lon="-1.57112">
        <ele>68</ele>
        <time>2026-05-14T09:53:41+00:00</time>
      </trkpt>
      <trkpt lat="49.60358" lon="-1.57066">
        <ele>72</ele>
        <time>2026-05-14T09:53:42+00:00</time>
      </trkpt>
      <trkpt lat="49.60394" lon="-1.5703">
        <ele>77</ele>
        <time>2026-05-14T09:53:43+00:00</time>
      </trkpt>
      <trkpt lat="49.60414" lon="-1.5702">
        <ele>77</ele>
        <time>2026-05-14T09:53:44+00:00</time>
      </trkpt>
      <trkpt lat="49.60437" lon="-1.57013">
        <ele>76</ele>
        <time>2026-05-14T09:53:45+00:00</time>
      </trkpt>
      <trkpt lat="49.6049" lon="-1.57008">
        <ele>71</ele>
        <time>2026-05-14T09:53:46+00:00</time>
      </trkpt>
      <trkpt lat="49.60548" lon="-1.57014">
        <ele>69</ele>
        <time>2026-05-14T09:53:47+00:00</time>
      </trkpt>
      <trkpt lat="49.60591" lon="-1.57031">
        <ele>67</ele>
        <time>2026-05-14T09:53:48+00:00</time>
      </trkpt>
      <trkpt lat="49.60604" lon="-1.57039">
        <ele>67</ele>
        <time>2026-05-14T09:53:49+00:00</time>
      </trkpt>
      <trkpt lat="49.6064" lon="-1.57105">
        <ele>63</ele>
        <time>2026-05-14T09:53:50+00:00</time>
      </trkpt>
      <trkpt lat="49.60748" lon="-1.57324">
        <ele>60</ele>
        <time>2026-05-14T09:53:51+00:00</time>
      </trkpt>
      <trkpt lat="49.60762" lon="-1.57329">
        <ele>59</ele>
        <time>2026-05-14T09:53:52+00:00</time>
      </trkpt>
      <trkpt lat="49.60786" lon="-1.57361">
        <ele>61</ele>
        <time>2026-05-14T09:53:53+00:00</time>
      </trkpt>
      <trkpt lat="49.60783" lon="-1.57384">
        <ele>63</ele>
        <time>2026-05-14T09:53:54+00:00</time>
      </trkpt>
      <trkpt lat="49.60784" lon="-1.57419">
        <ele>66</ele>
        <time>2026-05-14T09:53:55+00:00</time>
      </trkpt>
      <trkpt lat="49.60787" lon="-1.57424">
        <ele>66</ele>
        <time>2026-05-14T09:53:56+00:00</time>
      </trkpt>
      <trkpt lat="49.60826" lon="-1.57388">
        <ele>61</ele>
        <time>2026-05-14T09:53:57+00:00</time>
      </trkpt>
      <trkpt lat="49.60845" lon="-1.57356">
        <ele>60</ele>
        <time>2026-05-14T09:53:58+00:00</time>
      </trkpt>
      <trkpt lat="49.60886" lon="-1.57311">
        <ele>60</ele>
        <time>2026-05-14T09:53:59+00:00</time>
      </trkpt>
      <trkpt lat="49.60903" lon="-1.573">
        <ele>60</ele>
        <time>2026-05-14T09:54:00+00:00</time>
      </trkpt>
      <trkpt lat="49.60947" lon="-1.57284">
        <ele>63</ele>
        <time>2026-05-14T09:54:01+00:00</time>
      </trkpt>
      <trkpt lat="49.61001" lon="-1.57253">
        <ele>66</ele>
        <time>2026-05-14T09:54:02+00:00</time>
      </trkpt>
      <trkpt lat="49.61077" lon="-1.57128">
        <ele>60</ele>
        <time>2026-05-14T09:54:03+00:00</time>
      </trkpt>
      <trkpt lat="49.61144" lon="-1.57074">
        <ele>60</ele>
        <time>2026-05-14T09:54:04+00:00</time>
      </trkpt>
      <trkpt lat="49.61207" lon="-1.56983">
        <ele>57</ele>
        <time>2026-05-14T09:54:05+00:00</time>
      </trkpt>
      <trkpt lat="49.6125" lon="-1.56932">
        <ele>56</ele>
        <time>2026-05-14T09:54:06+00:00</time>
      </trkpt>
      <trkpt lat="49.61257" lon="-1.56928">
        <ele>56</ele>
        <time>2026-05-14T09:54:07+00:00</time>
      </trkpt>
      <trkpt lat="49.61277" lon="-1.5693">
        <ele>58</ele>
        <time>2026-05-14T09:54:08+00:00</time>
      </trkpt>
      <trkpt lat="49.61325" lon="-1.5695">
        <ele>64</ele>
        <time>2026-05-14T09:54:09+00:00</time>
      </trkpt>
      <trkpt lat="49.61354" lon="-1.56989">
        <ele>69</ele>
        <time>2026-05-14T09:54:10+00:00</time>
      </trkpt>
      <trkpt lat="49.61374" lon="-1.57003">
        <ele>71</ele>
        <time>2026-05-14T09:54:11+00:00</time>
      </trkpt>
      <trkpt lat="49.61448" lon="-1.57019">
        <ele>73</ele>
        <time>2026-05-14T09:54:12+00:00</time>
      </trkpt>
      <trkpt lat="49.61457" lon="-1.57009">
        <ele>72</ele>
        <time>2026-05-14T09:54:13+00:00</time>
      </trkpt>
      <trkpt lat="49.61516" lon="-1.56974">
        <ele>66</ele>
        <time>2026-05-14T09:54:14+00:00</time>
      </trkpt>
      <trkpt lat="49.61587" lon="-1.56945">
        <ele>58</ele>
        <time>2026-05-14T09:54:15+00:00</time>
      </trkpt>
      <trkpt lat="49.6162" lon="-1.56935">
        <ele>56</ele>
        <time>2026-05-14T09:54:16+00:00</time>
      </trkpt>
      <trkpt lat="49.61694" lon="-1.56923">
        <ele>53</ele>
        <time>2026-05-14T09:54:17+00:00</time>
      </trkpt>
      <trkpt lat="49.61686" lon="-1.56911">
        <ele>51</ele>
        <time>2026-05-14T09:54:18+00:00</time>
      </trkpt>
      <trkpt lat="49.61676" lon="-1.56904">
        <ele>50</ele>
        <time>2026-05-14T09:54:19+00:00</time>
      </trkpt>
      <trkpt lat="49.61714" lon="-1.56877">
        <ele>48</ele>
        <time>2026-05-14T09:54:20+00:00</time>
      </trkpt>
      <trkpt lat="49.61717" lon="-1.56864">
        <ele>46</ele>
        <time>2026-05-14T09:54:21+00:00</time>
      </trkpt>
      <trkpt lat="49.61718" lon="-1.56832">
        <ele>43</ele>
        <time>2026-05-14T09:54:22+00:00</time>
      </trkpt>
      <trkpt lat="49.61739" lon="-1.56796">
        <ele>42</ele>
        <time>2026-05-14T09:54:23+00:00</time>
      </trkpt>
      <trkpt lat="49.61759" lon="-1.56733">
        <ele>42</ele>
        <time>2026-05-14T09:54:24+00:00</time>
      </trkpt>
      <trkpt lat="49.61787" lon="-1.56746">
        <ele>40</ele>
        <time>2026-05-14T09:54:25+00:00</time>
      </trkpt>
      <trkpt lat="49.61814" lon="-1.56744">
        <ele>39</ele>
        <time>2026-05-14T09:54:26+00:00</time>
      </trkpt>
      <trkpt lat="49.61843" lon="-1.56733">
        <ele>39</ele>
        <time>2026-05-14T09:54:27+00:00</time>
      </trkpt>
      <trkpt lat="49.61855" lon="-1.56721">
        <ele>39</ele>
        <time>2026-05-14T09:54:28+00:00</time>
      </trkpt>
      <trkpt lat="49.61871" lon="-1.56663">
        <ele>43</ele>
        <time>2026-05-14T09:54:29+00:00</time>
      </trkpt>
      <trkpt lat="49.61882" lon="-1.56639">
        <ele>44</ele>
        <time>2026-05-14T09:54:30+00:00</time>
      </trkpt>
      <trkpt lat="49.61912" lon="-1.56592">
        <ele>47</ele>
        <time>2026-05-14T09:54:31+00:00</time>
      </trkpt>
      <trkpt lat="49.6192" lon="-1.56568">
        <ele>48</ele>
        <time>2026-05-14T09:54:32+00:00</time>
      </trkpt>
      <trkpt lat="49.61924" lon="-1.56536">
        <ele>51</ele>
        <time>2026-05-14T09:54:33+00:00</time>
      </trkpt>
      <trkpt lat="49.6193" lon="-1.56405">
        <ele>58</ele>
        <time>2026-05-14T09:54:34+00:00</time>
      </trkpt>
      <trkpt lat="49.62019" lon="-1.56442">
        <ele>56</ele>
        <time>2026-05-14T09:54:35+00:00</time>
      </trkpt>
      <trkpt lat="49.62071" lon="-1.56442">
        <ele>57</ele>
        <time>2026-05-14T09:54:36+00:00</time>
      </trkpt>
      <trkpt lat="49.62091" lon="-1.56453">
        <ele>56</ele>
        <time>2026-05-14T09:54:37+00:00</time>
      </trkpt>
      <trkpt lat="49.62191" lon="-1.56536">
        <ele>50</ele>
        <time>2026-05-14T09:54:38+00:00</time>
      </trkpt>
      <trkpt lat="49.62179" lon="-1.56432">
        <ele>49</ele>
        <time>2026-05-14T09:54:39+00:00</time>
      </trkpt>
      <trkpt lat="49.62179" lon="-1.56404">
        <ele>49</ele>
        <time>2026-05-14T09:54:40+00:00</time>
      </trkpt>
      <trkpt lat="49.6219" lon="-1.5633">
        <ele>49</ele>
        <time>2026-05-14T09:54:41+00:00</time>
      </trkpt>
      <trkpt lat="49.62186" lon="-1.56315">
        <ele>49</ele>
        <time>2026-05-14T09:54:42+00:00</time>
      </trkpt>
      <trkpt lat="49.62159" lon="-1.5628">
        <ele>48</ele>
        <time>2026-05-14T09:54:43+00:00</time>
      </trkpt>
      <trkpt lat="49.62132" lon="-1.56253">
        <ele>50</ele>
        <time>2026-05-14T09:54:44+00:00</time>
      </trkpt>
      <trkpt lat="49.62111" lon="-1.56212">
        <ele>51</ele>
        <time>2026-05-14T09:54:45+00:00</time>
      </trkpt>
      <trkpt lat="49.62114" lon="-1.5618">
        <ele>50</ele>
        <time>2026-05-14T09:54:46+00:00</time>
      </trkpt>
      <trkpt lat="49.62138" lon="-1.56113">
        <ele>50</ele>
        <time>2026-05-14T09:54:47+00:00</time>
      </trkpt>
      <trkpt lat="49.62142" lon="-1.56094">
        <ele>51</ele>
        <time>2026-05-14T09:54:48+00:00</time>
      </trkpt>
      <trkpt lat="49.62135" lon="-1.56081">
        <ele>51</ele>
        <time>2026-05-14T09:54:49+00:00</time>
      </trkpt>
      <trkpt lat="49.62101" lon="-1.56081">
        <ele>51</ele>
        <time>2026-05-14T09:54:50+00:00</time>
      </trkpt>
      <trkpt lat="49.62093" lon="-1.56073">
        <ele>51</ele>
        <time>2026-05-14T09:54:51+00:00</time>
      </trkpt>
      <trkpt lat="49.62088" lon="-1.56036">
        <ele>53</ele>
        <time>2026-05-14T09:54:52+00:00</time>
      </trkpt>
      <trkpt lat="49.62056" lon="-1.55912">
        <ele>63</ele>
        <time>2026-05-14T09:54:53+00:00</time>
      </trkpt>
      <trkpt lat="49.62058" lon="-1.55869">
        <ele>67</ele>
        <time>2026-05-14T09:54:54+00:00</time>
      </trkpt>
      <trkpt lat="49.62099" lon="-1.55614">
        <ele>83</ele>
        <time>2026-05-14T09:54:55+00:00</time>
      </trkpt>
      <trkpt lat="49.62085" lon="-1.55615">
        <ele>83</ele>
        <time>2026-05-14T09:54:56+00:00</time>
      </trkpt>
      <trkpt lat="49.62067" lon="-1.55611">
        <ele>84</ele>
        <time>2026-05-14T09:54:57+00:00</time>
      </trkpt>
      <trkpt lat="49.62024" lon="-1.55289">
        <ele>108</ele>
        <time>2026-05-14T09:54:58+00:00</time>
      </trkpt>
      <trkpt lat="49.62074" lon="-1.55217">
        <ele>109</ele>
        <time>2026-05-14T09:54:59+00:00</time>
      </trkpt>
      <trkpt lat="49.62133" lon="-1.55148">
        <ele>113</ele>
        <time>2026-05-14T09:55:00+00:00</time>
      </trkpt>
      <trkpt lat="49.62183" lon="-1.55081">
        <ele>117</ele>
        <time>2026-05-14T09:55:01+00:00</time>
      </trkpt>
      <trkpt lat="49.62198" lon="-1.55091">
        <ele>117</ele>
        <time>2026-05-14T09:55:02+00:00</time>
      </trkpt>
      <trkpt lat="49.62281" lon="-1.55128">
        <ele>117</ele>
        <time>2026-05-14T09:55:03+00:00</time>
      </trkpt>
      <trkpt lat="49.62354" lon="-1.55156">
        <ele>119</ele>
        <time>2026-05-14T09:55:04+00:00</time>
      </trkpt>
      <trkpt lat="49.62422" lon="-1.55238">
        <ele>117</ele>
        <time>2026-05-14T09:55:05+00:00</time>
      </trkpt>
      <trkpt lat="49.62508" lon="-1.55376">
        <ele>109</ele>
        <time>2026-05-14T09:55:06+00:00</time>
      </trkpt>
      <trkpt lat="49.62557" lon="-1.55438">
        <ele>103</ele>
        <time>2026-05-14T09:55:07+00:00</time>
      </trkpt>
      <trkpt lat="49.62613" lon="-1.55522">
        <ele>96</ele>
        <time>2026-05-14T09:55:08+00:00</time>
      </trkpt>
      <trkpt lat="49.62626" lon="-1.55561">
        <ele>93</ele>
        <time>2026-05-14T09:55:09+00:00</time>
      </trkpt>
      <trkpt lat="49.62635" lon="-1.5564">
        <ele>88</ele>
        <time>2026-05-14T09:55:10+00:00</time>
      </trkpt>
      <trkpt lat="49.62629" lon="-1.55853">
        <ele>77</ele>
        <time>2026-05-14T09:55:11+00:00</time>
      </trkpt>
      <trkpt lat="49.62631" lon="-1.55872">
        <ele>76</ele>
        <time>2026-05-14T09:55:12+00:00</time>
      </trkpt>
      <trkpt lat="49.62642" lon="-1.55898">
        <ele>75</ele>
        <time>2026-05-14T09:55:13+00:00</time>
      </trkpt>
      <trkpt lat="49.62658" lon="-1.55921">
        <ele>74</ele>
        <time>2026-05-14T09:55:14+00:00</time>
      </trkpt>
      <trkpt lat="49.62687" lon="-1.55998">
        <ele>72</ele>
        <time>2026-05-14T09:55:15+00:00</time>
      </trkpt>
      <trkpt lat="49.62849" lon="-1.56527">
        <ele>42</ele>
        <time>2026-05-14T09:55:16+00:00</time>
      </trkpt>
      <trkpt lat="49.62854" lon="-1.56553">
        <ele>41</ele>
        <time>2026-05-14T09:55:17+00:00</time>
      </trkpt>
      <trkpt lat="49.6285" lon="-1.56636">
        <ele>36</ele>
        <time>2026-05-14T09:55:18+00:00</time>
      </trkpt>
      <trkpt lat="49.62857" lon="-1.56669">
        <ele>33</ele>
        <time>2026-05-14T09:55:19+00:00</time>
      </trkpt>
    </trkseg>
  </trk>
</gpx>
