<?xml version="1.0" encoding="UTF-8"?>
<gpx xmlns="http://www.topografix.com/GPX/1/1" xmlns:xsi="http://www.w3.org/2001/XMLSchema-instance" version="1.1" creator="phpGPX/1.3.0" xsi:schemaLocation="http://www.topografix.com/GPX/1/1 http://www.topografix.com/GPX/1/1/gpx.xsd">
  <metadata>
    <time>2026-05-14T12:53:46+00:00</time>
  </metadata>
  <trk>
    <name>Lakuntza-Aralar</name>
    <trkseg>
      <trkpt lat="42.92219999" lon="-2.02323999">
        <ele>492</ele>
        <time>2026-05-14T12:53:47+00:00</time>
      </trkpt>
      <trkpt lat="42.92349999" lon="-2.02278">
        <ele>483</ele>
        <time>2026-05-14T12:53:48+00:00</time>
      </trkpt>
      <trkpt lat="42.92470999" lon="-2.02255999">
        <ele>476</ele>
        <time>2026-05-14T12:53:49+00:00</time>
      </trkpt>
      <trkpt lat="42.92479999" lon="-2.02254999">
        <ele>476</ele>
        <time>2026-05-14T12:53:50+00:00</time>
      </trkpt>
      <trkpt lat="42.92506999" lon="-2.02256999">
        <ele>475</ele>
        <time>2026-05-14T12:53:51+00:00</time>
      </trkpt>
      <trkpt lat="42.92526" lon="-2.02256999">
        <ele>475</ele>
        <time>2026-05-14T12:53:52+00:00</time>
      </trkpt>
      <trkpt lat="42.92528" lon="-2.02258">
        <ele>475</ele>
        <time>2026-05-14T12:53:53+00:00</time>
      </trkpt>
      <trkpt lat="42.92535" lon="-2.02259">
        <ele>475</ele>
        <time>2026-05-14T12:53:54+00:00</time>
      </trkpt>
      <trkpt lat="42.92611" lon="-2.02308999">
        <ele>474</ele>
        <time>2026-05-14T12:53:55+00:00</time>
      </trkpt>
      <trkpt lat="42.92669999" lon="-2.02389999">
        <ele>475</ele>
        <time>2026-05-14T12:53:56+00:00</time>
      </trkpt>
      <trkpt lat="42.92801" lon="-2.02444999">
        <ele>481</ele>
        <time>2026-05-14T12:53:57+00:00</time>
      </trkpt>
      <trkpt lat="42.92869" lon="-2.02506999">
        <ele>484</ele>
        <time>2026-05-14T12:53:58+00:00</time>
      </trkpt>
      <trkpt lat="42.92965999" lon="-2.02518">
        <ele>487</ele>
        <time>2026-05-14T12:53:59+00:00</time>
      </trkpt>
      <trkpt lat="42.93036" lon="-2.02557">
        <ele>489</ele>
        <time>2026-05-14T12:54:00+00:00</time>
      </trkpt>
      <trkpt lat="42.93106" lon="-2.02629999">
        <ele>492</ele>
        <time>2026-05-14T12:54:01+00:00</time>
      </trkpt>
      <trkpt lat="42.93175999" lon="-2.02743999">
        <ele>499</ele>
        <time>2026-05-14T12:54:02+00:00</time>
      </trkpt>
      <trkpt lat="42.93198" lon="-2.02757999">
        <ele>501</ele>
        <time>2026-05-14T12:54:03+00:00</time>
      </trkpt>
      <trkpt lat="42.93299999" lon="-2.0276">
        <ele>506</ele>
        <time>2026-05-14T12:54:04+00:00</time>
      </trkpt>
      <trkpt lat="42.93386999" lon="-2.02754">
        <ele>505</ele>
        <time>2026-05-14T12:54:05+00:00</time>
      </trkpt>
      <trkpt lat="42.93397999" lon="-2.02751999">
        <ele>504</ele>
        <time>2026-05-14T12:54:06+00:00</time>
      </trkpt>
      <trkpt lat="42.93486" lon="-2.02762999">
        <ele>508</ele>
        <time>2026-05-14T12:54:07+00:00</time>
      </trkpt>
      <trkpt lat="42.93590999" lon="-2.02601999">
        <ele>521</ele>
        <time>2026-05-14T12:54:08+00:00</time>
      </trkpt>
      <trkpt lat="42.93628999" lon="-2.02579">
        <ele>527</ele>
        <time>2026-05-14T12:54:09+00:00</time>
      </trkpt>
      <trkpt lat="42.93706" lon="-2.02567999">
        <ele>540</ele>
        <time>2026-05-14T12:54:10+00:00</time>
      </trkpt>
      <trkpt lat="42.93800999" lon="-2.02663999">
        <ele>559</ele>
        <time>2026-05-14T12:54:11+00:00</time>
      </trkpt>
      <trkpt lat="42.93862" lon="-2.02754">
        <ele>571</ele>
        <time>2026-05-14T12:54:12+00:00</time>
      </trkpt>
      <trkpt lat="42.93927999" lon="-2.02904">
        <ele>589</ele>
        <time>2026-05-14T12:54:13+00:00</time>
      </trkpt>
      <trkpt lat="42.93932999" lon="-2.02804999">
        <ele>594</ele>
        <time>2026-05-14T12:54:14+00:00</time>
      </trkpt>
      <trkpt lat="42.93943" lon="-2.02755999">
        <ele>600</ele>
        <time>2026-05-14T12:54:15+00:00</time>
      </trkpt>
      <trkpt lat="42.93957999" lon="-2.02749999">
        <ele>606</ele>
        <time>2026-05-14T12:54:16+00:00</time>
      </trkpt>
      <trkpt lat="42.94001999" lon="-2.02897">
        <ele>615</ele>
        <time>2026-05-14T12:54:17+00:00</time>
      </trkpt>
      <trkpt lat="42.94010999" lon="-2.02803999">
        <ele>625</ele>
        <time>2026-05-14T12:54:18+00:00</time>
      </trkpt>
      <trkpt lat="42.94109999" lon="-2.02944">
        <ele>653</ele>
        <time>2026-05-14T12:54:19+00:00</time>
      </trkpt>
      <trkpt lat="42.94162" lon="-2.02992">
        <ele>668</ele>
        <time>2026-05-14T12:54:20+00:00</time>
      </trkpt>
      <trkpt lat="42.94162" lon="-2.02803">
        <ele>681</ele>
        <time>2026-05-14T12:54:21+00:00</time>
      </trkpt>
      <trkpt lat="42.94207" lon="-2.02763999">
        <ele>696</ele>
        <time>2026-05-14T12:54:22+00:00</time>
      </trkpt>
      <trkpt lat="42.94225" lon="-2.02809999">
        <ele>703</ele>
        <time>2026-05-14T12:54:23+00:00</time>
      </trkpt>
      <trkpt lat="42.94304" lon="-2.02749999">
        <ele>732</ele>
        <time>2026-05-14T12:54:24+00:00</time>
      </trkpt>
      <trkpt lat="42.94357" lon="-2.02672">
        <ele>742</ele>
        <time>2026-05-14T12:54:25+00:00</time>
      </trkpt>
      <trkpt lat="42.94422999" lon="-2.02411999">
        <ele>783</ele>
        <time>2026-05-14T12:54:26+00:00</time>
      </trkpt>
      <trkpt lat="42.94480999" lon="-2.02594999">
        <ele>806</ele>
        <time>2026-05-14T12:54:27+00:00</time>
      </trkpt>
      <trkpt lat="42.94621" lon="-2.02917">
        <ele>858</ele>
        <time>2026-05-14T12:54:28+00:00</time>
      </trkpt>
      <trkpt lat="42.94624" lon="-2.02888">
        <ele>863</ele>
        <time>2026-05-14T12:54:29+00:00</time>
      </trkpt>
      <trkpt lat="42.94651" lon="-2.02902">
        <ele>872</ele>
        <time>2026-05-14T12:54:30+00:00</time>
      </trkpt>
      <trkpt lat="42.94657" lon="-2.02884999">
        <ele>876</ele>
        <time>2026-05-14T12:54:31+00:00</time>
      </trkpt>
      <trkpt lat="42.94677999" lon="-2.02888">
        <ele>880</ele>
        <time>2026-05-14T12:54:32+00:00</time>
      </trkpt>
      <trkpt lat="42.94698" lon="-2.0282">
        <ele>888</ele>
        <time>2026-05-14T12:54:33+00:00</time>
      </trkpt>
      <trkpt lat="42.94677999" lon="-2.02613">
        <ele>910</ele>
        <time>2026-05-14T12:54:34+00:00</time>
      </trkpt>
      <trkpt lat="42.94689999" lon="-2.02541999">
        <ele>920</ele>
        <time>2026-05-14T12:54:35+00:00</time>
      </trkpt>
      <trkpt lat="42.94657999" lon="-2.02430999">
        <ele>924</ele>
        <time>2026-05-14T12:54:36+00:00</time>
      </trkpt>
      <trkpt lat="42.94662" lon="-2.02393">
        <ele>930</ele>
        <time>2026-05-14T12:54:37+00:00</time>
      </trkpt>
      <trkpt lat="42.94695999" lon="-2.02367">
        <ele>939</ele>
        <time>2026-05-14T12:54:38+00:00</time>
      </trkpt>
      <trkpt lat="42.94711999" lon="-2.02303999">
        <ele>944</ele>
        <time>2026-05-14T12:54:39+00:00</time>
      </trkpt>
      <trkpt lat="42.94722" lon="-2.02056">
        <ele>949</ele>
        <time>2026-05-14T12:54:40+00:00</time>
      </trkpt>
      <trkpt lat="42.94765" lon="-2.01996">
        <ele>955</ele>
        <time>2026-05-14T12:54:41+00:00</time>
      </trkpt>
      <trkpt lat="42.94778999" lon="-2.01861999">
        <ele>962</ele>
        <time>2026-05-14T12:54:42+00:00</time>
      </trkpt>
      <trkpt lat="42.94866999" lon="-2.01695">
        <ele>982</ele>
        <time>2026-05-14T12:54:43+00:00</time>
      </trkpt>
      <trkpt lat="42.94879999" lon="-2.01642">
        <ele>984</ele>
        <time>2026-05-14T12:54:44+00:00</time>
      </trkpt>
      <trkpt lat="42.94993999" lon="-2.01459">
        <ele>1002</ele>
        <time>2026-05-14T12:54:45+00:00</time>
      </trkpt>
      <trkpt lat="42.95192999" lon="-2.01353999">
        <ele>1036</ele>
        <time>2026-05-14T12:54:46+00:00</time>
      </trkpt>
      <trkpt lat="42.95239999" lon="-2.01353999">
        <ele>1040</ele>
        <time>2026-05-14T12:54:47+00:00</time>
      </trkpt>
      <trkpt lat="42.95291" lon="-2.01379">
        <ele>1046</ele>
        <time>2026-05-14T12:54:48+00:00</time>
      </trkpt>
      <trkpt lat="42.95320999" lon="-2.01415999">
        <ele>1049</ele>
        <time>2026-05-14T12:54:49+00:00</time>
      </trkpt>
      <trkpt lat="42.95331999" lon="-2.01465">
        <ele>1051</ele>
        <time>2026-05-14T12:54:50+00:00</time>
      </trkpt>
      <trkpt lat="42.95356999" lon="-2.01474">
        <ele>1054</ele>
        <time>2026-05-14T12:54:51+00:00</time>
      </trkpt>
      <trkpt lat="42.95398" lon="-2.01306999">
        <ele>1055</ele>
        <time>2026-05-14T12:54:52+00:00</time>
      </trkpt>
      <trkpt lat="42.95488" lon="-2.01185999">
        <ele>1060</ele>
        <time>2026-05-14T12:54:53+00:00</time>
      </trkpt>
      <trkpt lat="42.9551" lon="-2.01182">
        <ele>1065</ele>
        <time>2026-05-14T12:54:54+00:00</time>
      </trkpt>
      <trkpt lat="42.95559999" lon="-2.01198999">
        <ele>1080</ele>
        <time>2026-05-14T12:54:55+00:00</time>
      </trkpt>
      <trkpt lat="42.95660999" lon="-2.01314999">
        <ele>1089</ele>
        <time>2026-05-14T12:54:56+00:00</time>
      </trkpt>
      <trkpt lat="42.95649" lon="-2.01617999">
        <ele>1093</ele>
        <time>2026-05-14T12:54:57+00:00</time>
      </trkpt>
      <trkpt lat="42.95671" lon="-2.01711">
        <ele>1094</ele>
        <time>2026-05-14T12:54:58+00:00</time>
      </trkpt>
      <trkpt lat="42.95779999" lon="-2.0179">
        <ele>1094</ele>
        <time>2026-05-14T12:54:59+00:00</time>
      </trkpt>
      <trkpt lat="42.95844999" lon="-2.01922999">
        <ele>1105</ele>
        <time>2026-05-14T12:55:00+00:00</time>
      </trkpt>
      <trkpt lat="42.95871999" lon="-2.02109">
        <ele>1110</ele>
        <time>2026-05-14T12:55:01+00:00</time>
      </trkpt>
      <trkpt lat="42.95866" lon="-2.02278">
        <ele>1103</ele>
        <time>2026-05-14T12:55:02+00:00</time>
      </trkpt>
      <trkpt lat="42.95882" lon="-2.02339">
        <ele>1100</ele>
        <time>2026-05-14T12:55:03+00:00</time>
      </trkpt>
      <trkpt lat="42.95900999" lon="-2.02350999">
        <ele>1101</ele>
        <time>2026-05-14T12:55:04+00:00</time>
      </trkpt>
      <trkpt lat="42.96011" lon="-2.0234">
        <ele>1103</ele>
        <time>2026-05-14T12:55:05+00:00</time>
      </trkpt>
      <trkpt lat="42.96135999" lon="-2.02403">
        <ele>1102</ele>
        <time>2026-05-14T12:55:06+00:00</time>
      </trkpt>
      <trkpt lat="42.96222" lon="-2.02364999">
        <ele>1110</ele>
        <time>2026-05-14T12:55:07+00:00</time>
      </trkpt>
      <trkpt lat="42.96256" lon="-2.02367">
        <ele>1115</ele>
        <time>2026-05-14T12:55:08+00:00</time>
      </trkpt>
      <trkpt lat="42.96332999" lon="-2.0247">
        <ele>1127</ele>
        <time>2026-05-14T12:55:09+00:00</time>
      </trkpt>
      <trkpt lat="42.96376999" lon="-2.02488">
        <ele>1130</ele>
        <time>2026-05-14T12:55:10+00:00</time>
      </trkpt>
      <trkpt lat="42.96412999" lon="-2.02532999">
        <ele>1131</ele>
        <time>2026-05-14T12:55:11+00:00</time>
      </trkpt>
      <trkpt lat="42.96419999" lon="-2.02659">
        <ele>1139</ele>
        <time>2026-05-14T12:55:12+00:00</time>
      </trkpt>
      <trkpt lat="42.9645" lon="-2.02721">
        <ele>1143</ele>
        <time>2026-05-14T12:55:13+00:00</time>
      </trkpt>
      <trkpt lat="42.96594999" lon="-2.02747">
        <ele>1146</ele>
        <time>2026-05-14T12:55:14+00:00</time>
      </trkpt>
      <trkpt lat="42.96629" lon="-2.02719">
        <ele>1144</ele>
        <time>2026-05-14T12:55:15+00:00</time>
      </trkpt>
      <trkpt lat="42.96690999" lon="-2.02604">
        <ele>1145</ele>
        <time>2026-05-14T12:55:16+00:00</time>
      </trkpt>
      <trkpt lat="42.96717999" lon="-2.02599">
        <ele>1149</ele>
        <time>2026-05-14T12:55:17+00:00</time>
      </trkpt>
      <trkpt lat="42.96748" lon="-2.02626999">
        <ele>1156</ele>
        <time>2026-05-14T12:55:18+00:00</time>
      </trkpt>
      <trkpt lat="42.96746999" lon="-2.02531">
        <ele>1160</ele>
        <time>2026-05-14T12:55:19+00:00</time>
      </trkpt>
      <trkpt lat="42.96781" lon="-2.02504">
        <ele>1157</ele>
        <time>2026-05-14T12:55:20+00:00</time>
      </trkpt>
      <trkpt lat="42.96878999" lon="-2.02349999">
        <ele>1170</ele>
        <time>2026-05-14T12:55:21+00:00</time>
      </trkpt>
      <trkpt lat="42.96943999" lon="-2.02314999">
        <ele>1169</ele>
        <time>2026-05-14T12:55:22+00:00</time>
      </trkpt>
      <trkpt lat="42.96997" lon="-2.02317999">
        <ele>1164</ele>
        <time>2026-05-14T12:55:23+00:00</time>
      </trkpt>
      <trkpt lat="42.9705" lon="-2.02346">
        <ele>1158</ele>
        <time>2026-05-14T12:55:24+00:00</time>
      </trkpt>
      <trkpt lat="42.97142" lon="-2.02464">
        <ele>1161</ele>
        <time>2026-05-14T12:55:25+00:00</time>
      </trkpt>
      <trkpt lat="42.97180999" lon="-2.02478999">
        <ele>1167</ele>
        <time>2026-05-14T12:55:26+00:00</time>
      </trkpt>
      <trkpt lat="42.97285999" lon="-2.02484999">
        <ele>1167</ele>
        <time>2026-05-14T12:55:27+00:00</time>
      </trkpt>
      <trkpt lat="42.97334" lon="-2.02431999">
        <ele>1164</ele>
        <time>2026-05-14T12:55:28+00:00</time>
      </trkpt>
      <trkpt lat="42.97402" lon="-2.02416">
        <ele>1176</ele>
        <time>2026-05-14T12:55:29+00:00</time>
      </trkpt>
      <trkpt lat="42.97429" lon="-2.02428">
        <ele>1182</ele>
        <time>2026-05-14T12:55:30+00:00</time>
      </trkpt>
      <trkpt lat="42.97462" lon="-2.02402">
        <ele>1188</ele>
        <time>2026-05-14T12:55:31+00:00</time>
      </trkpt>
      <trkpt lat="42.97480999" lon="-2.02428">
        <ele>1191</ele>
        <time>2026-05-14T12:55:32+00:00</time>
      </trkpt>
      <trkpt lat="42.97482999" lon="-2.02415">
        <ele>1192</ele>
        <time>2026-05-14T12:55:33+00:00</time>
      </trkpt>
      <trkpt lat="42.97522" lon="-2.02409999">
        <ele>1197</ele>
        <time>2026-05-14T12:55:34+00:00</time>
      </trkpt>
      <trkpt lat="42.97545999" lon="-2.02485999">
        <ele>1193</ele>
        <time>2026-05-14T12:55:35+00:00</time>
      </trkpt>
      <trkpt lat="42.97626999" lon="-2.02520999">
        <ele>1196</ele>
        <time>2026-05-14T12:55:36+00:00</time>
      </trkpt>
      <trkpt lat="42.97648" lon="-2.02554999">
        <ele>1196</ele>
        <time>2026-05-14T12:55:37+00:00</time>
      </trkpt>
      <trkpt lat="42.97702" lon="-2.02581999">
        <ele>1199</ele>
        <time>2026-05-14T12:55:38+00:00</time>
      </trkpt>
      <trkpt lat="42.97749" lon="-2.02675999">
        <ele>1210</ele>
        <time>2026-05-14T12:55:39+00:00</time>
      </trkpt>
      <trkpt lat="42.97778" lon="-2.02687999">
        <ele>1213</ele>
        <time>2026-05-14T12:55:40+00:00</time>
      </trkpt>
      <trkpt lat="42.97816" lon="-2.02735999">
        <ele>1214</ele>
        <time>2026-05-14T12:55:41+00:00</time>
      </trkpt>
      <trkpt lat="42.97905" lon="-2.02726">
        <ele>1219</ele>
        <time>2026-05-14T12:55:42+00:00</time>
      </trkpt>
      <trkpt lat="42.9814" lon="-2.02884999">
        <ele>1230</ele>
        <time>2026-05-14T12:55:43+00:00</time>
      </trkpt>
      <trkpt lat="42.98208999" lon="-2.02851999">
        <ele>1222</ele>
        <time>2026-05-14T12:55:44+00:00</time>
      </trkpt>
      <trkpt lat="42.98378999" lon="-2.02828">
        <ele>1206</ele>
        <time>2026-05-14T12:55:45+00:00</time>
      </trkpt>
      <trkpt lat="42.9857" lon="-2.02856">
        <ele>1212</ele>
        <time>2026-05-14T12:55:46+00:00</time>
      </trkpt>
      <trkpt lat="42.98604" lon="-2.02837999">
        <ele>1216</ele>
        <time>2026-05-14T12:55:47+00:00</time>
      </trkpt>
      <trkpt lat="42.98682" lon="-2.02862">
        <ele>1225</ele>
        <time>2026-05-14T12:55:48+00:00</time>
      </trkpt>
      <trkpt lat="42.98734999" lon="-2.02951">
        <ele>1227</ele>
        <time>2026-05-14T12:55:49+00:00</time>
      </trkpt>
      <trkpt lat="42.98814" lon="-2.03156999">
        <ele>1248</ele>
        <time>2026-05-14T12:55:50+00:00</time>
      </trkpt>
      <trkpt lat="42.99007999" lon="-2.03185999">
        <ele>1259</ele>
        <time>2026-05-14T12:55:51+00:00</time>
      </trkpt>
      <trkpt lat="42.99092999" lon="-2.03129999">
        <ele>1268</ele>
        <time>2026-05-14T12:55:52+00:00</time>
      </trkpt>
      <trkpt lat="42.99170999" lon="-2.03122999">
        <ele>1279</ele>
        <time>2026-05-14T12:55:53+00:00</time>
      </trkpt>
      <trkpt lat="42.99231999" lon="-2.03062999">
        <ele>1284</ele>
        <time>2026-05-14T12:55:54+00:00</time>
      </trkpt>
      <trkpt lat="42.99273" lon="-2.03059">
        <ele>1290</ele>
        <time>2026-05-14T12:55:55+00:00</time>
      </trkpt>
      <trkpt lat="42.99313999" lon="-2.03082999">
        <ele>1297</ele>
        <time>2026-05-14T12:55:56+00:00</time>
      </trkpt>
      <trkpt lat="42.99428999" lon="-2.03017">
        <ele>1311</ele>
        <time>2026-05-14T12:55:57+00:00</time>
      </trkpt>
      <trkpt lat="42.99470999" lon="-2.03074999">
        <ele>1319</ele>
        <time>2026-05-14T12:55:58+00:00</time>
      </trkpt>
      <trkpt lat="42.99558999" lon="-2.03074999">
        <ele>1323</ele>
        <time>2026-05-14T12:55:59+00:00</time>
      </trkpt>
      <trkpt lat="42.99656" lon="-2.03162999">
        <ele>1341</ele>
        <time>2026-05-14T12:56:00+00:00</time>
      </trkpt>
      <trkpt lat="42.99689" lon="-2.03154">
        <ele>1346</ele>
        <time>2026-05-14T12:56:01+00:00</time>
      </trkpt>
      <trkpt lat="42.99748" lon="-2.03093">
        <ele>1360</ele>
        <time>2026-05-14T12:56:02+00:00</time>
      </trkpt>
      <trkpt lat="42.99806" lon="-2.02968999">
        <ele>1368</ele>
        <time>2026-05-14T12:56:03+00:00</time>
      </trkpt>
      <trkpt lat="42.99864" lon="-2.02927999">
        <ele>1380</ele>
        <time>2026-05-14T12:56:04+00:00</time>
      </trkpt>
      <trkpt lat="42.99916999" lon="-2.02787">
        <ele>1398</ele>
        <time>2026-05-14T12:56:05+00:00</time>
      </trkpt>
      <trkpt lat="42.99945" lon="-2.02755999">
        <ele>1399</ele>
        <time>2026-05-14T12:56:06+00:00</time>
      </trkpt>
      <trkpt lat="43.00012999" lon="-2.02604">
        <ele>1410</ele>
        <time>2026-05-14T12:56:07+00:00</time>
      </trkpt>
      <trkpt lat="43.00005999" lon="-2.02578">
        <ele>1411</ele>
        <time>2026-05-14T12:56:08+00:00</time>
      </trkpt>
      <trkpt lat="42.99960999" lon="-2.02561999">
        <ele>1400</ele>
        <time>2026-05-14T12:56:09+00:00</time>
      </trkpt>
      <trkpt lat="42.99931" lon="-2.02454">
        <ele>1384</ele>
        <time>2026-05-14T12:56:10+00:00</time>
      </trkpt>
      <trkpt lat="42.99810999" lon="-2.02307">
        <ele>1382</ele>
        <time>2026-05-14T12:56:11+00:00</time>
      </trkpt>
      <trkpt lat="42.9979" lon="-2.02229999">
        <ele>1380</ele>
        <time>2026-05-14T12:56:12+00:00</time>
      </trkpt>
      <trkpt lat="42.99736999" lon="-2.02218">
        <ele>1369</ele>
        <time>2026-05-14T12:56:13+00:00</time>
      </trkpt>
      <trkpt lat="42.99705999" lon="-2.02232">
        <ele>1358</ele>
        <time>2026-05-14T12:56:14+00:00</time>
      </trkpt>
      <trkpt lat="42.99676999" lon="-2.02164">
        <ele>1352</ele>
        <time>2026-05-14T12:56:15+00:00</time>
      </trkpt>
      <trkpt lat="42.99662" lon="-2.02032999">
        <ele>1353</ele>
        <time>2026-05-14T12:56:16+00:00</time>
      </trkpt>
      <trkpt lat="42.99589999" lon="-2.01974">
        <ele>1340</ele>
        <time>2026-05-14T12:56:17+00:00</time>
      </trkpt>
      <trkpt lat="42.9953" lon="-2.01966">
        <ele>1328</ele>
        <time>2026-05-14T12:56:18+00:00</time>
      </trkpt>
      <trkpt lat="42.99513999" lon="-2.01942999">
        <ele>1324</ele>
        <time>2026-05-14T12:56:19+00:00</time>
      </trkpt>
      <trkpt lat="42.99499999" lon="-2.01969999">
        <ele>1322</ele>
        <time>2026-05-14T12:56:20+00:00</time>
      </trkpt>
      <trkpt lat="42.99475" lon="-2.01978999">
        <ele>1318</ele>
        <time>2026-05-14T12:56:21+00:00</time>
      </trkpt>
      <trkpt lat="42.99401999" lon="-2.01726999">
        <ele>1296</ele>
        <time>2026-05-14T12:56:22+00:00</time>
      </trkpt>
      <trkpt lat="42.99246" lon="-2.01702">
        <ele>1271</ele>
        <time>2026-05-14T12:56:23+00:00</time>
      </trkpt>
      <trkpt lat="42.99127" lon="-2.01571999">
        <ele>1238</ele>
        <time>2026-05-14T12:56:24+00:00</time>
      </trkpt>
      <trkpt lat="42.98951" lon="-2.01424">
        <ele>1215</ele>
        <time>2026-05-14T12:56:25+00:00</time>
      </trkpt>
      <trkpt lat="42.98836" lon="-2.01359">
        <ele>1207</ele>
        <time>2026-05-14T12:56:26+00:00</time>
      </trkpt>
      <trkpt lat="42.98767999" lon="-2.0135">
        <ele>1201</ele>
        <time>2026-05-14T12:56:27+00:00</time>
      </trkpt>
      <trkpt lat="42.987" lon="-2.01305999">
        <ele>1195</ele>
        <time>2026-05-14T12:56:28+00:00</time>
      </trkpt>
      <trkpt lat="42.98653999" lon="-2.01249">
        <ele>1192</ele>
        <time>2026-05-14T12:56:29+00:00</time>
      </trkpt>
      <trkpt lat="42.98597999" lon="-2.01230999">
        <ele>1190</ele>
        <time>2026-05-14T12:56:30+00:00</time>
      </trkpt>
      <trkpt lat="42.98479999" lon="-2.01151999">
        <ele>1186</ele>
        <time>2026-05-14T12:56:31+00:00</time>
      </trkpt>
      <trkpt lat="42.98364999" lon="-2.01116999">
        <ele>1194</ele>
        <time>2026-05-14T12:56:32+00:00</time>
      </trkpt>
      <trkpt lat="42.98156" lon="-2.01147">
        <ele>1196</ele>
        <time>2026-05-14T12:56:33+00:00</time>
      </trkpt>
      <trkpt lat="42.98085999" lon="-2.01142">
        <ele>1197</ele>
        <time>2026-05-14T12:56:34+00:00</time>
      </trkpt>
      <trkpt lat="42.9793" lon="-2.01045">
        <ele>1224</ele>
        <time>2026-05-14T12:56:35+00:00</time>
      </trkpt>
      <trkpt lat="42.97845" lon="-2.00947999">
        <ele>1255</ele>
        <time>2026-05-14T12:56:36+00:00</time>
      </trkpt>
      <trkpt lat="42.97760999" lon="-2.00709999">
        <ele>1250</ele>
        <time>2026-05-14T12:56:37+00:00</time>
      </trkpt>
      <trkpt lat="42.97766" lon="-2.00674">
        <ele>1245</ele>
        <time>2026-05-14T12:56:38+00:00</time>
      </trkpt>
      <trkpt lat="42.97719" lon="-2.00517">
        <ele>1223</ele>
        <time>2026-05-14T12:56:39+00:00</time>
      </trkpt>
      <trkpt lat="42.97735" lon="-2.00415">
        <ele>1218</ele>
        <time>2026-05-14T12:56:40+00:00</time>
      </trkpt>
      <trkpt lat="42.97789" lon="-2.00265">
        <ele>1206</ele>
        <time>2026-05-14T12:56:41+00:00</time>
      </trkpt>
      <trkpt lat="42.97892999" lon="-2.00114999">
        <ele>1192</ele>
        <time>2026-05-14T12:56:42+00:00</time>
      </trkpt>
      <trkpt lat="42.97869" lon="-2.00085999">
        <ele>1189</ele>
        <time>2026-05-14T12:56:43+00:00</time>
      </trkpt>
      <trkpt lat="42.97829" lon="-2.00071999">
        <ele>1184</ele>
        <time>2026-05-14T12:56:44+00:00</time>
      </trkpt>
      <trkpt lat="42.97776" lon="-1.99973">
        <ele>1167</ele>
        <time>2026-05-14T12:56:45+00:00</time>
      </trkpt>
      <trkpt lat="42.97675999" lon="-1.99919">
        <ele>1148</ele>
        <time>2026-05-14T12:56:46+00:00</time>
      </trkpt>
      <trkpt lat="42.97578" lon="-1.99921999">
        <ele>1147</ele>
        <time>2026-05-14T12:56:47+00:00</time>
      </trkpt>
      <trkpt lat="42.97536" lon="-1.99903">
        <ele>1146</ele>
        <time>2026-05-14T12:56:48+00:00</time>
      </trkpt>
      <trkpt lat="42.97451999" lon="-1.99977999">
        <ele>1146</ele>
        <time>2026-05-14T12:56:49+00:00</time>
      </trkpt>
      <trkpt lat="42.97408999" lon="-2.00104">
        <ele>1138</ele>
        <time>2026-05-14T12:56:50+00:00</time>
      </trkpt>
      <trkpt lat="42.97377999" lon="-2.00123">
        <ele>1135</ele>
        <time>2026-05-14T12:56:51+00:00</time>
      </trkpt>
      <trkpt lat="42.97344999" lon="-2.00052999">
        <ele>1127</ele>
        <time>2026-05-14T12:56:52+00:00</time>
      </trkpt>
      <trkpt lat="42.9727" lon="-1.99991999">
        <ele>1113</ele>
        <time>2026-05-14T12:56:53+00:00</time>
      </trkpt>
      <trkpt lat="42.97265" lon="-1.99940999">
        <ele>1116</ele>
        <time>2026-05-14T12:56:54+00:00</time>
      </trkpt>
      <trkpt lat="42.97231" lon="-1.9992">
        <ele>1110</ele>
        <time>2026-05-14T12:56:55+00:00</time>
      </trkpt>
      <trkpt lat="42.97211" lon="-1.99883999">
        <ele>1111</ele>
        <time>2026-05-14T12:56:56+00:00</time>
      </trkpt>
      <trkpt lat="42.97048" lon="-1.99856999">
        <ele>1085</ele>
        <time>2026-05-14T12:56:57+00:00</time>
      </trkpt>
      <trkpt lat="42.96889999" lon="-2.00046999">
        <ele>1054</ele>
        <time>2026-05-14T12:56:58+00:00</time>
      </trkpt>
      <trkpt lat="42.96779999" lon="-1.99954999">
        <ele>1025</ele>
        <time>2026-05-14T12:56:59+00:00</time>
      </trkpt>
      <trkpt lat="42.96724999" lon="-1.99940999">
        <ele>1018</ele>
        <time>2026-05-14T12:57:00+00:00</time>
      </trkpt>
      <trkpt lat="42.96681999" lon="-2.00111">
        <ele>1012</ele>
        <time>2026-05-14T12:57:01+00:00</time>
      </trkpt>
      <trkpt lat="42.96574999" lon="-2.00215999">
        <ele>1001</ele>
        <time>2026-05-14T12:57:02+00:00</time>
      </trkpt>
      <trkpt lat="42.9656" lon="-2.00205">
        <ele>1000</ele>
        <time>2026-05-14T12:57:03+00:00</time>
      </trkpt>
      <trkpt lat="42.96555" lon="-2.00121999">
        <ele>998</ele>
        <time>2026-05-14T12:57:04+00:00</time>
      </trkpt>
      <trkpt lat="42.96526" lon="-2.00064999">
        <ele>997</ele>
        <time>2026-05-14T12:57:05+00:00</time>
      </trkpt>
      <trkpt lat="42.96502" lon="-2.00057">
        <ele>995</ele>
        <time>2026-05-14T12:57:06+00:00</time>
      </trkpt>
      <trkpt lat="42.96468" lon="-2.00075">
        <ele>999</ele>
        <time>2026-05-14T12:57:07+00:00</time>
      </trkpt>
      <trkpt lat="42.96412999" lon="-2.00022">
        <ele>1003</ele>
        <time>2026-05-14T12:57:08+00:00</time>
      </trkpt>
      <trkpt lat="42.96405" lon="-2.00016999">
        <ele>1003</ele>
        <time>2026-05-14T12:57:09+00:00</time>
      </trkpt>
      <trkpt lat="42.96359999" lon="-2.00039999">
        <ele>1007</ele>
        <time>2026-05-14T12:57:10+00:00</time>
      </trkpt>
      <trkpt lat="42.96316999" lon="-2.00044">
        <ele>1009</ele>
        <time>2026-05-14T12:57:11+00:00</time>
      </trkpt>
      <trkpt lat="42.96294" lon="-2.00035">
        <ele>1010</ele>
        <time>2026-05-14T12:57:12+00:00</time>
      </trkpt>
      <trkpt lat="42.96256999" lon="-2.00026999">
        <ele>1011</ele>
        <time>2026-05-14T12:57:13+00:00</time>
      </trkpt>
      <trkpt lat="42.96240999" lon="-2.00035">
        <ele>1011</ele>
        <time>2026-05-14T12:57:14+00:00</time>
      </trkpt>
      <trkpt lat="42.96220999" lon="-2.00035">
        <ele>1010</ele>
        <time>2026-05-14T12:57:15+00:00</time>
      </trkpt>
      <trkpt lat="42.96184999" lon="-2.00048">
        <ele>1009</ele>
        <time>2026-05-14T12:57:16+00:00</time>
      </trkpt>
      <trkpt lat="42.96152" lon="-2.00053999">
        <ele>1009</ele>
        <time>2026-05-14T12:57:17+00:00</time>
      </trkpt>
      <trkpt lat="42.96105" lon="-2.00046999">
        <ele>1015</ele>
        <time>2026-05-14T12:57:18+00:00</time>
      </trkpt>
      <trkpt lat="42.96076" lon="-2.00044999">
        <ele>1019</ele>
        <time>2026-05-14T12:57:19+00:00</time>
      </trkpt>
      <trkpt lat="42.96038" lon="-2.00065999">
        <ele>1023</ele>
        <time>2026-05-14T12:57:20+00:00</time>
      </trkpt>
      <trkpt lat="42.96023" lon="-2.00077999">
        <ele>1025</ele>
        <time>2026-05-14T12:57:21+00:00</time>
      </trkpt>
      <trkpt lat="42.95985" lon="-2.00089">
        <ele>1028</ele>
        <time>2026-05-14T12:57:22+00:00</time>
      </trkpt>
      <trkpt lat="42.95931" lon="-2.00099999">
        <ele>1031</ele>
        <time>2026-05-14T12:57:23+00:00</time>
      </trkpt>
      <trkpt lat="42.95908" lon="-2.00095">
        <ele>1032</ele>
        <time>2026-05-14T12:57:24+00:00</time>
      </trkpt>
      <trkpt lat="42.95893" lon="-2.00089">
        <ele>1034</ele>
        <time>2026-05-14T12:57:25+00:00</time>
      </trkpt>
      <trkpt lat="42.95879" lon="-2.00092999">
        <ele>1035</ele>
        <time>2026-05-14T12:57:26+00:00</time>
      </trkpt>
      <trkpt lat="42.9587" lon="-2.00109">
        <ele>1037</ele>
        <time>2026-05-14T12:57:27+00:00</time>
      </trkpt>
      <trkpt lat="42.9587" lon="-2.00132999">
        <ele>1039</ele>
        <time>2026-05-14T12:57:28+00:00</time>
      </trkpt>
      <trkpt lat="42.95862" lon="-2.00159999">
        <ele>1042</ele>
        <time>2026-05-14T12:57:29+00:00</time>
      </trkpt>
      <trkpt lat="42.95841" lon="-2.00191">
        <ele>1048</ele>
        <time>2026-05-14T12:57:30+00:00</time>
      </trkpt>
      <trkpt lat="42.95828" lon="-2.00199999">
        <ele>1050</ele>
        <time>2026-05-14T12:57:31+00:00</time>
      </trkpt>
      <trkpt lat="42.95806999" lon="-2.00200999">
        <ele>1048</ele>
        <time>2026-05-14T12:57:32+00:00</time>
      </trkpt>
      <trkpt lat="42.95772999" lon="-2.00188999">
        <ele>1044</ele>
        <time>2026-05-14T12:57:33+00:00</time>
      </trkpt>
      <trkpt lat="42.95743" lon="-2.00188999">
        <ele>1043</ele>
        <time>2026-05-14T12:57:34+00:00</time>
      </trkpt>
      <trkpt lat="42.95723" lon="-2.00199">
        <ele>1045</ele>
        <time>2026-05-14T12:57:35+00:00</time>
      </trkpt>
      <trkpt lat="42.95694999" lon="-2.00207999">
        <ele>1048</ele>
        <time>2026-05-14T12:57:36+00:00</time>
      </trkpt>
      <trkpt lat="42.95665" lon="-2.00201999">
        <ele>1050</ele>
        <time>2026-05-14T12:57:37+00:00</time>
      </trkpt>
      <trkpt lat="42.95647999" lon="-2.00198">
        <ele>1052</ele>
        <time>2026-05-14T12:57:38+00:00</time>
      </trkpt>
      <trkpt lat="42.95635999" lon="-2.00197">
        <ele>1053</ele>
        <time>2026-05-14T12:57:39+00:00</time>
      </trkpt>
      <trkpt lat="42.95611999" lon="-2.00195999">
        <ele>1056</ele>
        <time>2026-05-14T12:57:40+00:00</time>
      </trkpt>
      <trkpt lat="42.95591999" lon="-2.00215999">
        <ele>1059</ele>
        <time>2026-05-14T12:57:41+00:00</time>
      </trkpt>
      <trkpt lat="42.95575999" lon="-2.00220999">
        <ele>1059</ele>
        <time>2026-05-14T12:57:42+00:00</time>
      </trkpt>
      <trkpt lat="42.95555" lon="-2.00213">
        <ele>1057</ele>
        <time>2026-05-14T12:57:43+00:00</time>
      </trkpt>
      <trkpt lat="42.95548999" lon="-2.00206999">
        <ele>1057</ele>
        <time>2026-05-14T12:57:44+00:00</time>
      </trkpt>
      <trkpt lat="42.95441999" lon="-2.00281999">
        <ele>1037</ele>
        <time>2026-05-14T12:57:45+00:00</time>
      </trkpt>
      <trkpt lat="42.95385" lon="-2.00374">
        <ele>1024</ele>
        <time>2026-05-14T12:57:46+00:00</time>
      </trkpt>
      <trkpt lat="42.95349999" lon="-2.00385999">
        <ele>1018</ele>
        <time>2026-05-14T12:57:47+00:00</time>
      </trkpt>
      <trkpt lat="42.95253" lon="-2.00484">
        <ele>1010</ele>
        <time>2026-05-14T12:57:48+00:00</time>
      </trkpt>
      <trkpt lat="42.9517" lon="-2.0049">
        <ele>997</ele>
        <time>2026-05-14T12:57:49+00:00</time>
      </trkpt>
      <trkpt lat="42.95062999" lon="-2.00585">
        <ele>985</ele>
        <time>2026-05-14T12:57:50+00:00</time>
      </trkpt>
      <trkpt lat="42.95018999" lon="-2.00580999">
        <ele>977</ele>
        <time>2026-05-14T12:57:51+00:00</time>
      </trkpt>
      <trkpt lat="42.94944999" lon="-2.00631">
        <ele>965</ele>
        <time>2026-05-14T12:57:52+00:00</time>
      </trkpt>
      <trkpt lat="42.94885" lon="-2.00583">
        <ele>950</ele>
        <time>2026-05-14T12:57:53+00:00</time>
      </trkpt>
      <trkpt lat="42.94874999" lon="-2.0049">
        <ele>939</ele>
        <time>2026-05-14T12:57:54+00:00</time>
      </trkpt>
      <trkpt lat="42.94856999" lon="-2.00466999">
        <ele>935</ele>
        <time>2026-05-14T12:57:55+00:00</time>
      </trkpt>
      <trkpt lat="42.94798999" lon="-2.0057">
        <ele>924</ele>
        <time>2026-05-14T12:57:56+00:00</time>
      </trkpt>
      <trkpt lat="42.94738999" lon="-2.00615999">
        <ele>906</ele>
        <time>2026-05-14T12:57:57+00:00</time>
      </trkpt>
      <trkpt lat="42.94688" lon="-2.00617">
        <ele>892</ele>
        <time>2026-05-14T12:57:58+00:00</time>
      </trkpt>
      <trkpt lat="42.94630999" lon="-2.00694999">
        <ele>881</ele>
        <time>2026-05-14T12:57:59+00:00</time>
      </trkpt>
      <trkpt lat="42.94575999" lon="-2.00727">
        <ele>870</ele>
        <time>2026-05-14T12:58:00+00:00</time>
      </trkpt>
      <trkpt lat="42.94532999" lon="-2.00624">
        <ele>846</ele>
        <time>2026-05-14T12:58:01+00:00</time>
      </trkpt>
      <trkpt lat="42.94471999" lon="-2.0074">
        <ele>832</ele>
        <time>2026-05-14T12:58:02+00:00</time>
      </trkpt>
      <trkpt lat="42.94458" lon="-2.00911999">
        <ele>840</ele>
        <time>2026-05-14T12:58:03+00:00</time>
      </trkpt>
      <trkpt lat="42.94395999" lon="-2.01002999">
        <ele>826</ele>
        <time>2026-05-14T12:58:04+00:00</time>
      </trkpt>
      <trkpt lat="42.94333999" lon="-2.01013999">
        <ele>817</ele>
        <time>2026-05-14T12:58:05+00:00</time>
      </trkpt>
      <trkpt lat="42.94319" lon="-2.01143999">
        <ele>798</ele>
        <time>2026-05-14T12:58:06+00:00</time>
      </trkpt>
      <trkpt lat="42.94292999" lon="-2.01122999">
        <ele>788</ele>
        <time>2026-05-14T12:58:07+00:00</time>
      </trkpt>
      <trkpt lat="42.94306" lon="-2.01237999">
        <ele>774</ele>
        <time>2026-05-14T12:58:08+00:00</time>
      </trkpt>
      <trkpt lat="42.94292999" lon="-2.01252999">
        <ele>762</ele>
        <time>2026-05-14T12:58:09+00:00</time>
      </trkpt>
      <trkpt lat="42.94297999" lon="-2.01314999">
        <ele>763</ele>
        <time>2026-05-14T12:58:10+00:00</time>
      </trkpt>
      <trkpt lat="42.94232999" lon="-2.0156">
        <ele>712</ele>
        <time>2026-05-14T12:58:11+00:00</time>
      </trkpt>
      <trkpt lat="42.94236999" lon="-2.01805">
        <ele>684</ele>
        <time>2026-05-14T12:58:12+00:00</time>
      </trkpt>
      <trkpt lat="42.94214" lon="-2.01833">
        <ele>671</ele>
        <time>2026-05-14T12:58:13+00:00</time>
      </trkpt>
      <trkpt lat="42.94048999" lon="-2.01922999">
        <ele>619</ele>
        <time>2026-05-14T12:58:14+00:00</time>
      </trkpt>
      <trkpt lat="42.94017" lon="-2.02018999">
        <ele>609</ele>
        <time>2026-05-14T12:58:15+00:00</time>
      </trkpt>
      <trkpt lat="42.93968" lon="-2.02025999">
        <ele>597</ele>
        <time>2026-05-14T12:58:16+00:00</time>
      </trkpt>
      <trkpt lat="42.93833" lon="-2.02116">
        <ele>579</ele>
        <time>2026-05-14T12:58:17+00:00</time>
      </trkpt>
      <trkpt lat="42.93802" lon="-2.02086999">
        <ele>569</ele>
        <time>2026-05-14T12:58:18+00:00</time>
      </trkpt>
      <trkpt lat="42.93789" lon="-2.02163">
        <ele>569</ele>
        <time>2026-05-14T12:58:19+00:00</time>
      </trkpt>
      <trkpt lat="42.93722999" lon="-2.02258">
        <ele>557</ele>
        <time>2026-05-14T12:58:20+00:00</time>
      </trkpt>
      <trkpt lat="42.93657999" lon="-2.02258">
        <ele>547</ele>
        <time>2026-05-14T12:58:21+00:00</time>
      </trkpt>
      <trkpt lat="42.93578999" lon="-2.02296999">
        <ele>544</ele>
        <time>2026-05-14T12:58:22+00:00</time>
      </trkpt>
      <trkpt lat="42.93563999" lon="-2.02464">
        <ele>536</ele>
        <time>2026-05-14T12:58:23+00:00</time>
      </trkpt>
      <trkpt lat="42.93502999" lon="-2.02672">
        <ele>518</ele>
        <time>2026-05-14T12:58:24+00:00</time>
      </trkpt>
      <trkpt lat="42.93482" lon="-2.02694999">
        <ele>515</ele>
        <time>2026-05-14T12:58:25+00:00</time>
      </trkpt>
      <trkpt lat="42.93464" lon="-2.02673">
        <ele>518</ele>
        <time>2026-05-14T12:58:26+00:00</time>
      </trkpt>
      <trkpt lat="42.93395999" lon="-2.02751999">
        <ele>505</ele>
        <time>2026-05-14T12:58:27+00:00</time>
      </trkpt>
    </trkseg>
  </trk>
</gpx>
