<?xml version="1.0" encoding="UTF-8"?>
<gpx xmlns="http://www.topografix.com/GPX/1/1" xmlns:xsi="http://www.w3.org/2001/XMLSchema-instance" version="1.1" creator="phpGPX/1.3.0" xsi:schemaLocation="http://www.topografix.com/GPX/1/1 http://www.topografix.com/GPX/1/1/gpx.xsd">
  <metadata>
    <time>2026-05-11T18:20:04+00:00</time>
  </metadata>
  <trk>
    <name>Les collines de la Drôme</name>
    <trkseg>
      <trkpt lat="45.18415" lon="4.85886">
        <ele>175</ele>
        <time>2026-05-11T18:20:05+00:00</time>
      </trkpt>
      <trkpt lat="45.18407" lon="4.85873">
        <ele>175</ele>
        <time>2026-05-11T18:20:06+00:00</time>
      </trkpt>
      <trkpt lat="45.1839" lon="4.85852">
        <ele>175</ele>
        <time>2026-05-11T18:20:07+00:00</time>
      </trkpt>
      <trkpt lat="45.18386" lon="4.85841">
        <ele>175</ele>
        <time>2026-05-11T18:20:08+00:00</time>
      </trkpt>
      <trkpt lat="45.18376" lon="4.85776">
        <ele>174</ele>
        <time>2026-05-11T18:20:09+00:00</time>
      </trkpt>
      <trkpt lat="45.18372" lon="4.85761">
        <ele>174</ele>
        <time>2026-05-11T18:20:10+00:00</time>
      </trkpt>
      <trkpt lat="45.18373" lon="4.85747">
        <ele>173</ele>
        <time>2026-05-11T18:20:11+00:00</time>
      </trkpt>
      <trkpt lat="45.18372" lon="4.85721">
        <ele>174</ele>
        <time>2026-05-11T18:20:12+00:00</time>
      </trkpt>
      <trkpt lat="45.18359" lon="4.85673">
        <ele>174</ele>
        <time>2026-05-11T18:20:13+00:00</time>
      </trkpt>
      <trkpt lat="45.1836" lon="4.8565">
        <ele>174</ele>
        <time>2026-05-11T18:20:14+00:00</time>
      </trkpt>
      <trkpt lat="45.18358" lon="4.85636">
        <ele>174</ele>
        <time>2026-05-11T18:20:15+00:00</time>
      </trkpt>
      <trkpt lat="45.18357" lon="4.85632">
        <ele>174</ele>
        <time>2026-05-11T18:20:16+00:00</time>
      </trkpt>
      <trkpt lat="45.18349" lon="4.85621">
        <ele>174</ele>
        <time>2026-05-11T18:20:17+00:00</time>
      </trkpt>
      <trkpt lat="45.18348" lon="4.85593">
        <ele>174</ele>
        <time>2026-05-11T18:20:18+00:00</time>
      </trkpt>
      <trkpt lat="45.18343" lon="4.8558">
        <ele>174</ele>
        <time>2026-05-11T18:20:19+00:00</time>
      </trkpt>
      <trkpt lat="45.18336" lon="4.8557">
        <ele>173</ele>
        <time>2026-05-11T18:20:20+00:00</time>
      </trkpt>
      <trkpt lat="45.18327" lon="4.85564">
        <ele>173</ele>
        <time>2026-05-11T18:20:21+00:00</time>
      </trkpt>
      <trkpt lat="45.18312" lon="4.85543">
        <ele>173</ele>
        <time>2026-05-11T18:20:22+00:00</time>
      </trkpt>
      <trkpt lat="45.18294" lon="4.85531">
        <ele>172</ele>
        <time>2026-05-11T18:20:23+00:00</time>
      </trkpt>
      <trkpt lat="45.18284" lon="4.85518">
        <ele>172</ele>
        <time>2026-05-11T18:20:24+00:00</time>
      </trkpt>
      <trkpt lat="45.18277" lon="4.85504">
        <ele>171</ele>
        <time>2026-05-11T18:20:25+00:00</time>
      </trkpt>
      <trkpt lat="45.18274" lon="4.85495">
        <ele>171</ele>
        <time>2026-05-11T18:20:26+00:00</time>
      </trkpt>
      <trkpt lat="45.18274" lon="4.85488">
        <ele>172</ele>
        <time>2026-05-11T18:20:27+00:00</time>
      </trkpt>
      <trkpt lat="45.18276" lon="4.8548">
        <ele>172</ele>
        <time>2026-05-11T18:20:28+00:00</time>
      </trkpt>
      <trkpt lat="45.18312" lon="4.85442">
        <ele>175</ele>
        <time>2026-05-11T18:20:29+00:00</time>
      </trkpt>
      <trkpt lat="45.1833" lon="4.85427">
        <ele>176</ele>
        <time>2026-05-11T18:20:30+00:00</time>
      </trkpt>
      <trkpt lat="45.18338" lon="4.85424">
        <ele>177</ele>
        <time>2026-05-11T18:20:31+00:00</time>
      </trkpt>
      <trkpt lat="45.18363" lon="4.85419">
        <ele>180</ele>
        <time>2026-05-11T18:20:32+00:00</time>
      </trkpt>
      <trkpt lat="45.18392" lon="4.85406">
        <ele>184</ele>
        <time>2026-05-11T18:20:33+00:00</time>
      </trkpt>
      <trkpt lat="45.18401" lon="4.85404">
        <ele>185</ele>
        <time>2026-05-11T18:20:34+00:00</time>
      </trkpt>
      <trkpt lat="45.18411" lon="4.85396">
        <ele>187</ele>
        <time>2026-05-11T18:20:35+00:00</time>
      </trkpt>
      <trkpt lat="45.18436" lon="4.85392">
        <ele>191</ele>
        <time>2026-05-11T18:20:36+00:00</time>
      </trkpt>
      <trkpt lat="45.18442" lon="4.85393">
        <ele>191</ele>
        <time>2026-05-11T18:20:37+00:00</time>
      </trkpt>
      <trkpt lat="45.18484" lon="4.85416">
        <ele>194</ele>
        <time>2026-05-11T18:20:38+00:00</time>
      </trkpt>
      <trkpt lat="45.18508" lon="4.85414">
        <ele>197</ele>
        <time>2026-05-11T18:20:39+00:00</time>
      </trkpt>
      <trkpt lat="45.1853" lon="4.85404">
        <ele>198</ele>
        <time>2026-05-11T18:20:40+00:00</time>
      </trkpt>
      <trkpt lat="45.18554" lon="4.85388">
        <ele>202</ele>
        <time>2026-05-11T18:20:41+00:00</time>
      </trkpt>
      <trkpt lat="45.18589" lon="4.85371">
        <ele>206</ele>
        <time>2026-05-11T18:20:42+00:00</time>
      </trkpt>
      <trkpt lat="45.18612" lon="4.85345">
        <ele>211</ele>
        <time>2026-05-11T18:20:43+00:00</time>
      </trkpt>
      <trkpt lat="45.1864" lon="4.85322">
        <ele>216</ele>
        <time>2026-05-11T18:20:44+00:00</time>
      </trkpt>
      <trkpt lat="45.18659" lon="4.85312">
        <ele>218</ele>
        <time>2026-05-11T18:20:45+00:00</time>
      </trkpt>
      <trkpt lat="45.18672" lon="4.85308">
        <ele>219</ele>
        <time>2026-05-11T18:20:46+00:00</time>
      </trkpt>
      <trkpt lat="45.18708" lon="4.85322">
        <ele>218</ele>
        <time>2026-05-11T18:20:47+00:00</time>
      </trkpt>
      <trkpt lat="45.18724" lon="4.85335">
        <ele>216</ele>
        <time>2026-05-11T18:20:48+00:00</time>
      </trkpt>
      <trkpt lat="45.18742" lon="4.85335">
        <ele>216</ele>
        <time>2026-05-11T18:20:49+00:00</time>
      </trkpt>
      <trkpt lat="45.1876" lon="4.85328">
        <ele>217</ele>
        <time>2026-05-11T18:20:50+00:00</time>
      </trkpt>
      <trkpt lat="45.18788" lon="4.85308">
        <ele>220</ele>
        <time>2026-05-11T18:20:51+00:00</time>
      </trkpt>
      <trkpt lat="45.18799" lon="4.85304">
        <ele>220</ele>
        <time>2026-05-11T18:20:52+00:00</time>
      </trkpt>
      <trkpt lat="45.18816" lon="4.85288">
        <ele>223</ele>
        <time>2026-05-11T18:20:53+00:00</time>
      </trkpt>
      <trkpt lat="45.1886" lon="4.85259">
        <ele>227</ele>
        <time>2026-05-11T18:20:54+00:00</time>
      </trkpt>
      <trkpt lat="45.18873" lon="4.85259">
        <ele>227</ele>
        <time>2026-05-11T18:20:55+00:00</time>
      </trkpt>
      <trkpt lat="45.18933" lon="4.85269">
        <ele>227</ele>
        <time>2026-05-11T18:20:56+00:00</time>
      </trkpt>
      <trkpt lat="45.18949" lon="4.8528">
        <ele>227</ele>
        <time>2026-05-11T18:20:57+00:00</time>
      </trkpt>
      <trkpt lat="45.18955" lon="4.85291">
        <ele>225</ele>
        <time>2026-05-11T18:20:58+00:00</time>
      </trkpt>
      <trkpt lat="45.18959" lon="4.85307">
        <ele>223</ele>
        <time>2026-05-11T18:20:59+00:00</time>
      </trkpt>
      <trkpt lat="45.18968" lon="4.85329">
        <ele>221</ele>
        <time>2026-05-11T18:21:00+00:00</time>
      </trkpt>
      <trkpt lat="45.18982" lon="4.85344">
        <ele>221</ele>
        <time>2026-05-11T18:21:01+00:00</time>
      </trkpt>
      <trkpt lat="45.18989" lon="4.85348">
        <ele>222</ele>
        <time>2026-05-11T18:21:02+00:00</time>
      </trkpt>
      <trkpt lat="45.18983" lon="4.85367">
        <ele>221</ele>
        <time>2026-05-11T18:21:03+00:00</time>
      </trkpt>
      <trkpt lat="45.18977" lon="4.85431">
        <ele>218</ele>
        <time>2026-05-11T18:21:04+00:00</time>
      </trkpt>
      <trkpt lat="45.18978" lon="4.85451">
        <ele>217</ele>
        <time>2026-05-11T18:21:05+00:00</time>
      </trkpt>
      <trkpt lat="45.18984" lon="4.85472">
        <ele>217</ele>
        <time>2026-05-11T18:21:06+00:00</time>
      </trkpt>
      <trkpt lat="45.19003" lon="4.85525">
        <ele>220</ele>
        <time>2026-05-11T18:21:07+00:00</time>
      </trkpt>
      <trkpt lat="45.19017" lon="4.85519">
        <ele>222</ele>
        <time>2026-05-11T18:21:08+00:00</time>
      </trkpt>
      <trkpt lat="45.19029" lon="4.85518">
        <ele>223</ele>
        <time>2026-05-11T18:21:09+00:00</time>
      </trkpt>
      <trkpt lat="45.19041" lon="4.85496">
        <ele>223</ele>
        <time>2026-05-11T18:21:10+00:00</time>
      </trkpt>
      <trkpt lat="45.19048" lon="4.85491">
        <ele>224</ele>
        <time>2026-05-11T18:21:11+00:00</time>
      </trkpt>
      <trkpt lat="45.19059" lon="4.85491">
        <ele>225</ele>
        <time>2026-05-11T18:21:12+00:00</time>
      </trkpt>
      <trkpt lat="45.19067" lon="4.85494">
        <ele>226</ele>
        <time>2026-05-11T18:21:13+00:00</time>
      </trkpt>
      <trkpt lat="45.19073" lon="4.855">
        <ele>226</ele>
        <time>2026-05-11T18:21:14+00:00</time>
      </trkpt>
      <trkpt lat="45.19075" lon="4.85499">
        <ele>226</ele>
        <time>2026-05-11T18:21:15+00:00</time>
      </trkpt>
      <trkpt lat="45.19084" lon="4.8548">
        <ele>228</ele>
        <time>2026-05-11T18:21:16+00:00</time>
      </trkpt>
      <trkpt lat="45.19095" lon="4.8547">
        <ele>231</ele>
        <time>2026-05-11T18:21:17+00:00</time>
      </trkpt>
      <trkpt lat="45.19097" lon="4.85475">
        <ele>231</ele>
        <time>2026-05-11T18:21:18+00:00</time>
      </trkpt>
      <trkpt lat="45.191" lon="4.85466">
        <ele>232</ele>
        <time>2026-05-11T18:21:19+00:00</time>
      </trkpt>
      <trkpt lat="45.19102" lon="4.85453">
        <ele>233</ele>
        <time>2026-05-11T18:21:20+00:00</time>
      </trkpt>
      <trkpt lat="45.19105" lon="4.85446">
        <ele>234</ele>
        <time>2026-05-11T18:21:21+00:00</time>
      </trkpt>
      <trkpt lat="45.1912" lon="4.85438">
        <ele>236</ele>
        <time>2026-05-11T18:21:22+00:00</time>
      </trkpt>
      <trkpt lat="45.19138" lon="4.85417">
        <ele>239</ele>
        <time>2026-05-11T18:21:23+00:00</time>
      </trkpt>
      <trkpt lat="45.19139" lon="4.85413">
        <ele>239</ele>
        <time>2026-05-11T18:21:24+00:00</time>
      </trkpt>
      <trkpt lat="45.19134" lon="4.85387">
        <ele>239</ele>
        <time>2026-05-11T18:21:25+00:00</time>
      </trkpt>
      <trkpt lat="45.19135" lon="4.85372">
        <ele>239</ele>
        <time>2026-05-11T18:21:26+00:00</time>
      </trkpt>
      <trkpt lat="45.19139" lon="4.85358">
        <ele>240</ele>
        <time>2026-05-11T18:21:27+00:00</time>
      </trkpt>
      <trkpt lat="45.1914" lon="4.85346">
        <ele>240</ele>
        <time>2026-05-11T18:21:28+00:00</time>
      </trkpt>
      <trkpt lat="45.19138" lon="4.85342">
        <ele>240</ele>
        <time>2026-05-11T18:21:29+00:00</time>
      </trkpt>
      <trkpt lat="45.19132" lon="4.85342">
        <ele>240</ele>
        <time>2026-05-11T18:21:30+00:00</time>
      </trkpt>
      <trkpt lat="45.19132" lon="4.85345">
        <ele>240</ele>
        <time>2026-05-11T18:21:31+00:00</time>
      </trkpt>
      <trkpt lat="45.1913" lon="4.85347">
        <ele>240</ele>
        <time>2026-05-11T18:21:32+00:00</time>
      </trkpt>
      <trkpt lat="45.19123" lon="4.8535">
        <ele>240</ele>
        <time>2026-05-11T18:21:33+00:00</time>
      </trkpt>
      <trkpt lat="45.19109" lon="4.85352">
        <ele>240</ele>
        <time>2026-05-11T18:21:34+00:00</time>
      </trkpt>
      <trkpt lat="45.19103" lon="4.85348">
        <ele>240</ele>
        <time>2026-05-11T18:21:35+00:00</time>
      </trkpt>
      <trkpt lat="45.19117" lon="4.85249">
        <ele>250</ele>
        <time>2026-05-11T18:21:36+00:00</time>
      </trkpt>
      <trkpt lat="45.19122" lon="4.8523">
        <ele>251</ele>
        <time>2026-05-11T18:21:37+00:00</time>
      </trkpt>
      <trkpt lat="45.19154" lon="4.85187">
        <ele>260</ele>
        <time>2026-05-11T18:21:38+00:00</time>
      </trkpt>
      <trkpt lat="45.19174" lon="4.85172">
        <ele>266</ele>
        <time>2026-05-11T18:21:39+00:00</time>
      </trkpt>
      <trkpt lat="45.19183" lon="4.85161">
        <ele>268</ele>
        <time>2026-05-11T18:21:40+00:00</time>
      </trkpt>
      <trkpt lat="45.19186" lon="4.85152">
        <ele>268</ele>
        <time>2026-05-11T18:21:41+00:00</time>
      </trkpt>
      <trkpt lat="45.19187" lon="4.85135">
        <ele>269</ele>
        <time>2026-05-11T18:21:42+00:00</time>
      </trkpt>
      <trkpt lat="45.19191" lon="4.85122">
        <ele>270</ele>
        <time>2026-05-11T18:21:43+00:00</time>
      </trkpt>
      <trkpt lat="45.19197" lon="4.85112">
        <ele>271</ele>
        <time>2026-05-11T18:21:44+00:00</time>
      </trkpt>
      <trkpt lat="45.19204" lon="4.85095">
        <ele>274</ele>
        <time>2026-05-11T18:21:45+00:00</time>
      </trkpt>
      <trkpt lat="45.19221" lon="4.85078">
        <ele>279</ele>
        <time>2026-05-11T18:21:46+00:00</time>
      </trkpt>
      <trkpt lat="45.1923" lon="4.85064">
        <ele>282</ele>
        <time>2026-05-11T18:21:47+00:00</time>
      </trkpt>
      <trkpt lat="45.19242" lon="4.85024">
        <ele>288</ele>
        <time>2026-05-11T18:21:48+00:00</time>
      </trkpt>
      <trkpt lat="45.19255" lon="4.85013">
        <ele>292</ele>
        <time>2026-05-11T18:21:49+00:00</time>
      </trkpt>
      <trkpt lat="45.19259" lon="4.85025">
        <ele>291</ele>
        <time>2026-05-11T18:21:50+00:00</time>
      </trkpt>
      <trkpt lat="45.19269" lon="4.8503">
        <ele>292</ele>
        <time>2026-05-11T18:21:51+00:00</time>
      </trkpt>
      <trkpt lat="45.19261" lon="4.85023">
        <ele>292</ele>
        <time>2026-05-11T18:21:52+00:00</time>
      </trkpt>
      <trkpt lat="45.19261" lon="4.85017">
        <ele>292</ele>
        <time>2026-05-11T18:21:53+00:00</time>
      </trkpt>
      <trkpt lat="45.19265" lon="4.85012">
        <ele>293</ele>
        <time>2026-05-11T18:21:54+00:00</time>
      </trkpt>
      <trkpt lat="45.1927" lon="4.8501">
        <ele>294</ele>
        <time>2026-05-11T18:21:55+00:00</time>
      </trkpt>
      <trkpt lat="45.1928" lon="4.8501">
        <ele>296</ele>
        <time>2026-05-11T18:21:56+00:00</time>
      </trkpt>
      <trkpt lat="45.19292" lon="4.85014">
        <ele>297</ele>
        <time>2026-05-11T18:21:57+00:00</time>
      </trkpt>
      <trkpt lat="45.19295" lon="4.85011">
        <ele>298</ele>
        <time>2026-05-11T18:21:58+00:00</time>
      </trkpt>
      <trkpt lat="45.19297" lon="4.84996">
        <ele>299</ele>
        <time>2026-05-11T18:21:59+00:00</time>
      </trkpt>
      <trkpt lat="45.19286" lon="4.84969">
        <ele>298</ele>
        <time>2026-05-11T18:22:00+00:00</time>
      </trkpt>
      <trkpt lat="45.19285" lon="4.84953">
        <ele>298</ele>
        <time>2026-05-11T18:22:01+00:00</time>
      </trkpt>
      <trkpt lat="45.19295" lon="4.84914">
        <ele>301</ele>
        <time>2026-05-11T18:22:02+00:00</time>
      </trkpt>
      <trkpt lat="45.19308" lon="4.84813">
        <ele>311</ele>
        <time>2026-05-11T18:22:03+00:00</time>
      </trkpt>
      <trkpt lat="45.19319" lon="4.84775">
        <ele>315</ele>
        <time>2026-05-11T18:22:04+00:00</time>
      </trkpt>
      <trkpt lat="45.19332" lon="4.84711">
        <ele>320</ele>
        <time>2026-05-11T18:22:05+00:00</time>
      </trkpt>
      <trkpt lat="45.19328" lon="4.84624">
        <ele>327</ele>
        <time>2026-05-11T18:22:06+00:00</time>
      </trkpt>
      <trkpt lat="45.19331" lon="4.84582">
        <ele>331</ele>
        <time>2026-05-11T18:22:07+00:00</time>
      </trkpt>
      <trkpt lat="45.19338" lon="4.84566">
        <ele>332</ele>
        <time>2026-05-11T18:22:08+00:00</time>
      </trkpt>
      <trkpt lat="45.1937" lon="4.84524">
        <ele>337</ele>
        <time>2026-05-11T18:22:09+00:00</time>
      </trkpt>
      <trkpt lat="45.19371" lon="4.8452">
        <ele>337</ele>
        <time>2026-05-11T18:22:10+00:00</time>
      </trkpt>
      <trkpt lat="45.19368" lon="4.84517">
        <ele>337</ele>
        <time>2026-05-11T18:22:11+00:00</time>
      </trkpt>
      <trkpt lat="45.19352" lon="4.84511">
        <ele>336</ele>
        <time>2026-05-11T18:22:12+00:00</time>
      </trkpt>
      <trkpt lat="45.19344" lon="4.84505">
        <ele>336</ele>
        <time>2026-05-11T18:22:13+00:00</time>
      </trkpt>
      <trkpt lat="45.19311" lon="4.8449">
        <ele>334</ele>
        <time>2026-05-11T18:22:14+00:00</time>
      </trkpt>
      <trkpt lat="45.19289" lon="4.84481">
        <ele>333</ele>
        <time>2026-05-11T18:22:15+00:00</time>
      </trkpt>
      <trkpt lat="45.19275" lon="4.84478">
        <ele>332</ele>
        <time>2026-05-11T18:22:16+00:00</time>
      </trkpt>
      <trkpt lat="45.19249" lon="4.84459">
        <ele>331</ele>
        <time>2026-05-11T18:22:17+00:00</time>
      </trkpt>
      <trkpt lat="45.19228" lon="4.84449">
        <ele>329</ele>
        <time>2026-05-11T18:22:18+00:00</time>
      </trkpt>
      <trkpt lat="45.19219" lon="4.8444">
        <ele>328</ele>
        <time>2026-05-11T18:22:19+00:00</time>
      </trkpt>
      <trkpt lat="45.19214" lon="4.84428">
        <ele>328</ele>
        <time>2026-05-11T18:22:20+00:00</time>
      </trkpt>
      <trkpt lat="45.19213" lon="4.84421">
        <ele>328</ele>
        <time>2026-05-11T18:22:21+00:00</time>
      </trkpt>
      <trkpt lat="45.19216" lon="4.84387">
        <ele>328</ele>
        <time>2026-05-11T18:22:22+00:00</time>
      </trkpt>
      <trkpt lat="45.19214" lon="4.84374">
        <ele>328</ele>
        <time>2026-05-11T18:22:23+00:00</time>
      </trkpt>
      <trkpt lat="45.19187" lon="4.84332">
        <ele>325</ele>
        <time>2026-05-11T18:22:24+00:00</time>
      </trkpt>
      <trkpt lat="45.19182" lon="4.84328">
        <ele>324</ele>
        <time>2026-05-11T18:22:25+00:00</time>
      </trkpt>
      <trkpt lat="45.19172" lon="4.84328">
        <ele>324</ele>
        <time>2026-05-11T18:22:26+00:00</time>
      </trkpt>
      <trkpt lat="45.19143" lon="4.84341">
        <ele>322</ele>
        <time>2026-05-11T18:22:27+00:00</time>
      </trkpt>
      <trkpt lat="45.19097" lon="4.84367">
        <ele>318</ele>
        <time>2026-05-11T18:22:28+00:00</time>
      </trkpt>
      <trkpt lat="45.19073" lon="4.84386">
        <ele>316</ele>
        <time>2026-05-11T18:22:29+00:00</time>
      </trkpt>
      <trkpt lat="45.19052" lon="4.84395">
        <ele>316</ele>
        <time>2026-05-11T18:22:30+00:00</time>
      </trkpt>
      <trkpt lat="45.1905" lon="4.844">
        <ele>315</ele>
        <time>2026-05-11T18:22:31+00:00</time>
      </trkpt>
      <trkpt lat="45.19055" lon="4.84402">
        <ele>315</ele>
        <time>2026-05-11T18:22:32+00:00</time>
      </trkpt>
      <trkpt lat="45.19066" lon="4.84399">
        <ele>315</ele>
        <time>2026-05-11T18:22:33+00:00</time>
      </trkpt>
      <trkpt lat="45.19081" lon="4.84389">
        <ele>316</ele>
        <time>2026-05-11T18:22:34+00:00</time>
      </trkpt>
      <trkpt lat="45.19091" lon="4.84386">
        <ele>316</ele>
        <time>2026-05-11T18:22:35+00:00</time>
      </trkpt>
      <trkpt lat="45.19142" lon="4.84385">
        <ele>321</ele>
        <time>2026-05-11T18:22:36+00:00</time>
      </trkpt>
      <trkpt lat="45.19136" lon="4.84392">
        <ele>320</ele>
        <time>2026-05-11T18:22:37+00:00</time>
      </trkpt>
      <trkpt lat="45.19113" lon="4.84403">
        <ele>317</ele>
        <time>2026-05-11T18:22:38+00:00</time>
      </trkpt>
      <trkpt lat="45.19093" lon="4.8442">
        <ele>315</ele>
        <time>2026-05-11T18:22:39+00:00</time>
      </trkpt>
      <trkpt lat="45.19071" lon="4.84435">
        <ele>312</ele>
        <time>2026-05-11T18:22:40+00:00</time>
      </trkpt>
      <trkpt lat="45.19032" lon="4.84473">
        <ele>306</ele>
        <time>2026-05-11T18:22:41+00:00</time>
      </trkpt>
      <trkpt lat="45.1902" lon="4.84481">
        <ele>304</ele>
        <time>2026-05-11T18:22:42+00:00</time>
      </trkpt>
      <trkpt lat="45.18997" lon="4.84492">
        <ele>302</ele>
        <time>2026-05-11T18:22:43+00:00</time>
      </trkpt>
      <trkpt lat="45.18962" lon="4.84493">
        <ele>302</ele>
        <time>2026-05-11T18:22:44+00:00</time>
      </trkpt>
      <trkpt lat="45.18946" lon="4.84499">
        <ele>301</ele>
        <time>2026-05-11T18:22:45+00:00</time>
      </trkpt>
      <trkpt lat="45.18891" lon="4.84566">
        <ele>289</ele>
        <time>2026-05-11T18:22:46+00:00</time>
      </trkpt>
      <trkpt lat="45.18829" lon="4.84597">
        <ele>286</ele>
        <time>2026-05-11T18:22:47+00:00</time>
      </trkpt>
      <trkpt lat="45.18806" lon="4.84625">
        <ele>283</ele>
        <time>2026-05-11T18:22:48+00:00</time>
      </trkpt>
      <trkpt lat="45.18797" lon="4.84629">
        <ele>283</ele>
        <time>2026-05-11T18:22:49+00:00</time>
      </trkpt>
      <trkpt lat="45.18779" lon="4.84633">
        <ele>284</ele>
        <time>2026-05-11T18:22:50+00:00</time>
      </trkpt>
      <trkpt lat="45.18755" lon="4.84652">
        <ele>281</ele>
        <time>2026-05-11T18:22:51+00:00</time>
      </trkpt>
      <trkpt lat="45.18746" lon="4.84662">
        <ele>280</ele>
        <time>2026-05-11T18:22:52+00:00</time>
      </trkpt>
      <trkpt lat="45.1874" lon="4.84674">
        <ele>279</ele>
        <time>2026-05-11T18:22:53+00:00</time>
      </trkpt>
      <trkpt lat="45.18729" lon="4.84717">
        <ele>275</ele>
        <time>2026-05-11T18:22:54+00:00</time>
      </trkpt>
      <trkpt lat="45.1873" lon="4.84722">
        <ele>274</ele>
        <time>2026-05-11T18:22:55+00:00</time>
      </trkpt>
      <trkpt lat="45.18729" lon="4.8472">
        <ele>274</ele>
        <time>2026-05-11T18:22:56+00:00</time>
      </trkpt>
      <trkpt lat="45.18728" lon="4.84733">
        <ele>273</ele>
        <time>2026-05-11T18:22:57+00:00</time>
      </trkpt>
      <trkpt lat="45.18722" lon="4.84746">
        <ele>271</ele>
        <time>2026-05-11T18:22:58+00:00</time>
      </trkpt>
      <trkpt lat="45.18713" lon="4.84755">
        <ele>270</ele>
        <time>2026-05-11T18:22:59+00:00</time>
      </trkpt>
      <trkpt lat="45.18681" lon="4.84768">
        <ele>270</ele>
        <time>2026-05-11T18:23:00+00:00</time>
      </trkpt>
      <trkpt lat="45.18657" lon="4.84791">
        <ele>267</ele>
        <time>2026-05-11T18:23:01+00:00</time>
      </trkpt>
      <trkpt lat="45.18627" lon="4.84811">
        <ele>264</ele>
        <time>2026-05-11T18:23:02+00:00</time>
      </trkpt>
      <trkpt lat="45.18618" lon="4.8482">
        <ele>263</ele>
        <time>2026-05-11T18:23:03+00:00</time>
      </trkpt>
      <trkpt lat="45.18615" lon="4.84826">
        <ele>261</ele>
        <time>2026-05-11T18:23:04+00:00</time>
      </trkpt>
      <trkpt lat="45.18614" lon="4.84832">
        <ele>260</ele>
        <time>2026-05-11T18:23:05+00:00</time>
      </trkpt>
      <trkpt lat="45.18615" lon="4.84839">
        <ele>259</ele>
        <time>2026-05-11T18:23:06+00:00</time>
      </trkpt>
      <trkpt lat="45.18628" lon="4.84858">
        <ele>256</ele>
        <time>2026-05-11T18:23:07+00:00</time>
      </trkpt>
      <trkpt lat="45.18634" lon="4.84873">
        <ele>254</ele>
        <time>2026-05-11T18:23:08+00:00</time>
      </trkpt>
      <trkpt lat="45.18635" lon="4.8491">
        <ele>250</ele>
        <time>2026-05-11T18:23:09+00:00</time>
      </trkpt>
      <trkpt lat="45.18633" lon="4.84929">
        <ele>248</ele>
        <time>2026-05-11T18:23:10+00:00</time>
      </trkpt>
      <trkpt lat="45.18629" lon="4.84946">
        <ele>247</ele>
        <time>2026-05-11T18:23:11+00:00</time>
      </trkpt>
      <trkpt lat="45.18601" lon="4.85014">
        <ele>244</ele>
        <time>2026-05-11T18:23:12+00:00</time>
      </trkpt>
      <trkpt lat="45.1859" lon="4.85034">
        <ele>242</ele>
        <time>2026-05-11T18:23:13+00:00</time>
      </trkpt>
      <trkpt lat="45.18581" lon="4.85045">
        <ele>242</ele>
        <time>2026-05-11T18:23:14+00:00</time>
      </trkpt>
      <trkpt lat="45.18571" lon="4.85053">
        <ele>240</ele>
        <time>2026-05-11T18:23:15+00:00</time>
      </trkpt>
      <trkpt lat="45.18548" lon="4.85062">
        <ele>238</ele>
        <time>2026-05-11T18:23:16+00:00</time>
      </trkpt>
      <trkpt lat="45.18532" lon="4.85059">
        <ele>237</ele>
        <time>2026-05-11T18:23:17+00:00</time>
      </trkpt>
      <trkpt lat="45.18527" lon="4.85054">
        <ele>237</ele>
        <time>2026-05-11T18:23:18+00:00</time>
      </trkpt>
      <trkpt lat="45.18525" lon="4.85046">
        <ele>238</ele>
        <time>2026-05-11T18:23:19+00:00</time>
      </trkpt>
      <trkpt lat="45.18524" lon="4.85029">
        <ele>238</ele>
        <time>2026-05-11T18:23:20+00:00</time>
      </trkpt>
      <trkpt lat="45.18532" lon="4.84989">
        <ele>241</ele>
        <time>2026-05-11T18:23:21+00:00</time>
      </trkpt>
      <trkpt lat="45.18533" lon="4.84972">
        <ele>243</ele>
        <time>2026-05-11T18:23:22+00:00</time>
      </trkpt>
      <trkpt lat="45.18528" lon="4.84958">
        <ele>244</ele>
        <time>2026-05-11T18:23:23+00:00</time>
      </trkpt>
      <trkpt lat="45.18524" lon="4.84953">
        <ele>244</ele>
        <time>2026-05-11T18:23:24+00:00</time>
      </trkpt>
      <trkpt lat="45.18515" lon="4.84947">
        <ele>244</ele>
        <time>2026-05-11T18:23:25+00:00</time>
      </trkpt>
      <trkpt lat="45.18503" lon="4.84947">
        <ele>244</ele>
        <time>2026-05-11T18:23:26+00:00</time>
      </trkpt>
      <trkpt lat="45.18475" lon="4.84955">
        <ele>243</ele>
        <time>2026-05-11T18:23:27+00:00</time>
      </trkpt>
      <trkpt lat="45.18465" lon="4.84954">
        <ele>243</ele>
        <time>2026-05-11T18:23:28+00:00</time>
      </trkpt>
      <trkpt lat="45.18453" lon="4.84948">
        <ele>244</ele>
        <time>2026-05-11T18:23:29+00:00</time>
      </trkpt>
      <trkpt lat="45.18434" lon="4.84954">
        <ele>243</ele>
        <time>2026-05-11T18:23:30+00:00</time>
      </trkpt>
      <trkpt lat="45.18403" lon="4.84951">
        <ele>246</ele>
        <time>2026-05-11T18:23:31+00:00</time>
      </trkpt>
      <trkpt lat="45.18385" lon="4.84963">
        <ele>244</ele>
        <time>2026-05-11T18:23:32+00:00</time>
      </trkpt>
      <trkpt lat="45.1837" lon="4.84966">
        <ele>244</ele>
        <time>2026-05-11T18:23:33+00:00</time>
      </trkpt>
      <trkpt lat="45.18326" lon="4.84958">
        <ele>249</ele>
        <time>2026-05-11T18:23:34+00:00</time>
      </trkpt>
      <trkpt lat="45.18299" lon="4.84942">
        <ele>253</ele>
        <time>2026-05-11T18:23:35+00:00</time>
      </trkpt>
      <trkpt lat="45.18284" lon="4.84937">
        <ele>254</ele>
        <time>2026-05-11T18:23:36+00:00</time>
      </trkpt>
      <trkpt lat="45.18267" lon="4.84935">
        <ele>254</ele>
        <time>2026-05-11T18:23:37+00:00</time>
      </trkpt>
      <trkpt lat="45.18253" lon="4.84929">
        <ele>255</ele>
        <time>2026-05-11T18:23:38+00:00</time>
      </trkpt>
      <trkpt lat="45.18251" lon="4.84925">
        <ele>256</ele>
        <time>2026-05-11T18:23:39+00:00</time>
      </trkpt>
      <trkpt lat="45.18254" lon="4.84921">
        <ele>258</ele>
        <time>2026-05-11T18:23:40+00:00</time>
      </trkpt>
      <trkpt lat="45.18264" lon="4.8492">
        <ele>258</ele>
        <time>2026-05-11T18:23:41+00:00</time>
      </trkpt>
      <trkpt lat="45.18279" lon="4.84914">
        <ele>260</ele>
        <time>2026-05-11T18:23:42+00:00</time>
      </trkpt>
      <trkpt lat="45.18313" lon="4.84907">
        <ele>263</ele>
        <time>2026-05-11T18:23:43+00:00</time>
      </trkpt>
      <trkpt lat="45.18323" lon="4.8491">
        <ele>263</ele>
        <time>2026-05-11T18:23:44+00:00</time>
      </trkpt>
      <trkpt lat="45.18333" lon="4.84908">
        <ele>263</ele>
        <time>2026-05-11T18:23:45+00:00</time>
      </trkpt>
      <trkpt lat="45.18344" lon="4.849">
        <ele>264</ele>
        <time>2026-05-11T18:23:46+00:00</time>
      </trkpt>
      <trkpt lat="45.18358" lon="4.84868">
        <ele>271</ele>
        <time>2026-05-11T18:23:47+00:00</time>
      </trkpt>
      <trkpt lat="45.18336" lon="4.84869">
        <ele>273</ele>
        <time>2026-05-11T18:23:48+00:00</time>
      </trkpt>
      <trkpt lat="45.18318" lon="4.84865">
        <ele>274</ele>
        <time>2026-05-11T18:23:49+00:00</time>
      </trkpt>
      <trkpt lat="45.18313" lon="4.8486">
        <ele>276</ele>
        <time>2026-05-11T18:23:50+00:00</time>
      </trkpt>
      <trkpt lat="45.18304" lon="4.84858">
        <ele>276</ele>
        <time>2026-05-11T18:23:51+00:00</time>
      </trkpt>
      <trkpt lat="45.18298" lon="4.84854">
        <ele>277</ele>
        <time>2026-05-11T18:23:52+00:00</time>
      </trkpt>
      <trkpt lat="45.18272" lon="4.84852">
        <ele>277</ele>
        <time>2026-05-11T18:23:53+00:00</time>
      </trkpt>
      <trkpt lat="45.18244" lon="4.84841">
        <ele>278</ele>
        <time>2026-05-11T18:23:54+00:00</time>
      </trkpt>
      <trkpt lat="45.18231" lon="4.8484">
        <ele>275</ele>
        <time>2026-05-11T18:23:55+00:00</time>
      </trkpt>
      <trkpt lat="45.18225" lon="4.84837">
        <ele>274</ele>
        <time>2026-05-11T18:23:56+00:00</time>
      </trkpt>
      <trkpt lat="45.18215" lon="4.84822">
        <ele>274</ele>
        <time>2026-05-11T18:23:57+00:00</time>
      </trkpt>
      <trkpt lat="45.18214" lon="4.848">
        <ele>277</ele>
        <time>2026-05-11T18:23:58+00:00</time>
      </trkpt>
      <trkpt lat="45.18218" lon="4.84792">
        <ele>279</ele>
        <time>2026-05-11T18:23:59+00:00</time>
      </trkpt>
      <trkpt lat="45.18222" lon="4.84788">
        <ele>280</ele>
        <time>2026-05-11T18:24:00+00:00</time>
      </trkpt>
      <trkpt lat="45.18224" lon="4.84778">
        <ele>282</ele>
        <time>2026-05-11T18:24:01+00:00</time>
      </trkpt>
      <trkpt lat="45.18232" lon="4.84768">
        <ele>285</ele>
        <time>2026-05-11T18:24:02+00:00</time>
      </trkpt>
      <trkpt lat="45.1824" lon="4.84746">
        <ele>287</ele>
        <time>2026-05-11T18:24:03+00:00</time>
      </trkpt>
      <trkpt lat="45.1824" lon="4.84741">
        <ele>286</ele>
        <time>2026-05-11T18:24:04+00:00</time>
      </trkpt>
      <trkpt lat="45.18238" lon="4.84739">
        <ele>285</ele>
        <time>2026-05-11T18:24:05+00:00</time>
      </trkpt>
      <trkpt lat="45.18231" lon="4.84738">
        <ele>284</ele>
        <time>2026-05-11T18:24:06+00:00</time>
      </trkpt>
      <trkpt lat="45.18225" lon="4.84741">
        <ele>284</ele>
        <time>2026-05-11T18:24:07+00:00</time>
      </trkpt>
      <trkpt lat="45.18217" lon="4.84739">
        <ele>282</ele>
        <time>2026-05-11T18:24:08+00:00</time>
      </trkpt>
      <trkpt lat="45.18207" lon="4.84743">
        <ele>282</ele>
        <time>2026-05-11T18:24:09+00:00</time>
      </trkpt>
      <trkpt lat="45.18209" lon="4.84738">
        <ele>281</ele>
        <time>2026-05-11T18:24:10+00:00</time>
      </trkpt>
      <trkpt lat="45.18212" lon="4.84736">
        <ele>281</ele>
        <time>2026-05-11T18:24:11+00:00</time>
      </trkpt>
      <trkpt lat="45.18238" lon="4.84736">
        <ele>284</ele>
        <time>2026-05-11T18:24:12+00:00</time>
      </trkpt>
      <trkpt lat="45.18248" lon="4.84738">
        <ele>286</ele>
        <time>2026-05-11T18:24:13+00:00</time>
      </trkpt>
      <trkpt lat="45.18292" lon="4.84723">
        <ele>279</ele>
        <time>2026-05-11T18:24:14+00:00</time>
      </trkpt>
      <trkpt lat="45.18304" lon="4.84724">
        <ele>279</ele>
        <time>2026-05-11T18:24:15+00:00</time>
      </trkpt>
      <trkpt lat="45.18321" lon="4.84735">
        <ele>281</ele>
        <time>2026-05-11T18:24:16+00:00</time>
      </trkpt>
      <trkpt lat="45.18333" lon="4.8474">
        <ele>282</ele>
        <time>2026-05-11T18:24:17+00:00</time>
      </trkpt>
      <trkpt lat="45.18364" lon="4.84741">
        <ele>283</ele>
        <time>2026-05-11T18:24:18+00:00</time>
      </trkpt>
      <trkpt lat="45.18405" lon="4.84734">
        <ele>284</ele>
        <time>2026-05-11T18:24:19+00:00</time>
      </trkpt>
      <trkpt lat="45.18407" lon="4.84726">
        <ele>283</ele>
        <time>2026-05-11T18:24:20+00:00</time>
      </trkpt>
      <trkpt lat="45.18416" lon="4.84715">
        <ele>283</ele>
        <time>2026-05-11T18:24:21+00:00</time>
      </trkpt>
      <trkpt lat="45.18449" lon="4.84685">
        <ele>287</ele>
        <time>2026-05-11T18:24:22+00:00</time>
      </trkpt>
      <trkpt lat="45.18484" lon="4.84629">
        <ele>294</ele>
        <time>2026-05-11T18:24:23+00:00</time>
      </trkpt>
      <trkpt lat="45.1851" lon="4.84576">
        <ele>301</ele>
        <time>2026-05-11T18:24:24+00:00</time>
      </trkpt>
      <trkpt lat="45.18539" lon="4.84505">
        <ele>302</ele>
        <time>2026-05-11T18:24:25+00:00</time>
      </trkpt>
      <trkpt lat="45.18541" lon="4.84494">
        <ele>302</ele>
        <time>2026-05-11T18:24:26+00:00</time>
      </trkpt>
      <trkpt lat="45.18541" lon="4.84475">
        <ele>303</ele>
        <time>2026-05-11T18:24:27+00:00</time>
      </trkpt>
      <trkpt lat="45.18537" lon="4.84434">
        <ele>302</ele>
        <time>2026-05-11T18:24:28+00:00</time>
      </trkpt>
      <trkpt lat="45.18543" lon="4.84397">
        <ele>304</ele>
        <time>2026-05-11T18:24:29+00:00</time>
      </trkpt>
      <trkpt lat="45.18544" lon="4.84366">
        <ele>305</ele>
        <time>2026-05-11T18:24:30+00:00</time>
      </trkpt>
      <trkpt lat="45.18549" lon="4.84351">
        <ele>307</ele>
        <time>2026-05-11T18:24:31+00:00</time>
      </trkpt>
      <trkpt lat="45.18555" lon="4.84345">
        <ele>308</ele>
        <time>2026-05-11T18:24:32+00:00</time>
      </trkpt>
      <trkpt lat="45.18563" lon="4.84341">
        <ele>310</ele>
        <time>2026-05-11T18:24:33+00:00</time>
      </trkpt>
      <trkpt lat="45.18579" lon="4.84336">
        <ele>313</ele>
        <time>2026-05-11T18:24:34+00:00</time>
      </trkpt>
      <trkpt lat="45.1859" lon="4.84334">
        <ele>314</ele>
        <time>2026-05-11T18:24:35+00:00</time>
      </trkpt>
      <trkpt lat="45.1862" lon="4.84335">
        <ele>314</ele>
        <time>2026-05-11T18:24:36+00:00</time>
      </trkpt>
      <trkpt lat="45.18647" lon="4.84344">
        <ele>314</ele>
        <time>2026-05-11T18:24:37+00:00</time>
      </trkpt>
      <trkpt lat="45.18732" lon="4.84382">
        <ele>314</ele>
        <time>2026-05-11T18:24:38+00:00</time>
      </trkpt>
      <trkpt lat="45.18771" lon="4.84387">
        <ele>314</ele>
        <time>2026-05-11T18:24:39+00:00</time>
      </trkpt>
      <trkpt lat="45.18787" lon="4.84383">
        <ele>314</ele>
        <time>2026-05-11T18:24:40+00:00</time>
      </trkpt>
      <trkpt lat="45.18863" lon="4.84373">
        <ele>314</ele>
        <time>2026-05-11T18:24:41+00:00</time>
      </trkpt>
      <trkpt lat="45.18913" lon="4.84363">
        <ele>314</ele>
        <time>2026-05-11T18:24:42+00:00</time>
      </trkpt>
      <trkpt lat="45.1897" lon="4.84356">
        <ele>316</ele>
        <time>2026-05-11T18:24:43+00:00</time>
      </trkpt>
      <trkpt lat="45.19038" lon="4.84342">
        <ele>318</ele>
        <time>2026-05-11T18:24:44+00:00</time>
      </trkpt>
      <trkpt lat="45.19058" lon="4.8434">
        <ele>318</ele>
        <time>2026-05-11T18:24:45+00:00</time>
      </trkpt>
      <trkpt lat="45.19104" lon="4.84331">
        <ele>320</ele>
        <time>2026-05-11T18:24:46+00:00</time>
      </trkpt>
      <trkpt lat="45.1913" lon="4.8433">
        <ele>321</ele>
        <time>2026-05-11T18:24:47+00:00</time>
      </trkpt>
      <trkpt lat="45.19152" lon="4.84335">
        <ele>323</ele>
        <time>2026-05-11T18:24:48+00:00</time>
      </trkpt>
      <trkpt lat="45.19157" lon="4.84335">
        <ele>323</ele>
        <time>2026-05-11T18:24:49+00:00</time>
      </trkpt>
      <trkpt lat="45.19184" lon="4.84325">
        <ele>324</ele>
        <time>2026-05-11T18:24:50+00:00</time>
      </trkpt>
      <trkpt lat="45.19196" lon="4.84314">
        <ele>324</ele>
        <time>2026-05-11T18:24:51+00:00</time>
      </trkpt>
      <trkpt lat="45.1923" lon="4.84297">
        <ele>324</ele>
        <time>2026-05-11T18:24:52+00:00</time>
      </trkpt>
      <trkpt lat="45.19241" lon="4.84293">
        <ele>324</ele>
        <time>2026-05-11T18:24:53+00:00</time>
      </trkpt>
      <trkpt lat="45.19264" lon="4.84293">
        <ele>324</ele>
        <time>2026-05-11T18:24:54+00:00</time>
      </trkpt>
      <trkpt lat="45.19275" lon="4.84296">
        <ele>324</ele>
        <time>2026-05-11T18:24:55+00:00</time>
      </trkpt>
      <trkpt lat="45.19289" lon="4.84303">
        <ele>325</ele>
        <time>2026-05-11T18:24:56+00:00</time>
      </trkpt>
      <trkpt lat="45.19355" lon="4.84344">
        <ele>327</ele>
        <time>2026-05-11T18:24:57+00:00</time>
      </trkpt>
      <trkpt lat="45.19373" lon="4.84353">
        <ele>328</ele>
        <time>2026-05-11T18:24:58+00:00</time>
      </trkpt>
      <trkpt lat="45.19367" lon="4.84374">
        <ele>329</ele>
        <time>2026-05-11T18:24:59+00:00</time>
      </trkpt>
      <trkpt lat="45.19349" lon="4.84425">
        <ele>333</ele>
        <time>2026-05-11T18:25:00+00:00</time>
      </trkpt>
      <trkpt lat="45.19329" lon="4.84477">
        <ele>335</ele>
        <time>2026-05-11T18:25:01+00:00</time>
      </trkpt>
      <trkpt lat="45.19326" lon="4.84493">
        <ele>335</ele>
        <time>2026-05-11T18:25:02+00:00</time>
      </trkpt>
      <trkpt lat="45.19327" lon="4.84496">
        <ele>335</ele>
        <time>2026-05-11T18:25:03+00:00</time>
      </trkpt>
      <trkpt lat="45.19344" lon="4.84508">
        <ele>336</ele>
        <time>2026-05-11T18:25:04+00:00</time>
      </trkpt>
      <trkpt lat="45.19368" lon="4.84519">
        <ele>337</ele>
        <time>2026-05-11T18:25:05+00:00</time>
      </trkpt>
      <trkpt lat="45.19422" lon="4.84535">
        <ele>339</ele>
        <time>2026-05-11T18:25:06+00:00</time>
      </trkpt>
      <trkpt lat="45.19451" lon="4.84539">
        <ele>340</ele>
        <time>2026-05-11T18:25:07+00:00</time>
      </trkpt>
      <trkpt lat="45.19465" lon="4.84554">
        <ele>341</ele>
        <time>2026-05-11T18:25:08+00:00</time>
      </trkpt>
      <trkpt lat="45.19483" lon="4.8458">
        <ele>344</ele>
        <time>2026-05-11T18:25:09+00:00</time>
      </trkpt>
      <trkpt lat="45.19498" lon="4.84608">
        <ele>344</ele>
        <time>2026-05-11T18:25:10+00:00</time>
      </trkpt>
      <trkpt lat="45.19564" lon="4.84689">
        <ele>344</ele>
        <time>2026-05-11T18:25:11+00:00</time>
      </trkpt>
      <trkpt lat="45.19579" lon="4.84704">
        <ele>344</ele>
        <time>2026-05-11T18:25:12+00:00</time>
      </trkpt>
      <trkpt lat="45.19616" lon="4.84733">
        <ele>343</ele>
        <time>2026-05-11T18:25:13+00:00</time>
      </trkpt>
      <trkpt lat="45.19629" lon="4.84749">
        <ele>343</ele>
        <time>2026-05-11T18:25:14+00:00</time>
      </trkpt>
      <trkpt lat="45.19654" lon="4.84797">
        <ele>342</ele>
        <time>2026-05-11T18:25:15+00:00</time>
      </trkpt>
      <trkpt lat="45.19701" lon="4.8488">
        <ele>342</ele>
        <time>2026-05-11T18:25:16+00:00</time>
      </trkpt>
      <trkpt lat="45.19737" lon="4.84962">
        <ele>343</ele>
        <time>2026-05-11T18:25:17+00:00</time>
      </trkpt>
      <trkpt lat="45.19748" lon="4.85025">
        <ele>343</ele>
        <time>2026-05-11T18:25:18+00:00</time>
      </trkpt>
      <trkpt lat="45.19762" lon="4.85117">
        <ele>342</ele>
        <time>2026-05-11T18:25:19+00:00</time>
      </trkpt>
      <trkpt lat="45.19764" lon="4.85139">
        <ele>341</ele>
        <time>2026-05-11T18:25:20+00:00</time>
      </trkpt>
      <trkpt lat="45.19762" lon="4.85219">
        <ele>341</ele>
        <time>2026-05-11T18:25:21+00:00</time>
      </trkpt>
      <trkpt lat="45.19763" lon="4.85279">
        <ele>341</ele>
        <time>2026-05-11T18:25:22+00:00</time>
      </trkpt>
      <trkpt lat="45.1976" lon="4.85352">
        <ele>341</ele>
        <time>2026-05-11T18:25:23+00:00</time>
      </trkpt>
      <trkpt lat="45.19761" lon="4.85393">
        <ele>340</ele>
        <time>2026-05-11T18:25:24+00:00</time>
      </trkpt>
      <trkpt lat="45.19767" lon="4.85446">
        <ele>340</ele>
        <time>2026-05-11T18:25:25+00:00</time>
      </trkpt>
      <trkpt lat="45.19767" lon="4.85472">
        <ele>341</ele>
        <time>2026-05-11T18:25:26+00:00</time>
      </trkpt>
      <trkpt lat="45.19771" lon="4.85489">
        <ele>341</ele>
        <time>2026-05-11T18:25:27+00:00</time>
      </trkpt>
      <trkpt lat="45.19767" lon="4.85512">
        <ele>340</ele>
        <time>2026-05-11T18:25:28+00:00</time>
      </trkpt>
      <trkpt lat="45.19768" lon="4.8556">
        <ele>340</ele>
        <time>2026-05-11T18:25:29+00:00</time>
      </trkpt>
      <trkpt lat="45.19778" lon="4.85619">
        <ele>339</ele>
        <time>2026-05-11T18:25:30+00:00</time>
      </trkpt>
      <trkpt lat="45.19783" lon="4.85669">
        <ele>338</ele>
        <time>2026-05-11T18:25:31+00:00</time>
      </trkpt>
      <trkpt lat="45.19791" lon="4.85802">
        <ele>335</ele>
        <time>2026-05-11T18:25:32+00:00</time>
      </trkpt>
      <trkpt lat="45.19809" lon="4.85873">
        <ele>335</ele>
        <time>2026-05-11T18:25:33+00:00</time>
      </trkpt>
      <trkpt lat="45.19843" lon="4.86026">
        <ele>333</ele>
        <time>2026-05-11T18:25:34+00:00</time>
      </trkpt>
      <trkpt lat="45.19856" lon="4.86093">
        <ele>331</ele>
        <time>2026-05-11T18:25:35+00:00</time>
      </trkpt>
      <trkpt lat="45.19867" lon="4.86166">
        <ele>327</ele>
        <time>2026-05-11T18:25:36+00:00</time>
      </trkpt>
      <trkpt lat="45.19873" lon="4.86223">
        <ele>325</ele>
        <time>2026-05-11T18:25:37+00:00</time>
      </trkpt>
      <trkpt lat="45.19875" lon="4.86269">
        <ele>323</ele>
        <time>2026-05-11T18:25:38+00:00</time>
      </trkpt>
      <trkpt lat="45.19873" lon="4.863">
        <ele>321</ele>
        <time>2026-05-11T18:25:39+00:00</time>
      </trkpt>
      <trkpt lat="45.19865" lon="4.86362">
        <ele>317</ele>
        <time>2026-05-11T18:25:40+00:00</time>
      </trkpt>
      <trkpt lat="45.19859" lon="4.86368">
        <ele>316</ele>
        <time>2026-05-11T18:25:41+00:00</time>
      </trkpt>
      <trkpt lat="45.19809" lon="4.86384">
        <ele>310</ele>
        <time>2026-05-11T18:25:42+00:00</time>
      </trkpt>
      <trkpt lat="45.19754" lon="4.86407">
        <ele>303</ele>
        <time>2026-05-11T18:25:43+00:00</time>
      </trkpt>
      <trkpt lat="45.19583" lon="4.86496">
        <ele>287</ele>
        <time>2026-05-11T18:25:44+00:00</time>
      </trkpt>
      <trkpt lat="45.19567" lon="4.86508">
        <ele>285</ele>
        <time>2026-05-11T18:25:45+00:00</time>
      </trkpt>
      <trkpt lat="45.19525" lon="4.86548">
        <ele>281</ele>
        <time>2026-05-11T18:25:46+00:00</time>
      </trkpt>
      <trkpt lat="45.19497" lon="4.86571">
        <ele>280</ele>
        <time>2026-05-11T18:25:47+00:00</time>
      </trkpt>
      <trkpt lat="45.19488" lon="4.86574">
        <ele>279</ele>
        <time>2026-05-11T18:25:48+00:00</time>
      </trkpt>
      <trkpt lat="45.19478" lon="4.86574">
        <ele>279</ele>
        <time>2026-05-11T18:25:49+00:00</time>
      </trkpt>
      <trkpt lat="45.19448" lon="4.86568">
        <ele>278</ele>
        <time>2026-05-11T18:25:50+00:00</time>
      </trkpt>
      <trkpt lat="45.19428" lon="4.86567">
        <ele>277</ele>
        <time>2026-05-11T18:25:51+00:00</time>
      </trkpt>
      <trkpt lat="45.19418" lon="4.86569">
        <ele>277</ele>
        <time>2026-05-11T18:25:52+00:00</time>
      </trkpt>
      <trkpt lat="45.19405" lon="4.86575">
        <ele>276</ele>
        <time>2026-05-11T18:25:53+00:00</time>
      </trkpt>
      <trkpt lat="45.19397" lon="4.86555">
        <ele>275</ele>
        <time>2026-05-11T18:25:54+00:00</time>
      </trkpt>
      <trkpt lat="45.19388" lon="4.8654">
        <ele>274</ele>
        <time>2026-05-11T18:25:55+00:00</time>
      </trkpt>
      <trkpt lat="45.1934" lon="4.86485">
        <ele>272</ele>
        <time>2026-05-11T18:25:56+00:00</time>
      </trkpt>
      <trkpt lat="45.19246" lon="4.8636">
        <ele>270</ele>
        <time>2026-05-11T18:25:57+00:00</time>
      </trkpt>
      <trkpt lat="45.19235" lon="4.86352">
        <ele>269</ele>
        <time>2026-05-11T18:25:58+00:00</time>
      </trkpt>
      <trkpt lat="45.19216" lon="4.86348">
        <ele>267</ele>
        <time>2026-05-11T18:25:59+00:00</time>
      </trkpt>
      <trkpt lat="45.19106" lon="4.86344">
        <ele>258</ele>
        <time>2026-05-11T18:26:00+00:00</time>
      </trkpt>
      <trkpt lat="45.19062" lon="4.86352">
        <ele>252</ele>
        <time>2026-05-11T18:26:01+00:00</time>
      </trkpt>
      <trkpt lat="45.19027" lon="4.86353">
        <ele>245</ele>
        <time>2026-05-11T18:26:02+00:00</time>
      </trkpt>
      <trkpt lat="45.1901" lon="4.86361">
        <ele>242</ele>
        <time>2026-05-11T18:26:03+00:00</time>
      </trkpt>
      <trkpt lat="45.18963" lon="4.86353">
        <ele>232</ele>
        <time>2026-05-11T18:26:04+00:00</time>
      </trkpt>
      <trkpt lat="45.18939" lon="4.86345">
        <ele>227</ele>
        <time>2026-05-11T18:26:05+00:00</time>
      </trkpt>
      <trkpt lat="45.18931" lon="4.86345">
        <ele>225</ele>
        <time>2026-05-11T18:26:06+00:00</time>
      </trkpt>
      <trkpt lat="45.18922" lon="4.86348">
        <ele>223</ele>
        <time>2026-05-11T18:26:07+00:00</time>
      </trkpt>
      <trkpt lat="45.18912" lon="4.86355">
        <ele>221</ele>
        <time>2026-05-11T18:26:08+00:00</time>
      </trkpt>
      <trkpt lat="45.18906" lon="4.86354">
        <ele>220</ele>
        <time>2026-05-11T18:26:09+00:00</time>
      </trkpt>
      <trkpt lat="45.18904" lon="4.86344">
        <ele>219</ele>
        <time>2026-05-11T18:26:10+00:00</time>
      </trkpt>
      <trkpt lat="45.18909" lon="4.86286">
        <ele>214</ele>
        <time>2026-05-11T18:26:11+00:00</time>
      </trkpt>
      <trkpt lat="45.18905" lon="4.86239">
        <ele>209</ele>
        <time>2026-05-11T18:26:12+00:00</time>
      </trkpt>
      <trkpt lat="45.18902" lon="4.86233">
        <ele>208</ele>
        <time>2026-05-11T18:26:13+00:00</time>
      </trkpt>
      <trkpt lat="45.18897" lon="4.86229">
        <ele>207</ele>
        <time>2026-05-11T18:26:14+00:00</time>
      </trkpt>
      <trkpt lat="45.18891" lon="4.86228">
        <ele>206</ele>
        <time>2026-05-11T18:26:15+00:00</time>
      </trkpt>
      <trkpt lat="45.18879" lon="4.86229">
        <ele>205</ele>
        <time>2026-05-11T18:26:16+00:00</time>
      </trkpt>
      <trkpt lat="45.18861" lon="4.86234">
        <ele>203</ele>
        <time>2026-05-11T18:26:17+00:00</time>
      </trkpt>
      <trkpt lat="45.18856" lon="4.86234">
        <ele>202</ele>
        <time>2026-05-11T18:26:18+00:00</time>
      </trkpt>
      <trkpt lat="45.18851" lon="4.86231">
        <ele>202</ele>
        <time>2026-05-11T18:26:19+00:00</time>
      </trkpt>
      <trkpt lat="45.18844" lon="4.8622">
        <ele>201</ele>
        <time>2026-05-11T18:26:20+00:00</time>
      </trkpt>
      <trkpt lat="45.18842" lon="4.86213">
        <ele>201</ele>
        <time>2026-05-11T18:26:21+00:00</time>
      </trkpt>
      <trkpt lat="45.18839" lon="4.86187">
        <ele>201</ele>
        <time>2026-05-11T18:26:22+00:00</time>
      </trkpt>
      <trkpt lat="45.18839" lon="4.86174">
        <ele>201</ele>
        <time>2026-05-11T18:26:23+00:00</time>
      </trkpt>
      <trkpt lat="45.18836" lon="4.86165">
        <ele>201</ele>
        <time>2026-05-11T18:26:24+00:00</time>
      </trkpt>
      <trkpt lat="45.18793" lon="4.86186">
        <ele>199</ele>
        <time>2026-05-11T18:26:25+00:00</time>
      </trkpt>
      <trkpt lat="45.18775" lon="4.86186">
        <ele>198</ele>
        <time>2026-05-11T18:26:26+00:00</time>
      </trkpt>
      <trkpt lat="45.18732" lon="4.86173">
        <ele>197</ele>
        <time>2026-05-11T18:26:27+00:00</time>
      </trkpt>
      <trkpt lat="45.18665" lon="4.86178">
        <ele>191</ele>
        <time>2026-05-11T18:26:28+00:00</time>
      </trkpt>
      <trkpt lat="45.18652" lon="4.86174">
        <ele>190</ele>
        <time>2026-05-11T18:26:29+00:00</time>
      </trkpt>
      <trkpt lat="45.18648" lon="4.86167">
        <ele>189</ele>
        <time>2026-05-11T18:26:30+00:00</time>
      </trkpt>
      <trkpt lat="45.18641" lon="4.86166">
        <ele>189</ele>
        <time>2026-05-11T18:26:31+00:00</time>
      </trkpt>
      <trkpt lat="45.1863" lon="4.8618">
        <ele>188</ele>
        <time>2026-05-11T18:26:32+00:00</time>
      </trkpt>
      <trkpt lat="45.18619" lon="4.86183">
        <ele>187</ele>
        <time>2026-05-11T18:26:33+00:00</time>
      </trkpt>
      <trkpt lat="45.18572" lon="4.86188">
        <ele>185</ele>
        <time>2026-05-11T18:26:34+00:00</time>
      </trkpt>
      <trkpt lat="45.18543" lon="4.86203">
        <ele>184</ele>
        <time>2026-05-11T18:26:35+00:00</time>
      </trkpt>
      <trkpt lat="45.18519" lon="4.8622">
        <ele>184</ele>
        <time>2026-05-11T18:26:36+00:00</time>
      </trkpt>
      <trkpt lat="45.18481" lon="4.86234">
        <ele>182</ele>
        <time>2026-05-11T18:26:37+00:00</time>
      </trkpt>
      <trkpt lat="45.18475" lon="4.86229">
        <ele>182</ele>
        <time>2026-05-11T18:26:38+00:00</time>
      </trkpt>
      <trkpt lat="45.18459" lon="4.86151">
        <ele>179</ele>
        <time>2026-05-11T18:26:39+00:00</time>
      </trkpt>
      <trkpt lat="45.18457" lon="4.86148">
        <ele>179</ele>
        <time>2026-05-11T18:26:40+00:00</time>
      </trkpt>
      <trkpt lat="45.18452" lon="4.86147">
        <ele>179</ele>
        <time>2026-05-11T18:26:41+00:00</time>
      </trkpt>
      <trkpt lat="45.1844" lon="4.86155">
        <ele>179</ele>
        <time>2026-05-11T18:26:42+00:00</time>
      </trkpt>
      <trkpt lat="45.18441" lon="4.86168">
        <ele>179</ele>
        <time>2026-05-11T18:26:43+00:00</time>
      </trkpt>
      <trkpt lat="45.18437" lon="4.86177">
        <ele>179</ele>
        <time>2026-05-11T18:26:44+00:00</time>
      </trkpt>
      <trkpt lat="45.18427" lon="4.86182">
        <ele>179</ele>
        <time>2026-05-11T18:26:45+00:00</time>
      </trkpt>
      <trkpt lat="45.18418" lon="4.86182">
        <ele>178</ele>
        <time>2026-05-11T18:26:46+00:00</time>
      </trkpt>
      <trkpt lat="45.18412" lon="4.86168">
        <ele>178</ele>
        <time>2026-05-11T18:26:47+00:00</time>
      </trkpt>
      <trkpt lat="45.18412" lon="4.86146">
        <ele>178</ele>
        <time>2026-05-11T18:26:48+00:00</time>
      </trkpt>
      <trkpt lat="45.18408" lon="4.86138">
        <ele>178</ele>
        <time>2026-05-11T18:26:49+00:00</time>
      </trkpt>
      <trkpt lat="45.18406" lon="4.86119">
        <ele>178</ele>
        <time>2026-05-11T18:26:50+00:00</time>
      </trkpt>
      <trkpt lat="45.18403" lon="4.86114">
        <ele>178</ele>
        <time>2026-05-11T18:26:51+00:00</time>
      </trkpt>
      <trkpt lat="45.18406" lon="4.86097">
        <ele>178</ele>
        <time>2026-05-11T18:26:52+00:00</time>
      </trkpt>
      <trkpt lat="45.18405" lon="4.86081">
        <ele>178</ele>
        <time>2026-05-11T18:26:53+00:00</time>
      </trkpt>
      <trkpt lat="45.18401" lon="4.86009">
        <ele>176</ele>
        <time>2026-05-11T18:26:54+00:00</time>
      </trkpt>
      <trkpt lat="45.18402" lon="4.85988">
        <ele>176</ele>
        <time>2026-05-11T18:26:55+00:00</time>
      </trkpt>
      <trkpt lat="45.18398" lon="4.85915">
        <ele>175</ele>
        <time>2026-05-11T18:26:56+00:00</time>
      </trkpt>
      <trkpt lat="45.18393" lon="4.8586">
        <ele>175</ele>
        <time>2026-05-11T18:26:57+00:00</time>
      </trkpt>
      <trkpt lat="45.18402" lon="4.8587">
        <ele>175</ele>
        <time>2026-05-11T18:26:58+00:00</time>
      </trkpt>
      <trkpt lat="45.18407" lon="4.85871">
        <ele>175</ele>
        <time>2026-05-11T18:26:59+00:00</time>
      </trkpt>
      <trkpt lat="45.18413" lon="4.85879">
        <ele>175</ele>
        <time>2026-05-11T18:27:00+00:00</time>
      </trkpt>
      <trkpt lat="45.18421" lon="4.85895">
        <ele>175</ele>
        <time>2026-05-11T18:27:01+00:00</time>
      </trkpt>
    </trkseg>
  </trk>
</gpx>
