<?xml version="1.0" encoding="UTF-8"?>
<gpx xmlns="http://www.topografix.com/GPX/1/1" xmlns:xsi="http://www.w3.org/2001/XMLSchema-instance" version="1.1" creator="phpGPX/1.3.0" xsi:schemaLocation="http://www.topografix.com/GPX/1/1 http://www.topografix.com/GPX/1/1/gpx.xsd">
  <metadata>
    <time>2026-05-14T09:44:55+00:00</time>
  </metadata>
  <trk>
    <name>Les Petits Bâtis</name>
    <trkseg>
      <trkpt lat="49.08834999" lon="4.90329999">
        <ele>140</ele>
        <time>2026-05-14T09:44:56+00:00</time>
      </trkpt>
      <trkpt lat="49.08861" lon="4.90383">
        <ele>141</ele>
        <time>2026-05-14T09:44:57+00:00</time>
      </trkpt>
      <trkpt lat="49.08896" lon="4.90402">
        <ele>142</ele>
        <time>2026-05-14T09:44:58+00:00</time>
      </trkpt>
      <trkpt lat="49.08928999" lon="4.9043">
        <ele>143</ele>
        <time>2026-05-14T09:44:59+00:00</time>
      </trkpt>
      <trkpt lat="49.08941" lon="4.90442999">
        <ele>143</ele>
        <time>2026-05-14T09:45:00+00:00</time>
      </trkpt>
      <trkpt lat="49.08957999" lon="4.90509">
        <ele>144</ele>
        <time>2026-05-14T09:45:01+00:00</time>
      </trkpt>
      <trkpt lat="49.08979999" lon="4.90645">
        <ele>142</ele>
        <time>2026-05-14T09:45:02+00:00</time>
      </trkpt>
      <trkpt lat="49.08973" lon="4.90733999">
        <ele>141</ele>
        <time>2026-05-14T09:45:03+00:00</time>
      </trkpt>
      <trkpt lat="49.08961" lon="4.90817999">
        <ele>141</ele>
        <time>2026-05-14T09:45:04+00:00</time>
      </trkpt>
      <trkpt lat="49.08955999" lon="4.90876999">
        <ele>143</ele>
        <time>2026-05-14T09:45:05+00:00</time>
      </trkpt>
      <trkpt lat="49.08937" lon="4.90976999">
        <ele>143</ele>
        <time>2026-05-14T09:45:06+00:00</time>
      </trkpt>
      <trkpt lat="49.08912999" lon="4.91066">
        <ele>140</ele>
        <time>2026-05-14T09:45:07+00:00</time>
      </trkpt>
      <trkpt lat="49.08914" lon="4.91082">
        <ele>140</ele>
        <time>2026-05-14T09:45:08+00:00</time>
      </trkpt>
      <trkpt lat="49.08924999" lon="4.91126">
        <ele>142</ele>
        <time>2026-05-14T09:45:09+00:00</time>
      </trkpt>
      <trkpt lat="49.08928" lon="4.91150999">
        <ele>143</ele>
        <time>2026-05-14T09:45:10+00:00</time>
      </trkpt>
      <trkpt lat="49.08919" lon="4.91207999">
        <ele>142</ele>
        <time>2026-05-14T09:45:11+00:00</time>
      </trkpt>
      <trkpt lat="49.08885" lon="4.91366999">
        <ele>145</ele>
        <time>2026-05-14T09:45:12+00:00</time>
      </trkpt>
      <trkpt lat="49.08789999" lon="4.91723999">
        <ele>145</ele>
        <time>2026-05-14T09:45:13+00:00</time>
      </trkpt>
      <trkpt lat="49.08778" lon="4.91804">
        <ele>145</ele>
        <time>2026-05-14T09:45:14+00:00</time>
      </trkpt>
      <trkpt lat="49.08762999" lon="4.9184">
        <ele>143</ele>
        <time>2026-05-14T09:45:15+00:00</time>
      </trkpt>
      <trkpt lat="49.08724999" lon="4.91894">
        <ele>140</ele>
        <time>2026-05-14T09:45:16+00:00</time>
      </trkpt>
      <trkpt lat="49.08722999" lon="4.91903999">
        <ele>140</ele>
        <time>2026-05-14T09:45:17+00:00</time>
      </trkpt>
      <trkpt lat="49.08650999" lon="4.91896">
        <ele>138</ele>
        <time>2026-05-14T09:45:18+00:00</time>
      </trkpt>
      <trkpt lat="49.08614" lon="4.91879">
        <ele>137</ele>
        <time>2026-05-14T09:45:19+00:00</time>
      </trkpt>
      <trkpt lat="49.08614" lon="4.91884">
        <ele>138</ele>
        <time>2026-05-14T09:45:20+00:00</time>
      </trkpt>
      <trkpt lat="49.0859" lon="4.91879">
        <ele>137</ele>
        <time>2026-05-14T09:45:21+00:00</time>
      </trkpt>
      <trkpt lat="49.08588" lon="4.91915999">
        <ele>138</ele>
        <time>2026-05-14T09:45:22+00:00</time>
      </trkpt>
      <trkpt lat="49.08594" lon="4.91995">
        <ele>144</ele>
        <time>2026-05-14T09:45:23+00:00</time>
      </trkpt>
      <trkpt lat="49.08586999" lon="4.9203">
        <ele>149</ele>
        <time>2026-05-14T09:45:24+00:00</time>
      </trkpt>
      <trkpt lat="49.08487" lon="4.92009">
        <ele>156</ele>
        <time>2026-05-14T09:45:25+00:00</time>
      </trkpt>
      <trkpt lat="49.08404999" lon="4.92016">
        <ele>156</ele>
        <time>2026-05-14T09:45:26+00:00</time>
      </trkpt>
      <trkpt lat="49.08299999" lon="4.9199">
        <ele>152</ele>
        <time>2026-05-14T09:45:27+00:00</time>
      </trkpt>
      <trkpt lat="49.08135" lon="4.91877999">
        <ele>143</ele>
        <time>2026-05-14T09:45:28+00:00</time>
      </trkpt>
      <trkpt lat="49.08109999" lon="4.91953999">
        <ele>148</ele>
        <time>2026-05-14T09:45:29+00:00</time>
      </trkpt>
      <trkpt lat="49.08144999" lon="4.92096999">
        <ele>154</ele>
        <time>2026-05-14T09:45:30+00:00</time>
      </trkpt>
      <trkpt lat="49.08200999" lon="4.92286">
        <ele>159</ele>
        <time>2026-05-14T09:45:31+00:00</time>
      </trkpt>
      <trkpt lat="49.08211" lon="4.92337999">
        <ele>159</ele>
        <time>2026-05-14T09:45:32+00:00</time>
      </trkpt>
      <trkpt lat="49.08187" lon="4.92377999">
        <ele>156</ele>
        <time>2026-05-14T09:45:33+00:00</time>
      </trkpt>
      <trkpt lat="49.08182999" lon="4.92389999">
        <ele>156</ele>
        <time>2026-05-14T09:45:34+00:00</time>
      </trkpt>
      <trkpt lat="49.08247" lon="4.92795">
        <ele>162</ele>
        <time>2026-05-14T09:45:35+00:00</time>
      </trkpt>
      <trkpt lat="49.08319999" lon="4.93011999">
        <ele>167</ele>
        <time>2026-05-14T09:45:36+00:00</time>
      </trkpt>
      <trkpt lat="49.08346" lon="4.93045">
        <ele>167</ele>
        <time>2026-05-14T09:45:37+00:00</time>
      </trkpt>
      <trkpt lat="49.08324999" lon="4.93106">
        <ele>166</ele>
        <time>2026-05-14T09:45:38+00:00</time>
      </trkpt>
      <trkpt lat="49.08339" lon="4.93177">
        <ele>168</ele>
        <time>2026-05-14T09:45:39+00:00</time>
      </trkpt>
      <trkpt lat="49.08352" lon="4.93222999">
        <ele>170</ele>
        <time>2026-05-14T09:45:40+00:00</time>
      </trkpt>
      <trkpt lat="49.08355999" lon="4.93348">
        <ele>172</ele>
        <time>2026-05-14T09:45:41+00:00</time>
      </trkpt>
      <trkpt lat="49.08368999" lon="4.93421">
        <ele>174</ele>
        <time>2026-05-14T09:45:42+00:00</time>
      </trkpt>
      <trkpt lat="49.08379999" lon="4.93529">
        <ele>175</ele>
        <time>2026-05-14T09:45:43+00:00</time>
      </trkpt>
      <trkpt lat="49.08382" lon="4.93677999">
        <ele>176</ele>
        <time>2026-05-14T09:45:44+00:00</time>
      </trkpt>
      <trkpt lat="49.08399" lon="4.93844999">
        <ele>180</ele>
        <time>2026-05-14T09:45:45+00:00</time>
      </trkpt>
      <trkpt lat="49.08422999" lon="4.93961">
        <ele>178</ele>
        <time>2026-05-14T09:45:46+00:00</time>
      </trkpt>
      <trkpt lat="49.08445999" lon="4.94137">
        <ele>184</ele>
        <time>2026-05-14T09:45:47+00:00</time>
      </trkpt>
      <trkpt lat="49.08563999" lon="4.9454">
        <ele>194</ele>
        <time>2026-05-14T09:45:48+00:00</time>
      </trkpt>
      <trkpt lat="49.08579" lon="4.94644999">
        <ele>196</ele>
        <time>2026-05-14T09:45:49+00:00</time>
      </trkpt>
      <trkpt lat="49.08590999" lon="4.95024999">
        <ele>206</ele>
        <time>2026-05-14T09:45:50+00:00</time>
      </trkpt>
      <trkpt lat="49.08570999" lon="4.95256999">
        <ele>214</ele>
        <time>2026-05-14T09:45:51+00:00</time>
      </trkpt>
      <trkpt lat="49.08505" lon="4.95526999">
        <ele>219</ele>
        <time>2026-05-14T09:45:52+00:00</time>
      </trkpt>
      <trkpt lat="49.08599" lon="4.95549999">
        <ele>219</ele>
        <time>2026-05-14T09:45:53+00:00</time>
      </trkpt>
      <trkpt lat="49.08605" lon="4.95620999">
        <ele>220</ele>
        <time>2026-05-14T09:45:54+00:00</time>
      </trkpt>
      <trkpt lat="49.08800999" lon="4.95620999">
        <ele>213</ele>
        <time>2026-05-14T09:45:55+00:00</time>
      </trkpt>
      <trkpt lat="49.08823999" lon="4.95837">
        <ele>213</ele>
        <time>2026-05-14T09:45:56+00:00</time>
      </trkpt>
      <trkpt lat="49.08816999" lon="4.96136999">
        <ele>221</ele>
        <time>2026-05-14T09:45:57+00:00</time>
      </trkpt>
      <trkpt lat="49.08829999" lon="4.96286">
        <ele>226</ele>
        <time>2026-05-14T09:45:58+00:00</time>
      </trkpt>
      <trkpt lat="49.08829" lon="4.96335999">
        <ele>229</ele>
        <time>2026-05-14T09:45:59+00:00</time>
      </trkpt>
      <trkpt lat="49.08814999" lon="4.96382">
        <ele>230</ele>
        <time>2026-05-14T09:46:00+00:00</time>
      </trkpt>
      <trkpt lat="49.08836" lon="4.96438999">
        <ele>231</ele>
        <time>2026-05-14T09:46:01+00:00</time>
      </trkpt>
      <trkpt lat="49.08671999" lon="4.96553999">
        <ele>233</ele>
        <time>2026-05-14T09:46:02+00:00</time>
      </trkpt>
      <trkpt lat="49.08684999" lon="4.96713999">
        <ele>238</ele>
        <time>2026-05-14T09:46:03+00:00</time>
      </trkpt>
      <trkpt lat="49.08711" lon="4.96811">
        <ele>238</ele>
        <time>2026-05-14T09:46:04+00:00</time>
      </trkpt>
      <trkpt lat="49.08753999" lon="4.96915999">
        <ele>238</ele>
        <time>2026-05-14T09:46:05+00:00</time>
      </trkpt>
      <trkpt lat="49.08816" lon="4.97055999">
        <ele>240</ele>
        <time>2026-05-14T09:46:06+00:00</time>
      </trkpt>
      <trkpt lat="49.08892" lon="4.97186">
        <ele>246</ele>
        <time>2026-05-14T09:46:07+00:00</time>
      </trkpt>
      <trkpt lat="49.09042" lon="4.97207">
        <ele>243</ele>
        <time>2026-05-14T09:46:08+00:00</time>
      </trkpt>
      <trkpt lat="49.09056" lon="4.97219999">
        <ele>243</ele>
        <time>2026-05-14T09:46:09+00:00</time>
      </trkpt>
      <trkpt lat="49.09145" lon="4.97452">
        <ele>250</ele>
        <time>2026-05-14T09:46:10+00:00</time>
      </trkpt>
      <trkpt lat="49.09159999" lon="4.97627">
        <ele>253</ele>
        <time>2026-05-14T09:46:11+00:00</time>
      </trkpt>
      <trkpt lat="49.09174" lon="4.9767">
        <ele>255</ele>
        <time>2026-05-14T09:46:12+00:00</time>
      </trkpt>
      <trkpt lat="49.09165" lon="4.97766999">
        <ele>257</ele>
        <time>2026-05-14T09:46:13+00:00</time>
      </trkpt>
      <trkpt lat="49.09163999" lon="4.97837999">
        <ele>255</ele>
        <time>2026-05-14T09:46:14+00:00</time>
      </trkpt>
      <trkpt lat="49.09179999" lon="4.97902">
        <ele>253</ele>
        <time>2026-05-14T09:46:15+00:00</time>
      </trkpt>
      <trkpt lat="49.09214" lon="4.98003">
        <ele>253</ele>
        <time>2026-05-14T09:46:16+00:00</time>
      </trkpt>
      <trkpt lat="49.09239999" lon="4.98132">
        <ele>248</ele>
        <time>2026-05-14T09:46:17+00:00</time>
      </trkpt>
      <trkpt lat="49.09271999" lon="4.98207999">
        <ele>246</ele>
        <time>2026-05-14T09:46:18+00:00</time>
      </trkpt>
      <trkpt lat="49.09385999" lon="4.98353999">
        <ele>252</ele>
        <time>2026-05-14T09:46:19+00:00</time>
      </trkpt>
      <trkpt lat="49.09470999" lon="4.98664">
        <ele>254</ele>
        <time>2026-05-14T09:46:20+00:00</time>
      </trkpt>
      <trkpt lat="49.09514" lon="4.98639">
        <ele>256</ele>
        <time>2026-05-14T09:46:21+00:00</time>
      </trkpt>
      <trkpt lat="49.0959" lon="4.9854">
        <ele>263</ele>
        <time>2026-05-14T09:46:22+00:00</time>
      </trkpt>
      <trkpt lat="49.09615" lon="4.98531">
        <ele>263</ele>
        <time>2026-05-14T09:46:23+00:00</time>
      </trkpt>
      <trkpt lat="49.09658999" lon="4.98488">
        <ele>264</ele>
        <time>2026-05-14T09:46:24+00:00</time>
      </trkpt>
      <trkpt lat="49.09676999" lon="4.98465">
        <ele>262</ele>
        <time>2026-05-14T09:46:25+00:00</time>
      </trkpt>
      <trkpt lat="49.09684" lon="4.98454999">
        <ele>261</ele>
        <time>2026-05-14T09:46:26+00:00</time>
      </trkpt>
      <trkpt lat="49.09731" lon="4.98299">
        <ele>252</ele>
        <time>2026-05-14T09:46:27+00:00</time>
      </trkpt>
      <trkpt lat="49.09774" lon="4.98313">
        <ele>243</ele>
        <time>2026-05-14T09:46:28+00:00</time>
      </trkpt>
      <trkpt lat="49.09823999" lon="4.98435">
        <ele>239</ele>
        <time>2026-05-14T09:46:29+00:00</time>
      </trkpt>
      <trkpt lat="49.10038" lon="4.98641">
        <ele>214</ele>
        <time>2026-05-14T09:46:30+00:00</time>
      </trkpt>
      <trkpt lat="49.10110999" lon="4.98817999">
        <ele>197</ele>
        <time>2026-05-14T09:46:31+00:00</time>
      </trkpt>
      <trkpt lat="49.10121999" lon="4.98862999">
        <ele>192</ele>
        <time>2026-05-14T09:46:32+00:00</time>
      </trkpt>
      <trkpt lat="49.10152999" lon="4.98915">
        <ele>182</ele>
        <time>2026-05-14T09:46:33+00:00</time>
      </trkpt>
      <trkpt lat="49.10175" lon="4.98939999">
        <ele>178</ele>
        <time>2026-05-14T09:46:34+00:00</time>
      </trkpt>
      <trkpt lat="49.10175" lon="4.98937999">
        <ele>178</ele>
        <time>2026-05-14T09:46:35+00:00</time>
      </trkpt>
      <trkpt lat="49.10181" lon="4.98935999">
        <ele>179</ele>
        <time>2026-05-14T09:46:36+00:00</time>
      </trkpt>
      <trkpt lat="49.10186" lon="4.98937999">
        <ele>179</ele>
        <time>2026-05-14T09:46:37+00:00</time>
      </trkpt>
      <trkpt lat="49.1022" lon="4.99031999">
        <ele>177</ele>
        <time>2026-05-14T09:46:38+00:00</time>
      </trkpt>
      <trkpt lat="49.10238999" lon="4.99061999">
        <ele>176</ele>
        <time>2026-05-14T09:46:39+00:00</time>
      </trkpt>
      <trkpt lat="49.10363" lon="4.99171">
        <ele>176</ele>
        <time>2026-05-14T09:46:40+00:00</time>
      </trkpt>
      <trkpt lat="49.1039" lon="4.99176999">
        <ele>179</ele>
        <time>2026-05-14T09:46:41+00:00</time>
      </trkpt>
      <trkpt lat="49.10486999" lon="4.99164">
        <ele>183</ele>
        <time>2026-05-14T09:46:42+00:00</time>
      </trkpt>
      <trkpt lat="49.10566" lon="4.99176">
        <ele>178</ele>
        <time>2026-05-14T09:46:43+00:00</time>
      </trkpt>
      <trkpt lat="49.10573" lon="4.99174">
        <ele>178</ele>
        <time>2026-05-14T09:46:44+00:00</time>
      </trkpt>
      <trkpt lat="49.10634" lon="4.99117">
        <ele>177</ele>
        <time>2026-05-14T09:46:45+00:00</time>
      </trkpt>
      <trkpt lat="49.10656" lon="4.99108">
        <ele>177</ele>
        <time>2026-05-14T09:46:46+00:00</time>
      </trkpt>
      <trkpt lat="49.10801" lon="4.98960999">
        <ele>179</ele>
        <time>2026-05-14T09:46:47+00:00</time>
      </trkpt>
      <trkpt lat="49.10808" lon="4.9896">
        <ele>179</ele>
        <time>2026-05-14T09:46:48+00:00</time>
      </trkpt>
      <trkpt lat="49.10824999" lon="4.98965">
        <ele>179</ele>
        <time>2026-05-14T09:46:49+00:00</time>
      </trkpt>
      <trkpt lat="49.10835999" lon="4.98953999">
        <ele>178</ele>
        <time>2026-05-14T09:46:50+00:00</time>
      </trkpt>
      <trkpt lat="49.10844999" lon="4.98939">
        <ele>178</ele>
        <time>2026-05-14T09:46:51+00:00</time>
      </trkpt>
      <trkpt lat="49.10851" lon="4.98913">
        <ele>179</ele>
        <time>2026-05-14T09:46:52+00:00</time>
      </trkpt>
      <trkpt lat="49.10849" lon="4.98885999">
        <ele>183</ele>
        <time>2026-05-14T09:46:53+00:00</time>
      </trkpt>
      <trkpt lat="49.10851999" lon="4.9888">
        <ele>183</ele>
        <time>2026-05-14T09:46:54+00:00</time>
      </trkpt>
      <trkpt lat="49.10936999" lon="4.98829">
        <ele>185</ele>
        <time>2026-05-14T09:46:55+00:00</time>
      </trkpt>
      <trkpt lat="49.10942" lon="4.98817999">
        <ele>187</ele>
        <time>2026-05-14T09:46:56+00:00</time>
      </trkpt>
      <trkpt lat="49.10943" lon="4.98793">
        <ele>191</ele>
        <time>2026-05-14T09:46:57+00:00</time>
      </trkpt>
      <trkpt lat="49.10987" lon="4.9874">
        <ele>190</ele>
        <time>2026-05-14T09:46:58+00:00</time>
      </trkpt>
      <trkpt lat="49.11014999" lon="4.98681999">
        <ele>195</ele>
        <time>2026-05-14T09:46:59+00:00</time>
      </trkpt>
      <trkpt lat="49.11084999" lon="4.98658999">
        <ele>187</ele>
        <time>2026-05-14T09:47:00+00:00</time>
      </trkpt>
      <trkpt lat="49.11097999" lon="4.98604">
        <ele>191</ele>
        <time>2026-05-14T09:47:01+00:00</time>
      </trkpt>
      <trkpt lat="49.11075999" lon="4.98538">
        <ele>195</ele>
        <time>2026-05-14T09:47:02+00:00</time>
      </trkpt>
      <trkpt lat="49.11014" lon="4.98458">
        <ele>199</ele>
        <time>2026-05-14T09:47:03+00:00</time>
      </trkpt>
      <trkpt lat="49.10961" lon="4.98428999">
        <ele>204</ele>
        <time>2026-05-14T09:47:04+00:00</time>
      </trkpt>
      <trkpt lat="49.10833" lon="4.98273">
        <ele>210</ele>
        <time>2026-05-14T09:47:05+00:00</time>
      </trkpt>
      <trkpt lat="49.10820999" lon="4.98231999">
        <ele>213</ele>
        <time>2026-05-14T09:47:06+00:00</time>
      </trkpt>
      <trkpt lat="49.10820999" lon="4.98181">
        <ele>211</ele>
        <time>2026-05-14T09:47:07+00:00</time>
      </trkpt>
      <trkpt lat="49.10822" lon="4.98135999">
        <ele>217</ele>
        <time>2026-05-14T09:47:08+00:00</time>
      </trkpt>
      <trkpt lat="49.10851" lon="4.98116">
        <ele>216</ele>
        <time>2026-05-14T09:47:09+00:00</time>
      </trkpt>
      <trkpt lat="49.10905999" lon="4.98099999">
        <ele>219</ele>
        <time>2026-05-14T09:47:10+00:00</time>
      </trkpt>
      <trkpt lat="49.10954" lon="4.98106999">
        <ele>214</ele>
        <time>2026-05-14T09:47:11+00:00</time>
      </trkpt>
      <trkpt lat="49.10983" lon="4.98074999">
        <ele>221</ele>
        <time>2026-05-14T09:47:12+00:00</time>
      </trkpt>
      <trkpt lat="49.11008" lon="4.98054">
        <ele>224</ele>
        <time>2026-05-14T09:47:13+00:00</time>
      </trkpt>
      <trkpt lat="49.11034" lon="4.98074999">
        <ele>213</ele>
        <time>2026-05-14T09:47:14+00:00</time>
      </trkpt>
      <trkpt lat="49.11050999" lon="4.98066999">
        <ele>211</ele>
        <time>2026-05-14T09:47:15+00:00</time>
      </trkpt>
      <trkpt lat="49.11072" lon="4.98019999">
        <ele>215</ele>
        <time>2026-05-14T09:47:16+00:00</time>
      </trkpt>
      <trkpt lat="49.11077" lon="4.9794">
        <ele>223</ele>
        <time>2026-05-14T09:47:17+00:00</time>
      </trkpt>
      <trkpt lat="49.11108999" lon="4.97874">
        <ele>223</ele>
        <time>2026-05-14T09:47:18+00:00</time>
      </trkpt>
      <trkpt lat="49.1114" lon="4.97839">
        <ele>220</ele>
        <time>2026-05-14T09:47:19+00:00</time>
      </trkpt>
      <trkpt lat="49.11153" lon="4.97813">
        <ele>218</ele>
        <time>2026-05-14T09:47:20+00:00</time>
      </trkpt>
      <trkpt lat="49.11151" lon="4.97771">
        <ele>220</ele>
        <time>2026-05-14T09:47:21+00:00</time>
      </trkpt>
      <trkpt lat="49.11099" lon="4.97614">
        <ele>233</ele>
        <time>2026-05-14T09:47:22+00:00</time>
      </trkpt>
      <trkpt lat="49.11095" lon="4.97576">
        <ele>234</ele>
        <time>2026-05-14T09:47:23+00:00</time>
      </trkpt>
      <trkpt lat="49.11086" lon="4.97543999">
        <ele>237</ele>
        <time>2026-05-14T09:47:24+00:00</time>
      </trkpt>
      <trkpt lat="49.11081" lon="4.97464999">
        <ele>240</ele>
        <time>2026-05-14T09:47:25+00:00</time>
      </trkpt>
      <trkpt lat="49.1109" lon="4.97433">
        <ele>242</ele>
        <time>2026-05-14T09:47:26+00:00</time>
      </trkpt>
      <trkpt lat="49.11117" lon="4.97417999">
        <ele>243</ele>
        <time>2026-05-14T09:47:27+00:00</time>
      </trkpt>
      <trkpt lat="49.11149" lon="4.97412">
        <ele>244</ele>
        <time>2026-05-14T09:47:28+00:00</time>
      </trkpt>
      <trkpt lat="49.11186" lon="4.97412">
        <ele>245</ele>
        <time>2026-05-14T09:47:29+00:00</time>
      </trkpt>
      <trkpt lat="49.11218999" lon="4.97424999">
        <ele>245</ele>
        <time>2026-05-14T09:47:30+00:00</time>
      </trkpt>
      <trkpt lat="49.11287" lon="4.97468">
        <ele>243</ele>
        <time>2026-05-14T09:47:31+00:00</time>
      </trkpt>
      <trkpt lat="49.11366999" lon="4.97525999">
        <ele>244</ele>
        <time>2026-05-14T09:47:32+00:00</time>
      </trkpt>
      <trkpt lat="49.11433" lon="4.97513">
        <ele>254</ele>
        <time>2026-05-14T09:47:33+00:00</time>
      </trkpt>
      <trkpt lat="49.11471" lon="4.97518999">
        <ele>257</ele>
        <time>2026-05-14T09:47:34+00:00</time>
      </trkpt>
      <trkpt lat="49.11514999" lon="4.97573">
        <ele>252</ele>
        <time>2026-05-14T09:47:35+00:00</time>
      </trkpt>
      <trkpt lat="49.11563" lon="4.97614">
        <ele>252</ele>
        <time>2026-05-14T09:47:36+00:00</time>
      </trkpt>
      <trkpt lat="49.11650999" lon="4.97750999">
        <ele>250</ele>
        <time>2026-05-14T09:47:37+00:00</time>
      </trkpt>
      <trkpt lat="49.11661999" lon="4.97829">
        <ele>244</ele>
        <time>2026-05-14T09:47:38+00:00</time>
      </trkpt>
      <trkpt lat="49.11677999" lon="4.97878">
        <ele>241</ele>
        <time>2026-05-14T09:47:39+00:00</time>
      </trkpt>
      <trkpt lat="49.11693" lon="4.98038999">
        <ele>229</ele>
        <time>2026-05-14T09:47:40+00:00</time>
      </trkpt>
      <trkpt lat="49.11690999" lon="4.98073999">
        <ele>226</ele>
        <time>2026-05-14T09:47:41+00:00</time>
      </trkpt>
      <trkpt lat="49.11702999" lon="4.98085999">
        <ele>225</ele>
        <time>2026-05-14T09:47:42+00:00</time>
      </trkpt>
      <trkpt lat="49.11715999" lon="4.98073999">
        <ele>225</ele>
        <time>2026-05-14T09:47:43+00:00</time>
      </trkpt>
      <trkpt lat="49.11737999" lon="4.9804">
        <ele>230</ele>
        <time>2026-05-14T09:47:44+00:00</time>
      </trkpt>
      <trkpt lat="49.11748999" lon="4.98015999">
        <ele>235</ele>
        <time>2026-05-14T09:47:45+00:00</time>
      </trkpt>
      <trkpt lat="49.11769999" lon="4.97949999">
        <ele>236</ele>
        <time>2026-05-14T09:47:46+00:00</time>
      </trkpt>
      <trkpt lat="49.11748" lon="4.97879999">
        <ele>247</ele>
        <time>2026-05-14T09:47:47+00:00</time>
      </trkpt>
      <trkpt lat="49.11549" lon="4.97079">
        <ele>258</ele>
        <time>2026-05-14T09:47:48+00:00</time>
      </trkpt>
      <trkpt lat="49.11623999" lon="4.97055">
        <ele>258</ele>
        <time>2026-05-14T09:47:49+00:00</time>
      </trkpt>
      <trkpt lat="49.11639999" lon="4.97029">
        <ele>258</ele>
        <time>2026-05-14T09:47:50+00:00</time>
      </trkpt>
      <trkpt lat="49.11668999" lon="4.9706">
        <ele>260</ele>
        <time>2026-05-14T09:47:51+00:00</time>
      </trkpt>
      <trkpt lat="49.11719999" lon="4.97022999">
        <ele>258</ele>
        <time>2026-05-14T09:47:52+00:00</time>
      </trkpt>
      <trkpt lat="49.11735999" lon="4.96980999">
        <ele>257</ele>
        <time>2026-05-14T09:47:53+00:00</time>
      </trkpt>
      <trkpt lat="49.11923" lon="4.96884999">
        <ele>253</ele>
        <time>2026-05-14T09:47:54+00:00</time>
      </trkpt>
      <trkpt lat="49.11966" lon="4.96837999">
        <ele>254</ele>
        <time>2026-05-14T09:47:55+00:00</time>
      </trkpt>
      <trkpt lat="49.1199" lon="4.96830999">
        <ele>255</ele>
        <time>2026-05-14T09:47:56+00:00</time>
      </trkpt>
      <trkpt lat="49.12467999" lon="4.96516">
        <ele>251</ele>
        <time>2026-05-14T09:47:57+00:00</time>
      </trkpt>
      <trkpt lat="49.12702" lon="4.96856999">
        <ele>226</ele>
        <time>2026-05-14T09:47:58+00:00</time>
      </trkpt>
      <trkpt lat="49.12758999" lon="4.96842999">
        <ele>232</ele>
        <time>2026-05-14T09:47:59+00:00</time>
      </trkpt>
      <trkpt lat="49.12709999" lon="4.96701">
        <ele>233</ele>
        <time>2026-05-14T09:48:00+00:00</time>
      </trkpt>
      <trkpt lat="49.12695999" lon="4.96605">
        <ele>231</ele>
        <time>2026-05-14T09:48:01+00:00</time>
      </trkpt>
      <trkpt lat="49.12664999" lon="4.96476">
        <ele>237</ele>
        <time>2026-05-14T09:48:02+00:00</time>
      </trkpt>
      <trkpt lat="49.12673" lon="4.96368999">
        <ele>240</ele>
        <time>2026-05-14T09:48:03+00:00</time>
      </trkpt>
      <trkpt lat="49.1274" lon="4.96318999">
        <ele>240</ele>
        <time>2026-05-14T09:48:04+00:00</time>
      </trkpt>
      <trkpt lat="49.12854" lon="4.96342999">
        <ele>238</ele>
        <time>2026-05-14T09:48:05+00:00</time>
      </trkpt>
      <trkpt lat="49.12910999" lon="4.96424999">
        <ele>231</ele>
        <time>2026-05-14T09:48:06+00:00</time>
      </trkpt>
      <trkpt lat="49.12953" lon="4.96466999">
        <ele>225</ele>
        <time>2026-05-14T09:48:07+00:00</time>
      </trkpt>
      <trkpt lat="49.1298" lon="4.96466">
        <ele>228</ele>
        <time>2026-05-14T09:48:08+00:00</time>
      </trkpt>
      <trkpt lat="49.13004" lon="4.96431">
        <ele>235</ele>
        <time>2026-05-14T09:48:09+00:00</time>
      </trkpt>
      <trkpt lat="49.13034999" lon="4.96365999">
        <ele>240</ele>
        <time>2026-05-14T09:48:10+00:00</time>
      </trkpt>
      <trkpt lat="49.12901" lon="4.96009999">
        <ele>244</ele>
        <time>2026-05-14T09:48:11+00:00</time>
      </trkpt>
      <trkpt lat="49.13053" lon="4.95864999">
        <ele>232</ele>
        <time>2026-05-14T09:48:12+00:00</time>
      </trkpt>
      <trkpt lat="49.13051" lon="4.95861">
        <ele>231</ele>
        <time>2026-05-14T09:48:13+00:00</time>
      </trkpt>
      <trkpt lat="49.13058999" lon="4.95854">
        <ele>232</ele>
        <time>2026-05-14T09:48:14+00:00</time>
      </trkpt>
      <trkpt lat="49.13119999" lon="4.95777">
        <ele>231</ele>
        <time>2026-05-14T09:48:15+00:00</time>
      </trkpt>
      <trkpt lat="49.13136999" lon="4.9576">
        <ele>231</ele>
        <time>2026-05-14T09:48:16+00:00</time>
      </trkpt>
      <trkpt lat="49.1315" lon="4.95751">
        <ele>231</ele>
        <time>2026-05-14T09:48:17+00:00</time>
      </trkpt>
      <trkpt lat="49.13179999" lon="4.95739">
        <ele>230</ele>
        <time>2026-05-14T09:48:18+00:00</time>
      </trkpt>
      <trkpt lat="49.13179999" lon="4.95736">
        <ele>230</ele>
        <time>2026-05-14T09:48:19+00:00</time>
      </trkpt>
      <trkpt lat="49.13183999" lon="4.95736">
        <ele>230</ele>
        <time>2026-05-14T09:48:20+00:00</time>
      </trkpt>
      <trkpt lat="49.13172" lon="4.95694">
        <ele>229</ele>
        <time>2026-05-14T09:48:21+00:00</time>
      </trkpt>
      <trkpt lat="49.13224" lon="4.95629999">
        <ele>226</ele>
        <time>2026-05-14T09:48:22+00:00</time>
      </trkpt>
      <trkpt lat="49.13237999" lon="4.95580999">
        <ele>225</ele>
        <time>2026-05-14T09:48:23+00:00</time>
      </trkpt>
      <trkpt lat="49.13329999" lon="4.95464">
        <ele>229</ele>
        <time>2026-05-14T09:48:24+00:00</time>
      </trkpt>
      <trkpt lat="49.13403999" lon="4.95383999">
        <ele>227</ele>
        <time>2026-05-14T09:48:25+00:00</time>
      </trkpt>
      <trkpt lat="49.13421999" lon="4.95375999">
        <ele>226</ele>
        <time>2026-05-14T09:48:26+00:00</time>
      </trkpt>
      <trkpt lat="49.13432" lon="4.95375">
        <ele>226</ele>
        <time>2026-05-14T09:48:27+00:00</time>
      </trkpt>
      <trkpt lat="49.13454" lon="4.9538">
        <ele>226</ele>
        <time>2026-05-14T09:48:28+00:00</time>
      </trkpt>
      <trkpt lat="49.13468" lon="4.9541">
        <ele>227</ele>
        <time>2026-05-14T09:48:29+00:00</time>
      </trkpt>
      <trkpt lat="49.13550999" lon="4.95309">
        <ele>225</ele>
        <time>2026-05-14T09:48:30+00:00</time>
      </trkpt>
      <trkpt lat="49.13579" lon="4.95260999">
        <ele>225</ele>
        <time>2026-05-14T09:48:31+00:00</time>
      </trkpt>
      <trkpt lat="49.13604" lon="4.9527">
        <ele>226</ele>
        <time>2026-05-14T09:48:32+00:00</time>
      </trkpt>
      <trkpt lat="49.13638999" lon="4.9531">
        <ele>227</ele>
        <time>2026-05-14T09:48:33+00:00</time>
      </trkpt>
      <trkpt lat="49.13663999" lon="4.95350999">
        <ele>228</ele>
        <time>2026-05-14T09:48:34+00:00</time>
      </trkpt>
      <trkpt lat="49.13710999" lon="4.95415999">
        <ele>229</ele>
        <time>2026-05-14T09:48:35+00:00</time>
      </trkpt>
      <trkpt lat="49.13712999" lon="4.95411999">
        <ele>229</ele>
        <time>2026-05-14T09:48:36+00:00</time>
      </trkpt>
      <trkpt lat="49.13730999" lon="4.95434999">
        <ele>228</ele>
        <time>2026-05-14T09:48:37+00:00</time>
      </trkpt>
      <trkpt lat="49.13745999" lon="4.95439999">
        <ele>228</ele>
        <time>2026-05-14T09:48:38+00:00</time>
      </trkpt>
      <trkpt lat="49.13819999" lon="4.95509">
        <ele>225</ele>
        <time>2026-05-14T09:48:39+00:00</time>
      </trkpt>
      <trkpt lat="49.13871999" lon="4.95568">
        <ele>221</ele>
        <time>2026-05-14T09:48:40+00:00</time>
      </trkpt>
      <trkpt lat="49.13917" lon="4.95627999">
        <ele>221</ele>
        <time>2026-05-14T09:48:41+00:00</time>
      </trkpt>
      <trkpt lat="49.14009999" lon="4.95809">
        <ele>217</ele>
        <time>2026-05-14T09:48:42+00:00</time>
      </trkpt>
      <trkpt lat="49.1409" lon="4.96007999">
        <ele>216</ele>
        <time>2026-05-14T09:48:43+00:00</time>
      </trkpt>
      <trkpt lat="49.14218999" lon="4.96248">
        <ele>224</ele>
        <time>2026-05-14T09:48:44+00:00</time>
      </trkpt>
      <trkpt lat="49.14242" lon="4.96353">
        <ele>224</ele>
        <time>2026-05-14T09:48:45+00:00</time>
      </trkpt>
      <trkpt lat="49.14200999" lon="4.9644">
        <ele>208</ele>
        <time>2026-05-14T09:48:46+00:00</time>
      </trkpt>
      <trkpt lat="49.14229999" lon="4.96532">
        <ele>196</ele>
        <time>2026-05-14T09:48:47+00:00</time>
      </trkpt>
      <trkpt lat="49.14265999" lon="4.96581999">
        <ele>183</ele>
        <time>2026-05-14T09:48:48+00:00</time>
      </trkpt>
      <trkpt lat="49.14264" lon="4.96532">
        <ele>193</ele>
        <time>2026-05-14T09:48:49+00:00</time>
      </trkpt>
      <trkpt lat="49.14318" lon="4.96485">
        <ele>191</ele>
        <time>2026-05-14T09:48:50+00:00</time>
      </trkpt>
      <trkpt lat="49.14379999" lon="4.96478">
        <ele>187</ele>
        <time>2026-05-14T09:48:51+00:00</time>
      </trkpt>
      <trkpt lat="49.14439" lon="4.96426">
        <ele>202</ele>
        <time>2026-05-14T09:48:52+00:00</time>
      </trkpt>
      <trkpt lat="49.14589999" lon="4.96419">
        <ele>196</ele>
        <time>2026-05-14T09:48:53+00:00</time>
      </trkpt>
      <trkpt lat="49.14609" lon="4.96354999">
        <ele>210</ele>
        <time>2026-05-14T09:48:54+00:00</time>
      </trkpt>
      <trkpt lat="49.14661999" lon="4.96323">
        <ele>209</ele>
        <time>2026-05-14T09:48:55+00:00</time>
      </trkpt>
      <trkpt lat="49.14836999" lon="4.96286999">
        <ele>182</ele>
        <time>2026-05-14T09:48:56+00:00</time>
      </trkpt>
      <trkpt lat="49.14894" lon="4.96318">
        <ele>171</ele>
        <time>2026-05-14T09:48:57+00:00</time>
      </trkpt>
      <trkpt lat="49.14894" lon="4.96267999">
        <ele>171</ele>
        <time>2026-05-14T09:48:58+00:00</time>
      </trkpt>
      <trkpt lat="49.14851" lon="4.96204">
        <ele>177</ele>
        <time>2026-05-14T09:48:59+00:00</time>
      </trkpt>
      <trkpt lat="49.14777999" lon="4.96117999">
        <ele>182</ele>
        <time>2026-05-14T09:49:00+00:00</time>
      </trkpt>
      <trkpt lat="49.14717" lon="4.96068999">
        <ele>185</ele>
        <time>2026-05-14T09:49:01+00:00</time>
      </trkpt>
      <trkpt lat="49.14724999" lon="4.96007999">
        <ele>177</ele>
        <time>2026-05-14T09:49:02+00:00</time>
      </trkpt>
      <trkpt lat="49.14276" lon="4.95441999">
        <ele>226</ele>
        <time>2026-05-14T09:49:03+00:00</time>
      </trkpt>
      <trkpt lat="49.14166999" lon="4.95373">
        <ele>235</ele>
        <time>2026-05-14T09:49:04+00:00</time>
      </trkpt>
      <trkpt lat="49.14137999" lon="4.95298">
        <ele>235</ele>
        <time>2026-05-14T09:49:05+00:00</time>
      </trkpt>
      <trkpt lat="49.14135" lon="4.95260999">
        <ele>236</ele>
        <time>2026-05-14T09:49:06+00:00</time>
      </trkpt>
      <trkpt lat="49.14124999" lon="4.95213999">
        <ele>235</ele>
        <time>2026-05-14T09:49:07+00:00</time>
      </trkpt>
      <trkpt lat="49.14079" lon="4.95141999">
        <ele>233</ele>
        <time>2026-05-14T09:49:08+00:00</time>
      </trkpt>
      <trkpt lat="49.14059999" lon="4.95080999">
        <ele>231</ele>
        <time>2026-05-14T09:49:09+00:00</time>
      </trkpt>
      <trkpt lat="49.14056" lon="4.95082">
        <ele>230</ele>
        <time>2026-05-14T09:49:10+00:00</time>
      </trkpt>
      <trkpt lat="49.14139999" lon="4.94981">
        <ele>234</ele>
        <time>2026-05-14T09:49:11+00:00</time>
      </trkpt>
      <trkpt lat="49.14038999" lon="4.94815999">
        <ele>224</ele>
        <time>2026-05-14T09:49:12+00:00</time>
      </trkpt>
      <trkpt lat="49.13976999" lon="4.94695">
        <ele>221</ele>
        <time>2026-05-14T09:49:13+00:00</time>
      </trkpt>
      <trkpt lat="49.13998" lon="4.94688999">
        <ele>221</ele>
        <time>2026-05-14T09:49:14+00:00</time>
      </trkpt>
      <trkpt lat="49.14059" lon="4.94664">
        <ele>222</ele>
        <time>2026-05-14T09:49:15+00:00</time>
      </trkpt>
      <trkpt lat="49.1417" lon="4.94655999">
        <ele>222</ele>
        <time>2026-05-14T09:49:16+00:00</time>
      </trkpt>
      <trkpt lat="49.14164" lon="4.94536999">
        <ele>223</ele>
        <time>2026-05-14T09:49:17+00:00</time>
      </trkpt>
      <trkpt lat="49.14144999" lon="4.94317999">
        <ele>223</ele>
        <time>2026-05-14T09:49:18+00:00</time>
      </trkpt>
      <trkpt lat="49.14135" lon="4.94252999">
        <ele>222</ele>
        <time>2026-05-14T09:49:19+00:00</time>
      </trkpt>
      <trkpt lat="49.14106" lon="4.94155">
        <ele>220</ele>
        <time>2026-05-14T09:49:20+00:00</time>
      </trkpt>
      <trkpt lat="49.14094999" lon="4.94066">
        <ele>221</ele>
        <time>2026-05-14T09:49:21+00:00</time>
      </trkpt>
      <trkpt lat="49.14101" lon="4.93989999">
        <ele>220</ele>
        <time>2026-05-14T09:49:22+00:00</time>
      </trkpt>
      <trkpt lat="49.14146" lon="4.9377">
        <ele>216</ele>
        <time>2026-05-14T09:49:23+00:00</time>
      </trkpt>
      <trkpt lat="49.14195999" lon="4.93550999">
        <ele>219</ele>
        <time>2026-05-14T09:49:24+00:00</time>
      </trkpt>
      <trkpt lat="49.14466999" lon="4.93550999">
        <ele>214</ele>
        <time>2026-05-14T09:49:25+00:00</time>
      </trkpt>
      <trkpt lat="49.14529" lon="4.93365999">
        <ele>204</ele>
        <time>2026-05-14T09:49:26+00:00</time>
      </trkpt>
      <trkpt lat="49.14587" lon="4.93236999">
        <ele>189</ele>
        <time>2026-05-14T09:49:27+00:00</time>
      </trkpt>
      <trkpt lat="49.14607" lon="4.93238">
        <ele>192</ele>
        <time>2026-05-14T09:49:28+00:00</time>
      </trkpt>
      <trkpt lat="49.14623" lon="4.93255999">
        <ele>194</ele>
        <time>2026-05-14T09:49:29+00:00</time>
      </trkpt>
      <trkpt lat="49.14627999" lon="4.92457999">
        <ele>209</ele>
        <time>2026-05-14T09:49:30+00:00</time>
      </trkpt>
      <trkpt lat="49.14659" lon="4.91310999">
        <ele>172</ele>
        <time>2026-05-14T09:49:31+00:00</time>
      </trkpt>
      <trkpt lat="49.14667" lon="4.91298999">
        <ele>173</ele>
        <time>2026-05-14T09:49:32+00:00</time>
      </trkpt>
      <trkpt lat="49.14672999" lon="4.91295999">
        <ele>173</ele>
        <time>2026-05-14T09:49:33+00:00</time>
      </trkpt>
      <trkpt lat="49.14679999" lon="4.91263">
        <ele>173</ele>
        <time>2026-05-14T09:49:34+00:00</time>
      </trkpt>
      <trkpt lat="49.14703" lon="4.91234">
        <ele>172</ele>
        <time>2026-05-14T09:49:35+00:00</time>
      </trkpt>
      <trkpt lat="49.14717999" lon="4.91223">
        <ele>172</ele>
        <time>2026-05-14T09:49:36+00:00</time>
      </trkpt>
      <trkpt lat="49.14712" lon="4.91216999">
        <ele>170</ele>
        <time>2026-05-14T09:49:37+00:00</time>
      </trkpt>
      <trkpt lat="49.14695999" lon="4.91213999">
        <ele>169</ele>
        <time>2026-05-14T09:49:38+00:00</time>
      </trkpt>
      <trkpt lat="49.14699" lon="4.91199999">
        <ele>167</ele>
        <time>2026-05-14T09:49:39+00:00</time>
      </trkpt>
      <trkpt lat="49.14715999" lon="4.91190999">
        <ele>167</ele>
        <time>2026-05-14T09:49:40+00:00</time>
      </trkpt>
      <trkpt lat="49.14723999" lon="4.91174999">
        <ele>165</ele>
        <time>2026-05-14T09:49:41+00:00</time>
      </trkpt>
      <trkpt lat="49.14759999" lon="4.91159">
        <ele>165</ele>
        <time>2026-05-14T09:49:42+00:00</time>
      </trkpt>
      <trkpt lat="49.14768999" lon="4.91169999">
        <ele>168</ele>
        <time>2026-05-14T09:49:43+00:00</time>
      </trkpt>
      <trkpt lat="49.14771999" lon="4.91166">
        <ele>168</ele>
        <time>2026-05-14T09:49:44+00:00</time>
      </trkpt>
      <trkpt lat="49.14791999" lon="4.91214999">
        <ele>177</ele>
        <time>2026-05-14T09:49:45+00:00</time>
      </trkpt>
      <trkpt lat="49.14804999" lon="4.91213999">
        <ele>178</ele>
        <time>2026-05-14T09:49:46+00:00</time>
      </trkpt>
      <trkpt lat="49.14802" lon="4.91155999">
        <ele>172</ele>
        <time>2026-05-14T09:49:47+00:00</time>
      </trkpt>
      <trkpt lat="49.14804" lon="4.91129999">
        <ele>169</ele>
        <time>2026-05-14T09:49:48+00:00</time>
      </trkpt>
      <trkpt lat="49.14813" lon="4.91098999">
        <ele>167</ele>
        <time>2026-05-14T09:49:49+00:00</time>
      </trkpt>
      <trkpt lat="49.14844999" lon="4.91072">
        <ele>168</ele>
        <time>2026-05-14T09:49:50+00:00</time>
      </trkpt>
      <trkpt lat="49.14902" lon="4.90979">
        <ele>164</ele>
        <time>2026-05-14T09:49:51+00:00</time>
      </trkpt>
      <trkpt lat="49.14943999" lon="4.90892999">
        <ele>159</ele>
        <time>2026-05-14T09:49:52+00:00</time>
      </trkpt>
      <trkpt lat="49.14954999" lon="4.90880999">
        <ele>159</ele>
        <time>2026-05-14T09:49:53+00:00</time>
      </trkpt>
      <trkpt lat="49.14959999" lon="4.90852999">
        <ele>159</ele>
        <time>2026-05-14T09:49:54+00:00</time>
      </trkpt>
      <trkpt lat="49.1497" lon="4.90836999">
        <ele>159</ele>
        <time>2026-05-14T09:49:55+00:00</time>
      </trkpt>
      <trkpt lat="49.14979" lon="4.90814">
        <ele>159</ele>
        <time>2026-05-14T09:49:56+00:00</time>
      </trkpt>
      <trkpt lat="49.14994999" lon="4.908">
        <ele>158</ele>
        <time>2026-05-14T09:49:57+00:00</time>
      </trkpt>
      <trkpt lat="49.15037" lon="4.90784">
        <ele>162</ele>
        <time>2026-05-14T09:49:58+00:00</time>
      </trkpt>
      <trkpt lat="49.15062999" lon="4.90768999">
        <ele>164</ele>
        <time>2026-05-14T09:49:59+00:00</time>
      </trkpt>
      <trkpt lat="49.15073999" lon="4.90751">
        <ele>164</ele>
        <time>2026-05-14T09:50:00+00:00</time>
      </trkpt>
      <trkpt lat="49.15079" lon="4.90735999">
        <ele>164</ele>
        <time>2026-05-14T09:50:01+00:00</time>
      </trkpt>
      <trkpt lat="49.15048999" lon="4.90737">
        <ele>160</ele>
        <time>2026-05-14T09:50:02+00:00</time>
      </trkpt>
      <trkpt lat="49.15077" lon="4.90706">
        <ele>162</ele>
        <time>2026-05-14T09:50:03+00:00</time>
      </trkpt>
      <trkpt lat="49.15095" lon="4.90672999">
        <ele>163</ele>
        <time>2026-05-14T09:50:04+00:00</time>
      </trkpt>
      <trkpt lat="49.15115999" lon="4.90608999">
        <ele>164</ele>
        <time>2026-05-14T09:50:05+00:00</time>
      </trkpt>
      <trkpt lat="49.15135999" lon="4.90535">
        <ele>163</ele>
        <time>2026-05-14T09:50:06+00:00</time>
      </trkpt>
      <trkpt lat="49.15182" lon="4.90442">
        <ele>160</ele>
        <time>2026-05-14T09:50:07+00:00</time>
      </trkpt>
      <trkpt lat="49.15196999" lon="4.90378999">
        <ele>156</ele>
        <time>2026-05-14T09:50:08+00:00</time>
      </trkpt>
      <trkpt lat="49.1522" lon="4.90306999">
        <ele>156</ele>
        <time>2026-05-14T09:50:09+00:00</time>
      </trkpt>
      <trkpt lat="49.15216" lon="4.90270999">
        <ele>156</ele>
        <time>2026-05-14T09:50:10+00:00</time>
      </trkpt>
      <trkpt lat="49.15207" lon="4.90251">
        <ele>155</ele>
        <time>2026-05-14T09:50:11+00:00</time>
      </trkpt>
      <trkpt lat="49.15225" lon="4.90242999">
        <ele>157</ele>
        <time>2026-05-14T09:50:12+00:00</time>
      </trkpt>
      <trkpt lat="49.15283" lon="4.90153999">
        <ele>167</ele>
        <time>2026-05-14T09:50:13+00:00</time>
      </trkpt>
      <trkpt lat="49.15283999" lon="4.90108999">
        <ele>165</ele>
        <time>2026-05-14T09:50:14+00:00</time>
      </trkpt>
      <trkpt lat="49.15277999" lon="4.90083">
        <ele>163</ele>
        <time>2026-05-14T09:50:15+00:00</time>
      </trkpt>
      <trkpt lat="49.15279" lon="4.90036">
        <ele>160</ele>
        <time>2026-05-14T09:50:16+00:00</time>
      </trkpt>
      <trkpt lat="49.15288999" lon="4.89975">
        <ele>160</ele>
        <time>2026-05-14T09:50:17+00:00</time>
      </trkpt>
      <trkpt lat="49.15294" lon="4.8992">
        <ele>159</ele>
        <time>2026-05-14T09:50:18+00:00</time>
      </trkpt>
      <trkpt lat="49.15276999" lon="4.89885">
        <ele>154</ele>
        <time>2026-05-14T09:50:19+00:00</time>
      </trkpt>
      <trkpt lat="49.15288999" lon="4.89857999">
        <ele>156</ele>
        <time>2026-05-14T09:50:20+00:00</time>
      </trkpt>
      <trkpt lat="49.15306999" lon="4.89799999">
        <ele>158</ele>
        <time>2026-05-14T09:50:21+00:00</time>
      </trkpt>
      <trkpt lat="49.15317" lon="4.89787999">
        <ele>158</ele>
        <time>2026-05-14T09:50:22+00:00</time>
      </trkpt>
      <trkpt lat="49.15317999" lon="4.8977">
        <ele>157</ele>
        <time>2026-05-14T09:50:23+00:00</time>
      </trkpt>
      <trkpt lat="49.15308999" lon="4.89759999">
        <ele>156</ele>
        <time>2026-05-14T09:50:24+00:00</time>
      </trkpt>
      <trkpt lat="49.15323999" lon="4.89688999">
        <ele>156</ele>
        <time>2026-05-14T09:50:25+00:00</time>
      </trkpt>
      <trkpt lat="49.15341999" lon="4.89662">
        <ele>158</ele>
        <time>2026-05-14T09:50:26+00:00</time>
      </trkpt>
      <trkpt lat="49.15357" lon="4.89621999">
        <ele>161</ele>
        <time>2026-05-14T09:50:27+00:00</time>
      </trkpt>
      <trkpt lat="49.15357999" lon="4.89578999">
        <ele>162</ele>
        <time>2026-05-14T09:50:28+00:00</time>
      </trkpt>
      <trkpt lat="49.15350999" lon="4.89548999">
        <ele>159</ele>
        <time>2026-05-14T09:50:29+00:00</time>
      </trkpt>
      <trkpt lat="49.15334" lon="4.89524999">
        <ele>154</ele>
        <time>2026-05-14T09:50:30+00:00</time>
      </trkpt>
      <trkpt lat="49.15328999" lon="4.89510999">
        <ele>153</ele>
        <time>2026-05-14T09:50:31+00:00</time>
      </trkpt>
      <trkpt lat="49.15321999" lon="4.89451999">
        <ele>152</ele>
        <time>2026-05-14T09:50:32+00:00</time>
      </trkpt>
      <trkpt lat="49.15359" lon="4.8939">
        <ele>159</ele>
        <time>2026-05-14T09:50:33+00:00</time>
      </trkpt>
      <trkpt lat="49.15359" lon="4.89372999">
        <ele>159</ele>
        <time>2026-05-14T09:50:34+00:00</time>
      </trkpt>
      <trkpt lat="49.15344" lon="4.89309999">
        <ele>156</ele>
        <time>2026-05-14T09:50:35+00:00</time>
      </trkpt>
      <trkpt lat="49.15346" lon="4.89273999">
        <ele>159</ele>
        <time>2026-05-14T09:50:36+00:00</time>
      </trkpt>
      <trkpt lat="49.15323999" lon="4.89175">
        <ele>161</ele>
        <time>2026-05-14T09:50:37+00:00</time>
      </trkpt>
      <trkpt lat="49.1531" lon="4.89090999">
        <ele>163</ele>
        <time>2026-05-14T09:50:38+00:00</time>
      </trkpt>
      <trkpt lat="49.15288" lon="4.89004999">
        <ele>159</ele>
        <time>2026-05-14T09:50:39+00:00</time>
      </trkpt>
      <trkpt lat="49.15288" lon="4.88966999">
        <ele>159</ele>
        <time>2026-05-14T09:50:40+00:00</time>
      </trkpt>
      <trkpt lat="49.15279999" lon="4.8891">
        <ele>157</ele>
        <time>2026-05-14T09:50:41+00:00</time>
      </trkpt>
      <trkpt lat="49.15265999" lon="4.88856">
        <ele>153</ele>
        <time>2026-05-14T09:50:42+00:00</time>
      </trkpt>
      <trkpt lat="49.15254999" lon="4.88769999">
        <ele>147</ele>
        <time>2026-05-14T09:50:43+00:00</time>
      </trkpt>
      <trkpt lat="49.15263" lon="4.88731999">
        <ele>146</ele>
        <time>2026-05-14T09:50:44+00:00</time>
      </trkpt>
      <trkpt lat="49.15281" lon="4.88706999">
        <ele>148</ele>
        <time>2026-05-14T09:50:45+00:00</time>
      </trkpt>
      <trkpt lat="49.15287" lon="4.88658">
        <ele>146</ele>
        <time>2026-05-14T09:50:46+00:00</time>
      </trkpt>
      <trkpt lat="49.15281" lon="4.88619999">
        <ele>143</ele>
        <time>2026-05-14T09:50:47+00:00</time>
      </trkpt>
      <trkpt lat="49.15288" lon="4.88501">
        <ele>138</ele>
        <time>2026-05-14T09:50:48+00:00</time>
      </trkpt>
      <trkpt lat="49.15279999" lon="4.88464999">
        <ele>137</ele>
        <time>2026-05-14T09:50:49+00:00</time>
      </trkpt>
      <trkpt lat="49.15258999" lon="4.88417999">
        <ele>136</ele>
        <time>2026-05-14T09:50:50+00:00</time>
      </trkpt>
      <trkpt lat="49.15254999" lon="4.88381">
        <ele>136</ele>
        <time>2026-05-14T09:50:51+00:00</time>
      </trkpt>
      <trkpt lat="49.15256999" lon="4.88342">
        <ele>136</ele>
        <time>2026-05-14T09:50:52+00:00</time>
      </trkpt>
      <trkpt lat="49.15214999" lon="4.88443">
        <ele>139</ele>
        <time>2026-05-14T09:50:53+00:00</time>
      </trkpt>
      <trkpt lat="49.1514" lon="4.88522">
        <ele>147</ele>
        <time>2026-05-14T09:50:54+00:00</time>
      </trkpt>
      <trkpt lat="49.15135" lon="4.88546">
        <ele>148</ele>
        <time>2026-05-14T09:50:55+00:00</time>
      </trkpt>
      <trkpt lat="49.15140999" lon="4.88579999">
        <ele>148</ele>
        <time>2026-05-14T09:50:56+00:00</time>
      </trkpt>
      <trkpt lat="49.15142999" lon="4.88645999">
        <ele>148</ele>
        <time>2026-05-14T09:50:57+00:00</time>
      </trkpt>
      <trkpt lat="49.15122" lon="4.88731999">
        <ele>150</ele>
        <time>2026-05-14T09:50:58+00:00</time>
      </trkpt>
      <trkpt lat="49.15111999" lon="4.88815">
        <ele>150</ele>
        <time>2026-05-14T09:50:59+00:00</time>
      </trkpt>
      <trkpt lat="49.15135999" lon="4.89015">
        <ele>146</ele>
        <time>2026-05-14T09:51:00+00:00</time>
      </trkpt>
      <trkpt lat="49.152" lon="4.89229">
        <ele>145</ele>
        <time>2026-05-14T09:51:01+00:00</time>
      </trkpt>
      <trkpt lat="49.15115999" lon="4.8932">
        <ele>159</ele>
        <time>2026-05-14T09:51:02+00:00</time>
      </trkpt>
      <trkpt lat="49.15111999" lon="4.89348999">
        <ele>162</ele>
        <time>2026-05-14T09:51:03+00:00</time>
      </trkpt>
      <trkpt lat="49.15088" lon="4.89402">
        <ele>168</ele>
        <time>2026-05-14T09:51:04+00:00</time>
      </trkpt>
      <trkpt lat="49.15053999" lon="4.89388999">
        <ele>167</ele>
        <time>2026-05-14T09:51:05+00:00</time>
      </trkpt>
      <trkpt lat="49.15019" lon="4.89388">
        <ele>167</ele>
        <time>2026-05-14T09:51:06+00:00</time>
      </trkpt>
      <trkpt lat="49.14992999" lon="4.89444999">
        <ele>172</ele>
        <time>2026-05-14T09:51:07+00:00</time>
      </trkpt>
      <trkpt lat="49.14974" lon="4.89458">
        <ele>174</ele>
        <time>2026-05-14T09:51:08+00:00</time>
      </trkpt>
      <trkpt lat="49.14945999" lon="4.89461">
        <ele>174</ele>
        <time>2026-05-14T09:51:09+00:00</time>
      </trkpt>
      <trkpt lat="49.14929999" lon="4.89475999">
        <ele>176</ele>
        <time>2026-05-14T09:51:10+00:00</time>
      </trkpt>
      <trkpt lat="49.14916999" lon="4.89531">
        <ele>178</ele>
        <time>2026-05-14T09:51:11+00:00</time>
      </trkpt>
      <trkpt lat="49.14938999" lon="4.89550999">
        <ele>179</ele>
        <time>2026-05-14T09:51:12+00:00</time>
      </trkpt>
      <trkpt lat="49.15048999" lon="4.89719">
        <ele>176</ele>
        <time>2026-05-14T09:51:13+00:00</time>
      </trkpt>
      <trkpt lat="49.15079" lon="4.89733999">
        <ele>173</ele>
        <time>2026-05-14T09:51:14+00:00</time>
      </trkpt>
      <trkpt lat="49.15147999" lon="4.89698999">
        <ele>169</ele>
        <time>2026-05-14T09:51:15+00:00</time>
      </trkpt>
      <trkpt lat="49.15164999" lon="4.89696999">
        <ele>168</ele>
        <time>2026-05-14T09:51:16+00:00</time>
      </trkpt>
      <trkpt lat="49.15178999" lon="4.89712999">
        <ele>166</ele>
        <time>2026-05-14T09:51:17+00:00</time>
      </trkpt>
      <trkpt lat="49.1518" lon="4.89742999">
        <ele>166</ele>
        <time>2026-05-14T09:51:18+00:00</time>
      </trkpt>
      <trkpt lat="49.15176" lon="4.89777">
        <ele>165</ele>
        <time>2026-05-14T09:51:19+00:00</time>
      </trkpt>
      <trkpt lat="49.15162999" lon="4.89843999">
        <ele>161</ele>
        <time>2026-05-14T09:51:20+00:00</time>
      </trkpt>
      <trkpt lat="49.15173" lon="4.89886999">
        <ele>155</ele>
        <time>2026-05-14T09:51:21+00:00</time>
      </trkpt>
      <trkpt lat="49.15203" lon="4.8993">
        <ele>151</ele>
        <time>2026-05-14T09:51:22+00:00</time>
      </trkpt>
      <trkpt lat="49.152" lon="4.89953">
        <ele>151</ele>
        <time>2026-05-14T09:51:23+00:00</time>
      </trkpt>
      <trkpt lat="49.15164" lon="4.89958">
        <ele>152</ele>
        <time>2026-05-14T09:51:24+00:00</time>
      </trkpt>
      <trkpt lat="49.15162999" lon="4.89993999">
        <ele>152</ele>
        <time>2026-05-14T09:51:25+00:00</time>
      </trkpt>
      <trkpt lat="49.15142999" lon="4.90080999">
        <ele>155</ele>
        <time>2026-05-14T09:51:26+00:00</time>
      </trkpt>
      <trkpt lat="49.15113" lon="4.90172">
        <ele>163</ele>
        <time>2026-05-14T09:51:27+00:00</time>
      </trkpt>
      <trkpt lat="49.15086999" lon="4.90287">
        <ele>163</ele>
        <time>2026-05-14T09:51:28+00:00</time>
      </trkpt>
      <trkpt lat="49.15073" lon="4.90322">
        <ele>163</ele>
        <time>2026-05-14T09:51:29+00:00</time>
      </trkpt>
      <trkpt lat="49.15077" lon="4.90369">
        <ele>157</ele>
        <time>2026-05-14T09:51:30+00:00</time>
      </trkpt>
      <trkpt lat="49.15035" lon="4.90456">
        <ele>159</ele>
        <time>2026-05-14T09:51:31+00:00</time>
      </trkpt>
      <trkpt lat="49.15035999" lon="4.90503999">
        <ele>158</ele>
        <time>2026-05-14T09:51:32+00:00</time>
      </trkpt>
      <trkpt lat="49.15021" lon="4.90517">
        <ele>160</ele>
        <time>2026-05-14T09:51:33+00:00</time>
      </trkpt>
      <trkpt lat="49.15033999" lon="4.90533">
        <ele>158</ele>
        <time>2026-05-14T09:51:34+00:00</time>
      </trkpt>
      <trkpt lat="49.15026" lon="4.90563">
        <ele>158</ele>
        <time>2026-05-14T09:51:35+00:00</time>
      </trkpt>
      <trkpt lat="49.15014" lon="4.90561">
        <ele>158</ele>
        <time>2026-05-14T09:51:36+00:00</time>
      </trkpt>
      <trkpt lat="49.15003" lon="4.90597999">
        <ele>157</ele>
        <time>2026-05-14T09:51:37+00:00</time>
      </trkpt>
      <trkpt lat="49.15014" lon="4.90634">
        <ele>156</ele>
        <time>2026-05-14T09:51:38+00:00</time>
      </trkpt>
      <trkpt lat="49.15008" lon="4.90657">
        <ele>155</ele>
        <time>2026-05-14T09:51:39+00:00</time>
      </trkpt>
      <trkpt lat="49.14934999" lon="4.90713">
        <ele>163</ele>
        <time>2026-05-14T09:51:40+00:00</time>
      </trkpt>
      <trkpt lat="49.14896" lon="4.90772">
        <ele>163</ele>
        <time>2026-05-14T09:51:41+00:00</time>
      </trkpt>
      <trkpt lat="49.14878" lon="4.90782">
        <ele>166</ele>
        <time>2026-05-14T09:51:42+00:00</time>
      </trkpt>
      <trkpt lat="49.14865999" lon="4.90784">
        <ele>167</ele>
        <time>2026-05-14T09:51:43+00:00</time>
      </trkpt>
      <trkpt lat="49.14851999" lon="4.90814">
        <ele>166</ele>
        <time>2026-05-14T09:51:44+00:00</time>
      </trkpt>
      <trkpt lat="49.14809" lon="4.90826999">
        <ele>171</ele>
        <time>2026-05-14T09:51:45+00:00</time>
      </trkpt>
      <trkpt lat="49.14753" lon="4.90822999">
        <ele>182</ele>
        <time>2026-05-14T09:51:46+00:00</time>
      </trkpt>
      <trkpt lat="49.14703" lon="4.90803999">
        <ele>190</ele>
        <time>2026-05-14T09:51:47+00:00</time>
      </trkpt>
      <trkpt lat="49.14686999" lon="4.90885999">
        <ele>184</ele>
        <time>2026-05-14T09:51:48+00:00</time>
      </trkpt>
      <trkpt lat="49.14672" lon="4.90941999">
        <ele>179</ele>
        <time>2026-05-14T09:51:49+00:00</time>
      </trkpt>
      <trkpt lat="49.14668999" lon="4.90970999">
        <ele>174</ele>
        <time>2026-05-14T09:51:50+00:00</time>
      </trkpt>
      <trkpt lat="49.14659999" lon="4.90997">
        <ele>170</ele>
        <time>2026-05-14T09:51:51+00:00</time>
      </trkpt>
      <trkpt lat="49.14636999" lon="4.91018">
        <ele>171</ele>
        <time>2026-05-14T09:51:52+00:00</time>
      </trkpt>
      <trkpt lat="49.14623" lon="4.91037999">
        <ele>171</ele>
        <time>2026-05-14T09:51:53+00:00</time>
      </trkpt>
      <trkpt lat="49.14549" lon="4.91173999">
        <ele>169</ele>
        <time>2026-05-14T09:51:54+00:00</time>
      </trkpt>
      <trkpt lat="49.14526" lon="4.91234">
        <ele>170</ele>
        <time>2026-05-14T09:51:55+00:00</time>
      </trkpt>
      <trkpt lat="49.14488" lon="4.91312999">
        <ele>173</ele>
        <time>2026-05-14T09:51:56+00:00</time>
      </trkpt>
      <trkpt lat="49.1447" lon="4.91333">
        <ele>174</ele>
        <time>2026-05-14T09:51:57+00:00</time>
      </trkpt>
      <trkpt lat="49.14453999" lon="4.91342999">
        <ele>176</ele>
        <time>2026-05-14T09:51:58+00:00</time>
      </trkpt>
      <trkpt lat="49.14408999" lon="4.91338999">
        <ele>183</ele>
        <time>2026-05-14T09:51:59+00:00</time>
      </trkpt>
      <trkpt lat="49.14350999" lon="4.91396999">
        <ele>179</ele>
        <time>2026-05-14T09:52:00+00:00</time>
      </trkpt>
      <trkpt lat="49.14336999" lon="4.91394999">
        <ele>181</ele>
        <time>2026-05-14T09:52:01+00:00</time>
      </trkpt>
      <trkpt lat="49.14314999" lon="4.91406999">
        <ele>183</ele>
        <time>2026-05-14T09:52:02+00:00</time>
      </trkpt>
      <trkpt lat="49.1426" lon="4.91368">
        <ele>196</ele>
        <time>2026-05-14T09:52:03+00:00</time>
      </trkpt>
      <trkpt lat="49.14224" lon="4.91382999">
        <ele>197</ele>
        <time>2026-05-14T09:52:04+00:00</time>
      </trkpt>
      <trkpt lat="49.14130999" lon="4.91439999">
        <ele>197</ele>
        <time>2026-05-14T09:52:05+00:00</time>
      </trkpt>
      <trkpt lat="49.14103999" lon="4.91453">
        <ele>197</ele>
        <time>2026-05-14T09:52:06+00:00</time>
      </trkpt>
      <trkpt lat="49.14067" lon="4.91493">
        <ele>195</ele>
        <time>2026-05-14T09:52:07+00:00</time>
      </trkpt>
      <trkpt lat="49.14038999" lon="4.91516999">
        <ele>195</ele>
        <time>2026-05-14T09:52:08+00:00</time>
      </trkpt>
      <trkpt lat="49.14018999" lon="4.91591">
        <ele>194</ele>
        <time>2026-05-14T09:52:09+00:00</time>
      </trkpt>
      <trkpt lat="49.13933" lon="4.91631999">
        <ele>203</ele>
        <time>2026-05-14T09:52:10+00:00</time>
      </trkpt>
      <trkpt lat="49.13944999" lon="4.91699">
        <ele>200</ele>
        <time>2026-05-14T09:52:11+00:00</time>
      </trkpt>
      <trkpt lat="49.13951" lon="4.9172">
        <ele>199</ele>
        <time>2026-05-14T09:52:12+00:00</time>
      </trkpt>
      <trkpt lat="49.13953" lon="4.91741">
        <ele>198</ele>
        <time>2026-05-14T09:52:13+00:00</time>
      </trkpt>
      <trkpt lat="49.13938999" lon="4.91819999">
        <ele>193</ele>
        <time>2026-05-14T09:52:14+00:00</time>
      </trkpt>
      <trkpt lat="49.13933" lon="4.91835999">
        <ele>192</ele>
        <time>2026-05-14T09:52:15+00:00</time>
      </trkpt>
      <trkpt lat="49.13893" lon="4.91898999">
        <ele>192</ele>
        <time>2026-05-14T09:52:16+00:00</time>
      </trkpt>
      <trkpt lat="49.13884999" lon="4.91931">
        <ele>191</ele>
        <time>2026-05-14T09:52:17+00:00</time>
      </trkpt>
      <trkpt lat="49.13842999" lon="4.92004999">
        <ele>195</ele>
        <time>2026-05-14T09:52:18+00:00</time>
      </trkpt>
      <trkpt lat="49.13832" lon="4.92035">
        <ele>194</ele>
        <time>2026-05-14T09:52:19+00:00</time>
      </trkpt>
      <trkpt lat="49.13804999" lon="4.92056999">
        <ele>196</ele>
        <time>2026-05-14T09:52:20+00:00</time>
      </trkpt>
      <trkpt lat="49.13781" lon="4.92084">
        <ele>198</ele>
        <time>2026-05-14T09:52:21+00:00</time>
      </trkpt>
      <trkpt lat="49.13757999" lon="4.92121999">
        <ele>200</ele>
        <time>2026-05-14T09:52:22+00:00</time>
      </trkpt>
      <trkpt lat="49.13723" lon="4.92136999">
        <ele>203</ele>
        <time>2026-05-14T09:52:23+00:00</time>
      </trkpt>
      <trkpt lat="49.13727999" lon="4.92171999">
        <ele>201</ele>
        <time>2026-05-14T09:52:24+00:00</time>
      </trkpt>
      <trkpt lat="49.13710999" lon="4.92342">
        <ele>197</ele>
        <time>2026-05-14T09:52:25+00:00</time>
      </trkpt>
      <trkpt lat="49.13698999" lon="4.92377999">
        <ele>199</ele>
        <time>2026-05-14T09:52:26+00:00</time>
      </trkpt>
      <trkpt lat="49.13674" lon="4.92424">
        <ele>203</ele>
        <time>2026-05-14T09:52:27+00:00</time>
      </trkpt>
      <trkpt lat="49.13577999" lon="4.92332">
        <ele>210</ele>
        <time>2026-05-14T09:52:28+00:00</time>
      </trkpt>
      <trkpt lat="49.13568999" lon="4.92328999">
        <ele>211</ele>
        <time>2026-05-14T09:52:29+00:00</time>
      </trkpt>
      <trkpt lat="49.13546999" lon="4.92478">
        <ele>211</ele>
        <time>2026-05-14T09:52:30+00:00</time>
      </trkpt>
      <trkpt lat="49.13535" lon="4.92462999">
        <ele>211</ele>
        <time>2026-05-14T09:52:31+00:00</time>
      </trkpt>
      <trkpt lat="49.13528" lon="4.9245">
        <ele>212</ele>
        <time>2026-05-14T09:52:32+00:00</time>
      </trkpt>
      <trkpt lat="49.13503999" lon="4.92386999">
        <ele>214</ele>
        <time>2026-05-14T09:52:33+00:00</time>
      </trkpt>
      <trkpt lat="49.13508" lon="4.92382999">
        <ele>214</ele>
        <time>2026-05-14T09:52:34+00:00</time>
      </trkpt>
      <trkpt lat="49.13125999" lon="4.92743">
        <ele>226</ele>
        <time>2026-05-14T09:52:35+00:00</time>
      </trkpt>
      <trkpt lat="49.13195" lon="4.92922999">
        <ele>226</ele>
        <time>2026-05-14T09:52:36+00:00</time>
      </trkpt>
      <trkpt lat="49.13228999" lon="4.93031">
        <ele>226</ele>
        <time>2026-05-14T09:52:37+00:00</time>
      </trkpt>
      <trkpt lat="49.13165" lon="4.93069999">
        <ele>220</ele>
        <time>2026-05-14T09:52:38+00:00</time>
      </trkpt>
      <trkpt lat="49.13136999" lon="4.93003999">
        <ele>221</ele>
        <time>2026-05-14T09:52:39+00:00</time>
      </trkpt>
      <trkpt lat="49.13096" lon="4.92971">
        <ele>218</ele>
        <time>2026-05-14T09:52:40+00:00</time>
      </trkpt>
      <trkpt lat="49.13051" lon="4.92872999">
        <ele>214</ele>
        <time>2026-05-14T09:52:41+00:00</time>
      </trkpt>
      <trkpt lat="49.13016999" lon="4.92806999">
        <ele>210</ele>
        <time>2026-05-14T09:52:42+00:00</time>
      </trkpt>
      <trkpt lat="49.12964999" lon="4.92743999">
        <ele>204</ele>
        <time>2026-05-14T09:52:43+00:00</time>
      </trkpt>
      <trkpt lat="49.12933" lon="4.92701">
        <ele>200</ele>
        <time>2026-05-14T09:52:44+00:00</time>
      </trkpt>
      <trkpt lat="49.12879" lon="4.92654">
        <ele>194</ele>
        <time>2026-05-14T09:52:45+00:00</time>
      </trkpt>
      <trkpt lat="49.12828999" lon="4.9264">
        <ele>191</ele>
        <time>2026-05-14T09:52:46+00:00</time>
      </trkpt>
      <trkpt lat="49.12767" lon="4.92644999">
        <ele>184</ele>
        <time>2026-05-14T09:52:47+00:00</time>
      </trkpt>
      <trkpt lat="49.12698" lon="4.92661999">
        <ele>177</ele>
        <time>2026-05-14T09:52:48+00:00</time>
      </trkpt>
      <trkpt lat="49.12662" lon="4.92644999">
        <ele>176</ele>
        <time>2026-05-14T09:52:49+00:00</time>
      </trkpt>
      <trkpt lat="49.12635" lon="4.92593999">
        <ele>177</ele>
        <time>2026-05-14T09:52:50+00:00</time>
      </trkpt>
      <trkpt lat="49.12557999" lon="4.92361">
        <ele>176</ele>
        <time>2026-05-14T09:52:51+00:00</time>
      </trkpt>
      <trkpt lat="49.12617" lon="4.92286999">
        <ele>186</ele>
        <time>2026-05-14T09:52:52+00:00</time>
      </trkpt>
      <trkpt lat="49.12639" lon="4.92274999">
        <ele>190</ele>
        <time>2026-05-14T09:52:53+00:00</time>
      </trkpt>
      <trkpt lat="49.12648" lon="4.92255">
        <ele>191</ele>
        <time>2026-05-14T09:52:54+00:00</time>
      </trkpt>
      <trkpt lat="49.12640999" lon="4.92234">
        <ele>193</ele>
        <time>2026-05-14T09:52:55+00:00</time>
      </trkpt>
      <trkpt lat="49.12651999" lon="4.92201999">
        <ele>198</ele>
        <time>2026-05-14T09:52:56+00:00</time>
      </trkpt>
      <trkpt lat="49.12662999" lon="4.92203999">
        <ele>199</ele>
        <time>2026-05-14T09:52:57+00:00</time>
      </trkpt>
      <trkpt lat="49.12646999" lon="4.92180999">
        <ele>201</ele>
        <time>2026-05-14T09:52:58+00:00</time>
      </trkpt>
      <trkpt lat="49.12657999" lon="4.92173">
        <ele>203</ele>
        <time>2026-05-14T09:52:59+00:00</time>
      </trkpt>
      <trkpt lat="49.12631999" lon="4.92150999">
        <ele>204</ele>
        <time>2026-05-14T09:53:00+00:00</time>
      </trkpt>
      <trkpt lat="49.1255" lon="4.92180999">
        <ele>192</ele>
        <time>2026-05-14T09:53:01+00:00</time>
      </trkpt>
      <trkpt lat="49.12523" lon="4.92154">
        <ele>189</ele>
        <time>2026-05-14T09:53:02+00:00</time>
      </trkpt>
      <trkpt lat="49.1253" lon="4.92124999">
        <ele>192</ele>
        <time>2026-05-14T09:53:03+00:00</time>
      </trkpt>
      <trkpt lat="49.1255" lon="4.92109">
        <ele>196</ele>
        <time>2026-05-14T09:53:04+00:00</time>
      </trkpt>
      <trkpt lat="49.12557999" lon="4.92065">
        <ele>200</ele>
        <time>2026-05-14T09:53:05+00:00</time>
      </trkpt>
      <trkpt lat="49.12527" lon="4.91992">
        <ele>197</ele>
        <time>2026-05-14T09:53:06+00:00</time>
      </trkpt>
      <trkpt lat="49.12465" lon="4.91973">
        <ele>188</ele>
        <time>2026-05-14T09:53:07+00:00</time>
      </trkpt>
      <trkpt lat="49.12369" lon="4.91744999">
        <ele>188</ele>
        <time>2026-05-14T09:53:08+00:00</time>
      </trkpt>
      <trkpt lat="49.12380999" lon="4.91727999">
        <ele>191</ele>
        <time>2026-05-14T09:53:09+00:00</time>
      </trkpt>
      <trkpt lat="49.12398999" lon="4.91729">
        <ele>194</ele>
        <time>2026-05-14T09:53:10+00:00</time>
      </trkpt>
      <trkpt lat="49.12396999" lon="4.91713999">
        <ele>194</ele>
        <time>2026-05-14T09:53:11+00:00</time>
      </trkpt>
      <trkpt lat="49.12406" lon="4.91708">
        <ele>195</ele>
        <time>2026-05-14T09:53:12+00:00</time>
      </trkpt>
      <trkpt lat="49.12301999" lon="4.91523">
        <ele>195</ele>
        <time>2026-05-14T09:53:13+00:00</time>
      </trkpt>
      <trkpt lat="49.12263999" lon="4.91427">
        <ele>195</ele>
        <time>2026-05-14T09:53:14+00:00</time>
      </trkpt>
      <trkpt lat="49.12225999" lon="4.91361999">
        <ele>194</ele>
        <time>2026-05-14T09:53:15+00:00</time>
      </trkpt>
      <trkpt lat="49.12203" lon="4.913">
        <ele>196</ele>
        <time>2026-05-14T09:53:16+00:00</time>
      </trkpt>
      <trkpt lat="49.12147" lon="4.91268999">
        <ele>193</ele>
        <time>2026-05-14T09:53:17+00:00</time>
      </trkpt>
      <trkpt lat="49.12077" lon="4.9119">
        <ele>189</ele>
        <time>2026-05-14T09:53:18+00:00</time>
      </trkpt>
      <trkpt lat="49.12062999" lon="4.91188">
        <ele>188</ele>
        <time>2026-05-14T09:53:19+00:00</time>
      </trkpt>
      <trkpt lat="49.12035" lon="4.91209">
        <ele>185</ele>
        <time>2026-05-14T09:53:20+00:00</time>
      </trkpt>
      <trkpt lat="49.12012" lon="4.91209">
        <ele>183</ele>
        <time>2026-05-14T09:53:21+00:00</time>
      </trkpt>
      <trkpt lat="49.11995999" lon="4.91218999">
        <ele>180</ele>
        <time>2026-05-14T09:53:22+00:00</time>
      </trkpt>
      <trkpt lat="49.11968999" lon="4.91213">
        <ele>176</ele>
        <time>2026-05-14T09:53:23+00:00</time>
      </trkpt>
      <trkpt lat="49.11925999" lon="4.91263999">
        <ele>166</ele>
        <time>2026-05-14T09:53:24+00:00</time>
      </trkpt>
      <trkpt lat="49.11867" lon="4.91279">
        <ele>159</ele>
        <time>2026-05-14T09:53:25+00:00</time>
      </trkpt>
      <trkpt lat="49.11820999" lon="4.91300999">
        <ele>154</ele>
        <time>2026-05-14T09:53:26+00:00</time>
      </trkpt>
      <trkpt lat="49.11813" lon="4.91331999">
        <ele>154</ele>
        <time>2026-05-14T09:53:27+00:00</time>
      </trkpt>
      <trkpt lat="49.11793" lon="4.91354999">
        <ele>155</ele>
        <time>2026-05-14T09:53:28+00:00</time>
      </trkpt>
      <trkpt lat="49.11789" lon="4.91406999">
        <ele>158</ele>
        <time>2026-05-14T09:53:29+00:00</time>
      </trkpt>
      <trkpt lat="49.11804" lon="4.91716999">
        <ele>179</ele>
        <time>2026-05-14T09:53:30+00:00</time>
      </trkpt>
      <trkpt lat="49.11632999" lon="4.9173">
        <ele>161</ele>
        <time>2026-05-14T09:53:31+00:00</time>
      </trkpt>
      <trkpt lat="49.11619" lon="4.91748999">
        <ele>161</ele>
        <time>2026-05-14T09:53:32+00:00</time>
      </trkpt>
      <trkpt lat="49.11601999" lon="4.91788999">
        <ele>161</ele>
        <time>2026-05-14T09:53:33+00:00</time>
      </trkpt>
      <trkpt lat="49.11567999" lon="4.91704">
        <ele>156</ele>
        <time>2026-05-14T09:53:34+00:00</time>
      </trkpt>
      <trkpt lat="49.11545999" lon="4.91664">
        <ele>157</ele>
        <time>2026-05-14T09:53:35+00:00</time>
      </trkpt>
      <trkpt lat="49.11529999" lon="4.91619">
        <ele>163</ele>
        <time>2026-05-14T09:53:36+00:00</time>
      </trkpt>
      <trkpt lat="49.11534" lon="4.91601999">
        <ele>165</ele>
        <time>2026-05-14T09:53:37+00:00</time>
      </trkpt>
      <trkpt lat="49.11507" lon="4.91596">
        <ele>169</ele>
        <time>2026-05-14T09:53:38+00:00</time>
      </trkpt>
      <trkpt lat="49.11469" lon="4.91615">
        <ele>171</ele>
        <time>2026-05-14T09:53:39+00:00</time>
      </trkpt>
      <trkpt lat="49.11437999" lon="4.91676999">
        <ele>167</ele>
        <time>2026-05-14T09:53:40+00:00</time>
      </trkpt>
      <trkpt lat="49.11392" lon="4.91798">
        <ele>165</ele>
        <time>2026-05-14T09:53:41+00:00</time>
      </trkpt>
      <trkpt lat="49.11364999" lon="4.91915999">
        <ele>163</ele>
        <time>2026-05-14T09:53:42+00:00</time>
      </trkpt>
      <trkpt lat="49.11357999" lon="4.92107">
        <ele>162</ele>
        <time>2026-05-14T09:53:43+00:00</time>
      </trkpt>
      <trkpt lat="49.11319" lon="4.92342999">
        <ele>168</ele>
        <time>2026-05-14T09:53:44+00:00</time>
      </trkpt>
      <trkpt lat="49.11299" lon="4.9253">
        <ele>169</ele>
        <time>2026-05-14T09:53:45+00:00</time>
      </trkpt>
      <trkpt lat="49.11294" lon="4.92656999">
        <ele>172</ele>
        <time>2026-05-14T09:53:46+00:00</time>
      </trkpt>
      <trkpt lat="49.11299" lon="4.92755">
        <ele>171</ele>
        <time>2026-05-14T09:53:47+00:00</time>
      </trkpt>
      <trkpt lat="49.11303" lon="4.92931">
        <ele>168</ele>
        <time>2026-05-14T09:53:48+00:00</time>
      </trkpt>
      <trkpt lat="49.11283" lon="4.92994">
        <ele>169</ele>
        <time>2026-05-14T09:53:49+00:00</time>
      </trkpt>
      <trkpt lat="49.11238" lon="4.93172">
        <ele>170</ele>
        <time>2026-05-14T09:53:50+00:00</time>
      </trkpt>
      <trkpt lat="49.11162999" lon="4.93742999">
        <ele>173</ele>
        <time>2026-05-14T09:53:51+00:00</time>
      </trkpt>
      <trkpt lat="49.11162999" lon="4.93778">
        <ele>171</ele>
        <time>2026-05-14T09:53:52+00:00</time>
      </trkpt>
      <trkpt lat="49.11175999" lon="4.93813999">
        <ele>169</ele>
        <time>2026-05-14T09:53:53+00:00</time>
      </trkpt>
      <trkpt lat="49.11207999" lon="4.93871999">
        <ele>168</ele>
        <time>2026-05-14T09:53:54+00:00</time>
      </trkpt>
      <trkpt lat="49.11209" lon="4.93888">
        <ele>169</ele>
        <time>2026-05-14T09:53:55+00:00</time>
      </trkpt>
      <trkpt lat="49.11209" lon="4.93904">
        <ele>170</ele>
        <time>2026-05-14T09:53:56+00:00</time>
      </trkpt>
      <trkpt lat="49.11173999" lon="4.94008">
        <ele>174</ele>
        <time>2026-05-14T09:53:57+00:00</time>
      </trkpt>
      <trkpt lat="49.11169" lon="4.94045">
        <ele>175</ele>
        <time>2026-05-14T09:53:58+00:00</time>
      </trkpt>
      <trkpt lat="49.11167999" lon="4.94083">
        <ele>176</ele>
        <time>2026-05-14T09:53:59+00:00</time>
      </trkpt>
      <trkpt lat="49.11173999" lon="4.94139">
        <ele>180</ele>
        <time>2026-05-14T09:54:00+00:00</time>
      </trkpt>
      <trkpt lat="49.11171" lon="4.94212">
        <ele>178</ele>
        <time>2026-05-14T09:54:01+00:00</time>
      </trkpt>
      <trkpt lat="49.11180999" lon="4.94287999">
        <ele>178</ele>
        <time>2026-05-14T09:54:02+00:00</time>
      </trkpt>
      <trkpt lat="49.11216" lon="4.94454999">
        <ele>183</ele>
        <time>2026-05-14T09:54:03+00:00</time>
      </trkpt>
      <trkpt lat="49.11290999" lon="4.94732">
        <ele>182</ele>
        <time>2026-05-14T09:54:04+00:00</time>
      </trkpt>
      <trkpt lat="49.11336" lon="4.94878999">
        <ele>184</ele>
        <time>2026-05-14T09:54:05+00:00</time>
      </trkpt>
      <trkpt lat="49.11334999" lon="4.94937999">
        <ele>180</ele>
        <time>2026-05-14T09:54:06+00:00</time>
      </trkpt>
      <trkpt lat="49.1133" lon="4.94977999">
        <ele>177</ele>
        <time>2026-05-14T09:54:07+00:00</time>
      </trkpt>
      <trkpt lat="49.11131" lon="4.95092999">
        <ele>191</ele>
        <time>2026-05-14T09:54:08+00:00</time>
      </trkpt>
      <trkpt lat="49.1111" lon="4.95033999">
        <ele>197</ele>
        <time>2026-05-14T09:54:09+00:00</time>
      </trkpt>
      <trkpt lat="49.11063999" lon="4.95051">
        <ele>208</ele>
        <time>2026-05-14T09:54:10+00:00</time>
      </trkpt>
      <trkpt lat="49.10515999" lon="4.95354">
        <ele>199</ele>
        <time>2026-05-14T09:54:11+00:00</time>
      </trkpt>
      <trkpt lat="49.10497" lon="4.95232999">
        <ele>193</ele>
        <time>2026-05-14T09:54:12+00:00</time>
      </trkpt>
      <trkpt lat="49.10497" lon="4.95152">
        <ele>190</ele>
        <time>2026-05-14T09:54:13+00:00</time>
      </trkpt>
      <trkpt lat="49.10513999" lon="4.95077999">
        <ele>190</ele>
        <time>2026-05-14T09:54:14+00:00</time>
      </trkpt>
      <trkpt lat="49.10558" lon="4.95002">
        <ele>191</ele>
        <time>2026-05-14T09:54:15+00:00</time>
      </trkpt>
      <trkpt lat="49.10571" lon="4.94955999">
        <ele>191</ele>
        <time>2026-05-14T09:54:16+00:00</time>
      </trkpt>
      <trkpt lat="49.10573999" lon="4.94941999">
        <ele>190</ele>
        <time>2026-05-14T09:54:17+00:00</time>
      </trkpt>
      <trkpt lat="49.10578999" lon="4.94869">
        <ele>188</ele>
        <time>2026-05-14T09:54:18+00:00</time>
      </trkpt>
      <trkpt lat="49.10611999" lon="4.94728999">
        <ele>187</ele>
        <time>2026-05-14T09:54:19+00:00</time>
      </trkpt>
      <trkpt lat="49.10638999" lon="4.94502">
        <ele>184</ele>
        <time>2026-05-14T09:54:20+00:00</time>
      </trkpt>
      <trkpt lat="49.10544999" lon="4.94456999">
        <ele>187</ele>
        <time>2026-05-14T09:54:21+00:00</time>
      </trkpt>
      <trkpt lat="49.10513" lon="4.94517">
        <ele>188</ele>
        <time>2026-05-14T09:54:22+00:00</time>
      </trkpt>
      <trkpt lat="49.10495999" lon="4.94446999">
        <ele>199</ele>
        <time>2026-05-14T09:54:23+00:00</time>
      </trkpt>
      <trkpt lat="49.10582999" lon="4.94195">
        <ele>208</ele>
        <time>2026-05-14T09:54:24+00:00</time>
      </trkpt>
      <trkpt lat="49.10524" lon="4.94027999">
        <ele>209</ele>
        <time>2026-05-14T09:54:25+00:00</time>
      </trkpt>
      <trkpt lat="49.10524" lon="4.94034999">
        <ele>209</ele>
        <time>2026-05-14T09:54:26+00:00</time>
      </trkpt>
      <trkpt lat="49.10517999" lon="4.94043999">
        <ele>209</ele>
        <time>2026-05-14T09:54:27+00:00</time>
      </trkpt>
      <trkpt lat="49.10367999" lon="4.94174">
        <ele>209</ele>
        <time>2026-05-14T09:54:28+00:00</time>
      </trkpt>
      <trkpt lat="49.10345999" lon="4.94179">
        <ele>209</ele>
        <time>2026-05-14T09:54:29+00:00</time>
      </trkpt>
      <trkpt lat="49.10294999" lon="4.94181">
        <ele>210</ele>
        <time>2026-05-14T09:54:30+00:00</time>
      </trkpt>
      <trkpt lat="49.10197" lon="4.94233999">
        <ele>212</ele>
        <time>2026-05-14T09:54:31+00:00</time>
      </trkpt>
      <trkpt lat="49.10206" lon="4.94271999">
        <ele>213</ele>
        <time>2026-05-14T09:54:32+00:00</time>
      </trkpt>
      <trkpt lat="49.10101" lon="4.94299999">
        <ele>212</ele>
        <time>2026-05-14T09:54:33+00:00</time>
      </trkpt>
      <trkpt lat="49.10088999" lon="4.9431">
        <ele>213</ele>
        <time>2026-05-14T09:54:34+00:00</time>
      </trkpt>
      <trkpt lat="49.10067999" lon="4.94341999">
        <ele>213</ele>
        <time>2026-05-14T09:54:35+00:00</time>
      </trkpt>
      <trkpt lat="49.10047" lon="4.94357999">
        <ele>213</ele>
        <time>2026-05-14T09:54:36+00:00</time>
      </trkpt>
      <trkpt lat="49.10025" lon="4.94371">
        <ele>212</ele>
        <time>2026-05-14T09:54:37+00:00</time>
      </trkpt>
      <trkpt lat="49.09971999" lon="4.94393999">
        <ele>212</ele>
        <time>2026-05-14T09:54:38+00:00</time>
      </trkpt>
      <trkpt lat="49.09938999" lon="4.94399">
        <ele>211</ele>
        <time>2026-05-14T09:54:39+00:00</time>
      </trkpt>
      <trkpt lat="49.0992" lon="4.9427">
        <ele>210</ele>
        <time>2026-05-14T09:54:40+00:00</time>
      </trkpt>
      <trkpt lat="49.09846999" lon="4.94282999">
        <ele>207</ele>
        <time>2026-05-14T09:54:41+00:00</time>
      </trkpt>
      <trkpt lat="49.0979" lon="4.9431">
        <ele>206</ele>
        <time>2026-05-14T09:54:42+00:00</time>
      </trkpt>
      <trkpt lat="49.09743" lon="4.94338999">
        <ele>206</ele>
        <time>2026-05-14T09:54:43+00:00</time>
      </trkpt>
      <trkpt lat="49.09736999" lon="4.93918">
        <ele>201</ele>
        <time>2026-05-14T09:54:44+00:00</time>
      </trkpt>
      <trkpt lat="49.09741" lon="4.93876">
        <ele>200</ele>
        <time>2026-05-14T09:54:45+00:00</time>
      </trkpt>
      <trkpt lat="49.09794999" lon="4.93646999">
        <ele>196</ele>
        <time>2026-05-14T09:54:46+00:00</time>
      </trkpt>
      <trkpt lat="49.0979" lon="4.93644999">
        <ele>196</ele>
        <time>2026-05-14T09:54:47+00:00</time>
      </trkpt>
      <trkpt lat="49.09794999" lon="4.93625">
        <ele>196</ele>
        <time>2026-05-14T09:54:48+00:00</time>
      </trkpt>
      <trkpt lat="49.09745999" lon="4.93588">
        <ele>195</ele>
        <time>2026-05-14T09:54:49+00:00</time>
      </trkpt>
      <trkpt lat="49.09709" lon="4.93322">
        <ele>186</ele>
        <time>2026-05-14T09:54:50+00:00</time>
      </trkpt>
      <trkpt lat="49.09689999" lon="4.93259999">
        <ele>182</ele>
        <time>2026-05-14T09:54:51+00:00</time>
      </trkpt>
      <trkpt lat="49.0981" lon="4.93259">
        <ele>191</ele>
        <time>2026-05-14T09:54:52+00:00</time>
      </trkpt>
      <trkpt lat="49.09718" lon="4.93128">
        <ele>192</ele>
        <time>2026-05-14T09:54:53+00:00</time>
      </trkpt>
      <trkpt lat="49.09667" lon="4.93104999">
        <ele>190</ele>
        <time>2026-05-14T09:54:54+00:00</time>
      </trkpt>
      <trkpt lat="49.09637" lon="4.93045">
        <ele>193</ele>
        <time>2026-05-14T09:54:55+00:00</time>
      </trkpt>
      <trkpt lat="49.09593999" lon="4.9306">
        <ele>194</ele>
        <time>2026-05-14T09:54:56+00:00</time>
      </trkpt>
      <trkpt lat="49.09579" lon="4.93116999">
        <ele>190</ele>
        <time>2026-05-14T09:54:57+00:00</time>
      </trkpt>
      <trkpt lat="49.09443" lon="4.93041999">
        <ele>187</ele>
        <time>2026-05-14T09:54:58+00:00</time>
      </trkpt>
      <trkpt lat="49.09306" lon="4.9297">
        <ele>188</ele>
        <time>2026-05-14T09:54:59+00:00</time>
      </trkpt>
      <trkpt lat="49.09259999" lon="4.92978">
        <ele>186</ele>
        <time>2026-05-14T09:55:00+00:00</time>
      </trkpt>
      <trkpt lat="49.09226" lon="4.93018">
        <ele>182</ele>
        <time>2026-05-14T09:55:01+00:00</time>
      </trkpt>
      <trkpt lat="49.09141" lon="4.92971999">
        <ele>181</ele>
        <time>2026-05-14T09:55:02+00:00</time>
      </trkpt>
      <trkpt lat="49.09064999" lon="4.92773">
        <ele>182</ele>
        <time>2026-05-14T09:55:03+00:00</time>
      </trkpt>
      <trkpt lat="49.08980999" lon="4.92565999">
        <ele>179</ele>
        <time>2026-05-14T09:55:04+00:00</time>
      </trkpt>
      <trkpt lat="49.08962999" lon="4.92483999">
        <ele>177</ele>
        <time>2026-05-14T09:55:05+00:00</time>
      </trkpt>
      <trkpt lat="49.08955" lon="4.92307">
        <ele>178</ele>
        <time>2026-05-14T09:55:06+00:00</time>
      </trkpt>
      <trkpt lat="49.08944999" lon="4.9229">
        <ele>177</ele>
        <time>2026-05-14T09:55:07+00:00</time>
      </trkpt>
      <trkpt lat="49.08933999" lon="4.92262999">
        <ele>176</ele>
        <time>2026-05-14T09:55:08+00:00</time>
      </trkpt>
      <trkpt lat="49.08926" lon="4.92009">
        <ele>177</ele>
        <time>2026-05-14T09:55:09+00:00</time>
      </trkpt>
      <trkpt lat="49.08932" lon="4.91858">
        <ele>175</ele>
        <time>2026-05-14T09:55:10+00:00</time>
      </trkpt>
      <trkpt lat="49.08948999" lon="4.91849999">
        <ele>176</ele>
        <time>2026-05-14T09:55:11+00:00</time>
      </trkpt>
      <trkpt lat="49.08948999" lon="4.91831999">
        <ele>176</ele>
        <time>2026-05-14T09:55:12+00:00</time>
      </trkpt>
      <trkpt lat="49.0891" lon="4.91854">
        <ele>174</ele>
        <time>2026-05-14T09:55:13+00:00</time>
      </trkpt>
      <trkpt lat="49.08885999" lon="4.91896999">
        <ele>169</ele>
        <time>2026-05-14T09:55:14+00:00</time>
      </trkpt>
      <trkpt lat="49.08863999" lon="4.91946999">
        <ele>165</ele>
        <time>2026-05-14T09:55:15+00:00</time>
      </trkpt>
      <trkpt lat="49.088" lon="4.91978">
        <ele>152</ele>
        <time>2026-05-14T09:55:16+00:00</time>
      </trkpt>
      <trkpt lat="49.08791" lon="4.91959">
        <ele>150</ele>
        <time>2026-05-14T09:55:17+00:00</time>
      </trkpt>
      <trkpt lat="49.08789999" lon="4.91908999">
        <ele>150</ele>
        <time>2026-05-14T09:55:18+00:00</time>
      </trkpt>
      <trkpt lat="49.08802" lon="4.91772">
        <ele>150</ele>
        <time>2026-05-14T09:55:19+00:00</time>
      </trkpt>
      <trkpt lat="49.08805999" lon="4.9175">
        <ele>150</ele>
        <time>2026-05-14T09:55:20+00:00</time>
      </trkpt>
      <trkpt lat="49.08818999" lon="4.91687999">
        <ele>150</ele>
        <time>2026-05-14T09:55:21+00:00</time>
      </trkpt>
      <trkpt lat="49.08872999" lon="4.9149">
        <ele>151</ele>
        <time>2026-05-14T09:55:22+00:00</time>
      </trkpt>
      <trkpt lat="49.08894999" lon="4.91392999">
        <ele>148</ele>
        <time>2026-05-14T09:55:23+00:00</time>
      </trkpt>
      <trkpt lat="49.08908999" lon="4.91345">
        <ele>147</ele>
        <time>2026-05-14T09:55:24+00:00</time>
      </trkpt>
      <trkpt lat="49.08944" lon="4.91183999">
        <ele>147</ele>
        <time>2026-05-14T09:55:25+00:00</time>
      </trkpt>
      <trkpt lat="49.08941999" lon="4.91166999">
        <ele>146</ele>
        <time>2026-05-14T09:55:26+00:00</time>
      </trkpt>
      <trkpt lat="49.08932999" lon="4.91153999">
        <ele>144</ele>
        <time>2026-05-14T09:55:27+00:00</time>
      </trkpt>
      <trkpt lat="49.08928" lon="4.91150999">
        <ele>143</ele>
        <time>2026-05-14T09:55:28+00:00</time>
      </trkpt>
      <trkpt lat="49.08924999" lon="4.91126">
        <ele>142</ele>
        <time>2026-05-14T09:55:29+00:00</time>
      </trkpt>
      <trkpt lat="49.08914" lon="4.91082">
        <ele>140</ele>
        <time>2026-05-14T09:55:30+00:00</time>
      </trkpt>
      <trkpt lat="49.08912999" lon="4.91066">
        <ele>140</ele>
        <time>2026-05-14T09:55:31+00:00</time>
      </trkpt>
      <trkpt lat="49.08933999" lon="4.9099">
        <ele>143</ele>
        <time>2026-05-14T09:55:32+00:00</time>
      </trkpt>
      <trkpt lat="49.08953999" lon="4.90890999">
        <ele>143</ele>
        <time>2026-05-14T09:55:33+00:00</time>
      </trkpt>
      <trkpt lat="49.08961" lon="4.90817999">
        <ele>141</ele>
        <time>2026-05-14T09:55:34+00:00</time>
      </trkpt>
      <trkpt lat="49.08980999" lon="4.90662">
        <ele>142</ele>
        <time>2026-05-14T09:55:35+00:00</time>
      </trkpt>
      <trkpt lat="49.08973999" lon="4.90582">
        <ele>144</ele>
        <time>2026-05-14T09:55:36+00:00</time>
      </trkpt>
      <trkpt lat="49.08959999" lon="4.90493999">
        <ele>144</ele>
        <time>2026-05-14T09:55:37+00:00</time>
      </trkpt>
      <trkpt lat="49.08944" lon="4.90444">
        <ele>143</ele>
        <time>2026-05-14T09:55:38+00:00</time>
      </trkpt>
      <trkpt lat="49.08932999" lon="4.90427">
        <ele>142</ele>
        <time>2026-05-14T09:55:39+00:00</time>
      </trkpt>
      <trkpt lat="49.08919999" lon="4.90416999">
        <ele>142</ele>
        <time>2026-05-14T09:55:40+00:00</time>
      </trkpt>
      <trkpt lat="49.08914" lon="4.90383">
        <ele>140</ele>
        <time>2026-05-14T09:55:41+00:00</time>
      </trkpt>
      <trkpt lat="49.08901" lon="4.90381999">
        <ele>141</ele>
        <time>2026-05-14T09:55:42+00:00</time>
      </trkpt>
      <trkpt lat="49.08883" lon="4.90369">
        <ele>140</ele>
        <time>2026-05-14T09:55:43+00:00</time>
      </trkpt>
      <trkpt lat="49.08865" lon="4.90352">
        <ele>140</ele>
        <time>2026-05-14T09:55:44+00:00</time>
      </trkpt>
    </trkseg>
  </trk>
</gpx>
