<?xml version="1.0" encoding="UTF-8"?>
<gpx xmlns="http://www.topografix.com/GPX/1/1" xmlns:xsi="http://www.w3.org/2001/XMLSchema-instance" version="1.1" creator="phpGPX/1.3.0" xsi:schemaLocation="http://www.topografix.com/GPX/1/1 http://www.topografix.com/GPX/1/1/gpx.xsd">
  <metadata>
    <time>2026-05-11T18:35:26+00:00</time>
  </metadata>
  <trk>
    <name>Les Petits Bois - 7km</name>
    <trkseg>
      <trkpt lat="48.50484" lon="0.09921">
        <ele>184</ele>
        <time>2026-05-11T18:35:27+00:00</time>
      </trkpt>
      <trkpt lat="48.50471" lon="0.0987">
        <ele>185</ele>
        <time>2026-05-11T18:35:28+00:00</time>
      </trkpt>
      <trkpt lat="48.50491" lon="0.0986">
        <ele>186</ele>
        <time>2026-05-11T18:35:29+00:00</time>
      </trkpt>
      <trkpt lat="48.50539" lon="0.09814">
        <ele>188</ele>
        <time>2026-05-11T18:35:30+00:00</time>
      </trkpt>
      <trkpt lat="48.50552" lon="0.09805">
        <ele>188</ele>
        <time>2026-05-11T18:35:31+00:00</time>
      </trkpt>
      <trkpt lat="48.5057" lon="0.09797">
        <ele>189</ele>
        <time>2026-05-11T18:35:32+00:00</time>
      </trkpt>
      <trkpt lat="48.50633" lon="0.09782">
        <ele>191</ele>
        <time>2026-05-11T18:35:33+00:00</time>
      </trkpt>
      <trkpt lat="48.50689" lon="0.09764">
        <ele>196</ele>
        <time>2026-05-11T18:35:34+00:00</time>
      </trkpt>
      <trkpt lat="48.50713" lon="0.09764">
        <ele>198</ele>
        <time>2026-05-11T18:35:35+00:00</time>
      </trkpt>
      <trkpt lat="48.50721" lon="0.09767">
        <ele>199</ele>
        <time>2026-05-11T18:35:36+00:00</time>
      </trkpt>
      <trkpt lat="48.50722" lon="0.09761">
        <ele>200</ele>
        <time>2026-05-11T18:35:37+00:00</time>
      </trkpt>
      <trkpt lat="48.5076" lon="0.09776">
        <ele>201</ele>
        <time>2026-05-11T18:35:38+00:00</time>
      </trkpt>
      <trkpt lat="48.50802" lon="0.09829">
        <ele>196</ele>
        <time>2026-05-11T18:35:39+00:00</time>
      </trkpt>
      <trkpt lat="48.50818" lon="0.09843">
        <ele>197</ele>
        <time>2026-05-11T18:35:40+00:00</time>
      </trkpt>
      <trkpt lat="48.50824" lon="0.09842">
        <ele>197</ele>
        <time>2026-05-11T18:35:41+00:00</time>
      </trkpt>
      <trkpt lat="48.50839" lon="0.09852">
        <ele>198</ele>
        <time>2026-05-11T18:35:42+00:00</time>
      </trkpt>
      <trkpt lat="48.50853" lon="0.09855">
        <ele>199</ele>
        <time>2026-05-11T18:35:43+00:00</time>
      </trkpt>
      <trkpt lat="48.50859" lon="0.09854">
        <ele>199</ele>
        <time>2026-05-11T18:35:44+00:00</time>
      </trkpt>
      <trkpt lat="48.50882" lon="0.09839">
        <ele>200</ele>
        <time>2026-05-11T18:35:45+00:00</time>
      </trkpt>
      <trkpt lat="48.50892" lon="0.09836">
        <ele>201</ele>
        <time>2026-05-11T18:35:46+00:00</time>
      </trkpt>
      <trkpt lat="48.50902" lon="0.0982">
        <ele>203</ele>
        <time>2026-05-11T18:35:47+00:00</time>
      </trkpt>
      <trkpt lat="48.50896" lon="0.09792">
        <ele>206</ele>
        <time>2026-05-11T18:35:48+00:00</time>
      </trkpt>
      <trkpt lat="48.50907" lon="0.09784">
        <ele>207</ele>
        <time>2026-05-11T18:35:49+00:00</time>
      </trkpt>
      <trkpt lat="48.50909" lon="0.0978">
        <ele>207</ele>
        <time>2026-05-11T18:35:50+00:00</time>
      </trkpt>
      <trkpt lat="48.50908" lon="0.09761">
        <ele>209</ele>
        <time>2026-05-11T18:35:51+00:00</time>
      </trkpt>
      <trkpt lat="48.50913" lon="0.09748">
        <ele>210</ele>
        <time>2026-05-11T18:35:52+00:00</time>
      </trkpt>
      <trkpt lat="48.50924" lon="0.09735">
        <ele>211</ele>
        <time>2026-05-11T18:35:53+00:00</time>
      </trkpt>
      <trkpt lat="48.50927" lon="0.09718">
        <ele>212</ele>
        <time>2026-05-11T18:35:54+00:00</time>
      </trkpt>
      <trkpt lat="48.50939" lon="0.09686">
        <ele>215</ele>
        <time>2026-05-11T18:35:55+00:00</time>
      </trkpt>
      <trkpt lat="48.50949" lon="0.09673">
        <ele>215</ele>
        <time>2026-05-11T18:35:56+00:00</time>
      </trkpt>
      <trkpt lat="48.50971" lon="0.0966">
        <ele>215</ele>
        <time>2026-05-11T18:35:57+00:00</time>
      </trkpt>
      <trkpt lat="48.50975" lon="0.09661">
        <ele>215</ele>
        <time>2026-05-11T18:35:58+00:00</time>
      </trkpt>
      <trkpt lat="48.50977" lon="0.09655">
        <ele>215</ele>
        <time>2026-05-11T18:35:59+00:00</time>
      </trkpt>
      <trkpt lat="48.50973" lon="0.0965">
        <ele>216</ele>
        <time>2026-05-11T18:36:00+00:00</time>
      </trkpt>
      <trkpt lat="48.50969" lon="0.09633">
        <ele>217</ele>
        <time>2026-05-11T18:36:01+00:00</time>
      </trkpt>
      <trkpt lat="48.50963" lon="0.09621">
        <ele>218</ele>
        <time>2026-05-11T18:36:02+00:00</time>
      </trkpt>
      <trkpt lat="48.50962" lon="0.09608">
        <ele>218</ele>
        <time>2026-05-11T18:36:03+00:00</time>
      </trkpt>
      <trkpt lat="48.50958" lon="0.09602">
        <ele>219</ele>
        <time>2026-05-11T18:36:04+00:00</time>
      </trkpt>
      <trkpt lat="48.50947" lon="0.096">
        <ele>219</ele>
        <time>2026-05-11T18:36:05+00:00</time>
      </trkpt>
      <trkpt lat="48.50947" lon="0.09586">
        <ele>220</ele>
        <time>2026-05-11T18:36:06+00:00</time>
      </trkpt>
      <trkpt lat="48.50955" lon="0.09562">
        <ele>222</ele>
        <time>2026-05-11T18:36:07+00:00</time>
      </trkpt>
      <trkpt lat="48.50957" lon="0.09548">
        <ele>223</ele>
        <time>2026-05-11T18:36:08+00:00</time>
      </trkpt>
      <trkpt lat="48.50962" lon="0.09538">
        <ele>224</ele>
        <time>2026-05-11T18:36:09+00:00</time>
      </trkpt>
      <trkpt lat="48.50967" lon="0.09514">
        <ele>226</ele>
        <time>2026-05-11T18:36:10+00:00</time>
      </trkpt>
      <trkpt lat="48.50979" lon="0.09509">
        <ele>226</ele>
        <time>2026-05-11T18:36:11+00:00</time>
      </trkpt>
      <trkpt lat="48.50979" lon="0.09505">
        <ele>226</ele>
        <time>2026-05-11T18:36:12+00:00</time>
      </trkpt>
      <trkpt lat="48.50991" lon="0.09502">
        <ele>226</ele>
        <time>2026-05-11T18:36:13+00:00</time>
      </trkpt>
      <trkpt lat="48.51025" lon="0.09509">
        <ele>226</ele>
        <time>2026-05-11T18:36:14+00:00</time>
      </trkpt>
      <trkpt lat="48.51111" lon="0.09453">
        <ele>236</ele>
        <time>2026-05-11T18:36:15+00:00</time>
      </trkpt>
      <trkpt lat="48.51124" lon="0.09453">
        <ele>237</ele>
        <time>2026-05-11T18:36:16+00:00</time>
      </trkpt>
      <trkpt lat="48.51144" lon="0.09426">
        <ele>242</ele>
        <time>2026-05-11T18:36:17+00:00</time>
      </trkpt>
      <trkpt lat="48.51159" lon="0.09448">
        <ele>239</ele>
        <time>2026-05-11T18:36:18+00:00</time>
      </trkpt>
      <trkpt lat="48.51165" lon="0.09462">
        <ele>237</ele>
        <time>2026-05-11T18:36:19+00:00</time>
      </trkpt>
      <trkpt lat="48.51168" lon="0.09444">
        <ele>240</ele>
        <time>2026-05-11T18:36:20+00:00</time>
      </trkpt>
      <trkpt lat="48.51176" lon="0.09443">
        <ele>240</ele>
        <time>2026-05-11T18:36:21+00:00</time>
      </trkpt>
      <trkpt lat="48.51202" lon="0.0942">
        <ele>246</ele>
        <time>2026-05-11T18:36:22+00:00</time>
      </trkpt>
      <trkpt lat="48.51224" lon="0.09423">
        <ele>247</ele>
        <time>2026-05-11T18:36:23+00:00</time>
      </trkpt>
      <trkpt lat="48.51239" lon="0.09428">
        <ele>247</ele>
        <time>2026-05-11T18:36:24+00:00</time>
      </trkpt>
      <trkpt lat="48.51243" lon="0.09435">
        <ele>246</ele>
        <time>2026-05-11T18:36:25+00:00</time>
      </trkpt>
      <trkpt lat="48.51263" lon="0.0944">
        <ele>246</ele>
        <time>2026-05-11T18:36:26+00:00</time>
      </trkpt>
      <trkpt lat="48.51278" lon="0.09447">
        <ele>245</ele>
        <time>2026-05-11T18:36:27+00:00</time>
      </trkpt>
      <trkpt lat="48.51293" lon="0.09448">
        <ele>246</ele>
        <time>2026-05-11T18:36:28+00:00</time>
      </trkpt>
      <trkpt lat="48.51305" lon="0.09462">
        <ele>244</ele>
        <time>2026-05-11T18:36:29+00:00</time>
      </trkpt>
      <trkpt lat="48.5131" lon="0.09473">
        <ele>242</ele>
        <time>2026-05-11T18:36:30+00:00</time>
      </trkpt>
      <trkpt lat="48.51328" lon="0.09473">
        <ele>242</ele>
        <time>2026-05-11T18:36:31+00:00</time>
      </trkpt>
      <trkpt lat="48.51333" lon="0.09479">
        <ele>242</ele>
        <time>2026-05-11T18:36:32+00:00</time>
      </trkpt>
      <trkpt lat="48.51338" lon="0.09497">
        <ele>239</ele>
        <time>2026-05-11T18:36:33+00:00</time>
      </trkpt>
      <trkpt lat="48.51339" lon="0.09522">
        <ele>238</ele>
        <time>2026-05-11T18:36:34+00:00</time>
      </trkpt>
      <trkpt lat="48.51342" lon="0.09529">
        <ele>238</ele>
        <time>2026-05-11T18:36:35+00:00</time>
      </trkpt>
      <trkpt lat="48.51368" lon="0.09528">
        <ele>239</ele>
        <time>2026-05-11T18:36:36+00:00</time>
      </trkpt>
      <trkpt lat="48.51383" lon="0.0952">
        <ele>239</ele>
        <time>2026-05-11T18:36:37+00:00</time>
      </trkpt>
      <trkpt lat="48.51386" lon="0.0955">
        <ele>240</ele>
        <time>2026-05-11T18:36:38+00:00</time>
      </trkpt>
      <trkpt lat="48.5138" lon="0.09577">
        <ele>240</ele>
        <time>2026-05-11T18:36:39+00:00</time>
      </trkpt>
      <trkpt lat="48.51384" lon="0.0959">
        <ele>240</ele>
        <time>2026-05-11T18:36:40+00:00</time>
      </trkpt>
      <trkpt lat="48.51406" lon="0.09606">
        <ele>240</ele>
        <time>2026-05-11T18:36:41+00:00</time>
      </trkpt>
      <trkpt lat="48.51421" lon="0.09606">
        <ele>240</ele>
        <time>2026-05-11T18:36:42+00:00</time>
      </trkpt>
      <trkpt lat="48.51454" lon="0.09586">
        <ele>241</ele>
        <time>2026-05-11T18:36:43+00:00</time>
      </trkpt>
      <trkpt lat="48.51484" lon="0.09574">
        <ele>241</ele>
        <time>2026-05-11T18:36:44+00:00</time>
      </trkpt>
      <trkpt lat="48.51485" lon="0.09565">
        <ele>242</ele>
        <time>2026-05-11T18:36:45+00:00</time>
      </trkpt>
      <trkpt lat="48.51491" lon="0.09552">
        <ele>242</ele>
        <time>2026-05-11T18:36:46+00:00</time>
      </trkpt>
      <trkpt lat="48.51502" lon="0.09536">
        <ele>243</ele>
        <time>2026-05-11T18:36:47+00:00</time>
      </trkpt>
      <trkpt lat="48.51508" lon="0.09505">
        <ele>246</ele>
        <time>2026-05-11T18:36:48+00:00</time>
      </trkpt>
      <trkpt lat="48.51521" lon="0.09487">
        <ele>248</ele>
        <time>2026-05-11T18:36:49+00:00</time>
      </trkpt>
      <trkpt lat="48.51547" lon="0.09461">
        <ele>254</ele>
        <time>2026-05-11T18:36:50+00:00</time>
      </trkpt>
      <trkpt lat="48.51549" lon="0.09454">
        <ele>254</ele>
        <time>2026-05-11T18:36:51+00:00</time>
      </trkpt>
      <trkpt lat="48.51559" lon="0.09446">
        <ele>256</ele>
        <time>2026-05-11T18:36:52+00:00</time>
      </trkpt>
      <trkpt lat="48.51565" lon="0.09429">
        <ele>259</ele>
        <time>2026-05-11T18:36:53+00:00</time>
      </trkpt>
      <trkpt lat="48.51571" lon="0.09423">
        <ele>260</ele>
        <time>2026-05-11T18:36:54+00:00</time>
      </trkpt>
      <trkpt lat="48.51574" lon="0.09403">
        <ele>262</ele>
        <time>2026-05-11T18:36:55+00:00</time>
      </trkpt>
      <trkpt lat="48.51582" lon="0.09397">
        <ele>264</ele>
        <time>2026-05-11T18:36:56+00:00</time>
      </trkpt>
      <trkpt lat="48.51592" lon="0.09369">
        <ele>269</ele>
        <time>2026-05-11T18:36:57+00:00</time>
      </trkpt>
      <trkpt lat="48.51595" lon="0.0938">
        <ele>268</ele>
        <time>2026-05-11T18:36:58+00:00</time>
      </trkpt>
      <trkpt lat="48.51604" lon="0.09395">
        <ele>269</ele>
        <time>2026-05-11T18:36:59+00:00</time>
      </trkpt>
      <trkpt lat="48.51614" lon="0.0939">
        <ele>272</ele>
        <time>2026-05-11T18:37:00+00:00</time>
      </trkpt>
      <trkpt lat="48.51623" lon="0.09394">
        <ele>273</ele>
        <time>2026-05-11T18:37:01+00:00</time>
      </trkpt>
      <trkpt lat="48.51629" lon="0.09389">
        <ele>275</ele>
        <time>2026-05-11T18:37:02+00:00</time>
      </trkpt>
      <trkpt lat="48.51636" lon="0.0932">
        <ele>286</ele>
        <time>2026-05-11T18:37:03+00:00</time>
      </trkpt>
      <trkpt lat="48.51638" lon="0.0932">
        <ele>286</ele>
        <time>2026-05-11T18:37:04+00:00</time>
      </trkpt>
      <trkpt lat="48.51646" lon="0.09334">
        <ele>287</ele>
        <time>2026-05-11T18:37:05+00:00</time>
      </trkpt>
      <trkpt lat="48.51651" lon="0.09336">
        <ele>288</ele>
        <time>2026-05-11T18:37:06+00:00</time>
      </trkpt>
      <trkpt lat="48.51659" lon="0.09335">
        <ele>291</ele>
        <time>2026-05-11T18:37:07+00:00</time>
      </trkpt>
      <trkpt lat="48.5167" lon="0.09342">
        <ele>292</ele>
        <time>2026-05-11T18:37:08+00:00</time>
      </trkpt>
      <trkpt lat="48.51701" lon="0.09319">
        <ele>299</ele>
        <time>2026-05-11T18:37:09+00:00</time>
      </trkpt>
      <trkpt lat="48.51728" lon="0.09307">
        <ele>303</ele>
        <time>2026-05-11T18:37:10+00:00</time>
      </trkpt>
      <trkpt lat="48.51761" lon="0.09285">
        <ele>308</ele>
        <time>2026-05-11T18:37:11+00:00</time>
      </trkpt>
      <trkpt lat="48.51772" lon="0.09289">
        <ele>308</ele>
        <time>2026-05-11T18:37:12+00:00</time>
      </trkpt>
      <trkpt lat="48.51781" lon="0.09283">
        <ele>309</ele>
        <time>2026-05-11T18:37:13+00:00</time>
      </trkpt>
      <trkpt lat="48.51785" lon="0.09286">
        <ele>309</ele>
        <time>2026-05-11T18:37:14+00:00</time>
      </trkpt>
      <trkpt lat="48.51877" lon="0.09055">
        <ele>317</ele>
        <time>2026-05-11T18:37:15+00:00</time>
      </trkpt>
      <trkpt lat="48.51894" lon="0.09016">
        <ele>317</ele>
        <time>2026-05-11T18:37:16+00:00</time>
      </trkpt>
      <trkpt lat="48.51903" lon="0.09003">
        <ele>316</ele>
        <time>2026-05-11T18:37:17+00:00</time>
      </trkpt>
      <trkpt lat="48.51961" lon="0.09058">
        <ele>313</ele>
        <time>2026-05-11T18:37:18+00:00</time>
      </trkpt>
      <trkpt lat="48.52021" lon="0.09101">
        <ele>308</ele>
        <time>2026-05-11T18:37:19+00:00</time>
      </trkpt>
      <trkpt lat="48.52028" lon="0.09097">
        <ele>307</ele>
        <time>2026-05-11T18:37:20+00:00</time>
      </trkpt>
      <trkpt lat="48.52037" lon="0.09075">
        <ele>306</ele>
        <time>2026-05-11T18:37:21+00:00</time>
      </trkpt>
      <trkpt lat="48.5205" lon="0.09053">
        <ele>305</ele>
        <time>2026-05-11T18:37:22+00:00</time>
      </trkpt>
      <trkpt lat="48.52072" lon="0.08984">
        <ele>303</ele>
        <time>2026-05-11T18:37:23+00:00</time>
      </trkpt>
      <trkpt lat="48.52085" lon="0.08961">
        <ele>301</ele>
        <time>2026-05-11T18:37:24+00:00</time>
      </trkpt>
      <trkpt lat="48.52121" lon="0.0886">
        <ele>294</ele>
        <time>2026-05-11T18:37:25+00:00</time>
      </trkpt>
      <trkpt lat="48.52141" lon="0.08818">
        <ele>290</ele>
        <time>2026-05-11T18:37:26+00:00</time>
      </trkpt>
      <trkpt lat="48.52148" lon="0.0879">
        <ele>287</ele>
        <time>2026-05-11T18:37:27+00:00</time>
      </trkpt>
      <trkpt lat="48.52137" lon="0.08789">
        <ele>289</ele>
        <time>2026-05-11T18:37:28+00:00</time>
      </trkpt>
      <trkpt lat="48.52132" lon="0.08786">
        <ele>289</ele>
        <time>2026-05-11T18:37:29+00:00</time>
      </trkpt>
      <trkpt lat="48.52107" lon="0.08746">
        <ele>290</ele>
        <time>2026-05-11T18:37:30+00:00</time>
      </trkpt>
      <trkpt lat="48.52104" lon="0.08745">
        <ele>290</ele>
        <time>2026-05-11T18:37:31+00:00</time>
      </trkpt>
      <trkpt lat="48.52096" lon="0.08727">
        <ele>289</ele>
        <time>2026-05-11T18:37:32+00:00</time>
      </trkpt>
      <trkpt lat="48.52075" lon="0.08706">
        <ele>289</ele>
        <time>2026-05-11T18:37:33+00:00</time>
      </trkpt>
      <trkpt lat="48.52043" lon="0.08646">
        <ele>288</ele>
        <time>2026-05-11T18:37:34+00:00</time>
      </trkpt>
      <trkpt lat="48.52029" lon="0.08629">
        <ele>287</ele>
        <time>2026-05-11T18:37:35+00:00</time>
      </trkpt>
      <trkpt lat="48.52006" lon="0.08586">
        <ele>283</ele>
        <time>2026-05-11T18:37:36+00:00</time>
      </trkpt>
      <trkpt lat="48.52001" lon="0.08579">
        <ele>282</ele>
        <time>2026-05-11T18:37:37+00:00</time>
      </trkpt>
      <trkpt lat="48.51789" lon="0.089">
        <ele>318</ele>
        <time>2026-05-11T18:37:38+00:00</time>
      </trkpt>
      <trkpt lat="48.51744" lon="0.08841">
        <ele>320</ele>
        <time>2026-05-11T18:37:39+00:00</time>
      </trkpt>
      <trkpt lat="48.51396" lon="0.08336">
        <ele>298</ele>
        <time>2026-05-11T18:37:40+00:00</time>
      </trkpt>
      <trkpt lat="48.51381" lon="0.08344">
        <ele>300</ele>
        <time>2026-05-11T18:37:41+00:00</time>
      </trkpt>
      <trkpt lat="48.51373" lon="0.08356">
        <ele>302</ele>
        <time>2026-05-11T18:37:42+00:00</time>
      </trkpt>
      <trkpt lat="48.51365" lon="0.0836">
        <ele>302</ele>
        <time>2026-05-11T18:37:43+00:00</time>
      </trkpt>
      <trkpt lat="48.51361" lon="0.08361">
        <ele>303</ele>
        <time>2026-05-11T18:37:44+00:00</time>
      </trkpt>
      <trkpt lat="48.51353" lon="0.08373">
        <ele>304</ele>
        <time>2026-05-11T18:37:45+00:00</time>
      </trkpt>
      <trkpt lat="48.5134" lon="0.08382">
        <ele>306</ele>
        <time>2026-05-11T18:37:46+00:00</time>
      </trkpt>
      <trkpt lat="48.51324" lon="0.0839">
        <ele>307</ele>
        <time>2026-05-11T18:37:47+00:00</time>
      </trkpt>
      <trkpt lat="48.51304" lon="0.08402">
        <ele>309</ele>
        <time>2026-05-11T18:37:48+00:00</time>
      </trkpt>
      <trkpt lat="48.51277" lon="0.08436">
        <ele>312</ele>
        <time>2026-05-11T18:37:49+00:00</time>
      </trkpt>
      <trkpt lat="48.51259" lon="0.08455">
        <ele>314</ele>
        <time>2026-05-11T18:37:50+00:00</time>
      </trkpt>
      <trkpt lat="48.51252" lon="0.08462">
        <ele>314</ele>
        <time>2026-05-11T18:37:51+00:00</time>
      </trkpt>
      <trkpt lat="48.51239" lon="0.0847">
        <ele>315</ele>
        <time>2026-05-11T18:37:52+00:00</time>
      </trkpt>
      <trkpt lat="48.51228" lon="0.0848">
        <ele>315</ele>
        <time>2026-05-11T18:37:53+00:00</time>
      </trkpt>
      <trkpt lat="48.51216" lon="0.08493">
        <ele>315</ele>
        <time>2026-05-11T18:37:54+00:00</time>
      </trkpt>
      <trkpt lat="48.51209" lon="0.08503">
        <ele>315</ele>
        <time>2026-05-11T18:37:55+00:00</time>
      </trkpt>
      <trkpt lat="48.5119" lon="0.08523">
        <ele>315</ele>
        <time>2026-05-11T18:37:56+00:00</time>
      </trkpt>
      <trkpt lat="48.51173" lon="0.08544">
        <ele>315</ele>
        <time>2026-05-11T18:37:57+00:00</time>
      </trkpt>
      <trkpt lat="48.51165" lon="0.08551">
        <ele>315</ele>
        <time>2026-05-11T18:37:58+00:00</time>
      </trkpt>
      <trkpt lat="48.51144" lon="0.08565">
        <ele>314</ele>
        <time>2026-05-11T18:37:59+00:00</time>
      </trkpt>
      <trkpt lat="48.51119" lon="0.08586">
        <ele>312</ele>
        <time>2026-05-11T18:38:00+00:00</time>
      </trkpt>
      <trkpt lat="48.51079" lon="0.08648">
        <ele>310</ele>
        <time>2026-05-11T18:38:01+00:00</time>
      </trkpt>
      <trkpt lat="48.5105" lon="0.08692">
        <ele>308</ele>
        <time>2026-05-11T18:38:02+00:00</time>
      </trkpt>
      <trkpt lat="48.51031" lon="0.08723">
        <ele>307</ele>
        <time>2026-05-11T18:38:03+00:00</time>
      </trkpt>
      <trkpt lat="48.51003" lon="0.08707">
        <ele>306</ele>
        <time>2026-05-11T18:38:04+00:00</time>
      </trkpt>
      <trkpt lat="48.50991" lon="0.08688">
        <ele>307</ele>
        <time>2026-05-11T18:38:05+00:00</time>
      </trkpt>
      <trkpt lat="48.50753" lon="0.08373">
        <ele>319</ele>
        <time>2026-05-11T18:38:06+00:00</time>
      </trkpt>
      <trkpt lat="48.5075" lon="0.08369">
        <ele>319</ele>
        <time>2026-05-11T18:38:07+00:00</time>
      </trkpt>
      <trkpt lat="48.50746" lon="0.08381">
        <ele>319</ele>
        <time>2026-05-11T18:38:08+00:00</time>
      </trkpt>
      <trkpt lat="48.50716" lon="0.08438">
        <ele>320</ele>
        <time>2026-05-11T18:38:09+00:00</time>
      </trkpt>
      <trkpt lat="48.50701" lon="0.08487">
        <ele>320</ele>
        <time>2026-05-11T18:38:10+00:00</time>
      </trkpt>
      <trkpt lat="48.50654" lon="0.08594">
        <ele>319</ele>
        <time>2026-05-11T18:38:11+00:00</time>
      </trkpt>
      <trkpt lat="48.50628" lon="0.08646">
        <ele>317</ele>
        <time>2026-05-11T18:38:12+00:00</time>
      </trkpt>
      <trkpt lat="48.50628" lon="0.08639">
        <ele>317</ele>
        <time>2026-05-11T18:38:13+00:00</time>
      </trkpt>
      <trkpt lat="48.50621" lon="0.08635">
        <ele>317</ele>
        <time>2026-05-11T18:38:14+00:00</time>
      </trkpt>
      <trkpt lat="48.50609" lon="0.08634">
        <ele>317</ele>
        <time>2026-05-11T18:38:15+00:00</time>
      </trkpt>
      <trkpt lat="48.50602" lon="0.0863">
        <ele>317</ele>
        <time>2026-05-11T18:38:16+00:00</time>
      </trkpt>
      <trkpt lat="48.50597" lon="0.08631">
        <ele>316</ele>
        <time>2026-05-11T18:38:17+00:00</time>
      </trkpt>
      <trkpt lat="48.5056" lon="0.08574">
        <ele>316</ele>
        <time>2026-05-11T18:38:18+00:00</time>
      </trkpt>
      <trkpt lat="48.50547" lon="0.08571">
        <ele>315</ele>
        <time>2026-05-11T18:38:19+00:00</time>
      </trkpt>
      <trkpt lat="48.50529" lon="0.08575">
        <ele>314</ele>
        <time>2026-05-11T18:38:20+00:00</time>
      </trkpt>
      <trkpt lat="48.50522" lon="0.08584">
        <ele>313</ele>
        <time>2026-05-11T18:38:21+00:00</time>
      </trkpt>
      <trkpt lat="48.50514" lon="0.08607">
        <ele>311</ele>
        <time>2026-05-11T18:38:22+00:00</time>
      </trkpt>
      <trkpt lat="48.50499" lon="0.08606">
        <ele>310</ele>
        <time>2026-05-11T18:38:23+00:00</time>
      </trkpt>
      <trkpt lat="48.50491" lon="0.08609">
        <ele>308</ele>
        <time>2026-05-11T18:38:24+00:00</time>
      </trkpt>
      <trkpt lat="48.50473" lon="0.0861">
        <ele>305</ele>
        <time>2026-05-11T18:38:25+00:00</time>
      </trkpt>
      <trkpt lat="48.50467" lon="0.08602">
        <ele>304</ele>
        <time>2026-05-11T18:38:26+00:00</time>
      </trkpt>
      <trkpt lat="48.50465" lon="0.08586">
        <ele>305</ele>
        <time>2026-05-11T18:38:27+00:00</time>
      </trkpt>
      <trkpt lat="48.50462" lon="0.08585">
        <ele>305</ele>
        <time>2026-05-11T18:38:28+00:00</time>
      </trkpt>
      <trkpt lat="48.50459" lon="0.08569">
        <ele>305</ele>
        <time>2026-05-11T18:38:29+00:00</time>
      </trkpt>
      <trkpt lat="48.50456" lon="0.08567">
        <ele>304</ele>
        <time>2026-05-11T18:38:30+00:00</time>
      </trkpt>
      <trkpt lat="48.50443" lon="0.08564">
        <ele>302</ele>
        <time>2026-05-11T18:38:31+00:00</time>
      </trkpt>
      <trkpt lat="48.50429" lon="0.08555">
        <ele>300</ele>
        <time>2026-05-11T18:38:32+00:00</time>
      </trkpt>
      <trkpt lat="48.50407" lon="0.08564">
        <ele>295</ele>
        <time>2026-05-11T18:38:33+00:00</time>
      </trkpt>
      <trkpt lat="48.50402" lon="0.0857">
        <ele>293</ele>
        <time>2026-05-11T18:38:34+00:00</time>
      </trkpt>
      <trkpt lat="48.50403" lon="0.08596">
        <ele>291</ele>
        <time>2026-05-11T18:38:35+00:00</time>
      </trkpt>
      <trkpt lat="48.50394" lon="0.08605">
        <ele>287</ele>
        <time>2026-05-11T18:38:36+00:00</time>
      </trkpt>
      <trkpt lat="48.5039" lon="0.08627">
        <ele>283</ele>
        <time>2026-05-11T18:38:37+00:00</time>
      </trkpt>
      <trkpt lat="48.5039" lon="0.08644">
        <ele>280</ele>
        <time>2026-05-11T18:38:38+00:00</time>
      </trkpt>
      <trkpt lat="48.50397" lon="0.08686">
        <ele>277</ele>
        <time>2026-05-11T18:38:39+00:00</time>
      </trkpt>
      <trkpt lat="48.50393" lon="0.0874">
        <ele>269</ele>
        <time>2026-05-11T18:38:40+00:00</time>
      </trkpt>
      <trkpt lat="48.50397" lon="0.08778">
        <ele>265</ele>
        <time>2026-05-11T18:38:41+00:00</time>
      </trkpt>
      <trkpt lat="48.50416" lon="0.08824">
        <ele>264</ele>
        <time>2026-05-11T18:38:42+00:00</time>
      </trkpt>
      <trkpt lat="48.50418" lon="0.0884">
        <ele>262</ele>
        <time>2026-05-11T18:38:43+00:00</time>
      </trkpt>
      <trkpt lat="48.50427" lon="0.08861">
        <ele>261</ele>
        <time>2026-05-11T18:38:44+00:00</time>
      </trkpt>
      <trkpt lat="48.50429" lon="0.08858">
        <ele>262</ele>
        <time>2026-05-11T18:38:45+00:00</time>
      </trkpt>
      <trkpt lat="48.50441" lon="0.08871">
        <ele>262</ele>
        <time>2026-05-11T18:38:46+00:00</time>
      </trkpt>
      <trkpt lat="48.50449" lon="0.08875">
        <ele>263</ele>
        <time>2026-05-11T18:38:47+00:00</time>
      </trkpt>
      <trkpt lat="48.50463" lon="0.08893">
        <ele>263</ele>
        <time>2026-05-11T18:38:48+00:00</time>
      </trkpt>
      <trkpt lat="48.50483" lon="0.08895">
        <ele>267</ele>
        <time>2026-05-11T18:38:49+00:00</time>
      </trkpt>
      <trkpt lat="48.50512" lon="0.08911">
        <ele>269</ele>
        <time>2026-05-11T18:38:50+00:00</time>
      </trkpt>
      <trkpt lat="48.50528" lon="0.08913">
        <ele>272</ele>
        <time>2026-05-11T18:38:51+00:00</time>
      </trkpt>
      <trkpt lat="48.50538" lon="0.08919">
        <ele>273</ele>
        <time>2026-05-11T18:38:52+00:00</time>
      </trkpt>
      <trkpt lat="48.50544" lon="0.08926">
        <ele>273</ele>
        <time>2026-05-11T18:38:53+00:00</time>
      </trkpt>
      <trkpt lat="48.50573" lon="0.08941">
        <ele>277</ele>
        <time>2026-05-11T18:38:54+00:00</time>
      </trkpt>
      <trkpt lat="48.50588" lon="0.08941">
        <ele>279</ele>
        <time>2026-05-11T18:38:55+00:00</time>
      </trkpt>
      <trkpt lat="48.50617" lon="0.08946">
        <ele>282</ele>
        <time>2026-05-11T18:38:56+00:00</time>
      </trkpt>
      <trkpt lat="48.50619" lon="0.08953">
        <ele>281</ele>
        <time>2026-05-11T18:38:57+00:00</time>
      </trkpt>
      <trkpt lat="48.50615" lon="0.08968">
        <ele>279</ele>
        <time>2026-05-11T18:38:58+00:00</time>
      </trkpt>
      <trkpt lat="48.50617" lon="0.08976">
        <ele>278</ele>
        <time>2026-05-11T18:38:59+00:00</time>
      </trkpt>
      <trkpt lat="48.50614" lon="0.08989">
        <ele>275</ele>
        <time>2026-05-11T18:39:00+00:00</time>
      </trkpt>
      <trkpt lat="48.50613" lon="0.0902">
        <ele>271</ele>
        <time>2026-05-11T18:39:01+00:00</time>
      </trkpt>
      <trkpt lat="48.50618" lon="0.09029">
        <ele>270</ele>
        <time>2026-05-11T18:39:02+00:00</time>
      </trkpt>
      <trkpt lat="48.50657" lon="0.09066">
        <ele>270</ele>
        <time>2026-05-11T18:39:03+00:00</time>
      </trkpt>
      <trkpt lat="48.50708" lon="0.09095">
        <ele>273</ele>
        <time>2026-05-11T18:39:04+00:00</time>
      </trkpt>
      <trkpt lat="48.50726" lon="0.09102">
        <ele>275</ele>
        <time>2026-05-11T18:39:05+00:00</time>
      </trkpt>
      <trkpt lat="48.50743" lon="0.09105">
        <ele>276</ele>
        <time>2026-05-11T18:39:06+00:00</time>
      </trkpt>
      <trkpt lat="48.5075" lon="0.09113">
        <ele>276</ele>
        <time>2026-05-11T18:39:07+00:00</time>
      </trkpt>
      <trkpt lat="48.5075" lon="0.09124">
        <ele>275</ele>
        <time>2026-05-11T18:39:08+00:00</time>
      </trkpt>
      <trkpt lat="48.50736" lon="0.0914">
        <ele>272</ele>
        <time>2026-05-11T18:39:09+00:00</time>
      </trkpt>
      <trkpt lat="48.50719" lon="0.09165">
        <ele>269</ele>
        <time>2026-05-11T18:39:10+00:00</time>
      </trkpt>
      <trkpt lat="48.50703" lon="0.09191">
        <ele>266</ele>
        <time>2026-05-11T18:39:11+00:00</time>
      </trkpt>
      <trkpt lat="48.50694" lon="0.09213">
        <ele>264</ele>
        <time>2026-05-11T18:39:12+00:00</time>
      </trkpt>
      <trkpt lat="48.507" lon="0.09234">
        <ele>263</ele>
        <time>2026-05-11T18:39:13+00:00</time>
      </trkpt>
      <trkpt lat="48.50699" lon="0.09273">
        <ele>260</ele>
        <time>2026-05-11T18:39:14+00:00</time>
      </trkpt>
      <trkpt lat="48.50716" lon="0.0931">
        <ele>258</ele>
        <time>2026-05-11T18:39:15+00:00</time>
      </trkpt>
      <trkpt lat="48.50753" lon="0.09336">
        <ele>257</ele>
        <time>2026-05-11T18:39:16+00:00</time>
      </trkpt>
      <trkpt lat="48.50766" lon="0.09356">
        <ele>256</ele>
        <time>2026-05-11T18:39:17+00:00</time>
      </trkpt>
      <trkpt lat="48.50758" lon="0.09402">
        <ele>253</ele>
        <time>2026-05-11T18:39:18+00:00</time>
      </trkpt>
      <trkpt lat="48.5074" lon="0.09441">
        <ele>250</ele>
        <time>2026-05-11T18:39:19+00:00</time>
      </trkpt>
      <trkpt lat="48.50724" lon="0.09455">
        <ele>247</ele>
        <time>2026-05-11T18:39:20+00:00</time>
      </trkpt>
      <trkpt lat="48.50711" lon="0.09482">
        <ele>243</ele>
        <time>2026-05-11T18:39:21+00:00</time>
      </trkpt>
      <trkpt lat="48.50704" lon="0.09533">
        <ele>236</ele>
        <time>2026-05-11T18:39:22+00:00</time>
      </trkpt>
      <trkpt lat="48.50721" lon="0.0957">
        <ele>234</ele>
        <time>2026-05-11T18:39:23+00:00</time>
      </trkpt>
      <trkpt lat="48.50744" lon="0.09604">
        <ele>231</ele>
        <time>2026-05-11T18:39:24+00:00</time>
      </trkpt>
      <trkpt lat="48.50791" lon="0.09609">
        <ele>229</ele>
        <time>2026-05-11T18:39:25+00:00</time>
      </trkpt>
      <trkpt lat="48.50791" lon="0.09606">
        <ele>229</ele>
        <time>2026-05-11T18:39:26+00:00</time>
      </trkpt>
      <trkpt lat="48.50798" lon="0.09609">
        <ele>229</ele>
        <time>2026-05-11T18:39:27+00:00</time>
      </trkpt>
      <trkpt lat="48.50815" lon="0.09606">
        <ele>228</ele>
        <time>2026-05-11T18:39:28+00:00</time>
      </trkpt>
      <trkpt lat="48.5082" lon="0.09609">
        <ele>227</ele>
        <time>2026-05-11T18:39:29+00:00</time>
      </trkpt>
      <trkpt lat="48.50821" lon="0.09618">
        <ele>226</ele>
        <time>2026-05-11T18:39:30+00:00</time>
      </trkpt>
      <trkpt lat="48.50831" lon="0.09645">
        <ele>224</ele>
        <time>2026-05-11T18:39:31+00:00</time>
      </trkpt>
      <trkpt lat="48.50832" lon="0.09655">
        <ele>224</ele>
        <time>2026-05-11T18:39:32+00:00</time>
      </trkpt>
      <trkpt lat="48.50838" lon="0.09668">
        <ele>222</ele>
        <time>2026-05-11T18:39:33+00:00</time>
      </trkpt>
      <trkpt lat="48.50848" lon="0.09681">
        <ele>220</ele>
        <time>2026-05-11T18:39:34+00:00</time>
      </trkpt>
      <trkpt lat="48.50849" lon="0.09688">
        <ele>219</ele>
        <time>2026-05-11T18:39:35+00:00</time>
      </trkpt>
      <trkpt lat="48.50846" lon="0.09705">
        <ele>217</ele>
        <time>2026-05-11T18:39:36+00:00</time>
      </trkpt>
      <trkpt lat="48.50848" lon="0.09726">
        <ele>214</ele>
        <time>2026-05-11T18:39:37+00:00</time>
      </trkpt>
      <trkpt lat="48.50838" lon="0.09744">
        <ele>212</ele>
        <time>2026-05-11T18:39:38+00:00</time>
      </trkpt>
      <trkpt lat="48.50814" lon="0.09738">
        <ele>211</ele>
        <time>2026-05-11T18:39:39+00:00</time>
      </trkpt>
      <trkpt lat="48.50815" lon="0.09756">
        <ele>209</ele>
        <time>2026-05-11T18:39:40+00:00</time>
      </trkpt>
      <trkpt lat="48.50794" lon="0.09747">
        <ele>208</ele>
        <time>2026-05-11T18:39:41+00:00</time>
      </trkpt>
      <trkpt lat="48.5079" lon="0.0976">
        <ele>206</ele>
        <time>2026-05-11T18:39:42+00:00</time>
      </trkpt>
      <trkpt lat="48.50792" lon="0.09767">
        <ele>205</ele>
        <time>2026-05-11T18:39:43+00:00</time>
      </trkpt>
      <trkpt lat="48.50796" lon="0.0977">
        <ele>205</ele>
        <time>2026-05-11T18:39:44+00:00</time>
      </trkpt>
      <trkpt lat="48.50799" lon="0.09777">
        <ele>204</ele>
        <time>2026-05-11T18:39:45+00:00</time>
      </trkpt>
      <trkpt lat="48.50804" lon="0.0978">
        <ele>204</ele>
        <time>2026-05-11T18:39:46+00:00</time>
      </trkpt>
      <trkpt lat="48.50816" lon="0.09796">
        <ele>202</ele>
        <time>2026-05-11T18:39:47+00:00</time>
      </trkpt>
      <trkpt lat="48.50821" lon="0.09809">
        <ele>201</ele>
        <time>2026-05-11T18:39:48+00:00</time>
      </trkpt>
      <trkpt lat="48.50835" lon="0.09821">
        <ele>200</ele>
        <time>2026-05-11T18:39:49+00:00</time>
      </trkpt>
      <trkpt lat="48.50838" lon="0.09828">
        <ele>199</ele>
        <time>2026-05-11T18:39:50+00:00</time>
      </trkpt>
      <trkpt lat="48.50836" lon="0.0983">
        <ele>199</ele>
        <time>2026-05-11T18:39:51+00:00</time>
      </trkpt>
      <trkpt lat="48.50831" lon="0.09824">
        <ele>199</ele>
        <time>2026-05-11T18:39:52+00:00</time>
      </trkpt>
      <trkpt lat="48.50822" lon="0.09819">
        <ele>199</ele>
        <time>2026-05-11T18:39:53+00:00</time>
      </trkpt>
      <trkpt lat="48.50805" lon="0.09813">
        <ele>199</ele>
        <time>2026-05-11T18:39:54+00:00</time>
      </trkpt>
      <trkpt lat="48.50793" lon="0.09813">
        <ele>198</ele>
        <time>2026-05-11T18:39:55+00:00</time>
      </trkpt>
      <trkpt lat="48.50781" lon="0.09798">
        <ele>199</ele>
        <time>2026-05-11T18:39:56+00:00</time>
      </trkpt>
      <trkpt lat="48.50761" lon="0.09784">
        <ele>200</ele>
        <time>2026-05-11T18:39:57+00:00</time>
      </trkpt>
      <trkpt lat="48.50751" lon="0.09781">
        <ele>200</ele>
        <time>2026-05-11T18:39:58+00:00</time>
      </trkpt>
      <trkpt lat="48.50742" lon="0.09775">
        <ele>200</ele>
        <time>2026-05-11T18:39:59+00:00</time>
      </trkpt>
      <trkpt lat="48.50743" lon="0.09773">
        <ele>200</ele>
        <time>2026-05-11T18:40:00+00:00</time>
      </trkpt>
      <trkpt lat="48.5074" lon="0.09771">
        <ele>200</ele>
        <time>2026-05-11T18:40:01+00:00</time>
      </trkpt>
      <trkpt lat="48.50713" lon="0.09764">
        <ele>198</ele>
        <time>2026-05-11T18:40:02+00:00</time>
      </trkpt>
      <trkpt lat="48.50689" lon="0.09764">
        <ele>196</ele>
        <time>2026-05-11T18:40:03+00:00</time>
      </trkpt>
      <trkpt lat="48.50633" lon="0.09782">
        <ele>191</ele>
        <time>2026-05-11T18:40:04+00:00</time>
      </trkpt>
      <trkpt lat="48.50564" lon="0.09799">
        <ele>188</ele>
        <time>2026-05-11T18:40:05+00:00</time>
      </trkpt>
      <trkpt lat="48.50539" lon="0.09814">
        <ele>188</ele>
        <time>2026-05-11T18:40:06+00:00</time>
      </trkpt>
      <trkpt lat="48.50494" lon="0.09857">
        <ele>186</ele>
        <time>2026-05-11T18:40:07+00:00</time>
      </trkpt>
    </trkseg>
  </trk>
</gpx>
