<?xml version="1.0" encoding="UTF-8"?>
<gpx xmlns="http://www.topografix.com/GPX/1/1" xmlns:xsi="http://www.w3.org/2001/XMLSchema-instance" version="1.1" creator="phpGPX/1.3.0" xsi:schemaLocation="http://www.topografix.com/GPX/1/1 http://www.topografix.com/GPX/1/1/gpx.xsd">
  <metadata>
    <time>2026-05-11T18:36:25+00:00</time>
  </metadata>
  <trk>
    <name>Les gorges de la Daronne</name>
    <trkseg>
      <trkpt lat="45.05817" lon="4.72618">
        <ele>252</ele>
        <time>2026-05-11T18:36:26+00:00</time>
      </trkpt>
      <trkpt lat="45.05824" lon="4.72623">
        <ele>249</ele>
        <time>2026-05-11T18:36:27+00:00</time>
      </trkpt>
      <trkpt lat="45.05919" lon="4.72606">
        <ele>247</ele>
        <time>2026-05-11T18:36:28+00:00</time>
      </trkpt>
      <trkpt lat="45.05935" lon="4.7261">
        <ele>251</ele>
        <time>2026-05-11T18:36:29+00:00</time>
      </trkpt>
      <trkpt lat="45.05951" lon="4.72608">
        <ele>256</ele>
        <time>2026-05-11T18:36:30+00:00</time>
      </trkpt>
      <trkpt lat="45.05963" lon="4.72596">
        <ele>259</ele>
        <time>2026-05-11T18:36:31+00:00</time>
      </trkpt>
      <trkpt lat="45.05971" lon="4.72576">
        <ele>264</ele>
        <time>2026-05-11T18:36:32+00:00</time>
      </trkpt>
      <trkpt lat="45.05985" lon="4.72569">
        <ele>269</ele>
        <time>2026-05-11T18:36:33+00:00</time>
      </trkpt>
      <trkpt lat="45.05996" lon="4.7257">
        <ele>272</ele>
        <time>2026-05-11T18:36:34+00:00</time>
      </trkpt>
      <trkpt lat="45.06001" lon="4.7258">
        <ele>271</ele>
        <time>2026-05-11T18:36:35+00:00</time>
      </trkpt>
      <trkpt lat="45.06001" lon="4.72592">
        <ele>270</ele>
        <time>2026-05-11T18:36:36+00:00</time>
      </trkpt>
      <trkpt lat="45.05979" lon="4.72622">
        <ele>263</ele>
        <time>2026-05-11T18:36:37+00:00</time>
      </trkpt>
      <trkpt lat="45.05974" lon="4.72639">
        <ele>262</ele>
        <time>2026-05-11T18:36:38+00:00</time>
      </trkpt>
      <trkpt lat="45.05974" lon="4.72669">
        <ele>261</ele>
        <time>2026-05-11T18:36:39+00:00</time>
      </trkpt>
      <trkpt lat="45.06016" lon="4.72757">
        <ele>270</ele>
        <time>2026-05-11T18:36:40+00:00</time>
      </trkpt>
      <trkpt lat="45.06064" lon="4.72909">
        <ele>271</ele>
        <time>2026-05-11T18:36:41+00:00</time>
      </trkpt>
      <trkpt lat="45.06072" lon="4.72913">
        <ele>273</ele>
        <time>2026-05-11T18:36:42+00:00</time>
      </trkpt>
      <trkpt lat="45.06085" lon="4.72909">
        <ele>278</ele>
        <time>2026-05-11T18:36:43+00:00</time>
      </trkpt>
      <trkpt lat="45.06066" lon="4.72875">
        <ele>277</ele>
        <time>2026-05-11T18:36:44+00:00</time>
      </trkpt>
      <trkpt lat="45.06114" lon="4.72919">
        <ele>289</ele>
        <time>2026-05-11T18:36:45+00:00</time>
      </trkpt>
      <trkpt lat="45.0613" lon="4.72941">
        <ele>295</ele>
        <time>2026-05-11T18:36:46+00:00</time>
      </trkpt>
      <trkpt lat="45.06179" lon="4.72981">
        <ele>304</ele>
        <time>2026-05-11T18:36:47+00:00</time>
      </trkpt>
      <trkpt lat="45.06171" lon="4.72956">
        <ele>306</ele>
        <time>2026-05-11T18:36:48+00:00</time>
      </trkpt>
      <trkpt lat="45.06129" lon="4.72903">
        <ele>298</ele>
        <time>2026-05-11T18:36:49+00:00</time>
      </trkpt>
      <trkpt lat="45.06097" lon="4.72838">
        <ele>296</ele>
        <time>2026-05-11T18:36:50+00:00</time>
      </trkpt>
      <trkpt lat="45.06095" lon="4.72823">
        <ele>297</ele>
        <time>2026-05-11T18:36:51+00:00</time>
      </trkpt>
      <trkpt lat="45.06107" lon="4.72848">
        <ele>299</ele>
        <time>2026-05-11T18:36:52+00:00</time>
      </trkpt>
      <trkpt lat="45.06157" lon="4.72916">
        <ele>307</ele>
        <time>2026-05-11T18:36:53+00:00</time>
      </trkpt>
      <trkpt lat="45.06193" lon="4.72935">
        <ele>319</ele>
        <time>2026-05-11T18:36:54+00:00</time>
      </trkpt>
      <trkpt lat="45.06213" lon="4.72956">
        <ele>323</ele>
        <time>2026-05-11T18:36:55+00:00</time>
      </trkpt>
      <trkpt lat="45.06235" lon="4.72965">
        <ele>331</ele>
        <time>2026-05-11T18:36:56+00:00</time>
      </trkpt>
      <trkpt lat="45.06242" lon="4.72975">
        <ele>331</ele>
        <time>2026-05-11T18:36:57+00:00</time>
      </trkpt>
      <trkpt lat="45.06243" lon="4.73013">
        <ele>326</ele>
        <time>2026-05-11T18:36:58+00:00</time>
      </trkpt>
      <trkpt lat="45.06252" lon="4.73042">
        <ele>331</ele>
        <time>2026-05-11T18:36:59+00:00</time>
      </trkpt>
      <trkpt lat="45.06248" lon="4.73067">
        <ele>332</ele>
        <time>2026-05-11T18:37:00+00:00</time>
      </trkpt>
      <trkpt lat="45.06247" lon="4.73127">
        <ele>340</ele>
        <time>2026-05-11T18:37:01+00:00</time>
      </trkpt>
      <trkpt lat="45.0624" lon="4.73138">
        <ele>342</ele>
        <time>2026-05-11T18:37:02+00:00</time>
      </trkpt>
      <trkpt lat="45.06231" lon="4.73139">
        <ele>342</ele>
        <time>2026-05-11T18:37:03+00:00</time>
      </trkpt>
      <trkpt lat="45.06208" lon="4.73118">
        <ele>335</ele>
        <time>2026-05-11T18:37:04+00:00</time>
      </trkpt>
      <trkpt lat="45.06168" lon="4.73107">
        <ele>328</ele>
        <time>2026-05-11T18:37:05+00:00</time>
      </trkpt>
      <trkpt lat="45.0612" lon="4.73098">
        <ele>322</ele>
        <time>2026-05-11T18:37:06+00:00</time>
      </trkpt>
      <trkpt lat="45.06114" lon="4.73104">
        <ele>323</ele>
        <time>2026-05-11T18:37:07+00:00</time>
      </trkpt>
      <trkpt lat="45.06121" lon="4.7311">
        <ele>326</ele>
        <time>2026-05-11T18:37:08+00:00</time>
      </trkpt>
      <trkpt lat="45.06152" lon="4.73115">
        <ele>330</ele>
        <time>2026-05-11T18:37:09+00:00</time>
      </trkpt>
      <trkpt lat="45.06187" lon="4.73136">
        <ele>340</ele>
        <time>2026-05-11T18:37:10+00:00</time>
      </trkpt>
      <trkpt lat="45.06212" lon="4.73163">
        <ele>348</ele>
        <time>2026-05-11T18:37:11+00:00</time>
      </trkpt>
      <trkpt lat="45.06231" lon="4.73192">
        <ele>352</ele>
        <time>2026-05-11T18:37:12+00:00</time>
      </trkpt>
      <trkpt lat="45.06281" lon="4.73219">
        <ele>354</ele>
        <time>2026-05-11T18:37:13+00:00</time>
      </trkpt>
      <trkpt lat="45.06275" lon="4.73273">
        <ele>356</ele>
        <time>2026-05-11T18:37:14+00:00</time>
      </trkpt>
      <trkpt lat="45.06282" lon="4.73301">
        <ele>355</ele>
        <time>2026-05-11T18:37:15+00:00</time>
      </trkpt>
      <trkpt lat="45.06322" lon="4.7336">
        <ele>342</ele>
        <time>2026-05-11T18:37:16+00:00</time>
      </trkpt>
      <trkpt lat="45.06323" lon="4.73372">
        <ele>341</ele>
        <time>2026-05-11T18:37:17+00:00</time>
      </trkpt>
      <trkpt lat="45.06328" lon="4.73367">
        <ele>340</ele>
        <time>2026-05-11T18:37:18+00:00</time>
      </trkpt>
      <trkpt lat="45.06323" lon="4.73342">
        <ele>343</ele>
        <time>2026-05-11T18:37:19+00:00</time>
      </trkpt>
      <trkpt lat="45.06302" lon="4.733">
        <ele>350</ele>
        <time>2026-05-11T18:37:20+00:00</time>
      </trkpt>
      <trkpt lat="45.06301" lon="4.73278">
        <ele>351</ele>
        <time>2026-05-11T18:37:21+00:00</time>
      </trkpt>
      <trkpt lat="45.06307" lon="4.73262">
        <ele>350</ele>
        <time>2026-05-11T18:37:22+00:00</time>
      </trkpt>
      <trkpt lat="45.06331" lon="4.73245">
        <ele>346</ele>
        <time>2026-05-11T18:37:23+00:00</time>
      </trkpt>
      <trkpt lat="45.06366" lon="4.73238">
        <ele>342</ele>
        <time>2026-05-11T18:37:24+00:00</time>
      </trkpt>
      <trkpt lat="45.06383" lon="4.73208">
        <ele>346</ele>
        <time>2026-05-11T18:37:25+00:00</time>
      </trkpt>
      <trkpt lat="45.06393" lon="4.73201">
        <ele>347</ele>
        <time>2026-05-11T18:37:26+00:00</time>
      </trkpt>
      <trkpt lat="45.06405" lon="4.73204">
        <ele>345</ele>
        <time>2026-05-11T18:37:27+00:00</time>
      </trkpt>
      <trkpt lat="45.06443" lon="4.73245">
        <ele>333</ele>
        <time>2026-05-11T18:37:28+00:00</time>
      </trkpt>
      <trkpt lat="45.0646" lon="4.73248">
        <ele>334</ele>
        <time>2026-05-11T18:37:29+00:00</time>
      </trkpt>
      <trkpt lat="45.06471" lon="4.73243">
        <ele>336</ele>
        <time>2026-05-11T18:37:30+00:00</time>
      </trkpt>
      <trkpt lat="45.06478" lon="4.73248">
        <ele>335</ele>
        <time>2026-05-11T18:37:31+00:00</time>
      </trkpt>
      <trkpt lat="45.06494" lon="4.73293">
        <ele>323</ele>
        <time>2026-05-11T18:37:32+00:00</time>
      </trkpt>
      <trkpt lat="45.0651" lon="4.73303">
        <ele>321</ele>
        <time>2026-05-11T18:37:33+00:00</time>
      </trkpt>
      <trkpt lat="45.06529" lon="4.73304">
        <ele>324</ele>
        <time>2026-05-11T18:37:34+00:00</time>
      </trkpt>
      <trkpt lat="45.06537" lon="4.7331">
        <ele>323</ele>
        <time>2026-05-11T18:37:35+00:00</time>
      </trkpt>
      <trkpt lat="45.06553" lon="4.73362">
        <ele>311</ele>
        <time>2026-05-11T18:37:36+00:00</time>
      </trkpt>
      <trkpt lat="45.0657" lon="4.73358">
        <ele>314</ele>
        <time>2026-05-11T18:37:37+00:00</time>
      </trkpt>
      <trkpt lat="45.06589" lon="4.73359">
        <ele>313</ele>
        <time>2026-05-11T18:37:38+00:00</time>
      </trkpt>
      <trkpt lat="45.06621" lon="4.73283">
        <ele>322</ele>
        <time>2026-05-11T18:37:39+00:00</time>
      </trkpt>
      <trkpt lat="45.06634" lon="4.73267">
        <ele>321</ele>
        <time>2026-05-11T18:37:40+00:00</time>
      </trkpt>
      <trkpt lat="45.06653" lon="4.73259">
        <ele>316</ele>
        <time>2026-05-11T18:37:41+00:00</time>
      </trkpt>
      <trkpt lat="45.0667" lon="4.73239">
        <ele>316</ele>
        <time>2026-05-11T18:37:42+00:00</time>
      </trkpt>
      <trkpt lat="45.06682" lon="4.73201">
        <ele>321</ele>
        <time>2026-05-11T18:37:43+00:00</time>
      </trkpt>
      <trkpt lat="45.06698" lon="4.73176">
        <ele>320</ele>
        <time>2026-05-11T18:37:44+00:00</time>
      </trkpt>
      <trkpt lat="45.06703" lon="4.73149">
        <ele>324</ele>
        <time>2026-05-11T18:37:45+00:00</time>
      </trkpt>
      <trkpt lat="45.06712" lon="4.73127">
        <ele>324</ele>
        <time>2026-05-11T18:37:46+00:00</time>
      </trkpt>
      <trkpt lat="45.06713" lon="4.73102">
        <ele>329</ele>
        <time>2026-05-11T18:37:47+00:00</time>
      </trkpt>
      <trkpt lat="45.06719" lon="4.73095">
        <ele>328</ele>
        <time>2026-05-11T18:37:48+00:00</time>
      </trkpt>
      <trkpt lat="45.06747" lon="4.73085">
        <ele>319</ele>
        <time>2026-05-11T18:37:49+00:00</time>
      </trkpt>
      <trkpt lat="45.06754" lon="4.73087">
        <ele>318</ele>
        <time>2026-05-11T18:37:50+00:00</time>
      </trkpt>
      <trkpt lat="45.0676" lon="4.73109">
        <ele>313</ele>
        <time>2026-05-11T18:37:51+00:00</time>
      </trkpt>
      <trkpt lat="45.06786" lon="4.73164">
        <ele>298</ele>
        <time>2026-05-11T18:37:52+00:00</time>
      </trkpt>
      <trkpt lat="45.06819" lon="4.73187">
        <ele>291</ele>
        <time>2026-05-11T18:37:53+00:00</time>
      </trkpt>
      <trkpt lat="45.06839" lon="4.73186">
        <ele>292</ele>
        <time>2026-05-11T18:37:54+00:00</time>
      </trkpt>
      <trkpt lat="45.06863" lon="4.73192">
        <ele>291</ele>
        <time>2026-05-11T18:37:55+00:00</time>
      </trkpt>
      <trkpt lat="45.06882" lon="4.73184">
        <ele>297</ele>
        <time>2026-05-11T18:37:56+00:00</time>
      </trkpt>
      <trkpt lat="45.06891" lon="4.73186">
        <ele>297</ele>
        <time>2026-05-11T18:37:57+00:00</time>
      </trkpt>
      <trkpt lat="45.06907" lon="4.73207">
        <ele>287</ele>
        <time>2026-05-11T18:37:58+00:00</time>
      </trkpt>
      <trkpt lat="45.06923" lon="4.73218">
        <ele>283</ele>
        <time>2026-05-11T18:37:59+00:00</time>
      </trkpt>
      <trkpt lat="45.06937" lon="4.73221">
        <ele>283</ele>
        <time>2026-05-11T18:38:00+00:00</time>
      </trkpt>
      <trkpt lat="45.06952" lon="4.73219">
        <ele>286</ele>
        <time>2026-05-11T18:38:01+00:00</time>
      </trkpt>
      <trkpt lat="45.06972" lon="4.73239">
        <ele>279</ele>
        <time>2026-05-11T18:38:02+00:00</time>
      </trkpt>
      <trkpt lat="45.06996" lon="4.73251">
        <ele>277</ele>
        <time>2026-05-11T18:38:03+00:00</time>
      </trkpt>
      <trkpt lat="45.07117" lon="4.73337">
        <ele>254</ele>
        <time>2026-05-11T18:38:04+00:00</time>
      </trkpt>
      <trkpt lat="45.07183" lon="4.73437">
        <ele>260</ele>
        <time>2026-05-11T18:38:05+00:00</time>
      </trkpt>
      <trkpt lat="45.07234" lon="4.73474">
        <ele>274</ele>
        <time>2026-05-11T18:38:06+00:00</time>
      </trkpt>
      <trkpt lat="45.07309" lon="4.73471">
        <ele>275</ele>
        <time>2026-05-11T18:38:07+00:00</time>
      </trkpt>
      <trkpt lat="45.07348" lon="4.73453">
        <ele>268</ele>
        <time>2026-05-11T18:38:08+00:00</time>
      </trkpt>
      <trkpt lat="45.07351" lon="4.73493">
        <ele>273</ele>
        <time>2026-05-11T18:38:09+00:00</time>
      </trkpt>
      <trkpt lat="45.07364" lon="4.73541">
        <ele>273</ele>
        <time>2026-05-11T18:38:10+00:00</time>
      </trkpt>
      <trkpt lat="45.07368" lon="4.73515">
        <ele>269</ele>
        <time>2026-05-11T18:38:11+00:00</time>
      </trkpt>
      <trkpt lat="45.07381" lon="4.73488">
        <ele>263</ele>
        <time>2026-05-11T18:38:12+00:00</time>
      </trkpt>
      <trkpt lat="45.07384" lon="4.73528">
        <ele>264</ele>
        <time>2026-05-11T18:38:13+00:00</time>
      </trkpt>
      <trkpt lat="45.07397" lon="4.735">
        <ele>258</ele>
        <time>2026-05-11T18:38:14+00:00</time>
      </trkpt>
      <trkpt lat="45.07433" lon="4.7347">
        <ele>255</ele>
        <time>2026-05-11T18:38:15+00:00</time>
      </trkpt>
      <trkpt lat="45.07464" lon="4.73429">
        <ele>253</ele>
        <time>2026-05-11T18:38:16+00:00</time>
      </trkpt>
      <trkpt lat="45.07497" lon="4.73326">
        <ele>253</ele>
        <time>2026-05-11T18:38:17+00:00</time>
      </trkpt>
      <trkpt lat="45.07501" lon="4.73326">
        <ele>252</ele>
        <time>2026-05-11T18:38:18+00:00</time>
      </trkpt>
      <trkpt lat="45.07501" lon="4.73338">
        <ele>252</ele>
        <time>2026-05-11T18:38:19+00:00</time>
      </trkpt>
      <trkpt lat="45.07513" lon="4.73342">
        <ele>252</ele>
        <time>2026-05-11T18:38:20+00:00</time>
      </trkpt>
      <trkpt lat="45.07529" lon="4.73371">
        <ele>253</ele>
        <time>2026-05-11T18:38:21+00:00</time>
      </trkpt>
      <trkpt lat="45.07533" lon="4.73413">
        <ele>251</ele>
        <time>2026-05-11T18:38:22+00:00</time>
      </trkpt>
      <trkpt lat="45.07565" lon="4.73401">
        <ele>256</ele>
        <time>2026-05-11T18:38:23+00:00</time>
      </trkpt>
      <trkpt lat="45.07576" lon="4.73406">
        <ele>257</ele>
        <time>2026-05-11T18:38:24+00:00</time>
      </trkpt>
      <trkpt lat="45.076" lon="4.73434">
        <ele>268</ele>
        <time>2026-05-11T18:38:25+00:00</time>
      </trkpt>
      <trkpt lat="45.07617" lon="4.73446">
        <ele>275</ele>
        <time>2026-05-11T18:38:26+00:00</time>
      </trkpt>
      <trkpt lat="45.07636" lon="4.73435">
        <ele>272</ele>
        <time>2026-05-11T18:38:27+00:00</time>
      </trkpt>
      <trkpt lat="45.07657" lon="4.73433">
        <ele>274</ele>
        <time>2026-05-11T18:38:28+00:00</time>
      </trkpt>
      <trkpt lat="45.07668" lon="4.73424">
        <ele>271</ele>
        <time>2026-05-11T18:38:29+00:00</time>
      </trkpt>
      <trkpt lat="45.07682" lon="4.7342">
        <ele>271</ele>
        <time>2026-05-11T18:38:30+00:00</time>
      </trkpt>
      <trkpt lat="45.07697" lon="4.73424">
        <ele>275</ele>
        <time>2026-05-11T18:38:31+00:00</time>
      </trkpt>
      <trkpt lat="45.07701" lon="4.73418">
        <ele>273</ele>
        <time>2026-05-11T18:38:32+00:00</time>
      </trkpt>
      <trkpt lat="45.07721" lon="4.73422">
        <ele>277</ele>
        <time>2026-05-11T18:38:33+00:00</time>
      </trkpt>
      <trkpt lat="45.07728" lon="4.73431">
        <ele>282</ele>
        <time>2026-05-11T18:38:34+00:00</time>
      </trkpt>
      <trkpt lat="45.07719" lon="4.73445">
        <ele>286</ele>
        <time>2026-05-11T18:38:35+00:00</time>
      </trkpt>
      <trkpt lat="45.0771" lon="4.73449">
        <ele>287</ele>
        <time>2026-05-11T18:38:36+00:00</time>
      </trkpt>
      <trkpt lat="45.07699" lon="4.73463">
        <ele>291</ele>
        <time>2026-05-11T18:38:37+00:00</time>
      </trkpt>
      <trkpt lat="45.07674" lon="4.73474">
        <ele>293</ele>
        <time>2026-05-11T18:38:38+00:00</time>
      </trkpt>
      <trkpt lat="45.07666" lon="4.73473">
        <ele>292</ele>
        <time>2026-05-11T18:38:39+00:00</time>
      </trkpt>
      <trkpt lat="45.07664" lon="4.73469">
        <ele>290</ele>
        <time>2026-05-11T18:38:40+00:00</time>
      </trkpt>
      <trkpt lat="45.07663" lon="4.73472">
        <ele>291</ele>
        <time>2026-05-11T18:38:41+00:00</time>
      </trkpt>
      <trkpt lat="45.07679" lon="4.73518">
        <ele>313</ele>
        <time>2026-05-11T18:38:42+00:00</time>
      </trkpt>
      <trkpt lat="45.07678" lon="4.73523">
        <ele>316</ele>
        <time>2026-05-11T18:38:43+00:00</time>
      </trkpt>
      <trkpt lat="45.07666" lon="4.73513">
        <ele>310</ele>
        <time>2026-05-11T18:38:44+00:00</time>
      </trkpt>
      <trkpt lat="45.07666" lon="4.73518">
        <ele>313</ele>
        <time>2026-05-11T18:38:45+00:00</time>
      </trkpt>
      <trkpt lat="45.07676" lon="4.73538">
        <ele>323</ele>
        <time>2026-05-11T18:38:46+00:00</time>
      </trkpt>
      <trkpt lat="45.07683" lon="4.73568">
        <ele>337</ele>
        <time>2026-05-11T18:38:47+00:00</time>
      </trkpt>
      <trkpt lat="45.07658" lon="4.73544">
        <ele>324</ele>
        <time>2026-05-11T18:38:48+00:00</time>
      </trkpt>
      <trkpt lat="45.07652" lon="4.73544">
        <ele>323</ele>
        <time>2026-05-11T18:38:49+00:00</time>
      </trkpt>
      <trkpt lat="45.07649" lon="4.73549">
        <ele>325</ele>
        <time>2026-05-11T18:38:50+00:00</time>
      </trkpt>
      <trkpt lat="45.07686" lon="4.7364">
        <ele>361</ele>
        <time>2026-05-11T18:38:51+00:00</time>
      </trkpt>
      <trkpt lat="45.07693" lon="4.73673">
        <ele>370</ele>
        <time>2026-05-11T18:38:52+00:00</time>
      </trkpt>
      <trkpt lat="45.0769" lon="4.73675">
        <ele>371</ele>
        <time>2026-05-11T18:38:53+00:00</time>
      </trkpt>
      <trkpt lat="45.07677" lon="4.73667">
        <ele>369</ele>
        <time>2026-05-11T18:38:54+00:00</time>
      </trkpt>
      <trkpt lat="45.07676" lon="4.73662">
        <ele>367</ele>
        <time>2026-05-11T18:38:55+00:00</time>
      </trkpt>
      <trkpt lat="45.07641" lon="4.73641">
        <ele>354</ele>
        <time>2026-05-11T18:38:56+00:00</time>
      </trkpt>
      <trkpt lat="45.07636" lon="4.73639">
        <ele>352</ele>
        <time>2026-05-11T18:38:57+00:00</time>
      </trkpt>
      <trkpt lat="45.07631" lon="4.73646">
        <ele>353</ele>
        <time>2026-05-11T18:38:58+00:00</time>
      </trkpt>
      <trkpt lat="45.07636" lon="4.73665">
        <ele>358</ele>
        <time>2026-05-11T18:38:59+00:00</time>
      </trkpt>
      <trkpt lat="45.07633" lon="4.73678">
        <ele>359</ele>
        <time>2026-05-11T18:39:00+00:00</time>
      </trkpt>
      <trkpt lat="45.07637" lon="4.73692">
        <ele>363</ele>
        <time>2026-05-11T18:39:01+00:00</time>
      </trkpt>
      <trkpt lat="45.07649" lon="4.73706">
        <ele>369</ele>
        <time>2026-05-11T18:39:02+00:00</time>
      </trkpt>
      <trkpt lat="45.07667" lon="4.73713">
        <ele>376</ele>
        <time>2026-05-11T18:39:03+00:00</time>
      </trkpt>
      <trkpt lat="45.07695" lon="4.73764">
        <ele>388</ele>
        <time>2026-05-11T18:39:04+00:00</time>
      </trkpt>
      <trkpt lat="45.07704" lon="4.7377">
        <ele>390</ele>
        <time>2026-05-11T18:39:05+00:00</time>
      </trkpt>
      <trkpt lat="45.07713" lon="4.73791">
        <ele>395</ele>
        <time>2026-05-11T18:39:06+00:00</time>
      </trkpt>
      <trkpt lat="45.07695" lon="4.73794">
        <ele>394</ele>
        <time>2026-05-11T18:39:07+00:00</time>
      </trkpt>
      <trkpt lat="45.07666" lon="4.73814">
        <ele>396</ele>
        <time>2026-05-11T18:39:08+00:00</time>
      </trkpt>
      <trkpt lat="45.07645" lon="4.73844">
        <ele>395</ele>
        <time>2026-05-11T18:39:09+00:00</time>
      </trkpt>
      <trkpt lat="45.07619" lon="4.73922">
        <ele>404</ele>
        <time>2026-05-11T18:39:10+00:00</time>
      </trkpt>
      <trkpt lat="45.07617" lon="4.7396">
        <ele>403</ele>
        <time>2026-05-11T18:39:11+00:00</time>
      </trkpt>
      <trkpt lat="45.07631" lon="4.74002">
        <ele>407</ele>
        <time>2026-05-11T18:39:12+00:00</time>
      </trkpt>
      <trkpt lat="45.07694" lon="4.74058">
        <ele>421</ele>
        <time>2026-05-11T18:39:13+00:00</time>
      </trkpt>
      <trkpt lat="45.07723" lon="4.74153">
        <ele>426</ele>
        <time>2026-05-11T18:39:14+00:00</time>
      </trkpt>
      <trkpt lat="45.07756" lon="4.74212">
        <ele>434</ele>
        <time>2026-05-11T18:39:15+00:00</time>
      </trkpt>
      <trkpt lat="45.07749" lon="4.74305">
        <ele>438</ele>
        <time>2026-05-11T18:39:16+00:00</time>
      </trkpt>
      <trkpt lat="45.07733" lon="4.74332">
        <ele>438</ele>
        <time>2026-05-11T18:39:17+00:00</time>
      </trkpt>
      <trkpt lat="45.07725" lon="4.74367">
        <ele>438</ele>
        <time>2026-05-11T18:39:18+00:00</time>
      </trkpt>
      <trkpt lat="45.07695" lon="4.74381">
        <ele>434</ele>
        <time>2026-05-11T18:39:19+00:00</time>
      </trkpt>
      <trkpt lat="45.07671" lon="4.74384">
        <ele>431</ele>
        <time>2026-05-11T18:39:20+00:00</time>
      </trkpt>
      <trkpt lat="45.07598" lon="4.74421">
        <ele>423</ele>
        <time>2026-05-11T18:39:21+00:00</time>
      </trkpt>
      <trkpt lat="45.07449" lon="4.74422">
        <ele>399</ele>
        <time>2026-05-11T18:39:22+00:00</time>
      </trkpt>
      <trkpt lat="45.07431" lon="4.74405">
        <ele>397</ele>
        <time>2026-05-11T18:39:23+00:00</time>
      </trkpt>
      <trkpt lat="45.07427" lon="4.74409">
        <ele>395</ele>
        <time>2026-05-11T18:39:24+00:00</time>
      </trkpt>
      <trkpt lat="45.07469" lon="4.74526">
        <ele>386</ele>
        <time>2026-05-11T18:39:25+00:00</time>
      </trkpt>
      <trkpt lat="45.07483" lon="4.74547">
        <ele>389</ele>
        <time>2026-05-11T18:39:26+00:00</time>
      </trkpt>
      <trkpt lat="45.07482" lon="4.74551">
        <ele>388</ele>
        <time>2026-05-11T18:39:27+00:00</time>
      </trkpt>
      <trkpt lat="45.07478" lon="4.74551">
        <ele>386</ele>
        <time>2026-05-11T18:39:28+00:00</time>
      </trkpt>
      <trkpt lat="45.07395" lon="4.7445">
        <ele>374</ele>
        <time>2026-05-11T18:39:29+00:00</time>
      </trkpt>
      <trkpt lat="45.07367" lon="4.74427">
        <ele>366</ele>
        <time>2026-05-11T18:39:30+00:00</time>
      </trkpt>
      <trkpt lat="45.07346" lon="4.7439">
        <ele>363</ele>
        <time>2026-05-11T18:39:31+00:00</time>
      </trkpt>
      <trkpt lat="45.07339" lon="4.74368">
        <ele>364</ele>
        <time>2026-05-11T18:39:32+00:00</time>
      </trkpt>
      <trkpt lat="45.07328" lon="4.7429">
        <ele>363</ele>
        <time>2026-05-11T18:39:33+00:00</time>
      </trkpt>
      <trkpt lat="45.07318" lon="4.74266">
        <ele>357</ele>
        <time>2026-05-11T18:39:34+00:00</time>
      </trkpt>
      <trkpt lat="45.07327" lon="4.7419">
        <ele>349</ele>
        <time>2026-05-11T18:39:35+00:00</time>
      </trkpt>
      <trkpt lat="45.0734" lon="4.74163">
        <ele>347</ele>
        <time>2026-05-11T18:39:36+00:00</time>
      </trkpt>
      <trkpt lat="45.07303" lon="4.7415">
        <ele>332</ele>
        <time>2026-05-11T18:39:37+00:00</time>
      </trkpt>
      <trkpt lat="45.0728" lon="4.74086">
        <ele>316</ele>
        <time>2026-05-11T18:39:38+00:00</time>
      </trkpt>
      <trkpt lat="45.07265" lon="4.74071">
        <ele>312</ele>
        <time>2026-05-11T18:39:39+00:00</time>
      </trkpt>
      <trkpt lat="45.07277" lon="4.74075">
        <ele>313</ele>
        <time>2026-05-11T18:39:40+00:00</time>
      </trkpt>
      <trkpt lat="45.07286" lon="4.74071">
        <ele>312</ele>
        <time>2026-05-11T18:39:41+00:00</time>
      </trkpt>
      <trkpt lat="45.07322" lon="4.74094">
        <ele>321</ele>
        <time>2026-05-11T18:39:42+00:00</time>
      </trkpt>
      <trkpt lat="45.07342" lon="4.7408">
        <ele>319</ele>
        <time>2026-05-11T18:39:43+00:00</time>
      </trkpt>
      <trkpt lat="45.07356" lon="4.74079">
        <ele>321</ele>
        <time>2026-05-11T18:39:44+00:00</time>
      </trkpt>
      <trkpt lat="45.07383" lon="4.74055">
        <ele>316</ele>
        <time>2026-05-11T18:39:45+00:00</time>
      </trkpt>
      <trkpt lat="45.07389" lon="4.74028">
        <ele>307</ele>
        <time>2026-05-11T18:39:46+00:00</time>
      </trkpt>
      <trkpt lat="45.07392" lon="4.73973">
        <ele>290</ele>
        <time>2026-05-11T18:39:47+00:00</time>
      </trkpt>
      <trkpt lat="45.07397" lon="4.73962">
        <ele>289</ele>
        <time>2026-05-11T18:39:48+00:00</time>
      </trkpt>
      <trkpt lat="45.07417" lon="4.73947">
        <ele>291</ele>
        <time>2026-05-11T18:39:49+00:00</time>
      </trkpt>
      <trkpt lat="45.07447" lon="4.73933">
        <ele>306</ele>
        <time>2026-05-11T18:39:50+00:00</time>
      </trkpt>
      <trkpt lat="45.07449" lon="4.73919">
        <ele>305</ele>
        <time>2026-05-11T18:39:51+00:00</time>
      </trkpt>
      <trkpt lat="45.07439" lon="4.73897">
        <ele>293</ele>
        <time>2026-05-11T18:39:52+00:00</time>
      </trkpt>
      <trkpt lat="45.07443" lon="4.73857">
        <ele>285</ele>
        <time>2026-05-11T18:39:53+00:00</time>
      </trkpt>
      <trkpt lat="45.0745" lon="4.73834">
        <ele>284</ele>
        <time>2026-05-11T18:39:54+00:00</time>
      </trkpt>
      <trkpt lat="45.0745" lon="4.73814">
        <ele>280</ele>
        <time>2026-05-11T18:39:55+00:00</time>
      </trkpt>
      <trkpt lat="45.07465" lon="4.73785">
        <ele>284</ele>
        <time>2026-05-11T18:39:56+00:00</time>
      </trkpt>
      <trkpt lat="45.07464" lon="4.73778">
        <ele>282</ele>
        <time>2026-05-11T18:39:57+00:00</time>
      </trkpt>
      <trkpt lat="45.07472" lon="4.73761">
        <ele>283</ele>
        <time>2026-05-11T18:39:58+00:00</time>
      </trkpt>
      <trkpt lat="45.0747" lon="4.73759">
        <ele>282</ele>
        <time>2026-05-11T18:39:59+00:00</time>
      </trkpt>
      <trkpt lat="45.07467" lon="4.73764">
        <ele>281</ele>
        <time>2026-05-11T18:40:00+00:00</time>
      </trkpt>
      <trkpt lat="45.07459" lon="4.73762">
        <ele>276</ele>
        <time>2026-05-11T18:40:01+00:00</time>
      </trkpt>
      <trkpt lat="45.07462" lon="4.73744">
        <ele>275</ele>
        <time>2026-05-11T18:40:02+00:00</time>
      </trkpt>
      <trkpt lat="45.07473" lon="4.7373">
        <ele>280</ele>
        <time>2026-05-11T18:40:03+00:00</time>
      </trkpt>
      <trkpt lat="45.07474" lon="4.73721">
        <ele>280</ele>
        <time>2026-05-11T18:40:04+00:00</time>
      </trkpt>
      <trkpt lat="45.0747" lon="4.7368">
        <ele>274</ele>
        <time>2026-05-11T18:40:05+00:00</time>
      </trkpt>
      <trkpt lat="45.07474" lon="4.7367">
        <ele>275</ele>
        <time>2026-05-11T18:40:06+00:00</time>
      </trkpt>
      <trkpt lat="45.07465" lon="4.73635">
        <ele>270</ele>
        <time>2026-05-11T18:40:07+00:00</time>
      </trkpt>
      <trkpt lat="45.07472" lon="4.73593">
        <ele>271</ele>
        <time>2026-05-11T18:40:08+00:00</time>
      </trkpt>
      <trkpt lat="45.07468" lon="4.73569">
        <ele>267</ele>
        <time>2026-05-11T18:40:09+00:00</time>
      </trkpt>
      <trkpt lat="45.0748" lon="4.73542">
        <ele>265</ele>
        <time>2026-05-11T18:40:10+00:00</time>
      </trkpt>
      <trkpt lat="45.07479" lon="4.73531">
        <ele>263</ele>
        <time>2026-05-11T18:40:11+00:00</time>
      </trkpt>
      <trkpt lat="45.07487" lon="4.73503">
        <ele>258</ele>
        <time>2026-05-11T18:40:12+00:00</time>
      </trkpt>
      <trkpt lat="45.075" lon="4.73483">
        <ele>257</ele>
        <time>2026-05-11T18:40:13+00:00</time>
      </trkpt>
      <trkpt lat="45.07502" lon="4.73466">
        <ele>255</ele>
        <time>2026-05-11T18:40:14+00:00</time>
      </trkpt>
      <trkpt lat="45.07508" lon="4.73463">
        <ele>256</ele>
        <time>2026-05-11T18:40:15+00:00</time>
      </trkpt>
      <trkpt lat="45.07533" lon="4.73413">
        <ele>251</ele>
        <time>2026-05-11T18:40:16+00:00</time>
      </trkpt>
      <trkpt lat="45.07529" lon="4.73371">
        <ele>253</ele>
        <time>2026-05-11T18:40:17+00:00</time>
      </trkpt>
      <trkpt lat="45.07513" lon="4.73342">
        <ele>252</ele>
        <time>2026-05-11T18:40:18+00:00</time>
      </trkpt>
      <trkpt lat="45.07501" lon="4.73338">
        <ele>252</ele>
        <time>2026-05-11T18:40:19+00:00</time>
      </trkpt>
      <trkpt lat="45.07487" lon="4.73229">
        <ele>257</ele>
        <time>2026-05-11T18:40:20+00:00</time>
      </trkpt>
      <trkpt lat="45.07472" lon="4.73208">
        <ele>261</ele>
        <time>2026-05-11T18:40:21+00:00</time>
      </trkpt>
      <trkpt lat="45.07429" lon="4.73222">
        <ele>260</ele>
        <time>2026-05-11T18:40:22+00:00</time>
      </trkpt>
      <trkpt lat="45.0737" lon="4.73225">
        <ele>260</ele>
        <time>2026-05-11T18:40:23+00:00</time>
      </trkpt>
      <trkpt lat="45.07351" lon="4.73239">
        <ele>258</ele>
        <time>2026-05-11T18:40:24+00:00</time>
      </trkpt>
      <trkpt lat="45.0733" lon="4.73237">
        <ele>259</ele>
        <time>2026-05-11T18:40:25+00:00</time>
      </trkpt>
      <trkpt lat="45.07307" lon="4.73249">
        <ele>259</ele>
        <time>2026-05-11T18:40:26+00:00</time>
      </trkpt>
      <trkpt lat="45.07306" lon="4.73255">
        <ele>259</ele>
        <time>2026-05-11T18:40:27+00:00</time>
      </trkpt>
      <trkpt lat="45.07328" lon="4.73283">
        <ele>258</ele>
        <time>2026-05-11T18:40:28+00:00</time>
      </trkpt>
      <trkpt lat="45.07338" lon="4.73318">
        <ele>258</ele>
        <time>2026-05-11T18:40:29+00:00</time>
      </trkpt>
      <trkpt lat="45.07332" lon="4.7334">
        <ele>258</ele>
        <time>2026-05-11T18:40:30+00:00</time>
      </trkpt>
      <trkpt lat="45.07306" lon="4.73387">
        <ele>260</ele>
        <time>2026-05-11T18:40:31+00:00</time>
      </trkpt>
      <trkpt lat="45.07266" lon="4.73403">
        <ele>261</ele>
        <time>2026-05-11T18:40:32+00:00</time>
      </trkpt>
      <trkpt lat="45.07241" lon="4.73405">
        <ele>260</ele>
        <time>2026-05-11T18:40:33+00:00</time>
      </trkpt>
      <trkpt lat="45.07187" lon="4.73356">
        <ele>256</ele>
        <time>2026-05-11T18:40:34+00:00</time>
      </trkpt>
      <trkpt lat="45.07184" lon="4.73361">
        <ele>256</ele>
        <time>2026-05-11T18:40:35+00:00</time>
      </trkpt>
      <trkpt lat="45.07134" lon="4.73352">
        <ele>253</ele>
        <time>2026-05-11T18:40:36+00:00</time>
      </trkpt>
      <trkpt lat="45.07107" lon="4.73322">
        <ele>256</ele>
        <time>2026-05-11T18:40:37+00:00</time>
      </trkpt>
      <trkpt lat="45.07057" lon="4.73237">
        <ele>276</ele>
        <time>2026-05-11T18:40:38+00:00</time>
      </trkpt>
      <trkpt lat="45.0704" lon="4.73189">
        <ele>289</ele>
        <time>2026-05-11T18:40:39+00:00</time>
      </trkpt>
      <trkpt lat="45.07036" lon="4.73186">
        <ele>291</ele>
        <time>2026-05-11T18:40:40+00:00</time>
      </trkpt>
      <trkpt lat="45.07033" lon="4.73198">
        <ele>289</ele>
        <time>2026-05-11T18:40:41+00:00</time>
      </trkpt>
      <trkpt lat="45.07027" lon="4.73201">
        <ele>290</ele>
        <time>2026-05-11T18:40:42+00:00</time>
      </trkpt>
      <trkpt lat="45.07022" lon="4.73196">
        <ele>293</ele>
        <time>2026-05-11T18:40:43+00:00</time>
      </trkpt>
      <trkpt lat="45.0702" lon="4.73174">
        <ele>301</ele>
        <time>2026-05-11T18:40:44+00:00</time>
      </trkpt>
      <trkpt lat="45.07008" lon="4.73131">
        <ele>317</ele>
        <time>2026-05-11T18:40:45+00:00</time>
      </trkpt>
      <trkpt lat="45.07007" lon="4.73107">
        <ele>324</ele>
        <time>2026-05-11T18:40:46+00:00</time>
      </trkpt>
      <trkpt lat="45.07016" lon="4.73068">
        <ele>326</ele>
        <time>2026-05-11T18:40:47+00:00</time>
      </trkpt>
      <trkpt lat="45.07011" lon="4.73041">
        <ele>336</ele>
        <time>2026-05-11T18:40:48+00:00</time>
      </trkpt>
      <trkpt lat="45.07005" lon="4.7304">
        <ele>340</ele>
        <time>2026-05-11T18:40:49+00:00</time>
      </trkpt>
      <trkpt lat="45.06998" lon="4.73051">
        <ele>341</ele>
        <time>2026-05-11T18:40:50+00:00</time>
      </trkpt>
      <trkpt lat="45.06985" lon="4.73094">
        <ele>333</ele>
        <time>2026-05-11T18:40:51+00:00</time>
      </trkpt>
      <trkpt lat="45.06983" lon="4.73085">
        <ele>336</ele>
        <time>2026-05-11T18:40:52+00:00</time>
      </trkpt>
      <trkpt lat="45.06978" lon="4.73027">
        <ele>353</ele>
        <time>2026-05-11T18:40:53+00:00</time>
      </trkpt>
      <trkpt lat="45.06979" lon="4.72991">
        <ele>362</ele>
        <time>2026-05-11T18:40:54+00:00</time>
      </trkpt>
      <trkpt lat="45.06997" lon="4.72961">
        <ele>362</ele>
        <time>2026-05-11T18:40:55+00:00</time>
      </trkpt>
      <trkpt lat="45.07007" lon="4.72954">
        <ele>358</ele>
        <time>2026-05-11T18:40:56+00:00</time>
      </trkpt>
      <trkpt lat="45.07026" lon="4.72913">
        <ele>357</ele>
        <time>2026-05-11T18:40:57+00:00</time>
      </trkpt>
      <trkpt lat="45.07034" lon="4.72907">
        <ele>353</ele>
        <time>2026-05-11T18:40:58+00:00</time>
      </trkpt>
      <trkpt lat="45.07033" lon="4.72887">
        <ele>357</ele>
        <time>2026-05-11T18:40:59+00:00</time>
      </trkpt>
      <trkpt lat="45.07024" lon="4.72856">
        <ele>365</ele>
        <time>2026-05-11T18:41:00+00:00</time>
      </trkpt>
      <trkpt lat="45.07023" lon="4.7283">
        <ele>369</ele>
        <time>2026-05-11T18:41:01+00:00</time>
      </trkpt>
      <trkpt lat="45.07012" lon="4.72805">
        <ele>376</ele>
        <time>2026-05-11T18:41:02+00:00</time>
      </trkpt>
      <trkpt lat="45.06999" lon="4.72755">
        <ele>383</ele>
        <time>2026-05-11T18:41:03+00:00</time>
      </trkpt>
      <trkpt lat="45.06976" lon="4.72728">
        <ele>393</ele>
        <time>2026-05-11T18:41:04+00:00</time>
      </trkpt>
      <trkpt lat="45.0697" lon="4.72726">
        <ele>395</ele>
        <time>2026-05-11T18:41:05+00:00</time>
      </trkpt>
      <trkpt lat="45.06964" lon="4.7274">
        <ele>396</ele>
        <time>2026-05-11T18:41:06+00:00</time>
      </trkpt>
      <trkpt lat="45.06969" lon="4.72752">
        <ele>393</ele>
        <time>2026-05-11T18:41:07+00:00</time>
      </trkpt>
      <trkpt lat="45.06941" lon="4.72834">
        <ele>402</ele>
        <time>2026-05-11T18:41:08+00:00</time>
      </trkpt>
      <trkpt lat="45.06936" lon="4.7284">
        <ele>403</ele>
        <time>2026-05-11T18:41:09+00:00</time>
      </trkpt>
      <trkpt lat="45.06929" lon="4.72817">
        <ele>406</ele>
        <time>2026-05-11T18:41:10+00:00</time>
      </trkpt>
      <trkpt lat="45.06921" lon="4.72814">
        <ele>409</ele>
        <time>2026-05-11T18:41:11+00:00</time>
      </trkpt>
      <trkpt lat="45.06917" lon="4.72821">
        <ele>411</ele>
        <time>2026-05-11T18:41:12+00:00</time>
      </trkpt>
      <trkpt lat="45.06899" lon="4.72827">
        <ele>411</ele>
        <time>2026-05-11T18:41:13+00:00</time>
      </trkpt>
      <trkpt lat="45.06884" lon="4.72842">
        <ele>409</ele>
        <time>2026-05-11T18:41:14+00:00</time>
      </trkpt>
      <trkpt lat="45.06874" lon="4.7283">
        <ele>411</ele>
        <time>2026-05-11T18:41:15+00:00</time>
      </trkpt>
      <trkpt lat="45.06866" lon="4.7281">
        <ele>413</ele>
        <time>2026-05-11T18:41:16+00:00</time>
      </trkpt>
      <trkpt lat="45.06846" lon="4.72716">
        <ele>428</ele>
        <time>2026-05-11T18:41:17+00:00</time>
      </trkpt>
      <trkpt lat="45.06833" lon="4.72647">
        <ele>437</ele>
        <time>2026-05-11T18:41:18+00:00</time>
      </trkpt>
      <trkpt lat="45.06828" lon="4.72555">
        <ele>439</ele>
        <time>2026-05-11T18:41:19+00:00</time>
      </trkpt>
      <trkpt lat="45.06797" lon="4.72573">
        <ele>439</ele>
        <time>2026-05-11T18:41:20+00:00</time>
      </trkpt>
      <trkpt lat="45.06693" lon="4.72605">
        <ele>433</ele>
        <time>2026-05-11T18:41:21+00:00</time>
      </trkpt>
      <trkpt lat="45.06688" lon="4.72611">
        <ele>433</ele>
        <time>2026-05-11T18:41:22+00:00</time>
      </trkpt>
      <trkpt lat="45.06614" lon="4.728">
        <ele>421</ele>
        <time>2026-05-11T18:41:23+00:00</time>
      </trkpt>
      <trkpt lat="45.06582" lon="4.72842">
        <ele>420</ele>
        <time>2026-05-11T18:41:24+00:00</time>
      </trkpt>
      <trkpt lat="45.06577" lon="4.72867">
        <ele>417</ele>
        <time>2026-05-11T18:41:25+00:00</time>
      </trkpt>
      <trkpt lat="45.06577" lon="4.72901">
        <ele>414</ele>
        <time>2026-05-11T18:41:26+00:00</time>
      </trkpt>
      <trkpt lat="45.06561" lon="4.72965">
        <ele>407</ele>
        <time>2026-05-11T18:41:27+00:00</time>
      </trkpt>
      <trkpt lat="45.06563" lon="4.73016">
        <ele>400</ele>
        <time>2026-05-11T18:41:28+00:00</time>
      </trkpt>
      <trkpt lat="45.06559" lon="4.73035">
        <ele>397</ele>
        <time>2026-05-11T18:41:29+00:00</time>
      </trkpt>
      <trkpt lat="45.06541" lon="4.7306">
        <ele>394</ele>
        <time>2026-05-11T18:41:30+00:00</time>
      </trkpt>
      <trkpt lat="45.06477" lon="4.73066">
        <ele>393</ele>
        <time>2026-05-11T18:41:31+00:00</time>
      </trkpt>
      <trkpt lat="45.06428" lon="4.73053">
        <ele>388</ele>
        <time>2026-05-11T18:41:32+00:00</time>
      </trkpt>
      <trkpt lat="45.06396" lon="4.73038">
        <ele>384</ele>
        <time>2026-05-11T18:41:33+00:00</time>
      </trkpt>
      <trkpt lat="45.0637" lon="4.73018">
        <ele>379</ele>
        <time>2026-05-11T18:41:34+00:00</time>
      </trkpt>
      <trkpt lat="45.06355" lon="4.72992">
        <ele>376</ele>
        <time>2026-05-11T18:41:35+00:00</time>
      </trkpt>
      <trkpt lat="45.06356" lon="4.72942">
        <ele>381</ele>
        <time>2026-05-11T18:41:36+00:00</time>
      </trkpt>
      <trkpt lat="45.06352" lon="4.72935">
        <ele>380</ele>
        <time>2026-05-11T18:41:37+00:00</time>
      </trkpt>
      <trkpt lat="45.06346" lon="4.72941">
        <ele>378</ele>
        <time>2026-05-11T18:41:38+00:00</time>
      </trkpt>
      <trkpt lat="45.06334" lon="4.73002">
        <ele>367</ele>
        <time>2026-05-11T18:41:39+00:00</time>
      </trkpt>
      <trkpt lat="45.0633" lon="4.73048">
        <ele>364</ele>
        <time>2026-05-11T18:41:40+00:00</time>
      </trkpt>
      <trkpt lat="45.06308" lon="4.73096">
        <ele>355</ele>
        <time>2026-05-11T18:41:41+00:00</time>
      </trkpt>
      <trkpt lat="45.06301" lon="4.73124">
        <ele>353</ele>
        <time>2026-05-11T18:41:42+00:00</time>
      </trkpt>
      <trkpt lat="45.06295" lon="4.73194">
        <ele>353</ele>
        <time>2026-05-11T18:41:43+00:00</time>
      </trkpt>
      <trkpt lat="45.06281" lon="4.73219">
        <ele>354</ele>
        <time>2026-05-11T18:41:44+00:00</time>
      </trkpt>
      <trkpt lat="45.06231" lon="4.73192">
        <ele>352</ele>
        <time>2026-05-11T18:41:45+00:00</time>
      </trkpt>
      <trkpt lat="45.06212" lon="4.73163">
        <ele>348</ele>
        <time>2026-05-11T18:41:46+00:00</time>
      </trkpt>
      <trkpt lat="45.06187" lon="4.73136">
        <ele>340</ele>
        <time>2026-05-11T18:41:47+00:00</time>
      </trkpt>
      <trkpt lat="45.06152" lon="4.73115">
        <ele>330</ele>
        <time>2026-05-11T18:41:48+00:00</time>
      </trkpt>
      <trkpt lat="45.06121" lon="4.7311">
        <ele>326</ele>
        <time>2026-05-11T18:41:49+00:00</time>
      </trkpt>
      <trkpt lat="45.06114" lon="4.73104">
        <ele>323</ele>
        <time>2026-05-11T18:41:50+00:00</time>
      </trkpt>
      <trkpt lat="45.0612" lon="4.73098">
        <ele>322</ele>
        <time>2026-05-11T18:41:51+00:00</time>
      </trkpt>
      <trkpt lat="45.06168" lon="4.73107">
        <ele>328</ele>
        <time>2026-05-11T18:41:52+00:00</time>
      </trkpt>
      <trkpt lat="45.06208" lon="4.73118">
        <ele>335</ele>
        <time>2026-05-11T18:41:53+00:00</time>
      </trkpt>
      <trkpt lat="45.06231" lon="4.73139">
        <ele>342</ele>
        <time>2026-05-11T18:41:54+00:00</time>
      </trkpt>
      <trkpt lat="45.0624" lon="4.73138">
        <ele>342</ele>
        <time>2026-05-11T18:41:55+00:00</time>
      </trkpt>
      <trkpt lat="45.06247" lon="4.73127">
        <ele>340</ele>
        <time>2026-05-11T18:41:56+00:00</time>
      </trkpt>
      <trkpt lat="45.06248" lon="4.73067">
        <ele>332</ele>
        <time>2026-05-11T18:41:57+00:00</time>
      </trkpt>
      <trkpt lat="45.06252" lon="4.73042">
        <ele>331</ele>
        <time>2026-05-11T18:41:58+00:00</time>
      </trkpt>
      <trkpt lat="45.06243" lon="4.73013">
        <ele>326</ele>
        <time>2026-05-11T18:41:59+00:00</time>
      </trkpt>
      <trkpt lat="45.06242" lon="4.72975">
        <ele>331</ele>
        <time>2026-05-11T18:42:00+00:00</time>
      </trkpt>
      <trkpt lat="45.06235" lon="4.72965">
        <ele>331</ele>
        <time>2026-05-11T18:42:01+00:00</time>
      </trkpt>
      <trkpt lat="45.06213" lon="4.72956">
        <ele>323</ele>
        <time>2026-05-11T18:42:02+00:00</time>
      </trkpt>
      <trkpt lat="45.06193" lon="4.72935">
        <ele>319</ele>
        <time>2026-05-11T18:42:03+00:00</time>
      </trkpt>
      <trkpt lat="45.06157" lon="4.72916">
        <ele>307</ele>
        <time>2026-05-11T18:42:04+00:00</time>
      </trkpt>
      <trkpt lat="45.06094" lon="4.72828">
        <ele>296</ele>
        <time>2026-05-11T18:42:05+00:00</time>
      </trkpt>
      <trkpt lat="45.06087" lon="4.72808">
        <ele>296</ele>
        <time>2026-05-11T18:42:06+00:00</time>
      </trkpt>
      <trkpt lat="45.06184" lon="4.72996">
        <ele>303</ele>
        <time>2026-05-11T18:42:07+00:00</time>
      </trkpt>
      <trkpt lat="45.06057" lon="4.72863">
        <ele>275</ele>
        <time>2026-05-11T18:42:08+00:00</time>
      </trkpt>
      <trkpt lat="45.06085" lon="4.72909">
        <ele>278</ele>
        <time>2026-05-11T18:42:09+00:00</time>
      </trkpt>
      <trkpt lat="45.06072" lon="4.72913">
        <ele>273</ele>
        <time>2026-05-11T18:42:10+00:00</time>
      </trkpt>
      <trkpt lat="45.06064" lon="4.72909">
        <ele>271</ele>
        <time>2026-05-11T18:42:11+00:00</time>
      </trkpt>
      <trkpt lat="45.06016" lon="4.72757">
        <ele>270</ele>
        <time>2026-05-11T18:42:12+00:00</time>
      </trkpt>
      <trkpt lat="45.05974" lon="4.72669">
        <ele>261</ele>
        <time>2026-05-11T18:42:13+00:00</time>
      </trkpt>
      <trkpt lat="45.05974" lon="4.72639">
        <ele>262</ele>
        <time>2026-05-11T18:42:14+00:00</time>
      </trkpt>
      <trkpt lat="45.05979" lon="4.72622">
        <ele>263</ele>
        <time>2026-05-11T18:42:15+00:00</time>
      </trkpt>
      <trkpt lat="45.06001" lon="4.72592">
        <ele>270</ele>
        <time>2026-05-11T18:42:16+00:00</time>
      </trkpt>
      <trkpt lat="45.06001" lon="4.7258">
        <ele>271</ele>
        <time>2026-05-11T18:42:17+00:00</time>
      </trkpt>
      <trkpt lat="45.05996" lon="4.7257">
        <ele>272</ele>
        <time>2026-05-11T18:42:18+00:00</time>
      </trkpt>
      <trkpt lat="45.05985" lon="4.72569">
        <ele>269</ele>
        <time>2026-05-11T18:42:19+00:00</time>
      </trkpt>
      <trkpt lat="45.05971" lon="4.72576">
        <ele>264</ele>
        <time>2026-05-11T18:42:20+00:00</time>
      </trkpt>
      <trkpt lat="45.05963" lon="4.72596">
        <ele>259</ele>
        <time>2026-05-11T18:42:21+00:00</time>
      </trkpt>
      <trkpt lat="45.05951" lon="4.72608">
        <ele>256</ele>
        <time>2026-05-11T18:42:22+00:00</time>
      </trkpt>
      <trkpt lat="45.05935" lon="4.7261">
        <ele>251</ele>
        <time>2026-05-11T18:42:23+00:00</time>
      </trkpt>
      <trkpt lat="45.05919" lon="4.72606">
        <ele>247</ele>
        <time>2026-05-11T18:42:24+00:00</time>
      </trkpt>
      <trkpt lat="45.05824" lon="4.72623">
        <ele>249</ele>
        <time>2026-05-11T18:42:25+00:00</time>
      </trkpt>
      <trkpt lat="45.05815" lon="4.72616">
        <ele>253</ele>
        <time>2026-05-11T18:42:26+00:00</time>
      </trkpt>
    </trkseg>
  </trk>
</gpx>
