<?xml version="1.0" encoding="UTF-8" ?>
<gpx version="1.1" xmlns:xsi="http://www.w3.org/2001/XMLSchema-instance"
    xmlns="http://www.topografix.com/GPX/1/1"
    xsi:schemaLocation="http://www.topografix.com/GPX/1/1 http://www.topografix.com/GPX/1/1/gpx.xsd"
    creator="Openrunner - https://www.openrunner.com" >	<trk>
	                   <name>Les Portes de l&#039;Aubrac- Aumont-Aubrac-21214061</name>
						<trkseg>
					<trkpt lat="44.718760" lon="3.283420">
						<ele>1046</ele>
						<time>2026-05-01T09:39:06Z</time>
					</trkpt>
					<trkpt lat="44.718930" lon="3.283200">
						<ele>1045</ele>
						<time>2026-05-01T09:39:37Z</time>
					</trkpt>
					<trkpt lat="44.719010" lon="3.283130">
						<ele>1045</ele>
						<time>2026-05-01T09:39:49Z</time>
					</trkpt>
					<trkpt lat="44.719140" lon="3.283050">
						<ele>1045</ele>
						<time>2026-05-01T09:40:08Z</time>
					</trkpt>
					<trkpt lat="44.719640" lon="3.282920">
						<ele>1047</ele>
						<time>2026-05-01T09:41:16Z</time>
					</trkpt>
					<trkpt lat="44.719880" lon="3.282870">
						<ele>1048</ele>
						<time>2026-05-01T09:41:49Z</time>
					</trkpt>
					<trkpt lat="44.719990" lon="3.282860">
						<ele>1048</ele>
						<time>2026-05-01T09:42:03Z</time>
					</trkpt>
					<trkpt lat="44.720210" lon="3.282870">
						<ele>1048</ele>
						<time>2026-05-01T09:42:33Z</time>
					</trkpt>
					<trkpt lat="44.720510" lon="3.282910">
						<ele>1048</ele>
						<time>2026-05-01T09:43:13Z</time>
					</trkpt>
					<trkpt lat="44.721010" lon="3.282990">
						<ele>1049</ele>
						<time>2026-05-01T09:44:20Z</time>
					</trkpt>
					<trkpt lat="44.721030" lon="3.282890">
						<ele>1048</ele>
						<time>2026-05-01T09:44:30Z</time>
					</trkpt>
					<trkpt lat="44.721090" lon="3.282750">
						<ele>1047</ele>
						<time>2026-05-01T09:44:45Z</time>
					</trkpt>
					<trkpt lat="44.720890" lon="3.282620">
						<ele>1045</ele>
						<time>2026-05-01T09:45:15Z</time>
					</trkpt>
					<trkpt lat="44.720370" lon="3.282150">
						<ele>1041</ele>
						<time>2026-05-01T09:46:37Z</time>
					</trkpt>
					<trkpt lat="44.720310" lon="3.282180">
						<ele>1041</ele>
						<time>2026-05-01T09:46:46Z</time>
					</trkpt>
					<trkpt lat="44.720250" lon="3.282180">
						<ele>1041</ele>
						<time>2026-05-01T09:46:54Z</time>
					</trkpt>
					<trkpt lat="44.720200" lon="3.282170">
						<ele>1041</ele>
						<time>2026-05-01T09:47:00Z</time>
					</trkpt>
					<trkpt lat="44.720160" lon="3.282140">
						<ele>1040</ele>
						<time>2026-05-01T09:47:07Z</time>
					</trkpt>
					<trkpt lat="44.720130" lon="3.282110">
						<ele>1040</ele>
						<time>2026-05-01T09:47:11Z</time>
					</trkpt>
					<trkpt lat="44.720090" lon="3.282050">
						<ele>1040</ele>
						<time>2026-05-01T09:47:19Z</time>
					</trkpt>
					<trkpt lat="44.719980" lon="3.281640">
						<ele>1036</ele>
						<time>2026-05-01T09:48:01Z</time>
					</trkpt>
					<trkpt lat="44.719910" lon="3.281320">
						<ele>1033</ele>
						<time>2026-05-01T09:48:33Z</time>
					</trkpt>
					<trkpt lat="44.719900" lon="3.281190">
						<ele>1032</ele>
						<time>2026-05-01T09:48:45Z</time>
					</trkpt>
					<trkpt lat="44.719910" lon="3.281040">
						<ele>1031</ele>
						<time>2026-05-01T09:48:59Z</time>
					</trkpt>
					<trkpt lat="44.719950" lon="3.280900">
						<ele>1029</ele>
						<time>2026-05-01T09:49:14Z</time>
					</trkpt>
					<trkpt lat="44.720040" lon="3.280730">
						<ele>1029</ele>
						<time>2026-05-01T09:49:34Z</time>
					</trkpt>
					<trkpt lat="44.720200" lon="3.280520">
						<ele>1028</ele>
						<time>2026-05-01T09:50:03Z</time>
					</trkpt>
					<trkpt lat="44.720560" lon="3.280100">
						<ele>1026</ele>
						<time>2026-05-01T09:51:05Z</time>
					</trkpt>
					<trkpt lat="44.720630" lon="3.280000">
						<ele>1025</ele>
						<time>2026-05-01T09:51:19Z</time>
					</trkpt>
					<trkpt lat="44.720660" lon="3.279930">
						<ele>1025</ele>
						<time>2026-05-01T09:51:26Z</time>
					</trkpt>
					<trkpt lat="44.720680" lon="3.279830">
						<ele>1025</ele>
						<time>2026-05-01T09:51:36Z</time>
					</trkpt>
					<trkpt lat="44.720720" lon="3.279830">
						<ele>1025</ele>
						<time>2026-05-01T09:51:41Z</time>
					</trkpt>
					<trkpt lat="44.720790" lon="3.279760">
						<ele>1024</ele>
						<time>2026-05-01T09:51:53Z</time>
					</trkpt>
					<trkpt lat="44.721160" lon="3.279320">
						<ele>1022</ele>
						<time>2026-05-01T09:52:58Z</time>
					</trkpt>
					<trkpt lat="44.721310" lon="3.279140">
						<ele>1021</ele>
						<time>2026-05-01T09:53:24Z</time>
					</trkpt>
					<trkpt lat="44.721390" lon="3.279110">
						<ele>1021</ele>
						<time>2026-05-01T09:53:35Z</time>
					</trkpt>
					<trkpt lat="44.721410" lon="3.278980">
						<ele>1021</ele>
						<time>2026-05-01T09:53:48Z</time>
					</trkpt>
					<trkpt lat="44.721450" lon="3.278880">
						<ele>1022</ele>
						<time>2026-05-01T09:53:58Z</time>
					</trkpt>
					<trkpt lat="44.721470" lon="3.278700">
						<ele>1022</ele>
						<time>2026-05-01T09:54:16Z</time>
					</trkpt>
					<trkpt lat="44.721470" lon="3.278490">
						<ele>1023</ele>
						<time>2026-05-01T09:54:36Z</time>
					</trkpt>
					<trkpt lat="44.721420" lon="3.278280">
						<ele>1024</ele>
						<time>2026-05-01T09:54:57Z</time>
					</trkpt>
					<trkpt lat="44.721300" lon="3.277950">
						<ele>1026</ele>
						<time>2026-05-01T09:55:32Z</time>
					</trkpt>
					<trkpt lat="44.721230" lon="3.277610">
						<ele>1028</ele>
						<time>2026-05-01T09:56:05Z</time>
					</trkpt>
					<trkpt lat="44.721230" lon="3.277420">
						<ele>1029</ele>
						<time>2026-05-01T09:56:23Z</time>
					</trkpt>
					<trkpt lat="44.721350" lon="3.276870">
						<ele>1033</ele>
						<time>2026-05-01T09:57:18Z</time>
					</trkpt>
					<trkpt lat="44.721350" lon="3.276700">
						<ele>1033</ele>
						<time>2026-05-01T09:57:34Z</time>
					</trkpt>
					<trkpt lat="44.721330" lon="3.276530">
						<ele>1034</ele>
						<time>2026-05-01T09:57:50Z</time>
					</trkpt>
					<trkpt lat="44.721240" lon="3.276310">
						<ele>1034</ele>
						<time>2026-05-01T09:58:14Z</time>
					</trkpt>
					<trkpt lat="44.720800" lon="3.275440">
						<ele>1037</ele>
						<time>2026-05-01T09:59:56Z</time>
					</trkpt>
					<trkpt lat="44.720700" lon="3.275120">
						<ele>1039</ele>
						<time>2026-05-01T10:00:29Z</time>
					</trkpt>
					<trkpt lat="44.720640" lon="3.274800">
						<ele>1040</ele>
						<time>2026-05-01T10:01:00Z</time>
					</trkpt>
					<trkpt lat="44.720580" lon="3.274650">
						<ele>1040</ele>
						<time>2026-05-01T10:01:17Z</time>
					</trkpt>
					<trkpt lat="44.720500" lon="3.274510">
						<ele>1040</ele>
						<time>2026-05-01T10:01:34Z</time>
					</trkpt>
					<trkpt lat="44.720070" lon="3.273920">
						<ele>1039</ele>
						<time>2026-05-01T10:02:54Z</time>
					</trkpt>
					<trkpt lat="44.720150" lon="3.273790">
						<ele>1040</ele>
						<time>2026-05-01T10:03:10Z</time>
					</trkpt>
					<trkpt lat="44.720360" lon="3.273500">
						<ele>1042</ele>
						<time>2026-05-01T10:03:49Z</time>
					</trkpt>
					<trkpt lat="44.720390" lon="3.273470">
						<ele>1042</ele>
						<time>2026-05-01T10:03:54Z</time>
					</trkpt>
					<trkpt lat="44.720400" lon="3.273420">
						<ele>1042</ele>
						<time>2026-05-01T10:03:59Z</time>
					</trkpt>
					<trkpt lat="44.720400" lon="3.273370">
						<ele>1042</ele>
						<time>2026-05-01T10:04:04Z</time>
					</trkpt>
					<trkpt lat="44.720380" lon="3.273300">
						<ele>1042</ele>
						<time>2026-05-01T10:04:11Z</time>
					</trkpt>
					<trkpt lat="44.720230" lon="3.272820">
						<ele>1043</ele>
						<time>2026-05-01T10:05:01Z</time>
					</trkpt>
					<trkpt lat="44.720210" lon="3.272720">
						<ele>1043</ele>
						<time>2026-05-01T10:05:11Z</time>
					</trkpt>
					<trkpt lat="44.720200" lon="3.272600">
						<ele>1044</ele>
						<time>2026-05-01T10:05:22Z</time>
					</trkpt>
					<trkpt lat="44.720190" lon="3.272450">
						<ele>1044</ele>
						<time>2026-05-01T10:05:36Z</time>
					</trkpt>
					<trkpt lat="44.720200" lon="3.272310">
						<ele>1044</ele>
						<time>2026-05-01T10:05:50Z</time>
					</trkpt>
					<trkpt lat="44.720230" lon="3.272110">
						<ele>1044</ele>
						<time>2026-05-01T10:06:09Z</time>
					</trkpt>
					<trkpt lat="44.720310" lon="3.271620">
						<ele>1044</ele>
						<time>2026-05-01T10:06:57Z</time>
					</trkpt>
					<trkpt lat="44.720360" lon="3.271370">
						<ele>1044</ele>
						<time>2026-05-01T10:07:21Z</time>
					</trkpt>
					<trkpt lat="44.720410" lon="3.271200">
						<ele>1044</ele>
						<time>2026-05-01T10:07:39Z</time>
					</trkpt>
					<trkpt lat="44.720430" lon="3.271090">
						<ele>1044</ele>
						<time>2026-05-01T10:07:50Z</time>
					</trkpt>
					<trkpt lat="44.720440" lon="3.270970">
						<ele>1043</ele>
						<time>2026-05-01T10:08:01Z</time>
					</trkpt>
					<trkpt lat="44.720450" lon="3.270540">
						<ele>1041</ele>
						<time>2026-05-01T10:08:42Z</time>
					</trkpt>
					<trkpt lat="44.720490" lon="3.269960">
						<ele>1038</ele>
						<time>2026-05-01T10:09:37Z</time>
					</trkpt>
					<trkpt lat="44.720520" lon="3.269730">
						<ele>1038</ele>
						<time>2026-05-01T10:09:59Z</time>
					</trkpt>
					<trkpt lat="44.720530" lon="3.269570">
						<ele>1038</ele>
						<time>2026-05-01T10:10:14Z</time>
					</trkpt>
					<trkpt lat="44.720530" lon="3.269460">
						<ele>1038</ele>
						<time>2026-05-01T10:10:25Z</time>
					</trkpt>
					<trkpt lat="44.720490" lon="3.269220">
						<ele>1037</ele>
						<time>2026-05-01T10:10:48Z</time>
					</trkpt>
					<trkpt lat="44.720370" lon="3.268430">
						<ele>1044</ele>
						<time>2026-05-01T10:12:05Z</time>
					</trkpt>
					<trkpt lat="44.720340" lon="3.268270">
						<ele>1045</ele>
						<time>2026-05-01T10:12:21Z</time>
					</trkpt>
					<trkpt lat="44.720290" lon="3.268100">
						<ele>1046</ele>
						<time>2026-05-01T10:12:38Z</time>
					</trkpt>
					<trkpt lat="44.720200" lon="3.267860">
						<ele>1048</ele>
						<time>2026-05-01T10:13:04Z</time>
					</trkpt>
					<trkpt lat="44.720110" lon="3.267590">
						<ele>1049</ele>
						<time>2026-05-01T10:13:32Z</time>
					</trkpt>
					<trkpt lat="44.719950" lon="3.266900">
						<ele>1052</ele>
						<time>2026-05-01T10:14:41Z</time>
					</trkpt>
					<trkpt lat="44.719920" lon="3.266760">
						<ele>1052</ele>
						<time>2026-05-01T10:14:55Z</time>
					</trkpt>
					<trkpt lat="44.719910" lon="3.266640">
						<ele>1053</ele>
						<time>2026-05-01T10:15:06Z</time>
					</trkpt>
					<trkpt lat="44.719920" lon="3.266510">
						<ele>1053</ele>
						<time>2026-05-01T10:15:19Z</time>
					</trkpt>
					<trkpt lat="44.719960" lon="3.266280">
						<ele>1055</ele>
						<time>2026-05-01T10:15:41Z</time>
					</trkpt>
					<trkpt lat="44.720060" lon="3.266030">
						<ele>1056</ele>
						<time>2026-05-01T10:16:08Z</time>
					</trkpt>
					<trkpt lat="44.720120" lon="3.265760">
						<ele>1057</ele>
						<time>2026-05-01T10:16:35Z</time>
					</trkpt>
					<trkpt lat="44.720150" lon="3.265540">
						<ele>1058</ele>
						<time>2026-05-01T10:16:56Z</time>
					</trkpt>
					<trkpt lat="44.720160" lon="3.265210">
						<ele>1060</ele>
						<time>2026-05-01T10:17:28Z</time>
					</trkpt>
					<trkpt lat="44.720240" lon="3.264830">
						<ele>1060</ele>
						<time>2026-05-01T10:18:05Z</time>
					</trkpt>
					<trkpt lat="44.720260" lon="3.264700">
						<ele>1060</ele>
						<time>2026-05-01T10:18:18Z</time>
					</trkpt>
					<trkpt lat="44.720250" lon="3.264330">
						<ele>1062</ele>
						<time>2026-05-01T10:18:53Z</time>
					</trkpt>
					<trkpt lat="44.720230" lon="3.264110">
						<ele>1063</ele>
						<time>2026-05-01T10:19:14Z</time>
					</trkpt>
					<trkpt lat="44.720150" lon="3.263510">
						<ele>1066</ele>
						<time>2026-05-01T10:20:12Z</time>
					</trkpt>
					<trkpt lat="44.720140" lon="3.263450">
						<ele>1066</ele>
						<time>2026-05-01T10:20:18Z</time>
					</trkpt>
					<trkpt lat="44.720000" lon="3.262830">
						<ele>1068</ele>
						<time>2026-05-01T10:21:19Z</time>
					</trkpt>
					<trkpt lat="44.719920" lon="3.262560">
						<ele>1068</ele>
						<time>2026-05-01T10:21:47Z</time>
					</trkpt>
					<trkpt lat="44.719890" lon="3.262410">
						<ele>1068</ele>
						<time>2026-05-01T10:22:02Z</time>
					</trkpt>
					<trkpt lat="44.719840" lon="3.262160">
						<ele>1068</ele>
						<time>2026-05-01T10:22:26Z</time>
					</trkpt>
					<trkpt lat="44.719840" lon="3.261950">
						<ele>1069</ele>
						<time>2026-05-01T10:22:46Z</time>
					</trkpt>
					<trkpt lat="44.719880" lon="3.261280">
						<ele>1069</ele>
						<time>2026-05-01T10:23:50Z</time>
					</trkpt>
					<trkpt lat="44.719900" lon="3.261130">
						<ele>1069</ele>
						<time>2026-05-01T10:24:05Z</time>
					</trkpt>
					<trkpt lat="44.720000" lon="3.260730">
						<ele>1069</ele>
						<time>2026-05-01T10:24:45Z</time>
					</trkpt>
					<trkpt lat="44.720150" lon="3.260050">
						<ele>1069</ele>
						<time>2026-05-01T10:25:52Z</time>
					</trkpt>
					<trkpt lat="44.720190" lon="3.259840">
						<ele>1070</ele>
						<time>2026-05-01T10:26:13Z</time>
					</trkpt>
					<trkpt lat="44.720440" lon="3.258850">
						<ele>1074</ele>
						<time>2026-05-01T10:27:53Z</time>
					</trkpt>
					<trkpt lat="44.720500" lon="3.258050">
						<ele>1075</ele>
						<time>2026-05-01T10:29:09Z</time>
					</trkpt>
					<trkpt lat="44.720550" lon="3.257610">
						<ele>1075</ele>
						<time>2026-05-01T10:29:51Z</time>
					</trkpt>
					<trkpt lat="44.720690" lon="3.257040">
						<ele>1078</ele>
						<time>2026-05-01T10:30:48Z</time>
					</trkpt>
					<trkpt lat="44.720940" lon="3.256420">
						<ele>1080</ele>
						<time>2026-05-01T10:31:56Z</time>
					</trkpt>
					<trkpt lat="44.721180" lon="3.255880">
						<ele>1081</ele>
						<time>2026-05-01T10:32:56Z</time>
					</trkpt>
					<trkpt lat="44.721370" lon="3.255560">
						<ele>1081</ele>
						<time>2026-05-01T10:33:36Z</time>
					</trkpt>
					<trkpt lat="44.721600" lon="3.254870">
						<ele>1080</ele>
						<time>2026-05-01T10:34:48Z</time>
					</trkpt>
					<trkpt lat="44.721730" lon="3.254460">
						<ele>1081</ele>
						<time>2026-05-01T10:35:31Z</time>
					</trkpt>
					<trkpt lat="44.721910" lon="3.253720">
						<ele>1085</ele>
						<time>2026-05-01T10:36:45Z</time>
					</trkpt>
					<trkpt lat="44.722070" lon="3.252830">
						<ele>1087</ele>
						<time>2026-05-01T10:38:12Z</time>
					</trkpt>
					<trkpt lat="44.722210" lon="3.251880">
						<ele>1084</ele>
						<time>2026-05-01T10:39:44Z</time>
					</trkpt>
					<trkpt lat="44.722220" lon="3.251700">
						<ele>1084</ele>
						<time>2026-05-01T10:40:01Z</time>
					</trkpt>
					<trkpt lat="44.722030" lon="3.250750">
						<ele>1084</ele>
						<time>2026-05-01T10:41:35Z</time>
					</trkpt>
					<trkpt lat="44.722210" lon="3.250310">
						<ele>1087</ele>
						<time>2026-05-01T10:42:23Z</time>
					</trkpt>
					<trkpt lat="44.722590" lon="3.249430">
						<ele>1095</ele>
						<time>2026-05-01T10:44:00Z</time>
					</trkpt>
					<trkpt lat="44.722670" lon="3.249220">
						<ele>1097</ele>
						<time>2026-05-01T10:44:23Z</time>
					</trkpt>
					<trkpt lat="44.722830" lon="3.248830">
						<ele>1100</ele>
						<time>2026-05-01T10:45:06Z</time>
					</trkpt>
					<trkpt lat="44.722890" lon="3.248590">
						<ele>1101</ele>
						<time>2026-05-01T10:45:30Z</time>
					</trkpt>
					<trkpt lat="44.723010" lon="3.247920">
						<ele>1103</ele>
						<time>2026-05-01T10:46:35Z</time>
					</trkpt>
					<trkpt lat="44.723050" lon="3.247740">
						<ele>1103</ele>
						<time>2026-05-01T10:46:53Z</time>
					</trkpt>
					<trkpt lat="44.723220" lon="3.247210">
						<ele>1103</ele>
						<time>2026-05-01T10:47:48Z</time>
					</trkpt>
					<trkpt lat="44.723290" lon="3.247000">
						<ele>1103</ele>
						<time>2026-05-01T10:48:10Z</time>
					</trkpt>
					<trkpt lat="44.723680" lon="3.246060">
						<ele>1102</ele>
						<time>2026-05-01T10:49:53Z</time>
					</trkpt>
					<trkpt lat="44.723830" lon="3.245750">
						<ele>1101</ele>
						<time>2026-05-01T10:50:29Z</time>
					</trkpt>
					<trkpt lat="44.723870" lon="3.245630">
						<ele>1101</ele>
						<time>2026-05-01T10:50:42Z</time>
					</trkpt>
					<trkpt lat="44.723880" lon="3.245530">
						<ele>1101</ele>
						<time>2026-05-01T10:50:51Z</time>
					</trkpt>
					<trkpt lat="44.724070" lon="3.244150">
						<ele>1101</ele>
						<time>2026-05-01T10:53:04Z</time>
					</trkpt>
					<trkpt lat="44.724100" lon="3.244030">
						<ele>1102</ele>
						<time>2026-05-01T10:53:17Z</time>
					</trkpt>
					<trkpt lat="44.724360" lon="3.243540">
						<ele>1106</ele>
						<time>2026-05-01T10:54:15Z</time>
					</trkpt>
					<trkpt lat="44.724500" lon="3.243190">
						<ele>1108</ele>
						<time>2026-05-01T10:54:53Z</time>
					</trkpt>
					<trkpt lat="44.724580" lon="3.242940">
						<ele>1108</ele>
						<time>2026-05-01T10:55:19Z</time>
					</trkpt>
					<trkpt lat="44.724760" lon="3.242320">
						<ele>1109</ele>
						<time>2026-05-01T10:56:22Z</time>
					</trkpt>
					<trkpt lat="44.724830" lon="3.242110">
						<ele>1110</ele>
						<time>2026-05-01T10:56:44Z</time>
					</trkpt>
					<trkpt lat="44.724980" lon="3.241770">
						<ele>1111</ele>
						<time>2026-05-01T10:57:22Z</time>
					</trkpt>
					<trkpt lat="44.725310" lon="3.241020">
						<ele>1112</ele>
						<time>2026-05-01T10:58:46Z</time>
					</trkpt>
					<trkpt lat="44.725420" lon="3.240710">
						<ele>1114</ele>
						<time>2026-05-01T10:59:19Z</time>
					</trkpt>
					<trkpt lat="44.725490" lon="3.240130">
						<ele>1117</ele>
						<time>2026-05-01T11:00:14Z</time>
					</trkpt>
					<trkpt lat="44.725540" lon="3.239790">
						<ele>1119</ele>
						<time>2026-05-01T11:00:47Z</time>
					</trkpt>
					<trkpt lat="44.725600" lon="3.239490">
						<ele>1121</ele>
						<time>2026-05-01T11:01:17Z</time>
					</trkpt>
					<trkpt lat="44.725680" lon="3.239210">
						<ele>1122</ele>
						<time>2026-05-01T11:01:45Z</time>
					</trkpt>
					<trkpt lat="44.725970" lon="3.238400">
						<ele>1124</ele>
						<time>2026-05-01T11:03:11Z</time>
					</trkpt>
					<trkpt lat="44.726430" lon="3.237290">
						<ele>1127</ele>
						<time>2026-05-01T11:05:13Z</time>
					</trkpt>
					<trkpt lat="44.726610" lon="3.236820">
						<ele>1128</ele>
						<time>2026-05-01T11:06:04Z</time>
					</trkpt>
					<trkpt lat="44.726750" lon="3.236470">
						<ele>1130</ele>
						<time>2026-05-01T11:06:42Z</time>
					</trkpt>
					<trkpt lat="44.726310" lon="3.236200">
						<ele>1130</ele>
						<time>2026-05-01T11:07:46Z</time>
					</trkpt>
					<trkpt lat="44.726160" lon="3.236090">
						<ele>1130</ele>
						<time>2026-05-01T11:08:09Z</time>
					</trkpt>
					<trkpt lat="44.726070" lon="3.236020">
						<ele>1130</ele>
						<time>2026-05-01T11:08:22Z</time>
					</trkpt>
					<trkpt lat="44.725410" lon="3.235210">
						<ele>1130</ele>
						<time>2026-05-01T11:10:19Z</time>
					</trkpt>
					<trkpt lat="44.725200" lon="3.235030">
						<ele>1130</ele>
						<time>2026-05-01T11:10:52Z</time>
					</trkpt>
					<trkpt lat="44.724920" lon="3.234810">
						<ele>1131</ele>
						<time>2026-05-01T11:11:35Z</time>
					</trkpt>
					<trkpt lat="44.724830" lon="3.234730">
						<ele>1131</ele>
						<time>2026-05-01T11:11:49Z</time>
					</trkpt>
					<trkpt lat="44.724650" lon="3.234470">
						<ele>1131</ele>
						<time>2026-05-01T11:12:23Z</time>
					</trkpt>
					<trkpt lat="44.724300" lon="3.234050">
						<ele>1132</ele>
						<time>2026-05-01T11:13:25Z</time>
					</trkpt>
					<trkpt lat="44.724130" lon="3.233870">
						<ele>1132</ele>
						<time>2026-05-01T11:13:53Z</time>
					</trkpt>
					<trkpt lat="44.724010" lon="3.233680">
						<ele>1132</ele>
						<time>2026-05-01T11:14:17Z</time>
					</trkpt>
					<trkpt lat="44.723880" lon="3.233470">
						<ele>1131</ele>
						<time>2026-05-01T11:14:44Z</time>
					</trkpt>
					<trkpt lat="44.723710" lon="3.233130">
						<ele>1129</ele>
						<time>2026-05-01T11:15:23Z</time>
					</trkpt>
					<trkpt lat="44.723380" lon="3.232530">
						<ele>1125</ele>
						<time>2026-05-01T11:16:35Z</time>
					</trkpt>
					<trkpt lat="44.723130" lon="3.232180">
						<ele>1126</ele>
						<time>2026-05-01T11:17:22Z</time>
					</trkpt>
					<trkpt lat="44.722890" lon="3.231970">
						<ele>1127</ele>
						<time>2026-05-01T11:18:00Z</time>
					</trkpt>
					<trkpt lat="44.722690" lon="3.231810">
						<ele>1128</ele>
						<time>2026-05-01T11:18:30Z</time>
					</trkpt>
					<trkpt lat="44.722560" lon="3.231690">
						<ele>1130</ele>
						<time>2026-05-01T11:18:51Z</time>
					</trkpt>
					<trkpt lat="44.722510" lon="3.231660">
						<ele>1130</ele>
						<time>2026-05-01T11:18:58Z</time>
					</trkpt>
					<trkpt lat="44.722430" lon="3.231520">
						<ele>1130</ele>
						<time>2026-05-01T11:19:16Z</time>
					</trkpt>
					<trkpt lat="44.722020" lon="3.230900">
						<ele>1131</ele>
						<time>2026-05-01T11:20:36Z</time>
					</trkpt>
					<trkpt lat="44.721960" lon="3.230780">
						<ele>1131</ele>
						<time>2026-05-01T11:20:50Z</time>
					</trkpt>
					<trkpt lat="44.721880" lon="3.230680">
						<ele>1132</ele>
						<time>2026-05-01T11:21:04Z</time>
					</trkpt>
					<trkpt lat="44.721780" lon="3.230510">
						<ele>1133</ele>
						<time>2026-05-01T11:21:25Z</time>
					</trkpt>
					<trkpt lat="44.721520" lon="3.230080">
						<ele>1136</ele>
						<time>2026-05-01T11:22:18Z</time>
					</trkpt>
					<trkpt lat="44.721370" lon="3.230140">
						<ele>1135</ele>
						<time>2026-05-01T11:22:39Z</time>
					</trkpt>
					<trkpt lat="44.720860" lon="3.229560">
						<ele>1141</ele>
						<time>2026-05-01T11:24:07Z</time>
					</trkpt>
					<trkpt lat="44.720650" lon="3.229370">
						<ele>1143</ele>
						<time>2026-05-01T11:24:40Z</time>
					</trkpt>
					<trkpt lat="44.720210" lon="3.229110">
						<ele>1147</ele>
						<time>2026-05-01T11:25:44Z</time>
					</trkpt>
					<trkpt lat="44.719360" lon="3.228140">
						<ele>1155</ele>
						<time>2026-05-01T11:28:10Z</time>
					</trkpt>
					<trkpt lat="44.718920" lon="3.227620">
						<ele>1155</ele>
						<time>2026-05-01T11:29:26Z</time>
					</trkpt>
					<trkpt lat="44.718710" lon="3.227390">
						<ele>1155</ele>
						<time>2026-05-01T11:30:02Z</time>
					</trkpt>
					<trkpt lat="44.718330" lon="3.227080">
						<ele>1155</ele>
						<time>2026-05-01T11:31:01Z</time>
					</trkpt>
					<trkpt lat="44.718140" lon="3.226980">
						<ele>1154</ele>
						<time>2026-05-01T11:31:28Z</time>
					</trkpt>
					<trkpt lat="44.717830" lon="3.226880">
						<ele>1152</ele>
						<time>2026-05-01T11:32:10Z</time>
					</trkpt>
					<trkpt lat="44.717600" lon="3.226800">
						<ele>1151</ele>
						<time>2026-05-01T11:32:42Z</time>
					</trkpt>
					<trkpt lat="44.717060" lon="3.226370">
						<ele>1146</ele>
						<time>2026-05-01T11:34:05Z</time>
					</trkpt>
					<trkpt lat="44.717030" lon="3.226310">
						<ele>1146</ele>
						<time>2026-05-01T11:34:11Z</time>
					</trkpt>
					<trkpt lat="44.716740" lon="3.225790">
						<ele>1141</ele>
						<time>2026-05-01T11:35:14Z</time>
					</trkpt>
					<trkpt lat="44.716550" lon="3.225570">
						<ele>1136</ele>
						<time>2026-05-01T11:35:47Z</time>
					</trkpt>
					<trkpt lat="44.716390" lon="3.225280">
						<ele>1131</ele>
						<time>2026-05-01T11:36:22Z</time>
					</trkpt>
					<trkpt lat="44.716220" lon="3.225010">
						<ele>1127</ele>
						<time>2026-05-01T11:36:56Z</time>
					</trkpt>
					<trkpt lat="44.716010" lon="3.224790">
						<ele>1124</ele>
						<time>2026-05-01T11:37:31Z</time>
					</trkpt>
					<trkpt lat="44.715850" lon="3.224720">
						<ele>1122</ele>
						<time>2026-05-01T11:37:53Z</time>
					</trkpt>
					<trkpt lat="44.715550" lon="3.224710">
						<ele>1118</ele>
						<time>2026-05-01T11:38:33Z</time>
					</trkpt>
					<trkpt lat="44.715430" lon="3.224670">
						<ele>1117</ele>
						<time>2026-05-01T11:38:50Z</time>
					</trkpt>
					<trkpt lat="44.715370" lon="3.224590">
						<ele>1116</ele>
						<time>2026-05-01T11:39:01Z</time>
					</trkpt>
					<trkpt lat="44.715330" lon="3.224430">
						<ele>1115</ele>
						<time>2026-05-01T11:39:17Z</time>
					</trkpt>
					<trkpt lat="44.715310" lon="3.223800">
						<ele>1113</ele>
						<time>2026-05-01T11:40:17Z</time>
					</trkpt>
					<trkpt lat="44.715230" lon="3.223150">
						<ele>1113</ele>
						<time>2026-05-01T11:41:19Z</time>
					</trkpt>
					<trkpt lat="44.715090" lon="3.222540">
						<ele>1114</ele>
						<time>2026-05-01T11:42:20Z</time>
					</trkpt>
					<trkpt lat="44.715000" lon="3.222480">
						<ele>1114</ele>
						<time>2026-05-01T11:42:33Z</time>
					</trkpt>
					<trkpt lat="44.715120" lon="3.222290">
						<ele>1113</ele>
						<time>2026-05-01T11:42:57Z</time>
					</trkpt>
					<trkpt lat="44.715140" lon="3.222230">
						<ele>1113</ele>
						<time>2026-05-01T11:43:04Z</time>
					</trkpt>
					<trkpt lat="44.715120" lon="3.222290">
						<ele>1113</ele>
						<time>2026-05-01T11:43:10Z</time>
					</trkpt>
					<trkpt lat="44.715000" lon="3.222480">
						<ele>1114</ele>
						<time>2026-05-01T11:43:34Z</time>
					</trkpt>
					<trkpt lat="44.714810" lon="3.222480">
						<ele>1114</ele>
						<time>2026-05-01T11:44:00Z</time>
					</trkpt>
					<trkpt lat="44.714820" lon="3.222160">
						<ele>1114</ele>
						<time>2026-05-01T11:44:30Z</time>
					</trkpt>
					<trkpt lat="44.714740" lon="3.222080">
						<ele>1114</ele>
						<time>2026-05-01T11:44:43Z</time>
					</trkpt>
					<trkpt lat="44.714370" lon="3.221470">
						<ele>1118</ele>
						<time>2026-05-01T11:45:59Z</time>
					</trkpt>
					<trkpt lat="44.713970" lon="3.220710">
						<ele>1124</ele>
						<time>2026-05-01T11:47:29Z</time>
					</trkpt>
					<trkpt lat="44.713570" lon="3.220170">
						<ele>1127</ele>
						<time>2026-05-01T11:48:43Z</time>
					</trkpt>
					<trkpt lat="44.713150" lon="3.219820">
						<ele>1129</ele>
						<time>2026-05-01T11:49:48Z</time>
					</trkpt>
					<trkpt lat="44.712640" lon="3.219500">
						<ele>1132</ele>
						<time>2026-05-01T11:51:02Z</time>
					</trkpt>
					<trkpt lat="44.712490" lon="3.219440">
						<ele>1133</ele>
						<time>2026-05-01T11:51:23Z</time>
					</trkpt>
					<trkpt lat="44.712400" lon="3.219350">
						<ele>1133</ele>
						<time>2026-05-01T11:51:38Z</time>
					</trkpt>
					<trkpt lat="44.712370" lon="3.219330">
						<ele>1133</ele>
						<time>2026-05-01T11:51:42Z</time>
					</trkpt>
					<trkpt lat="44.712280" lon="3.219150">
						<ele>1135</ele>
						<time>2026-05-01T11:52:03Z</time>
					</trkpt>
					<trkpt lat="44.712580" lon="3.220260">
						<ele>1129</ele>
						<time>2026-05-01T11:53:56Z</time>
					</trkpt>
					<trkpt lat="44.712820" lon="3.221300">
						<ele>1126</ele>
						<time>2026-05-01T11:55:40Z</time>
					</trkpt>
					<trkpt lat="44.713000" lon="3.222230">
						<ele>1120</ele>
						<time>2026-05-01T11:57:11Z</time>
					</trkpt>
					<trkpt lat="44.713260" lon="3.223100">
						<ele>1111</ele>
						<time>2026-05-01T11:58:40Z</time>
					</trkpt>
					<trkpt lat="44.713120" lon="3.223300">
						<ele>1111</ele>
						<time>2026-05-01T11:59:07Z</time>
					</trkpt>
					<trkpt lat="44.712930" lon="3.223440">
						<ele>1111</ele>
						<time>2026-05-01T11:59:36Z</time>
					</trkpt>
					<trkpt lat="44.712290" lon="3.223730">
						<ele>1111</ele>
						<time>2026-05-01T12:01:05Z</time>
					</trkpt>
					<trkpt lat="44.712070" lon="3.223780">
						<ele>1111</ele>
						<time>2026-05-01T12:01:35Z</time>
					</trkpt>
					<trkpt lat="44.711620" lon="3.223770">
						<ele>1111</ele>
						<time>2026-05-01T12:02:35Z</time>
					</trkpt>
					<trkpt lat="44.711480" lon="3.223800">
						<ele>1111</ele>
						<time>2026-05-01T12:02:54Z</time>
					</trkpt>
					<trkpt lat="44.711280" lon="3.223910">
						<ele>1110</ele>
						<time>2026-05-01T12:03:23Z</time>
					</trkpt>
					<trkpt lat="44.711140" lon="3.223920">
						<ele>1110</ele>
						<time>2026-05-01T12:03:41Z</time>
					</trkpt>
					<trkpt lat="44.710960" lon="3.224000">
						<ele>1110</ele>
						<time>2026-05-01T12:04:07Z</time>
					</trkpt>
					<trkpt lat="44.710800" lon="3.224220">
						<ele>1109</ele>
						<time>2026-05-01T12:04:36Z</time>
					</trkpt>
					<trkpt lat="44.710770" lon="3.224470">
						<ele>1108</ele>
						<time>2026-05-01T12:05:01Z</time>
					</trkpt>
					<trkpt lat="44.710790" lon="3.224740">
						<ele>1105</ele>
						<time>2026-05-01T12:05:26Z</time>
					</trkpt>
					<trkpt lat="44.710870" lon="3.225260">
						<ele>1102</ele>
						<time>2026-05-01T12:06:17Z</time>
					</trkpt>
					<trkpt lat="44.711100" lon="3.226140">
						<ele>1100</ele>
						<time>2026-05-01T12:07:46Z</time>
					</trkpt>
					<trkpt lat="44.711160" lon="3.226380">
						<ele>1099</ele>
						<time>2026-05-01T12:08:10Z</time>
					</trkpt>
					<trkpt lat="44.711350" lon="3.227270">
						<ele>1095</ele>
						<time>2026-05-01T12:09:38Z</time>
					</trkpt>
					<trkpt lat="44.711650" lon="3.228340">
						<ele>1087</ele>
						<time>2026-05-01T12:11:27Z</time>
					</trkpt>
					<trkpt lat="44.711550" lon="3.229430">
						<ele>1079</ele>
						<time>2026-05-01T12:13:11Z</time>
					</trkpt>
					<trkpt lat="44.711560" lon="3.229540">
						<ele>1078</ele>
						<time>2026-05-01T12:13:22Z</time>
					</trkpt>
					<trkpt lat="44.711570" lon="3.229660">
						<ele>1078</ele>
						<time>2026-05-01T12:13:33Z</time>
					</trkpt>
					<trkpt lat="44.711670" lon="3.229880">
						<ele>1076</ele>
						<time>2026-05-01T12:13:58Z</time>
					</trkpt>
					<trkpt lat="44.711850" lon="3.230030">
						<ele>1077</ele>
						<time>2026-05-01T12:14:26Z</time>
					</trkpt>
					<trkpt lat="44.712000" lon="3.230190">
						<ele>1078</ele>
						<time>2026-05-01T12:14:51Z</time>
					</trkpt>
					<trkpt lat="44.712170" lon="3.230560">
						<ele>1081</ele>
						<time>2026-05-01T12:15:33Z</time>
					</trkpt>
					<trkpt lat="44.712260" lon="3.231060">
						<ele>1084</ele>
						<time>2026-05-01T12:16:22Z</time>
					</trkpt>
					<trkpt lat="44.712490" lon="3.231680">
						<ele>1091</ele>
						<time>2026-05-01T12:17:28Z</time>
					</trkpt>
					<trkpt lat="44.712510" lon="3.231860">
						<ele>1091</ele>
						<time>2026-05-01T12:17:45Z</time>
					</trkpt>
					<trkpt lat="44.712520" lon="3.232480">
						<ele>1092</ele>
						<time>2026-05-01T12:18:44Z</time>
					</trkpt>
					<trkpt lat="44.712460" lon="3.232720">
						<ele>1092</ele>
						<time>2026-05-01T12:19:08Z</time>
					</trkpt>
					<trkpt lat="44.712410" lon="3.232990">
						<ele>1091</ele>
						<time>2026-05-01T12:19:35Z</time>
					</trkpt>
					<trkpt lat="44.712380" lon="3.233310">
						<ele>1091</ele>
						<time>2026-05-01T12:20:05Z</time>
					</trkpt>
					<trkpt lat="44.712370" lon="3.233560">
						<ele>1091</ele>
						<time>2026-05-01T12:20:29Z</time>
					</trkpt>
					<trkpt lat="44.712370" lon="3.234240">
						<ele>1092</ele>
						<time>2026-05-01T12:21:34Z</time>
					</trkpt>
					<trkpt lat="44.712380" lon="3.234670">
						<ele>1092</ele>
						<time>2026-05-01T12:22:14Z</time>
					</trkpt>
					<trkpt lat="44.712410" lon="3.234910">
						<ele>1093</ele>
						<time>2026-05-01T12:22:37Z</time>
					</trkpt>
					<trkpt lat="44.712460" lon="3.235160">
						<ele>1092</ele>
						<time>2026-05-01T12:23:02Z</time>
					</trkpt>
					<trkpt lat="44.712580" lon="3.235500">
						<ele>1092</ele>
						<time>2026-05-01T12:23:38Z</time>
					</trkpt>
					<trkpt lat="44.712710" lon="3.235820">
						<ele>1093</ele>
						<time>2026-05-01T12:24:13Z</time>
					</trkpt>
					<trkpt lat="44.712800" lon="3.236010">
						<ele>1093</ele>
						<time>2026-05-01T12:24:35Z</time>
					</trkpt>
					<trkpt lat="44.712890" lon="3.236130">
						<ele>1093</ele>
						<time>2026-05-01T12:24:51Z</time>
					</trkpt>
					<trkpt lat="44.713010" lon="3.236360">
						<ele>1093</ele>
						<time>2026-05-01T12:25:18Z</time>
					</trkpt>
					<trkpt lat="44.713140" lon="3.236760">
						<ele>1093</ele>
						<time>2026-05-01T12:26:00Z</time>
					</trkpt>
					<trkpt lat="44.713170" lon="3.236920">
						<ele>1094</ele>
						<time>2026-05-01T12:26:16Z</time>
					</trkpt>
					<trkpt lat="44.713170" lon="3.237030">
						<ele>1093</ele>
						<time>2026-05-01T12:26:26Z</time>
					</trkpt>
					<trkpt lat="44.713150" lon="3.237170">
						<ele>1093</ele>
						<time>2026-05-01T12:26:40Z</time>
					</trkpt>
					<trkpt lat="44.713110" lon="3.237280">
						<ele>1093</ele>
						<time>2026-05-01T12:26:51Z</time>
					</trkpt>
					<trkpt lat="44.713040" lon="3.237400">
						<ele>1092</ele>
						<time>2026-05-01T12:27:06Z</time>
					</trkpt>
					<trkpt lat="44.712980" lon="3.237480">
						<ele>1091</ele>
						<time>2026-05-01T12:27:17Z</time>
					</trkpt>
					<trkpt lat="44.712680" lon="3.237790">
						<ele>1088</ele>
						<time>2026-05-01T12:28:07Z</time>
					</trkpt>
					<trkpt lat="44.712600" lon="3.237930">
						<ele>1088</ele>
						<time>2026-05-01T12:28:24Z</time>
					</trkpt>
					<trkpt lat="44.712560" lon="3.238030">
						<ele>1087</ele>
						<time>2026-05-01T12:28:35Z</time>
					</trkpt>
					<trkpt lat="44.712420" lon="3.238510">
						<ele>1088</ele>
						<time>2026-05-01T12:29:24Z</time>
					</trkpt>
					<trkpt lat="44.712320" lon="3.238890">
						<ele>1088</ele>
						<time>2026-05-01T12:30:02Z</time>
					</trkpt>
					<trkpt lat="44.712230" lon="3.239240">
						<ele>1087</ele>
						<time>2026-05-01T12:30:38Z</time>
					</trkpt>
					<trkpt lat="44.711830" lon="3.240800">
						<ele>1081</ele>
						<time>2026-05-01T12:33:15Z</time>
					</trkpt>
					<trkpt lat="44.711690" lon="3.241350">
						<ele>1079</ele>
						<time>2026-05-01T12:34:10Z</time>
					</trkpt>
					<trkpt lat="44.711580" lon="3.241740">
						<ele>1077</ele>
						<time>2026-05-01T12:34:50Z</time>
					</trkpt>
					<trkpt lat="44.711510" lon="3.241930">
						<ele>1077</ele>
						<time>2026-05-01T12:35:10Z</time>
					</trkpt>
					<trkpt lat="44.711350" lon="3.242290">
						<ele>1075</ele>
						<time>2026-05-01T12:35:51Z</time>
					</trkpt>
					<trkpt lat="44.711120" lon="3.242780">
						<ele>1073</ele>
						<time>2026-05-01T12:36:46Z</time>
					</trkpt>
					<trkpt lat="44.711090" lon="3.242880">
						<ele>1073</ele>
						<time>2026-05-01T12:36:57Z</time>
					</trkpt>
					<trkpt lat="44.710940" lon="3.243350">
						<ele>1071</ele>
						<time>2026-05-01T12:37:46Z</time>
					</trkpt>
					<trkpt lat="44.710910" lon="3.243480">
						<ele>1071</ele>
						<time>2026-05-01T12:37:59Z</time>
					</trkpt>
					<trkpt lat="44.710780" lon="3.243960">
						<ele>1069</ele>
						<time>2026-05-01T12:38:47Z</time>
					</trkpt>
					<trkpt lat="44.710640" lon="3.244530">
						<ele>1066</ele>
						<time>2026-05-01T12:39:44Z</time>
					</trkpt>
					<trkpt lat="44.710610" lon="3.244540">
						<ele>1066</ele>
						<time>2026-05-01T12:39:49Z</time>
					</trkpt>
					<trkpt lat="44.710580" lon="3.244570">
						<ele>1066</ele>
						<time>2026-05-01T12:39:53Z</time>
					</trkpt>
					<trkpt lat="44.710470" lon="3.244750">
						<ele>1066</ele>
						<time>2026-05-01T12:40:16Z</time>
					</trkpt>
					<trkpt lat="44.710230" lon="3.245070">
						<ele>1065</ele>
						<time>2026-05-01T12:41:00Z</time>
					</trkpt>
					<trkpt lat="44.709910" lon="3.245630">
						<ele>1066</ele>
						<time>2026-05-01T12:42:08Z</time>
					</trkpt>
					<trkpt lat="44.709740" lon="3.245850">
						<ele>1065</ele>
						<time>2026-05-01T12:42:39Z</time>
					</trkpt>
					<trkpt lat="44.709430" lon="3.246170">
						<ele>1065</ele>
						<time>2026-05-01T12:43:30Z</time>
					</trkpt>
					<trkpt lat="44.708700" lon="3.246780">
						<ele>1067</ele>
						<time>2026-05-01T12:45:24Z</time>
					</trkpt>
					<trkpt lat="44.708390" lon="3.247150">
						<ele>1068</ele>
						<time>2026-05-01T12:46:18Z</time>
					</trkpt>
					<trkpt lat="44.708170" lon="3.247490">
						<ele>1068</ele>
						<time>2026-05-01T12:47:02Z</time>
					</trkpt>
					<trkpt lat="44.707760" lon="3.248220">
						<ele>1067</ele>
						<time>2026-05-01T12:48:30Z</time>
					</trkpt>
					<trkpt lat="44.708010" lon="3.248330">
						<ele>1068</ele>
						<time>2026-05-01T12:49:05Z</time>
					</trkpt>
					<trkpt lat="44.707760" lon="3.248220">
						<ele>1067</ele>
						<time>2026-05-01T12:49:40Z</time>
					</trkpt>
					<trkpt lat="44.707310" lon="3.249110">
						<ele>1063</ele>
						<time>2026-05-01T12:51:23Z</time>
					</trkpt>
					<trkpt lat="44.706920" lon="3.249700">
						<ele>1060</ele>
						<time>2026-05-01T12:52:40Z</time>
					</trkpt>
					<trkpt lat="44.706630" lon="3.250070">
						<ele>1059</ele>
						<time>2026-05-01T12:53:32Z</time>
					</trkpt>
					<trkpt lat="44.706190" lon="3.250530">
						<ele>1056</ele>
						<time>2026-05-01T12:54:45Z</time>
					</trkpt>
					<trkpt lat="44.705940" lon="3.250850">
						<ele>1054</ele>
						<time>2026-05-01T12:55:30Z</time>
					</trkpt>
					<trkpt lat="44.705390" lon="3.251590">
						<ele>1051</ele>
						<time>2026-05-01T12:57:12Z</time>
					</trkpt>
					<trkpt lat="44.705120" lon="3.251900">
						<ele>1049</ele>
						<time>2026-05-01T12:57:58Z</time>
					</trkpt>
					<trkpt lat="44.705010" lon="3.251990">
						<ele>1049</ele>
						<time>2026-05-01T12:58:15Z</time>
					</trkpt>
					<trkpt lat="44.704670" lon="3.252110">
						<ele>1047</ele>
						<time>2026-05-01T12:59:02Z</time>
					</trkpt>
					<trkpt lat="44.704510" lon="3.252230">
						<ele>1047</ele>
						<time>2026-05-01T12:59:26Z</time>
					</trkpt>
					<trkpt lat="44.704480" lon="3.252270">
						<ele>1047</ele>
						<time>2026-05-01T12:59:32Z</time>
					</trkpt>
					<trkpt lat="44.704240" lon="3.252560">
						<ele>1046</ele>
						<time>2026-05-01T13:00:14Z</time>
					</trkpt>
					<trkpt lat="44.703860" lon="3.252780">
						<ele>1046</ele>
						<time>2026-05-01T13:01:09Z</time>
					</trkpt>
					<trkpt lat="44.703640" lon="3.252880">
						<ele>1046</ele>
						<time>2026-05-01T13:01:40Z</time>
					</trkpt>
					<trkpt lat="44.703500" lon="3.252850">
						<ele>1045</ele>
						<time>2026-05-01T13:01:58Z</time>
					</trkpt>
					<trkpt lat="44.703380" lon="3.252810">
						<ele>1045</ele>
						<time>2026-05-01T13:02:15Z</time>
					</trkpt>
					<trkpt lat="44.703120" lon="3.252710">
						<ele>1043</ele>
						<time>2026-05-01T13:02:51Z</time>
					</trkpt>
					<trkpt lat="44.703020" lon="3.252700">
						<ele>1043</ele>
						<time>2026-05-01T13:03:04Z</time>
					</trkpt>
					<trkpt lat="44.702910" lon="3.252740">
						<ele>1042</ele>
						<time>2026-05-01T13:03:19Z</time>
					</trkpt>
					<trkpt lat="44.702810" lon="3.253030">
						<ele>1042</ele>
						<time>2026-05-01T13:03:50Z</time>
					</trkpt>
					<trkpt lat="44.702620" lon="3.253560">
						<ele>1041</ele>
						<time>2026-05-01T13:04:46Z</time>
					</trkpt>
					<trkpt lat="44.702600" lon="3.253620">
						<ele>1041</ele>
						<time>2026-05-01T13:04:53Z</time>
					</trkpt>
					<trkpt lat="44.702500" lon="3.253650">
						<ele>1040</ele>
						<time>2026-05-01T13:05:06Z</time>
					</trkpt>
					<trkpt lat="44.702420" lon="3.253780">
						<ele>1039</ele>
						<time>2026-05-01T13:05:23Z</time>
					</trkpt>
					<trkpt lat="44.702310" lon="3.253920">
						<ele>1038</ele>
						<time>2026-05-01T13:05:42Z</time>
					</trkpt>
					<trkpt lat="44.701870" lon="3.254660">
						<ele>1033</ele>
						<time>2026-05-01T13:07:14Z</time>
					</trkpt>
					<trkpt lat="44.701570" lon="3.255040">
						<ele>1030</ele>
						<time>2026-05-01T13:08:08Z</time>
					</trkpt>
					<trkpt lat="44.701380" lon="3.255260">
						<ele>1028</ele>
						<time>2026-05-01T13:08:41Z</time>
					</trkpt>
					<trkpt lat="44.701070" lon="3.255660">
						<ele>1025</ele>
						<time>2026-05-01T13:09:37Z</time>
					</trkpt>
					<trkpt lat="44.700990" lon="3.256020">
						<ele>1025</ele>
						<time>2026-05-01T13:10:12Z</time>
					</trkpt>
					<trkpt lat="44.700890" lon="3.256500">
						<ele>1024</ele>
						<time>2026-05-01T13:11:00Z</time>
					</trkpt>
					<trkpt lat="44.700810" lon="3.256920">
						<ele>1024</ele>
						<time>2026-05-01T13:11:41Z</time>
					</trkpt>
					<trkpt lat="44.700560" lon="3.257670">
						<ele>1023</ele>
						<time>2026-05-01T13:13:00Z</time>
					</trkpt>
					<trkpt lat="44.700340" lon="3.258790">
						<ele>1022</ele>
						<time>2026-05-01T13:14:50Z</time>
					</trkpt>
					<trkpt lat="44.700280" lon="3.259250">
						<ele>1022</ele>
						<time>2026-05-01T13:15:34Z</time>
					</trkpt>
					<trkpt lat="44.700210" lon="3.259550">
						<ele>1021</ele>
						<time>2026-05-01T13:16:04Z</time>
					</trkpt>
					<trkpt lat="44.699930" lon="3.260260">
						<ele>1019</ele>
						<time>2026-05-01T13:17:21Z</time>
					</trkpt>
					<trkpt lat="44.699880" lon="3.260450">
						<ele>1019</ele>
						<time>2026-05-01T13:17:41Z</time>
					</trkpt>
					<trkpt lat="44.699900" lon="3.260650">
						<ele>1019</ele>
						<time>2026-05-01T13:18:00Z</time>
					</trkpt>
					<trkpt lat="44.699930" lon="3.261370">
						<ele>1017</ele>
						<time>2026-05-01T13:19:08Z</time>
					</trkpt>
					<trkpt lat="44.699910" lon="3.261530">
						<ele>1016</ele>
						<time>2026-05-01T13:19:23Z</time>
					</trkpt>
					<trkpt lat="44.699880" lon="3.261640">
						<ele>1016</ele>
						<time>2026-05-01T13:19:35Z</time>
					</trkpt>
					<trkpt lat="44.699780" lon="3.261840">
						<ele>1017</ele>
						<time>2026-05-01T13:19:58Z</time>
					</trkpt>
					<trkpt lat="44.699630" lon="3.262010">
						<ele>1018</ele>
						<time>2026-05-01T13:20:24Z</time>
					</trkpt>
					<trkpt lat="44.699090" lon="3.262340">
						<ele>1018</ele>
						<time>2026-05-01T13:21:42Z</time>
					</trkpt>
					<trkpt lat="44.698860" lon="3.262430">
						<ele>1018</ele>
						<time>2026-05-01T13:22:14Z</time>
					</trkpt>
					<trkpt lat="44.698650" lon="3.262500">
						<ele>1019</ele>
						<time>2026-05-01T13:22:43Z</time>
					</trkpt>
					<trkpt lat="44.698490" lon="3.262590">
						<ele>1019</ele>
						<time>2026-05-01T13:23:06Z</time>
					</trkpt>
					<trkpt lat="44.698960" lon="3.262910">
						<ele>1021</ele>
						<time>2026-05-01T13:24:15Z</time>
					</trkpt>
					<trkpt lat="44.699220" lon="3.263190">
						<ele>1022</ele>
						<time>2026-05-01T13:24:59Z</time>
					</trkpt>
					<trkpt lat="44.699390" lon="3.263520">
						<ele>1025</ele>
						<time>2026-05-01T13:25:38Z</time>
					</trkpt>
					<trkpt lat="44.699490" lon="3.263800">
						<ele>1026</ele>
						<time>2026-05-01T13:26:08Z</time>
					</trkpt>
					<trkpt lat="44.699860" lon="3.264770">
						<ele>1031</ele>
						<time>2026-05-01T13:27:52Z</time>
					</trkpt>
					<trkpt lat="44.700300" lon="3.265850">
						<ele>1035</ele>
						<time>2026-05-01T13:29:50Z</time>
					</trkpt>
					<trkpt lat="44.700520" lon="3.266350">
						<ele>1037</ele>
						<time>2026-05-01T13:30:46Z</time>
					</trkpt>
					<trkpt lat="44.700810" lon="3.266920">
						<ele>1039</ele>
						<time>2026-05-01T13:31:52Z</time>
					</trkpt>
					<trkpt lat="44.701090" lon="3.267380">
						<ele>1041</ele>
						<time>2026-05-01T13:32:50Z</time>
					</trkpt>
					<trkpt lat="44.701140" lon="3.267510">
						<ele>1041</ele>
						<time>2026-05-01T13:33:04Z</time>
					</trkpt>
					<trkpt lat="44.701240" lon="3.267890">
						<ele>1041</ele>
						<time>2026-05-01T13:33:42Z</time>
					</trkpt>
					<trkpt lat="44.701300" lon="3.267970">
						<ele>1040</ele>
						<time>2026-05-01T13:33:53Z</time>
					</trkpt>
					<trkpt lat="44.701400" lon="3.268020">
						<ele>1040</ele>
						<time>2026-05-01T13:34:07Z</time>
					</trkpt>
					<trkpt lat="44.702730" lon="3.268320">
						<ele>1044</ele>
						<time>2026-05-01T13:37:07Z</time>
					</trkpt>
					<trkpt lat="44.703460" lon="3.268440">
						<ele>1046</ele>
						<time>2026-05-01T13:38:45Z</time>
					</trkpt>
					<trkpt lat="44.703720" lon="3.268450">
						<ele>1047</ele>
						<time>2026-05-01T13:39:20Z</time>
					</trkpt>
					<trkpt lat="44.704360" lon="3.268390">
						<ele>1049</ele>
						<time>2026-05-01T13:40:46Z</time>
					</trkpt>
					<trkpt lat="44.705290" lon="3.268320">
						<ele>1051</ele>
						<time>2026-05-01T13:42:50Z</time>
					</trkpt>
					<trkpt lat="44.705430" lon="3.268360">
						<ele>1051</ele>
						<time>2026-05-01T13:43:09Z</time>
					</trkpt>
					<trkpt lat="44.706070" lon="3.268800">
						<ele>1051</ele>
						<time>2026-05-01T13:44:44Z</time>
					</trkpt>
					<trkpt lat="44.706800" lon="3.269170">
						<ele>1053</ele>
						<time>2026-05-01T13:46:27Z</time>
					</trkpt>
					<trkpt lat="44.707570" lon="3.269340">
						<ele>1056</ele>
						<time>2026-05-01T13:48:11Z</time>
					</trkpt>
					<trkpt lat="44.708270" lon="3.269540">
						<ele>1059</ele>
						<time>2026-05-01T13:49:47Z</time>
					</trkpt>
					<trkpt lat="44.708630" lon="3.269690">
						<ele>1060</ele>
						<time>2026-05-01T13:50:37Z</time>
					</trkpt>
					<trkpt lat="44.709030" lon="3.269950">
						<ele>1062</ele>
						<time>2026-05-01T13:51:36Z</time>
					</trkpt>
					<trkpt lat="44.709250" lon="3.270110">
						<ele>1063</ele>
						<time>2026-05-01T13:52:09Z</time>
					</trkpt>
					<trkpt lat="44.709440" lon="3.270210">
						<ele>1063</ele>
						<time>2026-05-01T13:52:36Z</time>
					</trkpt>
					<trkpt lat="44.709740" lon="3.270380">
						<ele>1064</ele>
						<time>2026-05-01T13:53:19Z</time>
					</trkpt>
					<trkpt lat="44.709920" lon="3.270550">
						<ele>1065</ele>
						<time>2026-05-01T13:53:48Z</time>
					</trkpt>
					<trkpt lat="44.710020" lon="3.270680">
						<ele>1066</ele>
						<time>2026-05-01T13:54:06Z</time>
					</trkpt>
					<trkpt lat="44.710590" lon="3.271560">
						<ele>1064</ele>
						<time>2026-05-01T13:55:59Z</time>
					</trkpt>
					<trkpt lat="44.711100" lon="3.272280">
						<ele>1062</ele>
						<time>2026-05-01T13:57:35Z</time>
					</trkpt>
					<trkpt lat="44.711330" lon="3.272560">
						<ele>1063</ele>
						<time>2026-05-01T13:58:16Z</time>
					</trkpt>
					<trkpt lat="44.710960" lon="3.272760">
						<ele>1061</ele>
						<time>2026-05-01T13:59:09Z</time>
					</trkpt>
					<trkpt lat="44.710980" lon="3.272830">
						<ele>1060</ele>
						<time>2026-05-01T13:59:16Z</time>
					</trkpt>
					<trkpt lat="44.711100" lon="3.273240">
						<ele>1060</ele>
						<time>2026-05-01T13:59:58Z</time>
					</trkpt>
					<trkpt lat="44.711130" lon="3.273290">
						<ele>1060</ele>
						<time>2026-05-01T14:00:04Z</time>
					</trkpt>
					<trkpt lat="44.711340" lon="3.273120">
						<ele>1061</ele>
						<time>2026-05-01T14:00:37Z</time>
					</trkpt>
					<trkpt lat="44.711610" lon="3.272970">
						<ele>1063</ele>
						<time>2026-05-01T14:01:15Z</time>
					</trkpt>
					<trkpt lat="44.711690" lon="3.272970">
						<ele>1063</ele>
						<time>2026-05-01T14:01:26Z</time>
					</trkpt>
					<trkpt lat="44.711800" lon="3.273020">
						<ele>1063</ele>
						<time>2026-05-01T14:01:41Z</time>
					</trkpt>
					<trkpt lat="44.712290" lon="3.273530">
						<ele>1065</ele>
						<time>2026-05-01T14:03:03Z</time>
					</trkpt>
					<trkpt lat="44.713050" lon="3.274660">
						<ele>1069</ele>
						<time>2026-05-01T14:05:30Z</time>
					</trkpt>
					<trkpt lat="44.713660" lon="3.275440">
						<ele>1070</ele>
						<time>2026-05-01T14:07:20Z</time>
					</trkpt>
					<trkpt lat="44.713720" lon="3.275520">
						<ele>1070</ele>
						<time>2026-05-01T14:07:31Z</time>
					</trkpt>
					<trkpt lat="44.713770" lon="3.275750">
						<ele>1070</ele>
						<time>2026-05-01T14:07:54Z</time>
					</trkpt>
					<trkpt lat="44.713940" lon="3.276030">
						<ele>1070</ele>
						<time>2026-05-01T14:08:29Z</time>
					</trkpt>
					<trkpt lat="44.714000" lon="3.276300">
						<ele>1069</ele>
						<time>2026-05-01T14:08:56Z</time>
					</trkpt>
					<trkpt lat="44.714080" lon="3.276880">
						<ele>1067</ele>
						<time>2026-05-01T14:09:52Z</time>
					</trkpt>
					<trkpt lat="44.714210" lon="3.277910">
						<ele>1066</ele>
						<time>2026-05-01T14:11:31Z</time>
					</trkpt>
					<trkpt lat="44.714220" lon="3.278280">
						<ele>1065</ele>
						<time>2026-05-01T14:12:06Z</time>
					</trkpt>
					<trkpt lat="44.714190" lon="3.279050">
						<ele>1063</ele>
						<time>2026-05-01T14:13:19Z</time>
					</trkpt>
					<trkpt lat="44.714180" lon="3.279570">
						<ele>1064</ele>
						<time>2026-05-01T14:14:09Z</time>
					</trkpt>
					<trkpt lat="44.714330" lon="3.279890">
						<ele>1064</ele>
						<time>2026-05-01T14:14:45Z</time>
					</trkpt>
					<trkpt lat="44.714450" lon="3.280150">
						<ele>1065</ele>
						<time>2026-05-01T14:15:14Z</time>
					</trkpt>
					<trkpt lat="44.714590" lon="3.280370">
						<ele>1066</ele>
						<time>2026-05-01T14:15:42Z</time>
					</trkpt>
					<trkpt lat="44.714790" lon="3.280590">
						<ele>1067</ele>
						<time>2026-05-01T14:16:16Z</time>
					</trkpt>
					<trkpt lat="44.715190" lon="3.280950">
						<ele>1067</ele>
						<time>2026-05-01T14:17:20Z</time>
					</trkpt>
					<trkpt lat="44.715390" lon="3.281210">
						<ele>1064</ele>
						<time>2026-05-01T14:17:56Z</time>
					</trkpt>
					<trkpt lat="44.716480" lon="3.282250">
						<ele>1050</ele>
						<time>2026-05-01T14:20:52Z</time>
					</trkpt>
					<trkpt lat="44.716510" lon="3.282300">
						<ele>1050</ele>
						<time>2026-05-01T14:20:58Z</time>
					</trkpt>
					<trkpt lat="44.716970" lon="3.283470">
						<ele>1041</ele>
						<time>2026-05-01T14:23:05Z</time>
					</trkpt>
					<trkpt lat="44.717020" lon="3.283690">
						<ele>1041</ele>
						<time>2026-05-01T14:23:27Z</time>
					</trkpt>
					<trkpt lat="44.717410" lon="3.283740">
						<ele>1041</ele>
						<time>2026-05-01T14:24:19Z</time>
					</trkpt>
					<trkpt lat="44.717500" lon="3.283750">
						<ele>1041</ele>
						<time>2026-05-01T14:24:31Z</time>
					</trkpt>
					<trkpt lat="44.717560" lon="3.283740">
						<ele>1041</ele>
						<time>2026-05-01T14:24:39Z</time>
					</trkpt>
					<trkpt lat="44.717640" lon="3.283650">
						<ele>1041</ele>
						<time>2026-05-01T14:24:53Z</time>
					</trkpt>
					<trkpt lat="44.718330" lon="3.282710">
						<ele>1037</ele>
						<time>2026-05-01T14:27:01Z</time>
					</trkpt>
					<trkpt lat="44.718770" lon="3.282260">
						<ele>1037</ele>
						<time>2026-05-01T14:28:13Z</time>
					</trkpt>
					<trkpt lat="44.718830" lon="3.282210">
						<ele>1037</ele>
						<time>2026-05-01T14:28:23Z</time>
					</trkpt>
					<trkpt lat="44.718920" lon="3.282160">
						<ele>1037</ele>
						<time>2026-05-01T14:28:36Z</time>
					</trkpt>
					<trkpt lat="44.719020" lon="3.282080">
						<ele>1037</ele>
						<time>2026-05-01T14:28:51Z</time>
					</trkpt>
					<trkpt lat="44.719980" lon="3.281640">
						<ele>1036</ele>
						<time>2026-05-01T14:31:06Z</time>
					</trkpt>
					<trkpt lat="44.720090" lon="3.282050">
						<ele>1040</ele>
						<time>2026-05-01T14:31:47Z</time>
					</trkpt>
					<trkpt lat="44.720130" lon="3.282110">
						<ele>1040</ele>
						<time>2026-05-01T14:31:55Z</time>
					</trkpt>
					<trkpt lat="44.720160" lon="3.282140">
						<ele>1040</ele>
						<time>2026-05-01T14:32:00Z</time>
					</trkpt>
					<trkpt lat="44.720200" lon="3.282170">
						<ele>1041</ele>
						<time>2026-05-01T14:32:06Z</time>
					</trkpt>
					<trkpt lat="44.720250" lon="3.282180">
						<ele>1041</ele>
						<time>2026-05-01T14:32:13Z</time>
					</trkpt>
					<trkpt lat="44.720310" lon="3.282180">
						<ele>1041</ele>
						<time>2026-05-01T14:32:21Z</time>
					</trkpt>
					<trkpt lat="44.720370" lon="3.282150">
						<ele>1041</ele>
						<time>2026-05-01T14:32:29Z</time>
					</trkpt>
					<trkpt lat="44.720890" lon="3.282620">
						<ele>1045</ele>
						<time>2026-05-01T14:33:52Z</time>
					</trkpt>
					<trkpt lat="44.721090" lon="3.282750">
						<ele>1047</ele>
						<time>2026-05-01T14:34:21Z</time>
					</trkpt>
					<trkpt lat="44.721030" lon="3.282890">
						<ele>1048</ele>
						<time>2026-05-01T14:34:37Z</time>
					</trkpt>
					<trkpt lat="44.721010" lon="3.282990">
						<ele>1049</ele>
						<time>2026-05-01T14:34:47Z</time>
					</trkpt>
					<trkpt lat="44.720510" lon="3.282910">
						<ele>1048</ele>
						<time>2026-05-01T14:35:54Z</time>
					</trkpt>
					<trkpt lat="44.720210" lon="3.282870">
						<ele>1048</ele>
						<time>2026-05-01T14:36:34Z</time>
					</trkpt>
					<trkpt lat="44.719990" lon="3.282860">
						<ele>1048</ele>
						<time>2026-05-01T14:37:03Z</time>
					</trkpt>
					<trkpt lat="44.719880" lon="3.282870">
						<ele>1048</ele>
						<time>2026-05-01T14:37:18Z</time>
					</trkpt>
					<trkpt lat="44.719640" lon="3.282920">
						<ele>1047</ele>
						<time>2026-05-01T14:37:50Z</time>
					</trkpt>
					<trkpt lat="44.719140" lon="3.283050">
						<ele>1045</ele>
						<time>2026-05-01T14:38:58Z</time>
					</trkpt>
					<trkpt lat="44.719010" lon="3.283130">
						<ele>1045</ele>
						<time>2026-05-01T14:39:17Z</time>
					</trkpt>
					<trkpt lat="44.718930" lon="3.283200">
						<ele>1045</ele>
						<time>2026-05-01T14:39:30Z</time>
					</trkpt>
					<trkpt lat="44.718760" lon="3.283420">
						<ele>1046</ele>
						<time>2026-05-01T14:40:01Z</time>
					</trkpt>
					<trkpt lat="44.718670" lon="3.283530">
						<ele>1046</ele>
						<time>2026-05-01T14:40:16Z</time>
					</trkpt>
					</trkseg>
				</trk>
			</gpx>