<?xml version="1.0" encoding="UTF-8" ?>
<gpx version="1.1" xmlns:xsi="http://www.w3.org/2001/XMLSchema-instance"
    xmlns="http://www.topografix.com/GPX/1/1"
    xsi:schemaLocation="http://www.topografix.com/GPX/1/1 http://www.topografix.com/GPX/1/1/gpx.xsd"
    creator="Openrunner - https://www.openrunner.com" >	<trk>
	                   <name>Londres: Canal &amp; Regent Park-20129202</name>
						<trkseg>
					<trkpt lat="51.517870" lon="-0.169690">
						<ele>34</ele>
						<time>2026-05-01T09:52:05Z</time>
					</trkpt>
					<trkpt lat="51.517880" lon="-0.169710">
						<ele>34</ele>
						<time>2026-05-01T09:52:06Z</time>
					</trkpt>
					<trkpt lat="51.518120" lon="-0.170060">
						<ele>35</ele>
						<time>2026-05-01T09:52:16Z</time>
					</trkpt>
					<trkpt lat="51.518140" lon="-0.170080">
						<ele>35</ele>
						<time>2026-05-01T09:52:17Z</time>
					</trkpt>
					<trkpt lat="51.518150" lon="-0.170100">
						<ele>35</ele>
						<time>2026-05-01T09:52:18Z</time>
					</trkpt>
					<trkpt lat="51.518420" lon="-0.170480">
						<ele>37</ele>
						<time>2026-05-01T09:52:30Z</time>
					</trkpt>
					<trkpt lat="51.518440" lon="-0.170430">
						<ele>37</ele>
						<time>2026-05-01T09:52:31Z</time>
					</trkpt>
					<trkpt lat="51.518500" lon="-0.170520">
						<ele>38</ele>
						<time>2026-05-01T09:52:34Z</time>
					</trkpt>
					<trkpt lat="51.518550" lon="-0.170570">
						<ele>39</ele>
						<time>2026-05-01T09:52:36Z</time>
					</trkpt>
					<trkpt lat="51.518550" lon="-0.170570">
						<ele>39</ele>
						<time>2026-05-01T09:52:36Z</time>
					</trkpt>
					<trkpt lat="51.518560" lon="-0.170590">
						<ele>40</ele>
						<time>2026-05-01T09:52:36Z</time>
					</trkpt>
					<trkpt lat="51.518560" lon="-0.170590">
						<ele>40</ele>
						<time>2026-05-01T09:52:36Z</time>
					</trkpt>
					<trkpt lat="51.518660" lon="-0.170730">
						<ele>42</ele>
						<time>2026-05-01T09:52:41Z</time>
					</trkpt>
					<trkpt lat="51.518760" lon="-0.170860">
						<ele>44</ele>
						<time>2026-05-01T09:52:45Z</time>
					</trkpt>
					<trkpt lat="51.518600" lon="-0.171780">
						<ele>36</ele>
						<time>2026-05-01T09:53:05Z</time>
					</trkpt>
					<trkpt lat="51.518510" lon="-0.172290">
						<ele>33</ele>
						<time>2026-05-01T09:53:16Z</time>
					</trkpt>
					<trkpt lat="51.518540" lon="-0.172300">
						<ele>34</ele>
						<time>2026-05-01T09:53:17Z</time>
					</trkpt>
					<trkpt lat="51.518280" lon="-0.173750">
						<ele>36</ele>
						<time>2026-05-01T09:53:48Z</time>
					</trkpt>
					<trkpt lat="51.518070" lon="-0.175060">
						<ele>34</ele>
						<time>2026-05-01T09:54:16Z</time>
					</trkpt>
					<trkpt lat="51.518050" lon="-0.175240">
						<ele>34</ele>
						<time>2026-05-01T09:54:20Z</time>
					</trkpt>
					<trkpt lat="51.518000" lon="-0.175610">
						<ele>33</ele>
						<time>2026-05-01T09:54:28Z</time>
					</trkpt>
					<trkpt lat="51.517990" lon="-0.175700">
						<ele>32</ele>
						<time>2026-05-01T09:54:30Z</time>
					</trkpt>
					<trkpt lat="51.517980" lon="-0.175700">
						<ele>32</ele>
						<time>2026-05-01T09:54:30Z</time>
					</trkpt>
					<trkpt lat="51.517990" lon="-0.175700">
						<ele>32</ele>
						<time>2026-05-01T09:54:30Z</time>
					</trkpt>
					<trkpt lat="51.517870" lon="-0.176410">
						<ele>31</ele>
						<time>2026-05-01T09:54:46Z</time>
					</trkpt>
					<trkpt lat="51.517780" lon="-0.176370">
						<ele>31</ele>
						<time>2026-05-01T09:54:49Z</time>
					</trkpt>
					<trkpt lat="51.517720" lon="-0.176330">
						<ele>31</ele>
						<time>2026-05-01T09:54:51Z</time>
					</trkpt>
					<trkpt lat="51.517620" lon="-0.176510">
						<ele>31</ele>
						<time>2026-05-01T09:54:56Z</time>
					</trkpt>
					<trkpt lat="51.518130" lon="-0.177280">
						<ele>30</ele>
						<time>2026-05-01T09:55:19Z</time>
					</trkpt>
					<trkpt lat="51.518330" lon="-0.177580">
						<ele>29</ele>
						<time>2026-05-01T09:55:28Z</time>
					</trkpt>
					<trkpt lat="51.518640" lon="-0.178070">
						<ele>28</ele>
						<time>2026-05-01T09:55:43Z</time>
					</trkpt>
					<trkpt lat="51.518830" lon="-0.178330">
						<ele>28</ele>
						<time>2026-05-01T09:55:51Z</time>
					</trkpt>
					<trkpt lat="51.518930" lon="-0.178460">
						<ele>28</ele>
						<time>2026-05-01T09:55:56Z</time>
					</trkpt>
					<trkpt lat="51.519120" lon="-0.178770">
						<ele>28</ele>
						<time>2026-05-01T09:56:05Z</time>
					</trkpt>
					<trkpt lat="51.519160" lon="-0.178700">
						<ele>29</ele>
						<time>2026-05-01T09:56:07Z</time>
					</trkpt>
					<trkpt lat="51.519510" lon="-0.179220">
						<ele>29</ele>
						<time>2026-05-01T09:56:22Z</time>
					</trkpt>
					<trkpt lat="51.519760" lon="-0.179550">
						<ele>28</ele>
						<time>2026-05-01T09:56:33Z</time>
					</trkpt>
					<trkpt lat="51.520240" lon="-0.180260">
						<ele>30</ele>
						<time>2026-05-01T09:56:55Z</time>
					</trkpt>
					<trkpt lat="51.520200" lon="-0.180330">
						<ele>30</ele>
						<time>2026-05-01T09:56:57Z</time>
					</trkpt>
					<trkpt lat="51.520420" lon="-0.180610">
						<ele>32</ele>
						<time>2026-05-01T09:57:06Z</time>
					</trkpt>
					<trkpt lat="51.520630" lon="-0.180860">
						<ele>33</ele>
						<time>2026-05-01T09:57:15Z</time>
					</trkpt>
					<trkpt lat="51.520730" lon="-0.180910">
						<ele>33</ele>
						<time>2026-05-01T09:57:19Z</time>
					</trkpt>
					<trkpt lat="51.520890" lon="-0.181170">
						<ele>33</ele>
						<time>2026-05-01T09:57:26Z</time>
					</trkpt>
					<trkpt lat="51.520940" lon="-0.181440">
						<ele>34</ele>
						<time>2026-05-01T09:57:32Z</time>
					</trkpt>
					<trkpt lat="51.520960" lon="-0.181680">
						<ele>34</ele>
						<time>2026-05-01T09:57:37Z</time>
					</trkpt>
					<trkpt lat="51.520950" lon="-0.181970">
						<ele>34</ele>
						<time>2026-05-01T09:57:43Z</time>
					</trkpt>
					<trkpt lat="51.520960" lon="-0.183220">
						<ele>32</ele>
						<time>2026-05-01T09:58:09Z</time>
					</trkpt>
					<trkpt lat="51.520980" lon="-0.183490">
						<ele>32</ele>
						<time>2026-05-01T09:58:15Z</time>
					</trkpt>
					<trkpt lat="51.521050" lon="-0.183740">
						<ele>32</ele>
						<time>2026-05-01T09:58:20Z</time>
					</trkpt>
					<trkpt lat="51.521080" lon="-0.183850">
						<ele>33</ele>
						<time>2026-05-01T09:58:23Z</time>
					</trkpt>
					<trkpt lat="51.521080" lon="-0.183880">
						<ele>33</ele>
						<time>2026-05-01T09:58:23Z</time>
					</trkpt>
					<trkpt lat="51.521100" lon="-0.183970">
						<ele>33</ele>
						<time>2026-05-01T09:58:25Z</time>
					</trkpt>
					<trkpt lat="51.521110" lon="-0.184090">
						<ele>33</ele>
						<time>2026-05-01T09:58:28Z</time>
					</trkpt>
					<trkpt lat="51.521340" lon="-0.184740">
						<ele>31</ele>
						<time>2026-05-01T09:58:43Z</time>
					</trkpt>
					<trkpt lat="51.522240" lon="-0.187450">
						<ele>28</ele>
						<time>2026-05-01T09:59:47Z</time>
					</trkpt>
					<trkpt lat="51.522330" lon="-0.187830">
						<ele>28</ele>
						<time>2026-05-01T09:59:56Z</time>
					</trkpt>
					<trkpt lat="51.522370" lon="-0.187890">
						<ele>28</ele>
						<time>2026-05-01T09:59:57Z</time>
					</trkpt>
					<trkpt lat="51.522400" lon="-0.188030">
						<ele>28</ele>
						<time>2026-05-01T10:00:01Z</time>
					</trkpt>
					<trkpt lat="51.522380" lon="-0.188090">
						<ele>28</ele>
						<time>2026-05-01T10:00:02Z</time>
					</trkpt>
					<trkpt lat="51.522360" lon="-0.188080">
						<ele>28</ele>
						<time>2026-05-01T10:00:03Z</time>
					</trkpt>
					<trkpt lat="51.522350" lon="-0.188030">
						<ele>28</ele>
						<time>2026-05-01T10:00:04Z</time>
					</trkpt>
					<trkpt lat="51.522400" lon="-0.187900">
						<ele>29</ele>
						<time>2026-05-01T10:00:07Z</time>
					</trkpt>
					<trkpt lat="51.522410" lon="-0.187890">
						<ele>29</ele>
						<time>2026-05-01T10:00:07Z</time>
					</trkpt>
					<trkpt lat="51.522570" lon="-0.187760">
						<ele>29</ele>
						<time>2026-05-01T10:00:13Z</time>
					</trkpt>
					<trkpt lat="51.522530" lon="-0.187660">
						<ele>29</ele>
						<time>2026-05-01T10:00:16Z</time>
					</trkpt>
					<trkpt lat="51.522580" lon="-0.187630">
						<ele>29</ele>
						<time>2026-05-01T10:00:18Z</time>
					</trkpt>
					<trkpt lat="51.522620" lon="-0.187760">
						<ele>29</ele>
						<time>2026-05-01T10:00:21Z</time>
					</trkpt>
					<trkpt lat="51.522640" lon="-0.187740">
						<ele>29</ele>
						<time>2026-05-01T10:00:21Z</time>
					</trkpt>
					<trkpt lat="51.522620" lon="-0.187700">
						<ele>29</ele>
						<time>2026-05-01T10:00:22Z</time>
					</trkpt>
					<trkpt lat="51.522590" lon="-0.187570">
						<ele>29</ele>
						<time>2026-05-01T10:00:25Z</time>
					</trkpt>
					<trkpt lat="51.522580" lon="-0.187470">
						<ele>29</ele>
						<time>2026-05-01T10:00:27Z</time>
					</trkpt>
					<trkpt lat="51.522000" lon="-0.185600">
						<ele>30</ele>
						<time>2026-05-01T10:01:11Z</time>
					</trkpt>
					<trkpt lat="51.521590" lon="-0.184320">
						<ele>32</ele>
						<time>2026-05-01T10:01:41Z</time>
					</trkpt>
					<trkpt lat="51.521430" lon="-0.183810">
						<ele>32</ele>
						<time>2026-05-01T10:01:52Z</time>
					</trkpt>
					<trkpt lat="51.521360" lon="-0.183770">
						<ele>32</ele>
						<time>2026-05-01T10:01:55Z</time>
					</trkpt>
					<trkpt lat="51.521390" lon="-0.183680">
						<ele>33</ele>
						<time>2026-05-01T10:01:57Z</time>
					</trkpt>
					<trkpt lat="51.521370" lon="-0.183400">
						<ele>33</ele>
						<time>2026-05-01T10:02:03Z</time>
					</trkpt>
					<trkpt lat="51.521410" lon="-0.183140">
						<ele>33</ele>
						<time>2026-05-01T10:02:08Z</time>
					</trkpt>
					<trkpt lat="51.521350" lon="-0.183070">
						<ele>33</ele>
						<time>2026-05-01T10:02:11Z</time>
					</trkpt>
					<trkpt lat="51.521320" lon="-0.183120">
						<ele>33</ele>
						<time>2026-05-01T10:02:12Z</time>
					</trkpt>
					<trkpt lat="51.521310" lon="-0.183110">
						<ele>33</ele>
						<time>2026-05-01T10:02:13Z</time>
					</trkpt>
					<trkpt lat="51.521790" lon="-0.182220">
						<ele>33</ele>
						<time>2026-05-01T10:02:37Z</time>
					</trkpt>
					<trkpt lat="51.521850" lon="-0.182070">
						<ele>33</ele>
						<time>2026-05-01T10:02:41Z</time>
					</trkpt>
					<trkpt lat="51.521880" lon="-0.181940">
						<ele>34</ele>
						<time>2026-05-01T10:02:44Z</time>
					</trkpt>
					<trkpt lat="51.522110" lon="-0.181540">
						<ele>34</ele>
						<time>2026-05-01T10:02:55Z</time>
					</trkpt>
					<trkpt lat="51.522180" lon="-0.181450">
						<ele>34</ele>
						<time>2026-05-01T10:02:58Z</time>
					</trkpt>
					<trkpt lat="51.522260" lon="-0.181430">
						<ele>34</ele>
						<time>2026-05-01T10:03:01Z</time>
					</trkpt>
					<trkpt lat="51.522280" lon="-0.181390">
						<ele>34</ele>
						<time>2026-05-01T10:03:02Z</time>
					</trkpt>
					<trkpt lat="51.522350" lon="-0.181260">
						<ele>34</ele>
						<time>2026-05-01T10:03:05Z</time>
					</trkpt>
					<trkpt lat="51.522360" lon="-0.181280">
						<ele>34</ele>
						<time>2026-05-01T10:03:06Z</time>
					</trkpt>
					<trkpt lat="51.523910" lon="-0.178440">
						<ele>33</ele>
						<time>2026-05-01T10:04:24Z</time>
					</trkpt>
					<trkpt lat="51.524610" lon="-0.177030">
						<ele>40</ele>
						<time>2026-05-01T10:05:02Z</time>
					</trkpt>
					<trkpt lat="51.524620" lon="-0.177050">
						<ele>40</ele>
						<time>2026-05-01T10:05:02Z</time>
					</trkpt>
					<trkpt lat="51.524680" lon="-0.176920">
						<ele>41</ele>
						<time>2026-05-01T10:05:06Z</time>
					</trkpt>
					<trkpt lat="51.524720" lon="-0.176830">
						<ele>41</ele>
						<time>2026-05-01T10:05:08Z</time>
					</trkpt>
					<trkpt lat="51.524730" lon="-0.176840">
						<ele>41</ele>
						<time>2026-05-01T10:05:08Z</time>
					</trkpt>
					<trkpt lat="51.525030" lon="-0.176220">
						<ele>43</ele>
						<time>2026-05-01T10:05:25Z</time>
					</trkpt>
					<trkpt lat="51.525050" lon="-0.176180">
						<ele>43</ele>
						<time>2026-05-01T10:05:26Z</time>
					</trkpt>
					<trkpt lat="51.525030" lon="-0.176160">
						<ele>43</ele>
						<time>2026-05-01T10:05:27Z</time>
					</trkpt>
					<trkpt lat="51.525060" lon="-0.176010">
						<ele>43</ele>
						<time>2026-05-01T10:05:30Z</time>
					</trkpt>
					<trkpt lat="51.525110" lon="-0.175910">
						<ele>43</ele>
						<time>2026-05-01T10:05:33Z</time>
					</trkpt>
					<trkpt lat="51.525210" lon="-0.175710">
						<ele>43</ele>
						<time>2026-05-01T10:05:38Z</time>
					</trkpt>
					<trkpt lat="51.525430" lon="-0.175280">
						<ele>42</ele>
						<time>2026-05-01T10:05:49Z</time>
					</trkpt>
					<trkpt lat="51.525690" lon="-0.174720">
						<ele>40</ele>
						<time>2026-05-01T10:06:04Z</time>
					</trkpt>
					<trkpt lat="51.525750" lon="-0.174630">
						<ele>40</ele>
						<time>2026-05-01T10:06:07Z</time>
					</trkpt>
					<trkpt lat="51.525790" lon="-0.174610">
						<ele>40</ele>
						<time>2026-05-01T10:06:08Z</time>
					</trkpt>
					<trkpt lat="51.525810" lon="-0.174500">
						<ele>39</ele>
						<time>2026-05-01T10:06:10Z</time>
					</trkpt>
					<trkpt lat="51.525820" lon="-0.174470">
						<ele>39</ele>
						<time>2026-05-01T10:06:11Z</time>
					</trkpt>
					<trkpt lat="51.525830" lon="-0.174460">
						<ele>39</ele>
						<time>2026-05-01T10:06:12Z</time>
					</trkpt>
					<trkpt lat="51.525830" lon="-0.174460">
						<ele>39</ele>
						<time>2026-05-01T10:06:12Z</time>
					</trkpt>
					<trkpt lat="51.525910" lon="-0.174260">
						<ele>38</ele>
						<time>2026-05-01T10:06:16Z</time>
					</trkpt>
					<trkpt lat="51.525920" lon="-0.174230">
						<ele>38</ele>
						<time>2026-05-01T10:06:17Z</time>
					</trkpt>
					<trkpt lat="51.525950" lon="-0.174250">
						<ele>38</ele>
						<time>2026-05-01T10:06:18Z</time>
					</trkpt>
					<trkpt lat="51.526050" lon="-0.174080">
						<ele>38</ele>
						<time>2026-05-01T10:06:23Z</time>
					</trkpt>
					<trkpt lat="51.526220" lon="-0.173700">
						<ele>37</ele>
						<time>2026-05-01T10:06:33Z</time>
					</trkpt>
					<trkpt lat="51.526290" lon="-0.173440">
						<ele>37</ele>
						<time>2026-05-01T10:06:39Z</time>
					</trkpt>
					<trkpt lat="51.526360" lon="-0.173080">
						<ele>38</ele>
						<time>2026-05-01T10:06:47Z</time>
					</trkpt>
					<trkpt lat="51.526400" lon="-0.172720">
						<ele>40</ele>
						<time>2026-05-01T10:06:54Z</time>
					</trkpt>
					<trkpt lat="51.526420" lon="-0.172250">
						<ele>40</ele>
						<time>2026-05-01T10:07:04Z</time>
					</trkpt>
					<trkpt lat="51.526420" lon="-0.172250">
						<ele>40</ele>
						<time>2026-05-01T10:07:04Z</time>
					</trkpt>
					<trkpt lat="51.526480" lon="-0.171860">
						<ele>40</ele>
						<time>2026-05-01T10:07:12Z</time>
					</trkpt>
					<trkpt lat="51.526270" lon="-0.171300">
						<ele>39</ele>
						<time>2026-05-01T10:07:26Z</time>
					</trkpt>
					<trkpt lat="51.526270" lon="-0.171250">
						<ele>39</ele>
						<time>2026-05-01T10:07:27Z</time>
					</trkpt>
					<trkpt lat="51.526270" lon="-0.171250">
						<ele>39</ele>
						<time>2026-05-01T10:07:27Z</time>
					</trkpt>
					<trkpt lat="51.526260" lon="-0.171120">
						<ele>38</ele>
						<time>2026-05-01T10:07:30Z</time>
					</trkpt>
					<trkpt lat="51.526320" lon="-0.170870">
						<ele>36</ele>
						<time>2026-05-01T10:07:35Z</time>
					</trkpt>
					<trkpt lat="51.526380" lon="-0.170560">
						<ele>36</ele>
						<time>2026-05-01T10:07:42Z</time>
					</trkpt>
					<trkpt lat="51.526380" lon="-0.170560">
						<ele>36</ele>
						<time>2026-05-01T10:07:42Z</time>
					</trkpt>
					<trkpt lat="51.526390" lon="-0.170410">
						<ele>35</ele>
						<time>2026-05-01T10:07:45Z</time>
					</trkpt>
					<trkpt lat="51.526470" lon="-0.169770">
						<ele>35</ele>
						<time>2026-05-01T10:07:59Z</time>
					</trkpt>
					<trkpt lat="51.526610" lon="-0.169350">
						<ele>34</ele>
						<time>2026-05-01T10:08:08Z</time>
					</trkpt>
					<trkpt lat="51.526610" lon="-0.169350">
						<ele>34</ele>
						<time>2026-05-01T10:08:08Z</time>
					</trkpt>
					<trkpt lat="51.526850" lon="-0.168830">
						<ele>34</ele>
						<time>2026-05-01T10:08:22Z</time>
					</trkpt>
					<trkpt lat="51.527020" lon="-0.168500">
						<ele>35</ele>
						<time>2026-05-01T10:08:31Z</time>
					</trkpt>
					<trkpt lat="51.527260" lon="-0.168230">
						<ele>35</ele>
						<time>2026-05-01T10:08:41Z</time>
					</trkpt>
					<trkpt lat="51.527260" lon="-0.168230">
						<ele>35</ele>
						<time>2026-05-01T10:08:41Z</time>
					</trkpt>
					<trkpt lat="51.527320" lon="-0.168150">
						<ele>35</ele>
						<time>2026-05-01T10:08:43Z</time>
					</trkpt>
					<trkpt lat="51.527630" lon="-0.167780">
						<ele>35</ele>
						<time>2026-05-01T10:08:56Z</time>
					</trkpt>
					<trkpt lat="51.527830" lon="-0.167620">
						<ele>36</ele>
						<time>2026-05-01T10:09:04Z</time>
					</trkpt>
					<trkpt lat="51.527840" lon="-0.167600">
						<ele>36</ele>
						<time>2026-05-01T10:09:04Z</time>
					</trkpt>
					<trkpt lat="51.527890" lon="-0.167570">
						<ele>36</ele>
						<time>2026-05-01T10:09:06Z</time>
					</trkpt>
					<trkpt lat="51.527890" lon="-0.167580">
						<ele>36</ele>
						<time>2026-05-01T10:09:06Z</time>
					</trkpt>
					<trkpt lat="51.527980" lon="-0.167820">
						<ele>37</ele>
						<time>2026-05-01T10:09:12Z</time>
					</trkpt>
					<trkpt lat="51.528100" lon="-0.167700">
						<ele>37</ele>
						<time>2026-05-01T10:09:17Z</time>
					</trkpt>
					<trkpt lat="51.528090" lon="-0.167680">
						<ele>37</ele>
						<time>2026-05-01T10:09:17Z</time>
					</trkpt>
					<trkpt lat="51.527980" lon="-0.167770">
						<ele>37</ele>
						<time>2026-05-01T10:09:21Z</time>
					</trkpt>
					<trkpt lat="51.528210" lon="-0.167550">
						<ele>37</ele>
						<time>2026-05-01T10:09:30Z</time>
					</trkpt>
					<trkpt lat="51.528450" lon="-0.167330">
						<ele>37</ele>
						<time>2026-05-01T10:09:39Z</time>
					</trkpt>
					<trkpt lat="51.528630" lon="-0.167240">
						<ele>38</ele>
						<time>2026-05-01T10:09:46Z</time>
					</trkpt>
					<trkpt lat="51.528720" lon="-0.167170">
						<ele>38</ele>
						<time>2026-05-01T10:09:49Z</time>
					</trkpt>
					<trkpt lat="51.528740" lon="-0.167140">
						<ele>38</ele>
						<time>2026-05-01T10:09:50Z</time>
					</trkpt>
					<trkpt lat="51.529170" lon="-0.166690">
						<ele>40</ele>
						<time>2026-05-01T10:10:07Z</time>
					</trkpt>
					<trkpt lat="51.529250" lon="-0.166610">
						<ele>40</ele>
						<time>2026-05-01T10:10:10Z</time>
					</trkpt>
					<trkpt lat="51.529630" lon="-0.166370">
						<ele>41</ele>
						<time>2026-05-01T10:10:24Z</time>
					</trkpt>
					<trkpt lat="51.529780" lon="-0.166310">
						<ele>42</ele>
						<time>2026-05-01T10:10:29Z</time>
					</trkpt>
					<trkpt lat="51.531610" lon="-0.166170">
						<ele>43</ele>
						<time>2026-05-01T10:11:30Z</time>
					</trkpt>
					<trkpt lat="51.531810" lon="-0.166120">
						<ele>43</ele>
						<time>2026-05-01T10:11:37Z</time>
					</trkpt>
					<trkpt lat="51.531950" lon="-0.166060">
						<ele>42</ele>
						<time>2026-05-01T10:11:42Z</time>
					</trkpt>
					<trkpt lat="51.532110" lon="-0.165950">
						<ele>41</ele>
						<time>2026-05-01T10:11:47Z</time>
					</trkpt>
					<trkpt lat="51.532560" lon="-0.165530">
						<ele>41</ele>
						<time>2026-05-01T10:12:05Z</time>
					</trkpt>
					<trkpt lat="51.532690" lon="-0.165470">
						<ele>41</ele>
						<time>2026-05-01T10:12:09Z</time>
					</trkpt>
					<trkpt lat="51.532790" lon="-0.165360">
						<ele>41</ele>
						<time>2026-05-01T10:12:13Z</time>
					</trkpt>
					<trkpt lat="51.532850" lon="-0.165320">
						<ele>40</ele>
						<time>2026-05-01T10:12:16Z</time>
					</trkpt>
					<trkpt lat="51.532890" lon="-0.165350">
						<ele>40</ele>
						<time>2026-05-01T10:12:17Z</time>
					</trkpt>
					<trkpt lat="51.533090" lon="-0.165260">
						<ele>40</ele>
						<time>2026-05-01T10:12:24Z</time>
					</trkpt>
					<trkpt lat="51.533210" lon="-0.165090">
						<ele>39</ele>
						<time>2026-05-01T10:12:29Z</time>
					</trkpt>
					<trkpt lat="51.533570" lon="-0.164780">
						<ele>40</ele>
						<time>2026-05-01T10:12:43Z</time>
					</trkpt>
					<trkpt lat="51.533690" lon="-0.164640">
						<ele>40</ele>
						<time>2026-05-01T10:12:48Z</time>
					</trkpt>
					<trkpt lat="51.533850" lon="-0.164550">
						<ele>41</ele>
						<time>2026-05-01T10:12:53Z</time>
					</trkpt>
					<trkpt lat="51.533990" lon="-0.164350">
						<ele>41</ele>
						<time>2026-05-01T10:13:00Z</time>
					</trkpt>
					<trkpt lat="51.534150" lon="-0.164190">
						<ele>41</ele>
						<time>2026-05-01T10:13:06Z</time>
					</trkpt>
					<trkpt lat="51.534520" lon="-0.163720">
						<ele>42</ele>
						<time>2026-05-01T10:13:22Z</time>
					</trkpt>
					<trkpt lat="51.534720" lon="-0.163260">
						<ele>43</ele>
						<time>2026-05-01T10:13:33Z</time>
					</trkpt>
					<trkpt lat="51.534740" lon="-0.163210">
						<ele>43</ele>
						<time>2026-05-01T10:13:35Z</time>
					</trkpt>
					<trkpt lat="51.534910" lon="-0.162810">
						<ele>43</ele>
						<time>2026-05-01T10:13:45Z</time>
					</trkpt>
					<trkpt lat="51.535070" lon="-0.162540">
						<ele>43</ele>
						<time>2026-05-01T10:13:52Z</time>
					</trkpt>
					<trkpt lat="51.535310" lon="-0.161870">
						<ele>45</ele>
						<time>2026-05-01T10:14:08Z</time>
					</trkpt>
					<trkpt lat="51.535460" lon="-0.161300">
						<ele>44</ele>
						<time>2026-05-01T10:14:21Z</time>
					</trkpt>
					<trkpt lat="51.535750" lon="-0.160050">
						<ele>42</ele>
						<time>2026-05-01T10:14:49Z</time>
					</trkpt>
					<trkpt lat="51.535910" lon="-0.159710">
						<ele>41</ele>
						<time>2026-05-01T10:14:58Z</time>
					</trkpt>
					<trkpt lat="51.535890" lon="-0.159490">
						<ele>39</ele>
						<time>2026-05-01T10:15:02Z</time>
					</trkpt>
					<trkpt lat="51.535860" lon="-0.159330">
						<ele>38</ele>
						<time>2026-05-01T10:15:06Z</time>
					</trkpt>
					<trkpt lat="51.536760" lon="-0.155720">
						<ele>35</ele>
						<time>2026-05-01T10:16:27Z</time>
					</trkpt>
					<trkpt lat="51.537220" lon="-0.152680">
						<ele>36</ele>
						<time>2026-05-01T10:17:32Z</time>
					</trkpt>
					<trkpt lat="51.537240" lon="-0.152530">
						<ele>36</ele>
						<time>2026-05-01T10:17:35Z</time>
					</trkpt>
					<trkpt lat="51.537270" lon="-0.152510">
						<ele>36</ele>
						<time>2026-05-01T10:17:36Z</time>
					</trkpt>
					<trkpt lat="51.537270" lon="-0.152510">
						<ele>36</ele>
						<time>2026-05-01T10:17:36Z</time>
					</trkpt>
					<trkpt lat="51.537290" lon="-0.152500">
						<ele>36</ele>
						<time>2026-05-01T10:17:37Z</time>
					</trkpt>
					<trkpt lat="51.537340" lon="-0.152340">
						<ele>35</ele>
						<time>2026-05-01T10:17:40Z</time>
					</trkpt>
					<trkpt lat="51.537420" lon="-0.152210">
						<ele>35</ele>
						<time>2026-05-01T10:17:44Z</time>
					</trkpt>
					<trkpt lat="51.537440" lon="-0.152090">
						<ele>35</ele>
						<time>2026-05-01T10:17:47Z</time>
					</trkpt>
					<trkpt lat="51.537460" lon="-0.152100">
						<ele>35</ele>
						<time>2026-05-01T10:17:47Z</time>
					</trkpt>
					<trkpt lat="51.537460" lon="-0.152100">
						<ele>35</ele>
						<time>2026-05-01T10:17:47Z</time>
					</trkpt>
					<trkpt lat="51.537470" lon="-0.152100">
						<ele>35</ele>
						<time>2026-05-01T10:17:48Z</time>
					</trkpt>
					<trkpt lat="51.537460" lon="-0.152520">
						<ele>35</ele>
						<time>2026-05-01T10:17:56Z</time>
					</trkpt>
					<trkpt lat="51.537450" lon="-0.152660">
						<ele>36</ele>
						<time>2026-05-01T10:17:59Z</time>
					</trkpt>
					<trkpt lat="51.537360" lon="-0.152650">
						<ele>36</ele>
						<time>2026-05-01T10:18:02Z</time>
					</trkpt>
					<trkpt lat="51.537000" lon="-0.152490">
						<ele>37</ele>
						<time>2026-05-01T10:18:15Z</time>
					</trkpt>
					<trkpt lat="51.536670" lon="-0.152320">
						<ele>38</ele>
						<time>2026-05-01T10:18:26Z</time>
					</trkpt>
					<trkpt lat="51.536650" lon="-0.152410">
						<ele>38</ele>
						<time>2026-05-01T10:18:28Z</time>
					</trkpt>
					<trkpt lat="51.536640" lon="-0.152410">
						<ele>38</ele>
						<time>2026-05-01T10:18:29Z</time>
					</trkpt>
					<trkpt lat="51.536590" lon="-0.152380">
						<ele>38</ele>
						<time>2026-05-01T10:18:30Z</time>
					</trkpt>
					<trkpt lat="51.536540" lon="-0.152360">
						<ele>39</ele>
						<time>2026-05-01T10:18:32Z</time>
					</trkpt>
					<trkpt lat="51.536520" lon="-0.152360">
						<ele>39</ele>
						<time>2026-05-01T10:18:33Z</time>
					</trkpt>
					<trkpt lat="51.536540" lon="-0.152260">
						<ele>39</ele>
						<time>2026-05-01T10:18:35Z</time>
					</trkpt>
					<trkpt lat="51.536520" lon="-0.152250">
						<ele>39</ele>
						<time>2026-05-01T10:18:36Z</time>
					</trkpt>
					<trkpt lat="51.536520" lon="-0.152250">
						<ele>39</ele>
						<time>2026-05-01T10:18:36Z</time>
					</trkpt>
					<trkpt lat="51.536050" lon="-0.152050">
						<ele>42</ele>
						<time>2026-05-01T10:18:52Z</time>
					</trkpt>
					<trkpt lat="51.534520" lon="-0.151350">
						<ele>42</ele>
						<time>2026-05-01T10:19:45Z</time>
					</trkpt>
					<trkpt lat="51.533090" lon="-0.150710">
						<ele>46</ele>
						<time>2026-05-01T10:20:35Z</time>
					</trkpt>
					<trkpt lat="51.533000" lon="-0.150690">
						<ele>46</ele>
						<time>2026-05-01T10:20:38Z</time>
					</trkpt>
					<trkpt lat="51.532970" lon="-0.150680">
						<ele>46</ele>
						<time>2026-05-01T10:20:39Z</time>
					</trkpt>
					<trkpt lat="51.533000" lon="-0.150690">
						<ele>46</ele>
						<time>2026-05-01T10:20:40Z</time>
					</trkpt>
					<trkpt lat="51.532950" lon="-0.150830">
						<ele>46</ele>
						<time>2026-05-01T10:20:43Z</time>
					</trkpt>
					<trkpt lat="51.532900" lon="-0.150870">
						<ele>46</ele>
						<time>2026-05-01T10:20:45Z</time>
					</trkpt>
					<trkpt lat="51.532800" lon="-0.150890">
						<ele>46</ele>
						<time>2026-05-01T10:20:48Z</time>
					</trkpt>
					<trkpt lat="51.532720" lon="-0.151250">
						<ele>45</ele>
						<time>2026-05-01T10:20:56Z</time>
					</trkpt>
					<trkpt lat="51.532540" lon="-0.151490">
						<ele>44</ele>
						<time>2026-05-01T10:21:04Z</time>
					</trkpt>
					<trkpt lat="51.532430" lon="-0.151610">
						<ele>43</ele>
						<time>2026-05-01T10:21:08Z</time>
					</trkpt>
					<trkpt lat="51.532280" lon="-0.151570">
						<ele>42</ele>
						<time>2026-05-01T10:21:13Z</time>
					</trkpt>
					<trkpt lat="51.531790" lon="-0.151310">
						<ele>38</ele>
						<time>2026-05-01T10:21:31Z</time>
					</trkpt>
					<trkpt lat="51.531660" lon="-0.151290">
						<ele>37</ele>
						<time>2026-05-01T10:21:35Z</time>
					</trkpt>
					<trkpt lat="51.531560" lon="-0.151350">
						<ele>37</ele>
						<time>2026-05-01T10:21:39Z</time>
					</trkpt>
					<trkpt lat="51.531390" lon="-0.151520">
						<ele>37</ele>
						<time>2026-05-01T10:21:45Z</time>
					</trkpt>
					<trkpt lat="51.531180" lon="-0.151760">
						<ele>37</ele>
						<time>2026-05-01T10:21:54Z</time>
					</trkpt>
					<trkpt lat="51.531030" lon="-0.151980">
						<ele>35</ele>
						<time>2026-05-01T10:22:01Z</time>
					</trkpt>
					<trkpt lat="51.530940" lon="-0.152210">
						<ele>34</ele>
						<time>2026-05-01T10:22:06Z</time>
					</trkpt>
					<trkpt lat="51.530880" lon="-0.152500">
						<ele>31</ele>
						<time>2026-05-01T10:22:13Z</time>
					</trkpt>
					<trkpt lat="51.530850" lon="-0.153580">
						<ele>27</ele>
						<time>2026-05-01T10:22:35Z</time>
					</trkpt>
					<trkpt lat="51.530820" lon="-0.153960">
						<ele>27</ele>
						<time>2026-05-01T10:22:43Z</time>
					</trkpt>
					<trkpt lat="51.530730" lon="-0.154630">
						<ele>31</ele>
						<time>2026-05-01T10:22:57Z</time>
					</trkpt>
					<trkpt lat="51.530590" lon="-0.155510">
						<ele>33</ele>
						<time>2026-05-01T10:23:16Z</time>
					</trkpt>
					<trkpt lat="51.530510" lon="-0.155860">
						<ele>33</ele>
						<time>2026-05-01T10:23:24Z</time>
					</trkpt>
					<trkpt lat="51.530450" lon="-0.156000">
						<ele>33</ele>
						<time>2026-05-01T10:23:27Z</time>
					</trkpt>
					<trkpt lat="51.530160" lon="-0.156410">
						<ele>32</ele>
						<time>2026-05-01T10:23:40Z</time>
					</trkpt>
					<trkpt lat="51.529550" lon="-0.157140">
						<ele>30</ele>
						<time>2026-05-01T10:24:06Z</time>
					</trkpt>
					<trkpt lat="51.528650" lon="-0.155580">
						<ele>37</ele>
						<time>2026-05-01T10:24:50Z</time>
					</trkpt>
					<trkpt lat="51.528560" lon="-0.155390">
						<ele>38</ele>
						<time>2026-05-01T10:24:55Z</time>
					</trkpt>
					<trkpt lat="51.528100" lon="-0.155840">
						<ele>37</ele>
						<time>2026-05-01T10:25:13Z</time>
					</trkpt>
					<trkpt lat="51.527450" lon="-0.155980">
						<ele>39</ele>
						<time>2026-05-01T10:25:35Z</time>
					</trkpt>
					<trkpt lat="51.526900" lon="-0.155690">
						<ele>38</ele>
						<time>2026-05-01T10:25:54Z</time>
					</trkpt>
					<trkpt lat="51.526610" lon="-0.156780">
						<ele>36</ele>
						<time>2026-05-01T10:26:18Z</time>
					</trkpt>
					<trkpt lat="51.526310" lon="-0.157270">
						<ele>33</ele>
						<time>2026-05-01T10:26:33Z</time>
					</trkpt>
					<trkpt lat="51.525940" lon="-0.157770">
						<ele>31</ele>
						<time>2026-05-01T10:26:49Z</time>
					</trkpt>
					<trkpt lat="51.525620" lon="-0.157770">
						<ele>31</ele>
						<time>2026-05-01T10:27:00Z</time>
					</trkpt>
					<trkpt lat="51.525530" lon="-0.157590">
						<ele>31</ele>
						<time>2026-05-01T10:27:04Z</time>
					</trkpt>
					<trkpt lat="51.525050" lon="-0.157240">
						<ele>32</ele>
						<time>2026-05-01T10:27:22Z</time>
					</trkpt>
					<trkpt lat="51.524790" lon="-0.157610">
						<ele>31</ele>
						<time>2026-05-01T10:27:34Z</time>
					</trkpt>
					<trkpt lat="51.524970" lon="-0.158000">
						<ele>30</ele>
						<time>2026-05-01T10:27:44Z</time>
					</trkpt>
					<trkpt lat="51.524710" lon="-0.158240">
						<ele>31</ele>
						<time>2026-05-01T10:27:54Z</time>
					</trkpt>
					<trkpt lat="51.524600" lon="-0.158430">
						<ele>32</ele>
						<time>2026-05-01T10:27:59Z</time>
					</trkpt>
					<trkpt lat="51.524540" lon="-0.158530">
						<ele>32</ele>
						<time>2026-05-01T10:28:02Z</time>
					</trkpt>
					<trkpt lat="51.524260" lon="-0.158410">
						<ele>34</ele>
						<time>2026-05-01T10:28:12Z</time>
					</trkpt>
					<trkpt lat="51.524150" lon="-0.158520">
						<ele>34</ele>
						<time>2026-05-01T10:28:16Z</time>
					</trkpt>
					<trkpt lat="51.523970" lon="-0.158420">
						<ele>35</ele>
						<time>2026-05-01T10:28:22Z</time>
					</trkpt>
					<trkpt lat="51.523090" lon="-0.157990">
						<ele>39</ele>
						<time>2026-05-01T10:28:53Z</time>
					</trkpt>
					<trkpt lat="51.522890" lon="-0.159020">
						<ele>38</ele>
						<time>2026-05-01T10:29:15Z</time>
					</trkpt>
					<trkpt lat="51.522750" lon="-0.159850">
						<ele>34</ele>
						<time>2026-05-01T10:29:33Z</time>
					</trkpt>
					<trkpt lat="51.522720" lon="-0.160210">
						<ele>34</ele>
						<time>2026-05-01T10:29:41Z</time>
					</trkpt>
					<trkpt lat="51.522330" lon="-0.162370">
						<ele>43</ele>
						<time>2026-05-01T10:30:27Z</time>
					</trkpt>
					<trkpt lat="51.522180" lon="-0.163100">
						<ele>47</ele>
						<time>2026-05-01T10:30:43Z</time>
					</trkpt>
					<trkpt lat="51.522080" lon="-0.163870">
						<ele>44</ele>
						<time>2026-05-01T10:31:00Z</time>
					</trkpt>
					<trkpt lat="51.521790" lon="-0.164830">
						<ele>40</ele>
						<time>2026-05-01T10:31:22Z</time>
					</trkpt>
					<trkpt lat="51.521010" lon="-0.164290">
						<ele>38</ele>
						<time>2026-05-01T10:31:50Z</time>
					</trkpt>
					<trkpt lat="51.520880" lon="-0.164040">
						<ele>37</ele>
						<time>2026-05-01T10:31:57Z</time>
					</trkpt>
					<trkpt lat="51.520830" lon="-0.163990">
						<ele>37</ele>
						<time>2026-05-01T10:31:59Z</time>
					</trkpt>
					<trkpt lat="51.520760" lon="-0.164500">
						<ele>38</ele>
						<time>2026-05-01T10:32:10Z</time>
					</trkpt>
					<trkpt lat="51.520660" lon="-0.165080">
						<ele>39</ele>
						<time>2026-05-01T10:32:22Z</time>
					</trkpt>
					<trkpt lat="51.520550" lon="-0.165330">
						<ele>39</ele>
						<time>2026-05-01T10:32:29Z</time>
					</trkpt>
					<trkpt lat="51.520310" lon="-0.165440">
						<ele>40</ele>
						<time>2026-05-01T10:32:37Z</time>
					</trkpt>
					<trkpt lat="51.520280" lon="-0.165470">
						<ele>40</ele>
						<time>2026-05-01T10:32:38Z</time>
					</trkpt>
					<trkpt lat="51.520080" lon="-0.165570">
						<ele>41</ele>
						<time>2026-05-01T10:32:45Z</time>
					</trkpt>
					<trkpt lat="51.519890" lon="-0.165650">
						<ele>41</ele>
						<time>2026-05-01T10:32:52Z</time>
					</trkpt>
					<trkpt lat="51.519700" lon="-0.165730">
						<ele>40</ele>
						<time>2026-05-01T10:32:58Z</time>
					</trkpt>
					<trkpt lat="51.519420" lon="-0.165780">
						<ele>39</ele>
						<time>2026-05-01T10:33:08Z</time>
					</trkpt>
					<trkpt lat="51.519060" lon="-0.166110">
						<ele>39</ele>
						<time>2026-05-01T10:33:21Z</time>
					</trkpt>
					<trkpt lat="51.518570" lon="-0.166740">
						<ele>38</ele>
						<time>2026-05-01T10:33:42Z</time>
					</trkpt>
					<trkpt lat="51.518230" lon="-0.167100">
						<ele>36</ele>
						<time>2026-05-01T10:33:56Z</time>
					</trkpt>
					<trkpt lat="51.518190" lon="-0.167240">
						<ele>35</ele>
						<time>2026-05-01T10:33:59Z</time>
					</trkpt>
					<trkpt lat="51.518280" lon="-0.167430">
						<ele>34</ele>
						<time>2026-05-01T10:34:04Z</time>
					</trkpt>
					<trkpt lat="51.518150" lon="-0.167650">
						<ele>34</ele>
						<time>2026-05-01T10:34:10Z</time>
					</trkpt>
					<trkpt lat="51.518070" lon="-0.167700">
						<ele>35</ele>
						<time>2026-05-01T10:34:13Z</time>
					</trkpt>
					<trkpt lat="51.517420" lon="-0.168840">
						<ele>32</ele>
						<time>2026-05-01T10:34:45Z</time>
					</trkpt>
					<trkpt lat="51.517900" lon="-0.169530">
						<ele>34</ele>
						<time>2026-05-01T10:35:07Z</time>
					</trkpt>
					</trkseg>
				</trk>
			</gpx>