<?xml version="1.0" encoding="UTF-8" ?>
<gpx version="1.1" xmlns:xsi="http://www.w3.org/2001/XMLSchema-instance"
    xmlns="http://www.topografix.com/GPX/1/1"
    xsi:schemaLocation="http://www.topografix.com/GPX/1/1 http://www.topografix.com/GPX/1/1/gpx.xsd"
    creator="Openrunner - https://www.openrunner.com" >
                <wpt lat="40.399815" lon="-3.713544">
                        <ele>0</ele>
                        <name><![CDATA[Jardin Arganzuala]]></name>
                        <desc><![CDATA[]]></desc>
                    <sym>1</sym>
                </wpt>
            
                <wpt lat="40.400195" lon="-3.716475">
                        <ele>0</ele>
                        <name><![CDATA[Norte]]></name>
                        <desc><![CDATA[]]></desc>
                    <sym>1</sym>
                </wpt>
            
                <wpt lat="40.401329" lon="-3.713096">
                        <ele>0</ele>
                        <name><![CDATA[Paseo de las Acacias]]></name>
                        <desc><![CDATA[]]></desc>
                    <sym>1</sym>
                </wpt>
            
                <wpt lat="40.391171" lon="-3.699959">
                        <ele>0</ele>
                        <name><![CDATA[Plazario]]></name>
                        <desc><![CDATA[]]></desc>
                    <sym>1</sym>
                </wpt>
            
                <wpt lat="40.397616" lon="-3.710915">
                        <ele>0</ele>
                        <name><![CDATA[Rio Manzanares]]></name>
                        <desc><![CDATA[]]></desc>
                    <sym>1</sym>
                </wpt>
            	<trk>
	                   <name>Madrid (Espagne) Rio Manzanares-23540319</name>
						<trkseg>
					<trkpt lat="40.401390" lon="-3.712740">
						<ele>596</ele>
						<time>2026-05-01T09:52:22Z</time>
					</trkpt>
					<trkpt lat="40.401150" lon="-3.713290">
						<ele>591</ele>
						<time>2026-05-01T09:53:26Z</time>
					</trkpt>
					<trkpt lat="40.401000" lon="-3.713450">
						<ele>589</ele>
						<time>2026-05-01T09:53:52Z</time>
					</trkpt>
					<trkpt lat="40.400700" lon="-3.713790">
						<ele>586</ele>
						<time>2026-05-01T09:54:45Z</time>
					</trkpt>
					<trkpt lat="40.400620" lon="-3.713910">
						<ele>585</ele>
						<time>2026-05-01T09:55:01Z</time>
					</trkpt>
					<trkpt lat="40.400470" lon="-3.714070">
						<ele>584</ele>
						<time>2026-05-01T09:55:27Z</time>
					</trkpt>
					<trkpt lat="40.400490" lon="-3.714280">
						<ele>583</ele>
						<time>2026-05-01T09:55:49Z</time>
					</trkpt>
					<trkpt lat="40.400470" lon="-3.714380">
						<ele>583</ele>
						<time>2026-05-01T09:55:59Z</time>
					</trkpt>
					<trkpt lat="40.400450" lon="-3.714390">
						<ele>583</ele>
						<time>2026-05-01T09:56:02Z</time>
					</trkpt>
					<trkpt lat="40.400360" lon="-3.714040">
						<ele>583</ele>
						<time>2026-05-01T09:56:39Z</time>
					</trkpt>
					<trkpt lat="40.400240" lon="-3.713690">
						<ele>583</ele>
						<time>2026-05-01T09:57:19Z</time>
					</trkpt>
					<trkpt lat="40.400060" lon="-3.713070">
						<ele>584</ele>
						<time>2026-05-01T09:58:26Z</time>
					</trkpt>
					<trkpt lat="40.399930" lon="-3.713130">
						<ele>583</ele>
						<time>2026-05-01T09:58:44Z</time>
					</trkpt>
					<trkpt lat="40.399870" lon="-3.713250">
						<ele>582</ele>
						<time>2026-05-01T09:58:59Z</time>
					</trkpt>
					<trkpt lat="40.399810" lon="-3.713520">
						<ele>581</ele>
						<time>2026-05-01T09:59:27Z</time>
					</trkpt>
					<trkpt lat="40.399830" lon="-3.713680">
						<ele>581</ele>
						<time>2026-05-01T09:59:44Z</time>
					</trkpt>
					<trkpt lat="40.399580" lon="-3.713930">
						<ele>579</ele>
						<time>2026-05-01T10:00:26Z</time>
					</trkpt>
					<trkpt lat="40.399490" lon="-3.713580">
						<ele>580</ele>
						<time>2026-05-01T10:01:03Z</time>
					</trkpt>
					<trkpt lat="40.399370" lon="-3.713450">
						<ele>579</ele>
						<time>2026-05-01T10:01:24Z</time>
					</trkpt>
					<trkpt lat="40.399290" lon="-3.713280">
						<ele>580</ele>
						<time>2026-05-01T10:01:45Z</time>
					</trkpt>
					<trkpt lat="40.399200" lon="-3.713220">
						<ele>579</ele>
						<time>2026-05-01T10:01:58Z</time>
					</trkpt>
					<trkpt lat="40.399050" lon="-3.712950">
						<ele>579</ele>
						<time>2026-05-01T10:02:32Z</time>
					</trkpt>
					<trkpt lat="40.398820" lon="-3.712670">
						<ele>578</ele>
						<time>2026-05-01T10:03:14Z</time>
					</trkpt>
					<trkpt lat="40.398610" lon="-3.712370">
						<ele>578</ele>
						<time>2026-05-01T10:03:55Z</time>
					</trkpt>
					<trkpt lat="40.398270" lon="-3.711950">
						<ele>578</ele>
						<time>2026-05-01T10:04:58Z</time>
					</trkpt>
					<trkpt lat="40.398120" lon="-3.711840">
						<ele>579</ele>
						<time>2026-05-01T10:05:20Z</time>
					</trkpt>
					<trkpt lat="40.397790" lon="-3.711480">
						<ele>579</ele>
						<time>2026-05-01T10:06:18Z</time>
					</trkpt>
					<trkpt lat="40.397770" lon="-3.711350">
						<ele>579</ele>
						<time>2026-05-01T10:06:31Z</time>
					</trkpt>
					<trkpt lat="40.397780" lon="-3.711120">
						<ele>579</ele>
						<time>2026-05-01T10:06:55Z</time>
					</trkpt>
					<trkpt lat="40.397750" lon="-3.710870">
						<ele>579</ele>
						<time>2026-05-01T10:07:20Z</time>
					</trkpt>
					<trkpt lat="40.397630" lon="-3.710660">
						<ele>578</ele>
						<time>2026-05-01T10:07:47Z</time>
					</trkpt>
					<trkpt lat="40.397520" lon="-3.710570">
						<ele>578</ele>
						<time>2026-05-01T10:08:04Z</time>
					</trkpt>
					<trkpt lat="40.397340" lon="-3.710180">
						<ele>578</ele>
						<time>2026-05-01T10:08:51Z</time>
					</trkpt>
					<trkpt lat="40.397290" lon="-3.709890">
						<ele>577</ele>
						<time>2026-05-01T10:09:21Z</time>
					</trkpt>
					<trkpt lat="40.397240" lon="-3.709710">
						<ele>577</ele>
						<time>2026-05-01T10:09:40Z</time>
					</trkpt>
					<trkpt lat="40.397080" lon="-3.709650">
						<ele>576</ele>
						<time>2026-05-01T10:10:03Z</time>
					</trkpt>
					<trkpt lat="40.396920" lon="-3.709500">
						<ele>575</ele>
						<time>2026-05-01T10:10:29Z</time>
					</trkpt>
					<trkpt lat="40.396940" lon="-3.709290">
						<ele>574</ele>
						<time>2026-05-01T10:10:50Z</time>
					</trkpt>
					<trkpt lat="40.397060" lon="-3.709210">
						<ele>575</ele>
						<time>2026-05-01T10:11:08Z</time>
					</trkpt>
					<trkpt lat="40.397130" lon="-3.709110">
						<ele>575</ele>
						<time>2026-05-01T10:11:22Z</time>
					</trkpt>
					<trkpt lat="40.396960" lon="-3.708670">
						<ele>576</ele>
						<time>2026-05-01T10:12:12Z</time>
					</trkpt>
					<trkpt lat="40.396820" lon="-3.708420">
						<ele>577</ele>
						<time>2026-05-01T10:12:44Z</time>
					</trkpt>
					<trkpt lat="40.396650" lon="-3.708630">
						<ele>576</ele>
						<time>2026-05-01T10:13:15Z</time>
					</trkpt>
					<trkpt lat="40.396530" lon="-3.708640">
						<ele>577</ele>
						<time>2026-05-01T10:13:31Z</time>
					</trkpt>
					<trkpt lat="40.396480" lon="-3.708470">
						<ele>578</ele>
						<time>2026-05-01T10:13:49Z</time>
					</trkpt>
					<trkpt lat="40.396500" lon="-3.708200">
						<ele>579</ele>
						<time>2026-05-01T10:14:17Z</time>
					</trkpt>
					<trkpt lat="40.396460" lon="-3.707980">
						<ele>579</ele>
						<time>2026-05-01T10:14:40Z</time>
					</trkpt>
					<trkpt lat="40.396400" lon="-3.707740">
						<ele>579</ele>
						<time>2026-05-01T10:15:06Z</time>
					</trkpt>
					<trkpt lat="40.396360" lon="-3.707430">
						<ele>579</ele>
						<time>2026-05-01T10:15:38Z</time>
					</trkpt>
					<trkpt lat="40.396140" lon="-3.706710">
						<ele>578</ele>
						<time>2026-05-01T10:16:56Z</time>
					</trkpt>
					<trkpt lat="40.396110" lon="-3.706470">
						<ele>578</ele>
						<time>2026-05-01T10:17:21Z</time>
					</trkpt>
					<trkpt lat="40.395970" lon="-3.706290">
						<ele>578</ele>
						<time>2026-05-01T10:17:47Z</time>
					</trkpt>
					<trkpt lat="40.395870" lon="-3.706250">
						<ele>578</ele>
						<time>2026-05-01T10:18:01Z</time>
					</trkpt>
					<trkpt lat="40.395810" lon="-3.706020">
						<ele>578</ele>
						<time>2026-05-01T10:18:26Z</time>
					</trkpt>
					<trkpt lat="40.395830" lon="-3.705700">
						<ele>578</ele>
						<time>2026-05-01T10:18:59Z</time>
					</trkpt>
					<trkpt lat="40.395880" lon="-3.705310">
						<ele>578</ele>
						<time>2026-05-01T10:19:39Z</time>
					</trkpt>
					<trkpt lat="40.395720" lon="-3.705210">
						<ele>579</ele>
						<time>2026-05-01T10:20:02Z</time>
					</trkpt>
					<trkpt lat="40.395560" lon="-3.705070">
						<ele>580</ele>
						<time>2026-05-01T10:20:28Z</time>
					</trkpt>
					<trkpt lat="40.395440" lon="-3.704820">
						<ele>580</ele>
						<time>2026-05-01T10:20:58Z</time>
					</trkpt>
					<trkpt lat="40.395220" lon="-3.704130">
						<ele>581</ele>
						<time>2026-05-01T10:22:14Z</time>
					</trkpt>
					<trkpt lat="40.394990" lon="-3.703880">
						<ele>580</ele>
						<time>2026-05-01T10:22:54Z</time>
					</trkpt>
					<trkpt lat="40.394910" lon="-3.703470">
						<ele>578</ele>
						<time>2026-05-01T10:23:37Z</time>
					</trkpt>
					<trkpt lat="40.394880" lon="-3.703200">
						<ele>578</ele>
						<time>2026-05-01T10:24:05Z</time>
					</trkpt>
					<trkpt lat="40.394760" lon="-3.703040">
						<ele>578</ele>
						<time>2026-05-01T10:24:28Z</time>
					</trkpt>
					<trkpt lat="40.394540" lon="-3.702540">
						<ele>579</ele>
						<time>2026-05-01T10:25:26Z</time>
					</trkpt>
					<trkpt lat="40.394580" lon="-3.702090">
						<ele>580</ele>
						<time>2026-05-01T10:26:12Z</time>
					</trkpt>
					<trkpt lat="40.394450" lon="-3.701930">
						<ele>579</ele>
						<time>2026-05-01T10:26:36Z</time>
					</trkpt>
					<trkpt lat="40.394200" lon="-3.702010">
						<ele>577</ele>
						<time>2026-05-01T10:27:10Z</time>
					</trkpt>
					<trkpt lat="40.394020" lon="-3.701950">
						<ele>577</ele>
						<time>2026-05-01T10:27:35Z</time>
					</trkpt>
					<trkpt lat="40.393940" lon="-3.701660">
						<ele>575</ele>
						<time>2026-05-01T10:28:07Z</time>
					</trkpt>
					<trkpt lat="40.393880" lon="-3.701630">
						<ele>575</ele>
						<time>2026-05-01T10:28:15Z</time>
					</trkpt>
					<trkpt lat="40.393430" lon="-3.701580">
						<ele>574</ele>
						<time>2026-05-01T10:29:15Z</time>
					</trkpt>
					<trkpt lat="40.393260" lon="-3.701410">
						<ele>575</ele>
						<time>2026-05-01T10:29:44Z</time>
					</trkpt>
					<trkpt lat="40.392950" lon="-3.701040">
						<ele>575</ele>
						<time>2026-05-01T10:30:40Z</time>
					</trkpt>
					<trkpt lat="40.392650" lon="-3.700770">
						<ele>575</ele>
						<time>2026-05-01T10:31:28Z</time>
					</trkpt>
					<trkpt lat="40.392560" lon="-3.700870">
						<ele>575</ele>
						<time>2026-05-01T10:31:44Z</time>
					</trkpt>
					<trkpt lat="40.392420" lon="-3.700940">
						<ele>575</ele>
						<time>2026-05-01T10:32:04Z</time>
					</trkpt>
					<trkpt lat="40.392360" lon="-3.700700">
						<ele>575</ele>
						<time>2026-05-01T10:32:30Z</time>
					</trkpt>
					<trkpt lat="40.392070" lon="-3.700400">
						<ele>575</ele>
						<time>2026-05-01T10:33:19Z</time>
					</trkpt>
					<trkpt lat="40.391760" lon="-3.700220">
						<ele>575</ele>
						<time>2026-05-01T10:34:04Z</time>
					</trkpt>
					<trkpt lat="40.391360" lon="-3.699830">
						<ele>574</ele>
						<time>2026-05-01T10:35:11Z</time>
					</trkpt>
					<trkpt lat="40.391230" lon="-3.699790">
						<ele>574</ele>
						<time>2026-05-01T10:35:29Z</time>
					</trkpt>
					<trkpt lat="40.390970" lon="-3.700430">
						<ele>576</ele>
						<time>2026-05-01T10:36:42Z</time>
					</trkpt>
					<trkpt lat="40.390760" lon="-3.700290">
						<ele>576</ele>
						<time>2026-05-01T10:37:14Z</time>
					</trkpt>
					<trkpt lat="40.390750" lon="-3.700380">
						<ele>576</ele>
						<time>2026-05-01T10:37:23Z</time>
					</trkpt>
					<trkpt lat="40.391490" lon="-3.700970">
						<ele>578</ele>
						<time>2026-05-01T10:39:18Z</time>
					</trkpt>
					<trkpt lat="40.392070" lon="-3.701480">
						<ele>576</ele>
						<time>2026-05-01T10:40:52Z</time>
					</trkpt>
					<trkpt lat="40.392470" lon="-3.701800">
						<ele>576</ele>
						<time>2026-05-01T10:41:54Z</time>
					</trkpt>
					<trkpt lat="40.392840" lon="-3.702170">
						<ele>579</ele>
						<time>2026-05-01T10:42:56Z</time>
					</trkpt>
					<trkpt lat="40.393370" lon="-3.702650">
						<ele>581</ele>
						<time>2026-05-01T10:44:22Z</time>
					</trkpt>
					<trkpt lat="40.394180" lon="-3.703520">
						<ele>579</ele>
						<time>2026-05-01T10:46:42Z</time>
					</trkpt>
					<trkpt lat="40.394570" lon="-3.704220">
						<ele>581</ele>
						<time>2026-05-01T10:48:10Z</time>
					</trkpt>
					<trkpt lat="40.394970" lon="-3.705250">
						<ele>582</ele>
						<time>2026-05-01T10:50:07Z</time>
					</trkpt>
					<trkpt lat="40.395140" lon="-3.705960">
						<ele>581</ele>
						<time>2026-05-01T10:51:23Z</time>
					</trkpt>
					<trkpt lat="40.395530" lon="-3.707070">
						<ele>584</ele>
						<time>2026-05-01T10:53:27Z</time>
					</trkpt>
					<trkpt lat="40.396120" lon="-3.709550">
						<ele>584</ele>
						<time>2026-05-01T10:57:51Z</time>
					</trkpt>
					<trkpt lat="40.396160" lon="-3.709880">
						<ele>586</ele>
						<time>2026-05-01T10:58:25Z</time>
					</trkpt>
					<trkpt lat="40.396560" lon="-3.710750">
						<ele>582</ele>
						<time>2026-05-01T11:00:09Z</time>
					</trkpt>
					<trkpt lat="40.397060" lon="-3.711490">
						<ele>580</ele>
						<time>2026-05-01T11:01:49Z</time>
					</trkpt>
					<trkpt lat="40.397430" lon="-3.712140">
						<ele>579</ele>
						<time>2026-05-01T11:03:12Z</time>
					</trkpt>
					<trkpt lat="40.398970" lon="-3.714060">
						<ele>578</ele>
						<time>2026-05-01T11:07:55Z</time>
					</trkpt>
					<trkpt lat="40.399360" lon="-3.714920">
						<ele>578</ele>
						<time>2026-05-01T11:09:37Z</time>
					</trkpt>
					<trkpt lat="40.399630" lon="-3.715910">
						<ele>580</ele>
						<time>2026-05-01T11:11:24Z</time>
					</trkpt>
					<trkpt lat="40.399690" lon="-3.716380">
						<ele>581</ele>
						<time>2026-05-01T11:12:12Z</time>
					</trkpt>
					<trkpt lat="40.399670" lon="-3.716590">
						<ele>581</ele>
						<time>2026-05-01T11:12:34Z</time>
					</trkpt>
					<trkpt lat="40.400200" lon="-3.716530">
						<ele>581</ele>
						<time>2026-05-01T11:13:44Z</time>
					</trkpt>
					<trkpt lat="40.400180" lon="-3.715920">
						<ele>581</ele>
						<time>2026-05-01T11:14:47Z</time>
					</trkpt>
					<trkpt lat="40.400290" lon="-3.715660">
						<ele>581</ele>
						<time>2026-05-01T11:15:17Z</time>
					</trkpt>
					<trkpt lat="40.400050" lon="-3.715110">
						<ele>578</ele>
						<time>2026-05-01T11:16:21Z</time>
					</trkpt>
					<trkpt lat="40.400190" lon="-3.714410">
						<ele>581</ele>
						<time>2026-05-01T11:17:35Z</time>
					</trkpt>
					<trkpt lat="40.400190" lon="-3.714140">
						<ele>582</ele>
						<time>2026-05-01T11:18:02Z</time>
					</trkpt>
					<trkpt lat="40.399920" lon="-3.713170">
						<ele>583</ele>
						<time>2026-05-01T11:19:47Z</time>
					</trkpt>
					<trkpt lat="40.400060" lon="-3.713090">
						<ele>584</ele>
						<time>2026-05-01T11:20:08Z</time>
					</trkpt>
					<trkpt lat="40.400370" lon="-3.714080">
						<ele>583</ele>
						<time>2026-05-01T11:21:56Z</time>
					</trkpt>
					<trkpt lat="40.400450" lon="-3.714380">
						<ele>583</ele>
						<time>2026-05-01T11:22:29Z</time>
					</trkpt>
					<trkpt lat="40.400470" lon="-3.714360">
						<ele>583</ele>
						<time>2026-05-01T11:22:32Z</time>
					</trkpt>
					<trkpt lat="40.400480" lon="-3.714280">
						<ele>583</ele>
						<time>2026-05-01T11:22:40Z</time>
					</trkpt>
					<trkpt lat="40.400470" lon="-3.714060">
						<ele>584</ele>
						<time>2026-05-01T11:23:03Z</time>
					</trkpt>
					<trkpt lat="40.400650" lon="-3.713880">
						<ele>585</ele>
						<time>2026-05-01T11:23:33Z</time>
					</trkpt>
					<trkpt lat="40.401140" lon="-3.713310">
						<ele>591</ele>
						<time>2026-05-01T11:25:00Z</time>
					</trkpt>
					<trkpt lat="40.401390" lon="-3.712760">
						<ele>596</ele>
						<time>2026-05-01T11:26:05Z</time>
					</trkpt>
					</trkseg>
				</trk>
			</gpx>