<?xml version="1.0" encoding="UTF-8" ?>
<gpx version="1.1" xmlns:xsi="http://www.w3.org/2001/XMLSchema-instance"
    xmlns="http://www.topografix.com/GPX/1/1"
    xsi:schemaLocation="http://www.topografix.com/GPX/1/1 http://www.topografix.com/GPX/1/1/gpx.xsd"
    creator="Openrunner - https://www.openrunner.com" >
                <wpt lat="43.302761" lon="5.381207">
                        <ele>0</ele>
                        <name><![CDATA[Toilettes]]></name>
                        <desc><![CDATA[]]></desc>
                    <sym>21</sym>
                </wpt>
            
                <wpt lat="43.304834" lon="5.395580">
                        <ele>0</ele>
                        <name><![CDATA[Point d'eau potable]]></name>
                        <desc><![CDATA[]]></desc>
                    <sym>37</sym>
                </wpt>
            
                <wpt lat="43.303959" lon="5.394100">
                        <ele>0</ele>
                        <name><![CDATA[Point d'eau potable]]></name>
                        <desc><![CDATA[]]></desc>
                    <sym>37</sym>
                </wpt>
            
                <wpt lat="43.305595" lon="5.397353">
                        <ele>0</ele>
                        <name><![CDATA[Toilettes]]></name>
                        <desc><![CDATA[]]></desc>
                    <sym>21</sym>
                </wpt>
            
                <wpt lat="43.297903" lon="5.381432">
                        <ele>0</ele>
                        <name><![CDATA[Toilettes]]></name>
                        <desc><![CDATA[]]></desc>
                    <sym>21</sym>
                </wpt>
            
                <wpt lat="43.297593" lon="5.371391">
                        <ele>0</ele>
                        <name><![CDATA[plus vieille maison de Marseille]]></name>
                        <desc><![CDATA[]]></desc>
                    <sym>41</sym>
                </wpt>
            
                <wpt lat="43.295048" lon="5.363643">
                        <ele>0</ele>
                        <name><![CDATA[Point d'eau potable]]></name>
                        <desc><![CDATA[]]></desc>
                    <sym>37</sym>
                </wpt>
            
                <wpt lat="43.305198" lon="5.396316">
                        <ele>0</ele>
                        <name><![CDATA[Ravitaillement]]></name>
                        <desc><![CDATA[]]></desc>
                    <sym>3</sym>
                </wpt>
            
                <wpt lat="43.297337" lon="5.362263">
                        <ele>0</ele>
                        <name><![CDATA[Toilettes]]></name>
                        <desc><![CDATA[]]></desc>
                    <sym>21</sym>
                </wpt>
            
                <wpt lat="43.299927" lon="5.385052">
                        <ele>0</ele>
                        <name><![CDATA[Toilettes]]></name>
                        <desc><![CDATA[]]></desc>
                    <sym>21</sym>
                </wpt>
            	<trk>
	                   <name>Marseille du Mucem à Longchamp-16708976</name>
						<trkseg>
					<trkpt lat="43.298060" lon="5.362660">
						<ele>1</ele>
						<time>2026-05-01T09:38:48Z</time>
					</trkpt>
					<trkpt lat="43.298130" lon="5.363090">
						<ele>3</ele>
						<time>2026-05-01T09:39:31Z</time>
					</trkpt>
					<trkpt lat="43.298360" lon="5.363750">
						<ele>5</ele>
						<time>2026-05-01T09:40:42Z</time>
					</trkpt>
					<trkpt lat="43.298560" lon="5.364210">
						<ele>8</ele>
						<time>2026-05-01T09:41:34Z</time>
					</trkpt>
					<trkpt lat="43.299170" lon="5.364610">
						<ele>14</ele>
						<time>2026-05-01T09:43:04Z</time>
					</trkpt>
					<trkpt lat="43.299440" lon="5.364770">
						<ele>17</ele>
						<time>2026-05-01T09:43:43Z</time>
					</trkpt>
					<trkpt lat="43.299100" lon="5.364690">
						<ele>15</ele>
						<time>2026-05-01T09:44:29Z</time>
					</trkpt>
					<trkpt lat="43.298930" lon="5.364870">
						<ele>18</ele>
						<time>2026-05-01T09:44:58Z</time>
					</trkpt>
					<trkpt lat="43.298860" lon="5.365340">
						<ele>22</ele>
						<time>2026-05-01T09:45:45Z</time>
					</trkpt>
					<trkpt lat="43.298660" lon="5.366380">
						<ele>30</ele>
						<time>2026-05-01T09:47:29Z</time>
					</trkpt>
					<trkpt lat="43.298430" lon="5.367530">
						<ele>37</ele>
						<time>2026-05-01T09:49:25Z</time>
					</trkpt>
					<trkpt lat="43.298760" lon="5.367720">
						<ele>36</ele>
						<time>2026-05-01T09:50:13Z</time>
					</trkpt>
					<trkpt lat="43.298700" lon="5.368130">
						<ele>39</ele>
						<time>2026-05-01T09:50:53Z</time>
					</trkpt>
					<trkpt lat="43.298560" lon="5.368100">
						<ele>39</ele>
						<time>2026-05-01T09:51:12Z</time>
					</trkpt>
					<trkpt lat="43.298470" lon="5.368440">
						<ele>39</ele>
						<time>2026-05-01T09:51:47Z</time>
					</trkpt>
					<trkpt lat="43.298930" lon="5.368820">
						<ele>40</ele>
						<time>2026-05-01T09:52:59Z</time>
					</trkpt>
					<trkpt lat="43.299260" lon="5.369050">
						<ele>40</ele>
						<time>2026-05-01T09:53:48Z</time>
					</trkpt>
					<trkpt lat="43.299350" lon="5.368220">
						<ele>38</ele>
						<time>2026-05-01T09:55:10Z</time>
					</trkpt>
					<trkpt lat="43.299390" lon="5.367730">
						<ele>33</ele>
						<time>2026-05-01T09:55:58Z</time>
					</trkpt>
					<trkpt lat="43.299850" lon="5.367740">
						<ele>28</ele>
						<time>2026-05-01T09:56:59Z</time>
					</trkpt>
					<trkpt lat="43.300100" lon="5.367780">
						<ele>27</ele>
						<time>2026-05-01T09:57:33Z</time>
					</trkpt>
					<trkpt lat="43.300240" lon="5.367820">
						<ele>26</ele>
						<time>2026-05-01T09:57:52Z</time>
					</trkpt>
					<trkpt lat="43.300290" lon="5.367540">
						<ele>25</ele>
						<time>2026-05-01T09:58:20Z</time>
					</trkpt>
					<trkpt lat="43.300970" lon="5.367740">
						<ele>23</ele>
						<time>2026-05-01T09:59:53Z</time>
					</trkpt>
					<trkpt lat="43.300910" lon="5.368250">
						<ele>25</ele>
						<time>2026-05-01T10:00:43Z</time>
					</trkpt>
					<trkpt lat="43.300220" lon="5.368090">
						<ele>28</ele>
						<time>2026-05-01T10:02:16Z</time>
					</trkpt>
					<trkpt lat="43.300220" lon="5.367900">
						<ele>27</ele>
						<time>2026-05-01T10:02:35Z</time>
					</trkpt>
					<trkpt lat="43.300090" lon="5.367820">
						<ele>27</ele>
						<time>2026-05-01T10:02:54Z</time>
					</trkpt>
					<trkpt lat="43.300010" lon="5.368280">
						<ele>31</ele>
						<time>2026-05-01T10:03:40Z</time>
					</trkpt>
					<trkpt lat="43.299940" lon="5.368940">
						<ele>35</ele>
						<time>2026-05-01T10:04:44Z</time>
					</trkpt>
					<trkpt lat="43.299740" lon="5.368910">
						<ele>36</ele>
						<time>2026-05-01T10:05:11Z</time>
					</trkpt>
					<trkpt lat="43.299610" lon="5.369630">
						<ele>35</ele>
						<time>2026-05-01T10:06:23Z</time>
					</trkpt>
					<trkpt lat="43.299280" lon="5.369480">
						<ele>37</ele>
						<time>2026-05-01T10:07:10Z</time>
					</trkpt>
					<trkpt lat="43.299290" lon="5.370390">
						<ele>32</ele>
						<time>2026-05-01T10:08:38Z</time>
					</trkpt>
					<trkpt lat="43.299290" lon="5.370890">
						<ele>29</ele>
						<time>2026-05-01T10:09:27Z</time>
					</trkpt>
					<trkpt lat="43.299510" lon="5.370920">
						<ele>29</ele>
						<time>2026-05-01T10:09:56Z</time>
					</trkpt>
					<trkpt lat="43.299550" lon="5.370470">
						<ele>31</ele>
						<time>2026-05-01T10:10:40Z</time>
					</trkpt>
					<trkpt lat="43.299990" lon="5.370310">
						<ele>32</ele>
						<time>2026-05-01T10:11:41Z</time>
					</trkpt>
					<trkpt lat="43.300210" lon="5.370170">
						<ele>31</ele>
						<time>2026-05-01T10:12:13Z</time>
					</trkpt>
					<trkpt lat="43.300310" lon="5.370370">
						<ele>29</ele>
						<time>2026-05-01T10:12:37Z</time>
					</trkpt>
					<trkpt lat="43.300390" lon="5.370610">
						<ele>28</ele>
						<time>2026-05-01T10:13:02Z</time>
					</trkpt>
					<trkpt lat="43.300740" lon="5.370360">
						<ele>26</ele>
						<time>2026-05-01T10:13:55Z</time>
					</trkpt>
					<trkpt lat="43.300780" lon="5.370600">
						<ele>26</ele>
						<time>2026-05-01T10:14:19Z</time>
					</trkpt>
					<trkpt lat="43.301010" lon="5.371050">
						<ele>27</ele>
						<time>2026-05-01T10:15:12Z</time>
					</trkpt>
					<trkpt lat="43.300930" lon="5.371180">
						<ele>29</ele>
						<time>2026-05-01T10:15:29Z</time>
					</trkpt>
					<trkpt lat="43.301460" lon="5.372010">
						<ele>30</ele>
						<time>2026-05-01T10:17:16Z</time>
					</trkpt>
					<trkpt lat="43.301110" lon="5.372660">
						<ele>34</ele>
						<time>2026-05-01T10:18:35Z</time>
					</trkpt>
					<trkpt lat="43.300910" lon="5.372530">
						<ele>37</ele>
						<time>2026-05-01T10:19:04Z</time>
					</trkpt>
					<trkpt lat="43.300690" lon="5.372720">
						<ele>35</ele>
						<time>2026-05-01T10:19:39Z</time>
					</trkpt>
					<trkpt lat="43.300840" lon="5.373110">
						<ele>34</ele>
						<time>2026-05-01T10:20:22Z</time>
					</trkpt>
					<trkpt lat="43.300970" lon="5.373200">
						<ele>32</ele>
						<time>2026-05-01T10:20:41Z</time>
					</trkpt>
					<trkpt lat="43.301040" lon="5.373320">
						<ele>31</ele>
						<time>2026-05-01T10:20:56Z</time>
					</trkpt>
					<trkpt lat="43.301140" lon="5.373380">
						<ele>30</ele>
						<time>2026-05-01T10:21:11Z</time>
					</trkpt>
					<trkpt lat="43.301210" lon="5.373670">
						<ele>28</ele>
						<time>2026-05-01T10:21:40Z</time>
					</trkpt>
					<trkpt lat="43.301330" lon="5.374070">
						<ele>26</ele>
						<time>2026-05-01T10:22:22Z</time>
					</trkpt>
					<trkpt lat="43.301530" lon="5.374620">
						<ele>25</ele>
						<time>2026-05-01T10:23:22Z</time>
					</trkpt>
					<trkpt lat="43.301560" lon="5.374780">
						<ele>25</ele>
						<time>2026-05-01T10:23:38Z</time>
					</trkpt>
					<trkpt lat="43.301780" lon="5.374760">
						<ele>25</ele>
						<time>2026-05-01T10:24:07Z</time>
					</trkpt>
					<trkpt lat="43.301620" lon="5.375130">
						<ele>26</ele>
						<time>2026-05-01T10:24:49Z</time>
					</trkpt>
					<trkpt lat="43.301570" lon="5.375340">
						<ele>27</ele>
						<time>2026-05-01T10:25:11Z</time>
					</trkpt>
					<trkpt lat="43.301640" lon="5.376060">
						<ele>31</ele>
						<time>2026-05-01T10:26:21Z</time>
					</trkpt>
					<trkpt lat="43.301720" lon="5.376920">
						<ele>35</ele>
						<time>2026-05-01T10:27:45Z</time>
					</trkpt>
					<trkpt lat="43.301810" lon="5.377750">
						<ele>38</ele>
						<time>2026-05-01T10:29:07Z</time>
					</trkpt>
					<trkpt lat="43.301890" lon="5.378380">
						<ele>40</ele>
						<time>2026-05-01T10:30:09Z</time>
					</trkpt>
					<trkpt lat="43.301980" lon="5.379190">
						<ele>42</ele>
						<time>2026-05-01T10:31:29Z</time>
					</trkpt>
					<trkpt lat="43.302010" lon="5.379630">
						<ele>43</ele>
						<time>2026-05-01T10:32:12Z</time>
					</trkpt>
					<trkpt lat="43.302520" lon="5.379460">
						<ele>48</ele>
						<time>2026-05-01T10:33:22Z</time>
					</trkpt>
					<trkpt lat="43.302540" lon="5.379620">
						<ele>49</ele>
						<time>2026-05-01T10:33:37Z</time>
					</trkpt>
					<trkpt lat="43.302670" lon="5.379630">
						<ele>49</ele>
						<time>2026-05-01T10:33:55Z</time>
					</trkpt>
					<trkpt lat="43.302730" lon="5.379760">
						<ele>50</ele>
						<time>2026-05-01T10:34:10Z</time>
					</trkpt>
					<trkpt lat="43.302680" lon="5.379900">
						<ele>50</ele>
						<time>2026-05-01T10:34:25Z</time>
					</trkpt>
					<trkpt lat="43.302810" lon="5.379830">
						<ele>50</ele>
						<time>2026-05-01T10:34:43Z</time>
					</trkpt>
					<trkpt lat="43.302840" lon="5.379870">
						<ele>50</ele>
						<time>2026-05-01T10:34:49Z</time>
					</trkpt>
					<trkpt lat="43.302530" lon="5.380110">
						<ele>50</ele>
						<time>2026-05-01T10:35:36Z</time>
					</trkpt>
					<trkpt lat="43.302340" lon="5.380180">
						<ele>48</ele>
						<time>2026-05-01T10:36:03Z</time>
					</trkpt>
					<trkpt lat="43.301980" lon="5.380500">
						<ele>45</ele>
						<time>2026-05-01T10:37:00Z</time>
					</trkpt>
					<trkpt lat="43.301480" lon="5.380720">
						<ele>41</ele>
						<time>2026-05-01T10:38:10Z</time>
					</trkpt>
					<trkpt lat="43.300690" lon="5.380810">
						<ele>40</ele>
						<time>2026-05-01T10:39:56Z</time>
					</trkpt>
					<trkpt lat="43.301080" lon="5.383290">
						<ele>44</ele>
						<time>2026-05-01T10:44:02Z</time>
					</trkpt>
					<trkpt lat="43.300700" lon="5.383740">
						<ele>40</ele>
						<time>2026-05-01T10:45:09Z</time>
					</trkpt>
					<trkpt lat="43.300920" lon="5.384280">
						<ele>42</ele>
						<time>2026-05-01T10:46:09Z</time>
					</trkpt>
					<trkpt lat="43.300790" lon="5.384610">
						<ele>41</ele>
						<time>2026-05-01T10:46:46Z</time>
					</trkpt>
					<trkpt lat="43.300450" lon="5.384930">
						<ele>41</ele>
						<time>2026-05-01T10:47:41Z</time>
					</trkpt>
					<trkpt lat="43.300010" lon="5.385290">
						<ele>38</ele>
						<time>2026-05-01T10:48:49Z</time>
					</trkpt>
					<trkpt lat="43.301240" lon="5.387870">
						<ele>43</ele>
						<time>2026-05-01T10:53:49Z</time>
					</trkpt>
					<trkpt lat="43.302550" lon="5.390630">
						<ele>50</ele>
						<time>2026-05-01T10:59:09Z</time>
					</trkpt>
					<trkpt lat="43.303570" lon="5.393100">
						<ele>54</ele>
						<time>2026-05-01T11:03:44Z</time>
					</trkpt>
					<trkpt lat="43.303620" lon="5.393420">
						<ele>55</ele>
						<time>2026-05-01T11:04:16Z</time>
					</trkpt>
					<trkpt lat="43.303660" lon="5.393580">
						<ele>56</ele>
						<time>2026-05-01T11:04:33Z</time>
					</trkpt>
					<trkpt lat="43.303610" lon="5.393940">
						<ele>57</ele>
						<time>2026-05-01T11:05:08Z</time>
					</trkpt>
					<trkpt lat="43.303720" lon="5.394120">
						<ele>58</ele>
						<time>2026-05-01T11:05:31Z</time>
					</trkpt>
					<trkpt lat="43.303970" lon="5.394190">
						<ele>60</ele>
						<time>2026-05-01T11:06:05Z</time>
					</trkpt>
					<trkpt lat="43.303960" lon="5.394390">
						<ele>60</ele>
						<time>2026-05-01T11:06:25Z</time>
					</trkpt>
					<trkpt lat="43.304030" lon="5.394560">
						<ele>61</ele>
						<time>2026-05-01T11:06:43Z</time>
					</trkpt>
					<trkpt lat="43.304070" lon="5.394590">
						<ele>61</ele>
						<time>2026-05-01T11:06:50Z</time>
					</trkpt>
					<trkpt lat="43.304130" lon="5.394600">
						<ele>61</ele>
						<time>2026-05-01T11:06:58Z</time>
					</trkpt>
					<trkpt lat="43.304200" lon="5.394590">
						<ele>62</ele>
						<time>2026-05-01T11:07:07Z</time>
					</trkpt>
					<trkpt lat="43.304310" lon="5.394780">
						<ele>63</ele>
						<time>2026-05-01T11:07:31Z</time>
					</trkpt>
					<trkpt lat="43.304660" lon="5.395500">
						<ele>70</ele>
						<time>2026-05-01T11:08:55Z</time>
					</trkpt>
					<trkpt lat="43.304770" lon="5.395560">
						<ele>71</ele>
						<time>2026-05-01T11:09:10Z</time>
					</trkpt>
					<trkpt lat="43.304970" lon="5.395890">
						<ele>74</ele>
						<time>2026-05-01T11:09:52Z</time>
					</trkpt>
					<trkpt lat="43.305050" lon="5.396350">
						<ele>73</ele>
						<time>2026-05-01T11:10:38Z</time>
					</trkpt>
					<trkpt lat="43.305300" lon="5.396450">
						<ele>74</ele>
						<time>2026-05-01T11:11:13Z</time>
					</trkpt>
					<trkpt lat="43.305350" lon="5.396620">
						<ele>73</ele>
						<time>2026-05-01T11:11:31Z</time>
					</trkpt>
					<trkpt lat="43.305350" lon="5.396920">
						<ele>70</ele>
						<time>2026-05-01T11:12:00Z</time>
					</trkpt>
					<trkpt lat="43.305490" lon="5.397160">
						<ele>69</ele>
						<time>2026-05-01T11:12:30Z</time>
					</trkpt>
					<trkpt lat="43.305630" lon="5.397280">
						<ele>69</ele>
						<time>2026-05-01T11:12:52Z</time>
					</trkpt>
					<trkpt lat="43.305530" lon="5.397110">
						<ele>69</ele>
						<time>2026-05-01T11:13:13Z</time>
					</trkpt>
					<trkpt lat="43.305540" lon="5.396860">
						<ele>72</ele>
						<time>2026-05-01T11:13:37Z</time>
					</trkpt>
					<trkpt lat="43.305380" lon="5.396590">
						<ele>73</ele>
						<time>2026-05-01T11:14:11Z</time>
					</trkpt>
					<trkpt lat="43.305320" lon="5.396450">
						<ele>74</ele>
						<time>2026-05-01T11:14:27Z</time>
					</trkpt>
					<trkpt lat="43.305130" lon="5.396360">
						<ele>73</ele>
						<time>2026-05-01T11:14:54Z</time>
					</trkpt>
					<trkpt lat="43.305030" lon="5.396350">
						<ele>73</ele>
						<time>2026-05-01T11:15:07Z</time>
					</trkpt>
					<trkpt lat="43.305030" lon="5.396150">
						<ele>74</ele>
						<time>2026-05-01T11:15:26Z</time>
					</trkpt>
					<trkpt lat="43.304950" lon="5.395910">
						<ele>74</ele>
						<time>2026-05-01T11:15:52Z</time>
					</trkpt>
					<trkpt lat="43.304820" lon="5.395700">
						<ele>72</ele>
						<time>2026-05-01T11:16:19Z</time>
					</trkpt>
					<trkpt lat="43.304740" lon="5.395580">
						<ele>71</ele>
						<time>2026-05-01T11:16:35Z</time>
					</trkpt>
					<trkpt lat="43.304610" lon="5.395510">
						<ele>69</ele>
						<time>2026-05-01T11:16:53Z</time>
					</trkpt>
					<trkpt lat="43.304540" lon="5.395320">
						<ele>68</ele>
						<time>2026-05-01T11:17:14Z</time>
					</trkpt>
					<trkpt lat="43.304320" lon="5.394820">
						<ele>63</ele>
						<time>2026-05-01T11:18:11Z</time>
					</trkpt>
					<trkpt lat="43.304220" lon="5.394590">
						<ele>62</ele>
						<time>2026-05-01T11:18:37Z</time>
					</trkpt>
					<trkpt lat="43.304330" lon="5.394490">
						<ele>63</ele>
						<time>2026-05-01T11:18:54Z</time>
					</trkpt>
					<trkpt lat="43.304360" lon="5.394420">
						<ele>63</ele>
						<time>2026-05-01T11:19:02Z</time>
					</trkpt>
					<trkpt lat="43.304420" lon="5.394330">
						<ele>63</ele>
						<time>2026-05-01T11:19:14Z</time>
					</trkpt>
					<trkpt lat="43.304430" lon="5.394260">
						<ele>63</ele>
						<time>2026-05-01T11:19:21Z</time>
					</trkpt>
					<trkpt lat="43.304390" lon="5.394140">
						<ele>62</ele>
						<time>2026-05-01T11:19:34Z</time>
					</trkpt>
					<trkpt lat="43.304340" lon="5.394030">
						<ele>62</ele>
						<time>2026-05-01T11:19:46Z</time>
					</trkpt>
					<trkpt lat="43.304260" lon="5.393930">
						<ele>61</ele>
						<time>2026-05-01T11:20:01Z</time>
					</trkpt>
					<trkpt lat="43.304280" lon="5.393760">
						<ele>61</ele>
						<time>2026-05-01T11:20:18Z</time>
					</trkpt>
					<trkpt lat="43.304260" lon="5.393500">
						<ele>60</ele>
						<time>2026-05-01T11:20:43Z</time>
					</trkpt>
					<trkpt lat="43.304120" lon="5.393370">
						<ele>59</ele>
						<time>2026-05-01T11:21:06Z</time>
					</trkpt>
					<trkpt lat="43.303890" lon="5.393330">
						<ele>57</ele>
						<time>2026-05-01T11:21:36Z</time>
					</trkpt>
					<trkpt lat="43.303690" lon="5.393340">
						<ele>55</ele>
						<time>2026-05-01T11:22:03Z</time>
					</trkpt>
					<trkpt lat="43.303640" lon="5.393370">
						<ele>55</ele>
						<time>2026-05-01T11:22:10Z</time>
					</trkpt>
					<trkpt lat="43.303460" lon="5.393320">
						<ele>53</ele>
						<time>2026-05-01T11:22:35Z</time>
					</trkpt>
					<trkpt lat="43.302720" lon="5.393890">
						<ele>55</ele>
						<time>2026-05-01T11:24:28Z</time>
					</trkpt>
					<trkpt lat="43.302420" lon="5.394130">
						<ele>56</ele>
						<time>2026-05-01T11:25:14Z</time>
					</trkpt>
					<trkpt lat="43.302100" lon="5.394390">
						<ele>58</ele>
						<time>2026-05-01T11:26:04Z</time>
					</trkpt>
					<trkpt lat="43.301200" lon="5.391610">
						<ele>55</ele>
						<time>2026-05-01T11:31:00Z</time>
					</trkpt>
					<trkpt lat="43.300240" lon="5.388790">
						<ele>49</ele>
						<time>2026-05-01T11:36:02Z</time>
					</trkpt>
					<trkpt lat="43.299310" lon="5.385980">
						<ele>39</ele>
						<time>2026-05-01T11:41:02Z</time>
					</trkpt>
					<trkpt lat="43.299240" lon="5.385770">
						<ele>37</ele>
						<time>2026-05-01T11:41:24Z</time>
					</trkpt>
					<trkpt lat="43.299140" lon="5.385830">
						<ele>38</ele>
						<time>2026-05-01T11:41:39Z</time>
					</trkpt>
					<trkpt lat="43.299050" lon="5.385770">
						<ele>39</ele>
						<time>2026-05-01T11:41:52Z</time>
					</trkpt>
					<trkpt lat="43.299000" lon="5.386060">
						<ele>42</ele>
						<time>2026-05-01T11:42:21Z</time>
					</trkpt>
					<trkpt lat="43.298850" lon="5.386010">
						<ele>43</ele>
						<time>2026-05-01T11:42:42Z</time>
					</trkpt>
					<trkpt lat="43.298920" lon="5.385520">
						<ele>38</ele>
						<time>2026-05-01T11:43:30Z</time>
					</trkpt>
					<trkpt lat="43.298960" lon="5.385370">
						<ele>36</ele>
						<time>2026-05-01T11:43:46Z</time>
					</trkpt>
					<trkpt lat="43.298920" lon="5.385190">
						<ele>35</ele>
						<time>2026-05-01T11:44:04Z</time>
					</trkpt>
					<trkpt lat="43.298630" lon="5.384170">
						<ele>31</ele>
						<time>2026-05-01T11:45:50Z</time>
					</trkpt>
					<trkpt lat="43.297820" lon="5.381830">
						<ele>27</ele>
						<time>2026-05-01T11:50:02Z</time>
					</trkpt>
					<trkpt lat="43.297450" lon="5.380930">
						<ele>24</ele>
						<time>2026-05-01T11:51:42Z</time>
					</trkpt>
					<trkpt lat="43.297110" lon="5.380180">
						<ele>25</ele>
						<time>2026-05-01T11:53:08Z</time>
					</trkpt>
					<trkpt lat="43.296360" lon="5.380300">
						<ele>27</ele>
						<time>2026-05-01T11:54:49Z</time>
					</trkpt>
					<trkpt lat="43.295940" lon="5.380090">
						<ele>25</ele>
						<time>2026-05-01T11:55:49Z</time>
					</trkpt>
					<trkpt lat="43.295270" lon="5.379680">
						<ele>23</ele>
						<time>2026-05-01T11:57:26Z</time>
					</trkpt>
					<trkpt lat="43.295530" lon="5.379260">
						<ele>23</ele>
						<time>2026-05-01T11:58:20Z</time>
					</trkpt>
					<trkpt lat="43.295880" lon="5.378660">
						<ele>22</ele>
						<time>2026-05-01T11:59:35Z</time>
					</trkpt>
					<trkpt lat="43.296000" lon="5.378560">
						<ele>21</ele>
						<time>2026-05-01T11:59:53Z</time>
					</trkpt>
					<trkpt lat="43.295890" lon="5.378200">
						<ele>20</ele>
						<time>2026-05-01T12:00:31Z</time>
					</trkpt>
					<trkpt lat="43.295780" lon="5.378110">
						<ele>20</ele>
						<time>2026-05-01T12:00:48Z</time>
					</trkpt>
					<trkpt lat="43.295510" lon="5.377220">
						<ele>19</ele>
						<time>2026-05-01T12:02:22Z</time>
					</trkpt>
					<trkpt lat="43.295370" lon="5.376810">
						<ele>17</ele>
						<time>2026-05-01T12:03:06Z</time>
					</trkpt>
					<trkpt lat="43.295140" lon="5.376070">
						<ele>13</ele>
						<time>2026-05-01T12:04:24Z</time>
					</trkpt>
					<trkpt lat="43.295080" lon="5.375900">
						<ele>12</ele>
						<time>2026-05-01T12:04:43Z</time>
					</trkpt>
					<trkpt lat="43.294830" lon="5.375780">
						<ele>13</ele>
						<time>2026-05-01T12:05:18Z</time>
					</trkpt>
					<trkpt lat="43.294500" lon="5.375810">
						<ele>14</ele>
						<time>2026-05-01T12:06:02Z</time>
					</trkpt>
					<trkpt lat="43.294370" lon="5.375500">
						<ele>14</ele>
						<time>2026-05-01T12:06:37Z</time>
					</trkpt>
					<trkpt lat="43.293910" lon="5.375610">
						<ele>15</ele>
						<time>2026-05-01T12:07:39Z</time>
					</trkpt>
					<trkpt lat="43.293730" lon="5.375000">
						<ele>13</ele>
						<time>2026-05-01T12:08:43Z</time>
					</trkpt>
					<trkpt lat="43.294400" lon="5.374680">
						<ele>11</ele>
						<time>2026-05-01T12:10:18Z</time>
					</trkpt>
					<trkpt lat="43.294610" lon="5.374650">
						<ele>10</ele>
						<time>2026-05-01T12:10:46Z</time>
					</trkpt>
					<trkpt lat="43.294570" lon="5.374110">
						<ele>5</ele>
						<time>2026-05-01T12:11:39Z</time>
					</trkpt>
					<trkpt lat="43.295760" lon="5.373990">
						<ele>5</ele>
						<time>2026-05-01T12:14:18Z</time>
					</trkpt>
					<trkpt lat="43.295820" lon="5.374410">
						<ele>7</ele>
						<time>2026-05-01T12:14:59Z</time>
					</trkpt>
					<trkpt lat="43.296100" lon="5.374310">
						<ele>9</ele>
						<time>2026-05-01T12:15:38Z</time>
					</trkpt>
					<trkpt lat="43.296220" lon="5.374860">
						<ele>10</ele>
						<time>2026-05-01T12:16:34Z</time>
					</trkpt>
					<trkpt lat="43.296530" lon="5.374630">
						<ele>11</ele>
						<time>2026-05-01T12:17:21Z</time>
					</trkpt>
					<trkpt lat="43.296640" lon="5.374510">
						<ele>12</ele>
						<time>2026-05-01T12:17:39Z</time>
					</trkpt>
					<trkpt lat="43.296730" lon="5.374590">
						<ele>12</ele>
						<time>2026-05-01T12:17:54Z</time>
					</trkpt>
					<trkpt lat="43.297020" lon="5.374340">
						<ele>13</ele>
						<time>2026-05-01T12:18:39Z</time>
					</trkpt>
					<trkpt lat="43.297210" lon="5.374800">
						<ele>14</ele>
						<time>2026-05-01T12:19:31Z</time>
					</trkpt>
					<trkpt lat="43.297040" lon="5.374310">
						<ele>14</ele>
						<time>2026-05-01T12:20:24Z</time>
					</trkpt>
					<trkpt lat="43.297310" lon="5.374130">
						<ele>15</ele>
						<time>2026-05-01T12:21:04Z</time>
					</trkpt>
					<trkpt lat="43.297700" lon="5.374130">
						<ele>17</ele>
						<time>2026-05-01T12:21:56Z</time>
					</trkpt>
					<trkpt lat="43.297730" lon="5.372960">
						<ele>20</ele>
						<time>2026-05-01T12:23:49Z</time>
					</trkpt>
					<trkpt lat="43.297700" lon="5.371890">
						<ele>17</ele>
						<time>2026-05-01T12:25:33Z</time>
					</trkpt>
					<trkpt lat="43.297700" lon="5.371490">
						<ele>15</ele>
						<time>2026-05-01T12:26:12Z</time>
					</trkpt>
					<trkpt lat="43.297720" lon="5.371180">
						<ele>14</ele>
						<time>2026-05-01T12:26:42Z</time>
					</trkpt>
					<trkpt lat="43.297700" lon="5.370680">
						<ele>13</ele>
						<time>2026-05-01T12:27:31Z</time>
					</trkpt>
					<trkpt lat="43.297660" lon="5.369970">
						<ele>15</ele>
						<time>2026-05-01T12:28:40Z</time>
					</trkpt>
					<trkpt lat="43.297470" lon="5.369900">
						<ele>13</ele>
						<time>2026-05-01T12:29:06Z</time>
					</trkpt>
					<trkpt lat="43.297070" lon="5.370040">
						<ele>9</ele>
						<time>2026-05-01T12:30:02Z</time>
					</trkpt>
					<trkpt lat="43.296850" lon="5.370140">
						<ele>8</ele>
						<time>2026-05-01T12:30:32Z</time>
					</trkpt>
					<trkpt lat="43.296300" lon="5.370270">
						<ele>4</ele>
						<time>2026-05-01T12:31:47Z</time>
					</trkpt>
					<trkpt lat="43.296180" lon="5.370050">
						<ele>4</ele>
						<time>2026-05-01T12:32:14Z</time>
					</trkpt>
					<trkpt lat="43.295980" lon="5.369840">
						<ele>3</ele>
						<time>2026-05-01T12:32:47Z</time>
					</trkpt>
					<trkpt lat="43.295950" lon="5.369570">
						<ele>2</ele>
						<time>2026-05-01T12:33:14Z</time>
					</trkpt>
					<trkpt lat="43.295900" lon="5.368990">
						<ele>2</ele>
						<time>2026-05-01T12:34:10Z</time>
					</trkpt>
					<trkpt lat="43.295800" lon="5.367970">
						<ele>4</ele>
						<time>2026-05-01T12:35:50Z</time>
					</trkpt>
					<trkpt lat="43.295650" lon="5.367040">
						<ele>5</ele>
						<time>2026-05-01T12:37:23Z</time>
					</trkpt>
					<trkpt lat="43.295480" lon="5.366250">
						<ele>4</ele>
						<time>2026-05-01T12:38:43Z</time>
					</trkpt>
					<trkpt lat="43.295350" lon="5.365550">
						<ele>4</ele>
						<time>2026-05-01T12:39:53Z</time>
					</trkpt>
					<trkpt lat="43.295210" lon="5.364890">
						<ele>4</ele>
						<time>2026-05-01T12:41:00Z</time>
					</trkpt>
					<trkpt lat="43.295190" lon="5.364530">
						<ele>5</ele>
						<time>2026-05-01T12:41:35Z</time>
					</trkpt>
					<trkpt lat="43.295180" lon="5.364340">
						<ele>5</ele>
						<time>2026-05-01T12:41:53Z</time>
					</trkpt>
					<trkpt lat="43.295070" lon="5.363780">
						<ele>6</ele>
						<time>2026-05-01T12:42:50Z</time>
					</trkpt>
					<trkpt lat="43.295050" lon="5.363600">
						<ele>7</ele>
						<time>2026-05-01T12:43:08Z</time>
					</trkpt>
					<trkpt lat="43.294960" lon="5.363400">
						<ele>7</ele>
						<time>2026-05-01T12:43:30Z</time>
					</trkpt>
					<trkpt lat="43.294870" lon="5.363160">
						<ele>7</ele>
						<time>2026-05-01T12:43:57Z</time>
					</trkpt>
					<trkpt lat="43.294630" lon="5.362970">
						<ele>5</ele>
						<time>2026-05-01T12:44:34Z</time>
					</trkpt>
					<trkpt lat="43.294600" lon="5.362760">
						<ele>5</ele>
						<time>2026-05-01T12:44:54Z</time>
					</trkpt>
					<trkpt lat="43.294680" lon="5.362700">
						<ele>6</ele>
						<time>2026-05-01T12:45:06Z</time>
					</trkpt>
					<trkpt lat="43.294710" lon="5.362350">
						<ele>6</ele>
						<time>2026-05-01T12:45:41Z</time>
					</trkpt>
					<trkpt lat="43.294780" lon="5.362090">
						<ele>6</ele>
						<time>2026-05-01T12:46:08Z</time>
					</trkpt>
					<trkpt lat="43.294880" lon="5.361950">
						<ele>7</ele>
						<time>2026-05-01T12:46:27Z</time>
					</trkpt>
					<trkpt lat="43.294960" lon="5.361930">
						<ele>8</ele>
						<time>2026-05-01T12:46:38Z</time>
					</trkpt>
					<trkpt lat="43.295140" lon="5.361460">
						<ele>7</ele>
						<time>2026-05-01T12:47:29Z</time>
					</trkpt>
					<trkpt lat="43.295520" lon="5.361170">
						<ele>6</ele>
						<time>2026-05-01T12:48:27Z</time>
					</trkpt>
					<trkpt lat="43.295580" lon="5.361020">
						<ele>5</ele>
						<time>2026-05-01T12:48:44Z</time>
					</trkpt>
					<trkpt lat="43.295720" lon="5.361000">
						<ele>6</ele>
						<time>2026-05-01T12:49:03Z</time>
					</trkpt>
					<trkpt lat="43.295800" lon="5.361130">
						<ele>7</ele>
						<time>2026-05-01T12:49:19Z</time>
					</trkpt>
					<trkpt lat="43.296080" lon="5.361240">
						<ele>6</ele>
						<time>2026-05-01T12:49:58Z</time>
					</trkpt>
					<trkpt lat="43.296020" lon="5.361550">
						<ele>8</ele>
						<time>2026-05-01T12:50:29Z</time>
					</trkpt>
					<trkpt lat="43.296380" lon="5.362350">
						<ele>8</ele>
						<time>2026-05-01T12:52:00Z</time>
					</trkpt>
					<trkpt lat="43.296490" lon="5.362420">
						<ele>7</ele>
						<time>2026-05-01T12:52:17Z</time>
					</trkpt>
					<trkpt lat="43.296800" lon="5.362600">
						<ele>7</ele>
						<time>2026-05-01T12:53:02Z</time>
					</trkpt>
					<trkpt lat="43.297260" lon="5.362700">
						<ele>5</ele>
						<time>2026-05-01T12:54:04Z</time>
					</trkpt>
					<trkpt lat="43.297760" lon="5.362800">
						<ele>3</ele>
						<time>2026-05-01T12:55:11Z</time>
					</trkpt>
					<trkpt lat="43.298060" lon="5.362660">
						<ele>1</ele>
						<time>2026-05-01T12:55:53Z</time>
					</trkpt>
					</trkseg>
				</trk>
			</gpx>