<?xml version="1.0" encoding="UTF-8"?>
<gpx xmlns="http://www.topografix.com/GPX/1/1" xmlns:xsi="http://www.w3.org/2001/XMLSchema-instance" version="1.1" creator="phpGPX/1.3.0" xsi:schemaLocation="http://www.topografix.com/GPX/1/1 http://www.topografix.com/GPX/1/1/gpx.xsd">
  <metadata>
    <time>2026-05-14T12:51:14+00:00</time>
  </metadata>
  <trk>
    <name>Monte Callerucciu - Castagniccia</name>
    <trkseg>
      <trkpt lat="42.3664" lon="9.35782">
        <ele>629</ele>
        <time>2026-05-14T12:51:15+00:00</time>
      </trkpt>
      <trkpt lat="42.36658" lon="9.35794">
        <ele>624</ele>
        <time>2026-05-14T12:51:16+00:00</time>
      </trkpt>
      <trkpt lat="42.36649" lon="9.35803">
        <ele>624</ele>
        <time>2026-05-14T12:51:17+00:00</time>
      </trkpt>
      <trkpt lat="42.36659" lon="9.35806">
        <ele>622</ele>
        <time>2026-05-14T12:51:18+00:00</time>
      </trkpt>
      <trkpt lat="42.36681" lon="9.35798">
        <ele>622</ele>
        <time>2026-05-14T12:51:19+00:00</time>
      </trkpt>
      <trkpt lat="42.36698" lon="9.35812">
        <ele>620</ele>
        <time>2026-05-14T12:51:20+00:00</time>
      </trkpt>
      <trkpt lat="42.36698" lon="9.35823">
        <ele>617</ele>
        <time>2026-05-14T12:51:21+00:00</time>
      </trkpt>
      <trkpt lat="42.36687" lon="9.35831">
        <ele>615</ele>
        <time>2026-05-14T12:51:22+00:00</time>
      </trkpt>
      <trkpt lat="42.36706" lon="9.35826">
        <ele>617</ele>
        <time>2026-05-14T12:51:23+00:00</time>
      </trkpt>
      <trkpt lat="42.36721" lon="9.35835">
        <ele>615</ele>
        <time>2026-05-14T12:51:24+00:00</time>
      </trkpt>
      <trkpt lat="42.3675" lon="9.35859">
        <ele>611</ele>
        <time>2026-05-14T12:51:25+00:00</time>
      </trkpt>
      <trkpt lat="42.36789" lon="9.35911">
        <ele>607</ele>
        <time>2026-05-14T12:51:26+00:00</time>
      </trkpt>
      <trkpt lat="42.36797" lon="9.35938">
        <ele>606</ele>
        <time>2026-05-14T12:51:27+00:00</time>
      </trkpt>
      <trkpt lat="42.3681" lon="9.35901">
        <ele>611</ele>
        <time>2026-05-14T12:51:28+00:00</time>
      </trkpt>
      <trkpt lat="42.36819" lon="9.35862">
        <ele>616</ele>
        <time>2026-05-14T12:51:29+00:00</time>
      </trkpt>
      <trkpt lat="42.36828" lon="9.35787">
        <ele>620</ele>
        <time>2026-05-14T12:51:30+00:00</time>
      </trkpt>
      <trkpt lat="42.36839" lon="9.3583">
        <ele>616</ele>
        <time>2026-05-14T12:51:31+00:00</time>
      </trkpt>
      <trkpt lat="42.36851" lon="9.35908">
        <ele>605</ele>
        <time>2026-05-14T12:51:32+00:00</time>
      </trkpt>
      <trkpt lat="42.36852" lon="9.36045">
        <ele>598</ele>
        <time>2026-05-14T12:51:33+00:00</time>
      </trkpt>
      <trkpt lat="42.3687" lon="9.36131">
        <ele>587</ele>
        <time>2026-05-14T12:51:34+00:00</time>
      </trkpt>
      <trkpt lat="42.36894" lon="9.36168">
        <ele>581</ele>
        <time>2026-05-14T12:51:35+00:00</time>
      </trkpt>
      <trkpt lat="42.36883" lon="9.36182">
        <ele>580</ele>
        <time>2026-05-14T12:51:36+00:00</time>
      </trkpt>
      <trkpt lat="42.36878" lon="9.36195">
        <ele>578</ele>
        <time>2026-05-14T12:51:37+00:00</time>
      </trkpt>
      <trkpt lat="42.36881" lon="9.3621">
        <ele>576</ele>
        <time>2026-05-14T12:51:38+00:00</time>
      </trkpt>
      <trkpt lat="42.36893" lon="9.36214">
        <ele>575</ele>
        <time>2026-05-14T12:51:39+00:00</time>
      </trkpt>
      <trkpt lat="42.36928" lon="9.36214">
        <ele>572</ele>
        <time>2026-05-14T12:51:40+00:00</time>
      </trkpt>
      <trkpt lat="42.36972" lon="9.36263">
        <ele>561</ele>
        <time>2026-05-14T12:51:41+00:00</time>
      </trkpt>
      <trkpt lat="42.36985" lon="9.3627">
        <ele>558</ele>
        <time>2026-05-14T12:51:42+00:00</time>
      </trkpt>
      <trkpt lat="42.36992" lon="9.36256">
        <ele>559</ele>
        <time>2026-05-14T12:51:43+00:00</time>
      </trkpt>
      <trkpt lat="42.36984" lon="9.36221">
        <ele>559</ele>
        <time>2026-05-14T12:51:44+00:00</time>
      </trkpt>
      <trkpt lat="42.36967" lon="9.36186">
        <ele>562</ele>
        <time>2026-05-14T12:51:45+00:00</time>
      </trkpt>
      <trkpt lat="42.36962" lon="9.36163">
        <ele>563</ele>
        <time>2026-05-14T12:51:46+00:00</time>
      </trkpt>
      <trkpt lat="42.36961" lon="9.36131">
        <ele>562</ele>
        <time>2026-05-14T12:51:47+00:00</time>
      </trkpt>
      <trkpt lat="42.3695" lon="9.36063">
        <ele>564</ele>
        <time>2026-05-14T12:51:48+00:00</time>
      </trkpt>
      <trkpt lat="42.36961" lon="9.36042">
        <ele>560</ele>
        <time>2026-05-14T12:51:49+00:00</time>
      </trkpt>
      <trkpt lat="42.36975" lon="9.36036">
        <ele>556</ele>
        <time>2026-05-14T12:51:50+00:00</time>
      </trkpt>
      <trkpt lat="42.36992" lon="9.36049">
        <ele>550</ele>
        <time>2026-05-14T12:51:51+00:00</time>
      </trkpt>
      <trkpt lat="42.36999" lon="9.36066">
        <ele>547</ele>
        <time>2026-05-14T12:51:52+00:00</time>
      </trkpt>
      <trkpt lat="42.37019" lon="9.36101">
        <ele>549</ele>
        <time>2026-05-14T12:51:53+00:00</time>
      </trkpt>
      <trkpt lat="42.37034" lon="9.3611">
        <ele>551</ele>
        <time>2026-05-14T12:51:54+00:00</time>
      </trkpt>
      <trkpt lat="42.37052" lon="9.36129">
        <ele>552</ele>
        <time>2026-05-14T12:51:55+00:00</time>
      </trkpt>
      <trkpt lat="42.3707" lon="9.36135">
        <ele>553</ele>
        <time>2026-05-14T12:51:56+00:00</time>
      </trkpt>
      <trkpt lat="42.37082" lon="9.36146">
        <ele>551</ele>
        <time>2026-05-14T12:51:57+00:00</time>
      </trkpt>
      <trkpt lat="42.37123" lon="9.36175">
        <ele>557</ele>
        <time>2026-05-14T12:51:58+00:00</time>
      </trkpt>
      <trkpt lat="42.37138" lon="9.3619">
        <ele>558</ele>
        <time>2026-05-14T12:51:59+00:00</time>
      </trkpt>
      <trkpt lat="42.37179" lon="9.36212">
        <ele>558</ele>
        <time>2026-05-14T12:52:00+00:00</time>
      </trkpt>
      <trkpt lat="42.37197" lon="9.36218">
        <ele>557</ele>
        <time>2026-05-14T12:52:01+00:00</time>
      </trkpt>
      <trkpt lat="42.3726" lon="9.3619">
        <ele>572</ele>
        <time>2026-05-14T12:52:02+00:00</time>
      </trkpt>
      <trkpt lat="42.37284" lon="9.36176">
        <ele>576</ele>
        <time>2026-05-14T12:52:03+00:00</time>
      </trkpt>
      <trkpt lat="42.37317" lon="9.36163">
        <ele>578</ele>
        <time>2026-05-14T12:52:04+00:00</time>
      </trkpt>
      <trkpt lat="42.37349" lon="9.36155">
        <ele>584</ele>
        <time>2026-05-14T12:52:05+00:00</time>
      </trkpt>
      <trkpt lat="42.37383" lon="9.36155">
        <ele>592</ele>
        <time>2026-05-14T12:52:06+00:00</time>
      </trkpt>
      <trkpt lat="42.37392" lon="9.36164">
        <ele>591</ele>
        <time>2026-05-14T12:52:07+00:00</time>
      </trkpt>
      <trkpt lat="42.37387" lon="9.36171">
        <ele>589</ele>
        <time>2026-05-14T12:52:08+00:00</time>
      </trkpt>
      <trkpt lat="42.37383" lon="9.36184">
        <ele>588</ele>
        <time>2026-05-14T12:52:09+00:00</time>
      </trkpt>
      <trkpt lat="42.37398" lon="9.36181">
        <ele>592</ele>
        <time>2026-05-14T12:52:10+00:00</time>
      </trkpt>
      <trkpt lat="42.37387" lon="9.36244">
        <ele>592</ele>
        <time>2026-05-14T12:52:11+00:00</time>
      </trkpt>
      <trkpt lat="42.37391" lon="9.36264">
        <ele>597</ele>
        <time>2026-05-14T12:52:12+00:00</time>
      </trkpt>
      <trkpt lat="42.37389" lon="9.36281">
        <ele>599</ele>
        <time>2026-05-14T12:52:13+00:00</time>
      </trkpt>
      <trkpt lat="42.3737" lon="9.36322">
        <ele>599</ele>
        <time>2026-05-14T12:52:14+00:00</time>
      </trkpt>
      <trkpt lat="42.37364" lon="9.36341">
        <ele>598</ele>
        <time>2026-05-14T12:52:15+00:00</time>
      </trkpt>
      <trkpt lat="42.37366" lon="9.36365">
        <ele>599</ele>
        <time>2026-05-14T12:52:16+00:00</time>
      </trkpt>
      <trkpt lat="42.37392" lon="9.36429">
        <ele>610</ele>
        <time>2026-05-14T12:52:17+00:00</time>
      </trkpt>
      <trkpt lat="42.37414" lon="9.36461">
        <ele>616</ele>
        <time>2026-05-14T12:52:18+00:00</time>
      </trkpt>
      <trkpt lat="42.37426" lon="9.36496">
        <ele>619</ele>
        <time>2026-05-14T12:52:19+00:00</time>
      </trkpt>
      <trkpt lat="42.37436" lon="9.36538">
        <ele>623</ele>
        <time>2026-05-14T12:52:20+00:00</time>
      </trkpt>
      <trkpt lat="42.37426" lon="9.36619">
        <ele>615</ele>
        <time>2026-05-14T12:52:21+00:00</time>
      </trkpt>
      <trkpt lat="42.37433" lon="9.36638">
        <ele>619</ele>
        <time>2026-05-14T12:52:22+00:00</time>
      </trkpt>
      <trkpt lat="42.37439" lon="9.36645">
        <ele>622</ele>
        <time>2026-05-14T12:52:23+00:00</time>
      </trkpt>
      <trkpt lat="42.37447" lon="9.36664">
        <ele>626</ele>
        <time>2026-05-14T12:52:24+00:00</time>
      </trkpt>
      <trkpt lat="42.37445" lon="9.36684">
        <ele>625</ele>
        <time>2026-05-14T12:52:25+00:00</time>
      </trkpt>
      <trkpt lat="42.37458" lon="9.36734">
        <ele>629</ele>
        <time>2026-05-14T12:52:26+00:00</time>
      </trkpt>
      <trkpt lat="42.37461" lon="9.36782">
        <ele>624</ele>
        <time>2026-05-14T12:52:27+00:00</time>
      </trkpt>
      <trkpt lat="42.37474" lon="9.36793">
        <ele>624</ele>
        <time>2026-05-14T12:52:28+00:00</time>
      </trkpt>
      <trkpt lat="42.37481" lon="9.36784">
        <ele>626</ele>
        <time>2026-05-14T12:52:29+00:00</time>
      </trkpt>
      <trkpt lat="42.3747" lon="9.36769">
        <ele>628</ele>
        <time>2026-05-14T12:52:30+00:00</time>
      </trkpt>
      <trkpt lat="42.3748" lon="9.36758">
        <ele>631</ele>
        <time>2026-05-14T12:52:31+00:00</time>
      </trkpt>
      <trkpt lat="42.37488" lon="9.36743">
        <ele>636</ele>
        <time>2026-05-14T12:52:32+00:00</time>
      </trkpt>
      <trkpt lat="42.375" lon="9.36737">
        <ele>640</ele>
        <time>2026-05-14T12:52:33+00:00</time>
      </trkpt>
      <trkpt lat="42.37509" lon="9.36727">
        <ele>643</ele>
        <time>2026-05-14T12:52:34+00:00</time>
      </trkpt>
      <trkpt lat="42.3752" lon="9.36705">
        <ele>649</ele>
        <time>2026-05-14T12:52:35+00:00</time>
      </trkpt>
      <trkpt lat="42.37534" lon="9.36685">
        <ele>656</ele>
        <time>2026-05-14T12:52:36+00:00</time>
      </trkpt>
      <trkpt lat="42.37539" lon="9.36669">
        <ele>661</ele>
        <time>2026-05-14T12:52:37+00:00</time>
      </trkpt>
      <trkpt lat="42.37598" lon="9.36677">
        <ele>666</ele>
        <time>2026-05-14T12:52:38+00:00</time>
      </trkpt>
      <trkpt lat="42.37617" lon="9.3667">
        <ele>665</ele>
        <time>2026-05-14T12:52:39+00:00</time>
      </trkpt>
      <trkpt lat="42.37628" lon="9.36654">
        <ele>668</ele>
        <time>2026-05-14T12:52:40+00:00</time>
      </trkpt>
      <trkpt lat="42.37652" lon="9.36599">
        <ele>684</ele>
        <time>2026-05-14T12:52:41+00:00</time>
      </trkpt>
      <trkpt lat="42.37658" lon="9.36565">
        <ele>695</ele>
        <time>2026-05-14T12:52:42+00:00</time>
      </trkpt>
      <trkpt lat="42.37668" lon="9.36546">
        <ele>700</ele>
        <time>2026-05-14T12:52:43+00:00</time>
      </trkpt>
      <trkpt lat="42.37678" lon="9.36517">
        <ele>707</ele>
        <time>2026-05-14T12:52:44+00:00</time>
      </trkpt>
      <trkpt lat="42.3769" lon="9.365">
        <ele>710</ele>
        <time>2026-05-14T12:52:45+00:00</time>
      </trkpt>
      <trkpt lat="42.37749" lon="9.3644">
        <ele>716</ele>
        <time>2026-05-14T12:52:46+00:00</time>
      </trkpt>
      <trkpt lat="42.37805" lon="9.36404">
        <ele>728</ele>
        <time>2026-05-14T12:52:47+00:00</time>
      </trkpt>
      <trkpt lat="42.37836" lon="9.36397">
        <ele>730</ele>
        <time>2026-05-14T12:52:48+00:00</time>
      </trkpt>
      <trkpt lat="42.37854" lon="9.364">
        <ele>730</ele>
        <time>2026-05-14T12:52:49+00:00</time>
      </trkpt>
      <trkpt lat="42.37873" lon="9.36407">
        <ele>729</ele>
        <time>2026-05-14T12:52:50+00:00</time>
      </trkpt>
      <trkpt lat="42.37903" lon="9.36409">
        <ele>730</ele>
        <time>2026-05-14T12:52:51+00:00</time>
      </trkpt>
      <trkpt lat="42.37916" lon="9.36398">
        <ele>733</ele>
        <time>2026-05-14T12:52:52+00:00</time>
      </trkpt>
      <trkpt lat="42.3793" lon="9.36378">
        <ele>735</ele>
        <time>2026-05-14T12:52:53+00:00</time>
      </trkpt>
      <trkpt lat="42.37961" lon="9.36318">
        <ele>740</ele>
        <time>2026-05-14T12:52:54+00:00</time>
      </trkpt>
      <trkpt lat="42.37975" lon="9.36283">
        <ele>747</ele>
        <time>2026-05-14T12:52:55+00:00</time>
      </trkpt>
      <trkpt lat="42.37991" lon="9.36274">
        <ele>746</ele>
        <time>2026-05-14T12:52:56+00:00</time>
      </trkpt>
      <trkpt lat="42.38019" lon="9.36269">
        <ele>743</ele>
        <time>2026-05-14T12:52:57+00:00</time>
      </trkpt>
      <trkpt lat="42.38037" lon="9.36262">
        <ele>743</ele>
        <time>2026-05-14T12:52:58+00:00</time>
      </trkpt>
      <trkpt lat="42.38056" lon="9.36269">
        <ele>739</ele>
        <time>2026-05-14T12:52:59+00:00</time>
      </trkpt>
      <trkpt lat="42.38059" lon="9.36252">
        <ele>743</ele>
        <time>2026-05-14T12:53:00+00:00</time>
      </trkpt>
      <trkpt lat="42.3806" lon="9.36218">
        <ele>749</ele>
        <time>2026-05-14T12:53:01+00:00</time>
      </trkpt>
      <trkpt lat="42.38069" lon="9.362">
        <ele>751</ele>
        <time>2026-05-14T12:53:02+00:00</time>
      </trkpt>
      <trkpt lat="42.38046" lon="9.36096">
        <ele>768</ele>
        <time>2026-05-14T12:53:03+00:00</time>
      </trkpt>
      <trkpt lat="42.38043" lon="9.36072">
        <ele>771</ele>
        <time>2026-05-14T12:53:04+00:00</time>
      </trkpt>
      <trkpt lat="42.38031" lon="9.36024">
        <ele>779</ele>
        <time>2026-05-14T12:53:05+00:00</time>
      </trkpt>
      <trkpt lat="42.38021" lon="9.35996">
        <ele>785</ele>
        <time>2026-05-14T12:53:06+00:00</time>
      </trkpt>
      <trkpt lat="42.38009" lon="9.35978">
        <ele>791</ele>
        <time>2026-05-14T12:53:07+00:00</time>
      </trkpt>
      <trkpt lat="42.38004" lon="9.35959">
        <ele>793</ele>
        <time>2026-05-14T12:53:08+00:00</time>
      </trkpt>
      <trkpt lat="42.38004" lon="9.35934">
        <ele>792</ele>
        <time>2026-05-14T12:53:09+00:00</time>
      </trkpt>
      <trkpt lat="42.38008" lon="9.35904">
        <ele>789</ele>
        <time>2026-05-14T12:53:10+00:00</time>
      </trkpt>
      <trkpt lat="42.37997" lon="9.35865">
        <ele>792</ele>
        <time>2026-05-14T12:53:11+00:00</time>
      </trkpt>
      <trkpt lat="42.37971" lon="9.35799">
        <ele>798</ele>
        <time>2026-05-14T12:53:12+00:00</time>
      </trkpt>
      <trkpt lat="42.37954" lon="9.35769">
        <ele>802</ele>
        <time>2026-05-14T12:53:13+00:00</time>
      </trkpt>
      <trkpt lat="42.37934" lon="9.35702">
        <ele>806</ele>
        <time>2026-05-14T12:53:14+00:00</time>
      </trkpt>
      <trkpt lat="42.37932" lon="9.35666">
        <ele>805</ele>
        <time>2026-05-14T12:53:15+00:00</time>
      </trkpt>
      <trkpt lat="42.37934" lon="9.35602">
        <ele>805</ele>
        <time>2026-05-14T12:53:16+00:00</time>
      </trkpt>
      <trkpt lat="42.37921" lon="9.35528">
        <ele>810</ele>
        <time>2026-05-14T12:53:17+00:00</time>
      </trkpt>
      <trkpt lat="42.37924" lon="9.35497">
        <ele>808</ele>
        <time>2026-05-14T12:53:18+00:00</time>
      </trkpt>
      <trkpt lat="42.37921" lon="9.35417">
        <ele>809</ele>
        <time>2026-05-14T12:53:19+00:00</time>
      </trkpt>
      <trkpt lat="42.37917" lon="9.35389">
        <ele>810</ele>
        <time>2026-05-14T12:53:20+00:00</time>
      </trkpt>
      <trkpt lat="42.37919" lon="9.35366">
        <ele>809</ele>
        <time>2026-05-14T12:53:21+00:00</time>
      </trkpt>
      <trkpt lat="42.37911" lon="9.35339">
        <ele>809</ele>
        <time>2026-05-14T12:53:22+00:00</time>
      </trkpt>
      <trkpt lat="42.37901" lon="9.35322">
        <ele>808</ele>
        <time>2026-05-14T12:53:23+00:00</time>
      </trkpt>
      <trkpt lat="42.37892" lon="9.35288">
        <ele>810</ele>
        <time>2026-05-14T12:53:24+00:00</time>
      </trkpt>
      <trkpt lat="42.37883" lon="9.35239">
        <ele>814</ele>
        <time>2026-05-14T12:53:25+00:00</time>
      </trkpt>
      <trkpt lat="42.37869" lon="9.35198">
        <ele>818</ele>
        <time>2026-05-14T12:53:26+00:00</time>
      </trkpt>
      <trkpt lat="42.37852" lon="9.35153">
        <ele>822</ele>
        <time>2026-05-14T12:53:27+00:00</time>
      </trkpt>
      <trkpt lat="42.37838" lon="9.35131">
        <ele>823</ele>
        <time>2026-05-14T12:53:28+00:00</time>
      </trkpt>
      <trkpt lat="42.37838" lon="9.35088">
        <ele>832</ele>
        <time>2026-05-14T12:53:29+00:00</time>
      </trkpt>
      <trkpt lat="42.37821" lon="9.35036">
        <ele>843</ele>
        <time>2026-05-14T12:53:30+00:00</time>
      </trkpt>
      <trkpt lat="42.37804" lon="9.35004">
        <ele>846</ele>
        <time>2026-05-14T12:53:31+00:00</time>
      </trkpt>
      <trkpt lat="42.37763" lon="9.34972">
        <ele>842</ele>
        <time>2026-05-14T12:53:32+00:00</time>
      </trkpt>
      <trkpt lat="42.37746" lon="9.34946">
        <ele>846</ele>
        <time>2026-05-14T12:53:33+00:00</time>
      </trkpt>
      <trkpt lat="42.37732" lon="9.34917">
        <ele>849</ele>
        <time>2026-05-14T12:53:34+00:00</time>
      </trkpt>
      <trkpt lat="42.37722" lon="9.34874">
        <ele>857</ele>
        <time>2026-05-14T12:53:35+00:00</time>
      </trkpt>
      <trkpt lat="42.37714" lon="9.34857">
        <ele>857</ele>
        <time>2026-05-14T12:53:36+00:00</time>
      </trkpt>
      <trkpt lat="42.37706" lon="9.34831">
        <ele>859</ele>
        <time>2026-05-14T12:53:37+00:00</time>
      </trkpt>
      <trkpt lat="42.37706" lon="9.34801">
        <ele>864</ele>
        <time>2026-05-14T12:53:38+00:00</time>
      </trkpt>
      <trkpt lat="42.37699" lon="9.34777">
        <ele>865</ele>
        <time>2026-05-14T12:53:39+00:00</time>
      </trkpt>
      <trkpt lat="42.37697" lon="9.34745">
        <ele>869</ele>
        <time>2026-05-14T12:53:40+00:00</time>
      </trkpt>
      <trkpt lat="42.37686" lon="9.34731">
        <ele>864</ele>
        <time>2026-05-14T12:53:41+00:00</time>
      </trkpt>
      <trkpt lat="42.37673" lon="9.34726">
        <ele>859</ele>
        <time>2026-05-14T12:53:42+00:00</time>
      </trkpt>
      <trkpt lat="42.37637" lon="9.34723">
        <ele>849</ele>
        <time>2026-05-14T12:53:43+00:00</time>
      </trkpt>
      <trkpt lat="42.37637" lon="9.34687">
        <ele>852</ele>
        <time>2026-05-14T12:53:44+00:00</time>
      </trkpt>
      <trkpt lat="42.37641" lon="9.34648">
        <ele>850</ele>
        <time>2026-05-14T12:53:45+00:00</time>
      </trkpt>
      <trkpt lat="42.3765" lon="9.34631">
        <ele>849</ele>
        <time>2026-05-14T12:53:46+00:00</time>
      </trkpt>
      <trkpt lat="42.37662" lon="9.34615">
        <ele>849</ele>
        <time>2026-05-14T12:53:47+00:00</time>
      </trkpt>
      <trkpt lat="42.37679" lon="9.34604">
        <ele>852</ele>
        <time>2026-05-14T12:53:48+00:00</time>
      </trkpt>
      <trkpt lat="42.37716" lon="9.34592">
        <ele>861</ele>
        <time>2026-05-14T12:53:49+00:00</time>
      </trkpt>
      <trkpt lat="42.37741" lon="9.34571">
        <ele>867</ele>
        <time>2026-05-14T12:53:50+00:00</time>
      </trkpt>
      <trkpt lat="42.37752" lon="9.34556">
        <ele>870</ele>
        <time>2026-05-14T12:53:51+00:00</time>
      </trkpt>
      <trkpt lat="42.3776" lon="9.34535">
        <ele>873</ele>
        <time>2026-05-14T12:53:52+00:00</time>
      </trkpt>
      <trkpt lat="42.37779" lon="9.34418">
        <ele>886</ele>
        <time>2026-05-14T12:53:53+00:00</time>
      </trkpt>
      <trkpt lat="42.37793" lon="9.34374">
        <ele>894</ele>
        <time>2026-05-14T12:53:54+00:00</time>
      </trkpt>
      <trkpt lat="42.3781" lon="9.34289">
        <ele>908</ele>
        <time>2026-05-14T12:53:55+00:00</time>
      </trkpt>
      <trkpt lat="42.37818" lon="9.34198">
        <ele>923</ele>
        <time>2026-05-14T12:53:56+00:00</time>
      </trkpt>
      <trkpt lat="42.37817" lon="9.34174">
        <ele>925</ele>
        <time>2026-05-14T12:53:57+00:00</time>
      </trkpt>
      <trkpt lat="42.3781" lon="9.34139">
        <ele>929</ele>
        <time>2026-05-14T12:53:58+00:00</time>
      </trkpt>
      <trkpt lat="42.37802" lon="9.34125">
        <ele>929</ele>
        <time>2026-05-14T12:53:59+00:00</time>
      </trkpt>
      <trkpt lat="42.3781" lon="9.34123">
        <ele>933</ele>
        <time>2026-05-14T12:54:00+00:00</time>
      </trkpt>
      <trkpt lat="42.37817" lon="9.34118">
        <ele>938</ele>
        <time>2026-05-14T12:54:01+00:00</time>
      </trkpt>
      <trkpt lat="42.3781" lon="9.34102">
        <ele>939</ele>
        <time>2026-05-14T12:54:02+00:00</time>
      </trkpt>
      <trkpt lat="42.378" lon="9.34055">
        <ele>947</ele>
        <time>2026-05-14T12:54:03+00:00</time>
      </trkpt>
      <trkpt lat="42.37771" lon="9.34011">
        <ele>944</ele>
        <time>2026-05-14T12:54:04+00:00</time>
      </trkpt>
      <trkpt lat="42.37768" lon="9.33977">
        <ele>944</ele>
        <time>2026-05-14T12:54:05+00:00</time>
      </trkpt>
      <trkpt lat="42.37773" lon="9.33957">
        <ele>948</ele>
        <time>2026-05-14T12:54:06+00:00</time>
      </trkpt>
      <trkpt lat="42.37783" lon="9.33937">
        <ele>955</ele>
        <time>2026-05-14T12:54:07+00:00</time>
      </trkpt>
      <trkpt lat="42.37798" lon="9.33917">
        <ele>968</ele>
        <time>2026-05-14T12:54:08+00:00</time>
      </trkpt>
      <trkpt lat="42.37797" lon="9.33896">
        <ele>964</ele>
        <time>2026-05-14T12:54:09+00:00</time>
      </trkpt>
      <trkpt lat="42.37785" lon="9.33855">
        <ele>949</ele>
        <time>2026-05-14T12:54:10+00:00</time>
      </trkpt>
      <trkpt lat="42.37778" lon="9.33839">
        <ele>941</ele>
        <time>2026-05-14T12:54:11+00:00</time>
      </trkpt>
      <trkpt lat="42.37797" lon="9.33814">
        <ele>950</ele>
        <time>2026-05-14T12:54:12+00:00</time>
      </trkpt>
      <trkpt lat="42.3782" lon="9.33809">
        <ele>964</ele>
        <time>2026-05-14T12:54:13+00:00</time>
      </trkpt>
      <trkpt lat="42.37833" lon="9.33797">
        <ele>969</ele>
        <time>2026-05-14T12:54:14+00:00</time>
      </trkpt>
      <trkpt lat="42.37852" lon="9.33766">
        <ele>974</ele>
        <time>2026-05-14T12:54:15+00:00</time>
      </trkpt>
      <trkpt lat="42.37894" lon="9.33712">
        <ele>989</ele>
        <time>2026-05-14T12:54:16+00:00</time>
      </trkpt>
      <trkpt lat="42.379" lon="9.33694">
        <ele>988</ele>
        <time>2026-05-14T12:54:17+00:00</time>
      </trkpt>
      <trkpt lat="42.37911" lon="9.33676">
        <ele>990</ele>
        <time>2026-05-14T12:54:18+00:00</time>
      </trkpt>
      <trkpt lat="42.37915" lon="9.33698">
        <ele>998</ele>
        <time>2026-05-14T12:54:19+00:00</time>
      </trkpt>
      <trkpt lat="42.37931" lon="9.33674">
        <ele>1001</ele>
        <time>2026-05-14T12:54:20+00:00</time>
      </trkpt>
      <trkpt lat="42.37946" lon="9.33663">
        <ele>1009</ele>
        <time>2026-05-14T12:54:21+00:00</time>
      </trkpt>
      <trkpt lat="42.37956" lon="9.33649">
        <ele>1017</ele>
        <time>2026-05-14T12:54:22+00:00</time>
      </trkpt>
      <trkpt lat="42.37964" lon="9.33628">
        <ele>1025</ele>
        <time>2026-05-14T12:54:23+00:00</time>
      </trkpt>
      <trkpt lat="42.37968" lon="9.33601">
        <ele>1031</ele>
        <time>2026-05-14T12:54:24+00:00</time>
      </trkpt>
      <trkpt lat="42.3797" lon="9.33531">
        <ele>1047</ele>
        <time>2026-05-14T12:54:25+00:00</time>
      </trkpt>
      <trkpt lat="42.37963" lon="9.33495">
        <ele>1049</ele>
        <time>2026-05-14T12:54:26+00:00</time>
      </trkpt>
      <trkpt lat="42.37955" lon="9.33405">
        <ele>1054</ele>
        <time>2026-05-14T12:54:27+00:00</time>
      </trkpt>
      <trkpt lat="42.37965" lon="9.33403">
        <ele>1061</ele>
        <time>2026-05-14T12:54:28+00:00</time>
      </trkpt>
      <trkpt lat="42.37975" lon="9.33395">
        <ele>1068</ele>
        <time>2026-05-14T12:54:29+00:00</time>
      </trkpt>
      <trkpt lat="42.37974" lon="9.33366">
        <ele>1068</ele>
        <time>2026-05-14T12:54:30+00:00</time>
      </trkpt>
      <trkpt lat="42.37981" lon="9.33357">
        <ele>1073</ele>
        <time>2026-05-14T12:54:31+00:00</time>
      </trkpt>
      <trkpt lat="42.37985" lon="9.33346">
        <ele>1076</ele>
        <time>2026-05-14T12:54:32+00:00</time>
      </trkpt>
      <trkpt lat="42.37988" lon="9.33324">
        <ele>1079</ele>
        <time>2026-05-14T12:54:33+00:00</time>
      </trkpt>
      <trkpt lat="42.37998" lon="9.3332">
        <ele>1086</ele>
        <time>2026-05-14T12:54:34+00:00</time>
      </trkpt>
      <trkpt lat="42.38005" lon="9.33304">
        <ele>1094</ele>
        <time>2026-05-14T12:54:35+00:00</time>
      </trkpt>
      <trkpt lat="42.38004" lon="9.33285">
        <ele>1096</ele>
        <time>2026-05-14T12:54:36+00:00</time>
      </trkpt>
      <trkpt lat="42.38015" lon="9.33285">
        <ele>1104</ele>
        <time>2026-05-14T12:54:37+00:00</time>
      </trkpt>
      <trkpt lat="42.38013" lon="9.33267">
        <ele>1105</ele>
        <time>2026-05-14T12:54:38+00:00</time>
      </trkpt>
      <trkpt lat="42.38015" lon="9.33252">
        <ele>1109</ele>
        <time>2026-05-14T12:54:39+00:00</time>
      </trkpt>
      <trkpt lat="42.38011" lon="9.33228">
        <ele>1110</ele>
        <time>2026-05-14T12:54:40+00:00</time>
      </trkpt>
      <trkpt lat="42.38013" lon="9.33192">
        <ele>1117</ele>
        <time>2026-05-14T12:54:41+00:00</time>
      </trkpt>
      <trkpt lat="42.38019" lon="9.3318">
        <ele>1122</ele>
        <time>2026-05-14T12:54:42+00:00</time>
      </trkpt>
      <trkpt lat="42.38026" lon="9.33173">
        <ele>1127</ele>
        <time>2026-05-14T12:54:43+00:00</time>
      </trkpt>
      <trkpt lat="42.38031" lon="9.33151">
        <ele>1133</ele>
        <time>2026-05-14T12:54:44+00:00</time>
      </trkpt>
      <trkpt lat="42.38039" lon="9.33156">
        <ele>1137</ele>
        <time>2026-05-14T12:54:45+00:00</time>
      </trkpt>
      <trkpt lat="42.38039" lon="9.33137">
        <ele>1139</ele>
        <time>2026-05-14T12:54:46+00:00</time>
      </trkpt>
      <trkpt lat="42.38043" lon="9.33125">
        <ele>1143</ele>
        <time>2026-05-14T12:54:47+00:00</time>
      </trkpt>
      <trkpt lat="42.38054" lon="9.33129">
        <ele>1149</ele>
        <time>2026-05-14T12:54:48+00:00</time>
      </trkpt>
      <trkpt lat="42.38056" lon="9.3311">
        <ele>1152</ele>
        <time>2026-05-14T12:54:49+00:00</time>
      </trkpt>
      <trkpt lat="42.38052" lon="9.33092">
        <ele>1151</ele>
        <time>2026-05-14T12:54:50+00:00</time>
      </trkpt>
      <trkpt lat="42.3807" lon="9.33046">
        <ele>1166</ele>
        <time>2026-05-14T12:54:51+00:00</time>
      </trkpt>
      <trkpt lat="42.38081" lon="9.33046">
        <ele>1171</ele>
        <time>2026-05-14T12:54:52+00:00</time>
      </trkpt>
      <trkpt lat="42.38085" lon="9.33033">
        <ele>1174</ele>
        <time>2026-05-14T12:54:53+00:00</time>
      </trkpt>
      <trkpt lat="42.38085" lon="9.33012">
        <ele>1176</ele>
        <time>2026-05-14T12:54:54+00:00</time>
      </trkpt>
      <trkpt lat="42.38096" lon="9.32931">
        <ele>1193</ele>
        <time>2026-05-14T12:54:55+00:00</time>
      </trkpt>
      <trkpt lat="42.38103" lon="9.32915">
        <ele>1199</ele>
        <time>2026-05-14T12:54:56+00:00</time>
      </trkpt>
      <trkpt lat="42.3811" lon="9.32878">
        <ele>1207</ele>
        <time>2026-05-14T12:54:57+00:00</time>
      </trkpt>
      <trkpt lat="42.38118" lon="9.32874">
        <ele>1211</ele>
        <time>2026-05-14T12:54:58+00:00</time>
      </trkpt>
      <trkpt lat="42.38125" lon="9.3288">
        <ele>1213</ele>
        <time>2026-05-14T12:54:59+00:00</time>
      </trkpt>
      <trkpt lat="42.38126" lon="9.32865">
        <ele>1215</ele>
        <time>2026-05-14T12:55:00+00:00</time>
      </trkpt>
      <trkpt lat="42.38131" lon="9.32852">
        <ele>1219</ele>
        <time>2026-05-14T12:55:01+00:00</time>
      </trkpt>
      <trkpt lat="42.38133" lon="9.32833">
        <ele>1222</ele>
        <time>2026-05-14T12:55:02+00:00</time>
      </trkpt>
      <trkpt lat="42.38139" lon="9.32816">
        <ele>1226</ele>
        <time>2026-05-14T12:55:03+00:00</time>
      </trkpt>
      <trkpt lat="42.38142" lon="9.32798">
        <ele>1229</ele>
        <time>2026-05-14T12:55:04+00:00</time>
      </trkpt>
      <trkpt lat="42.38137" lon="9.32777">
        <ele>1231</ele>
        <time>2026-05-14T12:55:05+00:00</time>
      </trkpt>
      <trkpt lat="42.38143" lon="9.32753">
        <ele>1235</ele>
        <time>2026-05-14T12:55:06+00:00</time>
      </trkpt>
      <trkpt lat="42.38152" lon="9.32775">
        <ele>1234</ele>
        <time>2026-05-14T12:55:07+00:00</time>
      </trkpt>
      <trkpt lat="42.38161" lon="9.32788">
        <ele>1235</ele>
        <time>2026-05-14T12:55:08+00:00</time>
      </trkpt>
      <trkpt lat="42.38165" lon="9.32815">
        <ele>1234</ele>
        <time>2026-05-14T12:55:09+00:00</time>
      </trkpt>
      <trkpt lat="42.38178" lon="9.32674">
        <ele>1251</ele>
        <time>2026-05-14T12:55:10+00:00</time>
      </trkpt>
      <trkpt lat="42.38188" lon="9.32657">
        <ele>1256</ele>
        <time>2026-05-14T12:55:11+00:00</time>
      </trkpt>
      <trkpt lat="42.38203" lon="9.32645">
        <ele>1262</ele>
        <time>2026-05-14T12:55:12+00:00</time>
      </trkpt>
      <trkpt lat="42.38211" lon="9.32635">
        <ele>1265</ele>
        <time>2026-05-14T12:55:13+00:00</time>
      </trkpt>
      <trkpt lat="42.38222" lon="9.3263">
        <ele>1268</ele>
        <time>2026-05-14T12:55:14+00:00</time>
      </trkpt>
      <trkpt lat="42.38236" lon="9.32619">
        <ele>1272</ele>
        <time>2026-05-14T12:55:15+00:00</time>
      </trkpt>
      <trkpt lat="42.38244" lon="9.32606">
        <ele>1274</ele>
        <time>2026-05-14T12:55:16+00:00</time>
      </trkpt>
      <trkpt lat="42.38261" lon="9.32605">
        <ele>1278</ele>
        <time>2026-05-14T12:55:17+00:00</time>
      </trkpt>
      <trkpt lat="42.38272" lon="9.32611">
        <ele>1281</ele>
        <time>2026-05-14T12:55:18+00:00</time>
      </trkpt>
      <trkpt lat="42.38274" lon="9.32623">
        <ele>1281</ele>
        <time>2026-05-14T12:55:19+00:00</time>
      </trkpt>
      <trkpt lat="42.38286" lon="9.3262">
        <ele>1286</ele>
        <time>2026-05-14T12:55:20+00:00</time>
      </trkpt>
      <trkpt lat="42.38287" lon="9.32633">
        <ele>1286</ele>
        <time>2026-05-14T12:55:21+00:00</time>
      </trkpt>
      <trkpt lat="42.38293" lon="9.32644">
        <ele>1288</ele>
        <time>2026-05-14T12:55:22+00:00</time>
      </trkpt>
      <trkpt lat="42.38295" lon="9.32663">
        <ele>1289</ele>
        <time>2026-05-14T12:55:23+00:00</time>
      </trkpt>
      <trkpt lat="42.38303" lon="9.32665">
        <ele>1292</ele>
        <time>2026-05-14T12:55:24+00:00</time>
      </trkpt>
      <trkpt lat="42.38309" lon="9.32642">
        <ele>1294</ele>
        <time>2026-05-14T12:55:25+00:00</time>
      </trkpt>
      <trkpt lat="42.38324" lon="9.32634">
        <ele>1299</ele>
        <time>2026-05-14T12:55:26+00:00</time>
      </trkpt>
      <trkpt lat="42.38329" lon="9.32607">
        <ele>1299</ele>
        <time>2026-05-14T12:55:27+00:00</time>
      </trkpt>
      <trkpt lat="42.38339" lon="9.32589">
        <ele>1301</ele>
        <time>2026-05-14T12:55:28+00:00</time>
      </trkpt>
      <trkpt lat="42.38354" lon="9.32571">
        <ele>1311</ele>
        <time>2026-05-14T12:55:29+00:00</time>
      </trkpt>
      <trkpt lat="42.38361" lon="9.32569">
        <ele>1314</ele>
        <time>2026-05-14T12:55:30+00:00</time>
      </trkpt>
      <trkpt lat="42.38393" lon="9.32531">
        <ele>1331</ele>
        <time>2026-05-14T12:55:31+00:00</time>
      </trkpt>
      <trkpt lat="42.384" lon="9.32514">
        <ele>1334</ele>
        <time>2026-05-14T12:55:32+00:00</time>
      </trkpt>
      <trkpt lat="42.38402" lon="9.32451">
        <ele>1346</ele>
        <time>2026-05-14T12:55:33+00:00</time>
      </trkpt>
      <trkpt lat="42.38407" lon="9.32436">
        <ele>1349</ele>
        <time>2026-05-14T12:55:34+00:00</time>
      </trkpt>
      <trkpt lat="42.38415" lon="9.32424">
        <ele>1352</ele>
        <time>2026-05-14T12:55:35+00:00</time>
      </trkpt>
      <trkpt lat="42.38412" lon="9.32399">
        <ele>1355</ele>
        <time>2026-05-14T12:55:36+00:00</time>
      </trkpt>
      <trkpt lat="42.38425" lon="9.32362">
        <ele>1360</ele>
        <time>2026-05-14T12:55:37+00:00</time>
      </trkpt>
      <trkpt lat="42.38427" lon="9.32333">
        <ele>1363</ele>
        <time>2026-05-14T12:55:38+00:00</time>
      </trkpt>
      <trkpt lat="42.38418" lon="9.32313">
        <ele>1365</ele>
        <time>2026-05-14T12:55:39+00:00</time>
      </trkpt>
      <trkpt lat="42.38401" lon="9.32304">
        <ele>1368</ele>
        <time>2026-05-14T12:55:40+00:00</time>
      </trkpt>
      <trkpt lat="42.38373" lon="9.32313">
        <ele>1371</ele>
        <time>2026-05-14T12:55:41+00:00</time>
      </trkpt>
      <trkpt lat="42.38351" lon="9.3233">
        <ele>1373</ele>
        <time>2026-05-14T12:55:42+00:00</time>
      </trkpt>
      <trkpt lat="42.38344" lon="9.32331">
        <ele>1374</ele>
        <time>2026-05-14T12:55:43+00:00</time>
      </trkpt>
      <trkpt lat="42.38282" lon="9.32311">
        <ele>1373</ele>
        <time>2026-05-14T12:55:44+00:00</time>
      </trkpt>
      <trkpt lat="42.38237" lon="9.32292">
        <ele>1373</ele>
        <time>2026-05-14T12:55:45+00:00</time>
      </trkpt>
      <trkpt lat="42.38218" lon="9.32287">
        <ele>1373</ele>
        <time>2026-05-14T12:55:46+00:00</time>
      </trkpt>
      <trkpt lat="42.38199" lon="9.32289">
        <ele>1371</ele>
        <time>2026-05-14T12:55:47+00:00</time>
      </trkpt>
      <trkpt lat="42.38182" lon="9.323">
        <ele>1368</ele>
        <time>2026-05-14T12:55:48+00:00</time>
      </trkpt>
      <trkpt lat="42.38173" lon="9.3231">
        <ele>1367</ele>
        <time>2026-05-14T12:55:49+00:00</time>
      </trkpt>
      <trkpt lat="42.38155" lon="9.32315">
        <ele>1367</ele>
        <time>2026-05-14T12:55:50+00:00</time>
      </trkpt>
      <trkpt lat="42.38122" lon="9.32329">
        <ele>1371</ele>
        <time>2026-05-14T12:55:51+00:00</time>
      </trkpt>
      <trkpt lat="42.38092" lon="9.32337">
        <ele>1374</ele>
        <time>2026-05-14T12:55:52+00:00</time>
      </trkpt>
      <trkpt lat="42.38031" lon="9.32343">
        <ele>1381</ele>
        <time>2026-05-14T12:55:53+00:00</time>
      </trkpt>
      <trkpt lat="42.37961" lon="9.32327">
        <ele>1385</ele>
        <time>2026-05-14T12:55:54+00:00</time>
      </trkpt>
      <trkpt lat="42.37942" lon="9.32315">
        <ele>1383</ele>
        <time>2026-05-14T12:55:55+00:00</time>
      </trkpt>
      <trkpt lat="42.37922" lon="9.32309">
        <ele>1382</ele>
        <time>2026-05-14T12:55:56+00:00</time>
      </trkpt>
      <trkpt lat="42.37905" lon="9.32305">
        <ele>1381</ele>
        <time>2026-05-14T12:55:57+00:00</time>
      </trkpt>
      <trkpt lat="42.37883" lon="9.32307">
        <ele>1379</ele>
        <time>2026-05-14T12:55:58+00:00</time>
      </trkpt>
      <trkpt lat="42.37846" lon="9.32317">
        <ele>1377</ele>
        <time>2026-05-14T12:55:59+00:00</time>
      </trkpt>
      <trkpt lat="42.37805" lon="9.3234">
        <ele>1378</ele>
        <time>2026-05-14T12:56:00+00:00</time>
      </trkpt>
      <trkpt lat="42.37784" lon="9.32355">
        <ele>1381</ele>
        <time>2026-05-14T12:56:01+00:00</time>
      </trkpt>
      <trkpt lat="42.3775" lon="9.3239">
        <ele>1389</ele>
        <time>2026-05-14T12:56:02+00:00</time>
      </trkpt>
      <trkpt lat="42.37713" lon="9.32397">
        <ele>1392</ele>
        <time>2026-05-14T12:56:03+00:00</time>
      </trkpt>
      <trkpt lat="42.37691" lon="9.32406">
        <ele>1395</ele>
        <time>2026-05-14T12:56:04+00:00</time>
      </trkpt>
      <trkpt lat="42.37678" lon="9.32408">
        <ele>1396</ele>
        <time>2026-05-14T12:56:05+00:00</time>
      </trkpt>
      <trkpt lat="42.37641" lon="9.32427">
        <ele>1398</ele>
        <time>2026-05-14T12:56:06+00:00</time>
      </trkpt>
      <trkpt lat="42.37617" lon="9.3242">
        <ele>1397</ele>
        <time>2026-05-14T12:56:07+00:00</time>
      </trkpt>
      <trkpt lat="42.37574" lon="9.32433">
        <ele>1396</ele>
        <time>2026-05-14T12:56:08+00:00</time>
      </trkpt>
      <trkpt lat="42.37553" lon="9.3243">
        <ele>1396</ele>
        <time>2026-05-14T12:56:09+00:00</time>
      </trkpt>
      <trkpt lat="42.37536" lon="9.32436">
        <ele>1395</ele>
        <time>2026-05-14T12:56:10+00:00</time>
      </trkpt>
      <trkpt lat="42.37502" lon="9.32431">
        <ele>1395</ele>
        <time>2026-05-14T12:56:11+00:00</time>
      </trkpt>
      <trkpt lat="42.37422" lon="9.32445">
        <ele>1380</ele>
        <time>2026-05-14T12:56:12+00:00</time>
      </trkpt>
      <trkpt lat="42.37402" lon="9.32426">
        <ele>1379</ele>
        <time>2026-05-14T12:56:13+00:00</time>
      </trkpt>
      <trkpt lat="42.37385" lon="9.32429">
        <ele>1376</ele>
        <time>2026-05-14T12:56:14+00:00</time>
      </trkpt>
      <trkpt lat="42.37362" lon="9.32429">
        <ele>1372</ele>
        <time>2026-05-14T12:56:15+00:00</time>
      </trkpt>
      <trkpt lat="42.37317" lon="9.32467">
        <ele>1360</ele>
        <time>2026-05-14T12:56:16+00:00</time>
      </trkpt>
      <trkpt lat="42.37275" lon="9.32491">
        <ele>1350</ele>
        <time>2026-05-14T12:56:17+00:00</time>
      </trkpt>
      <trkpt lat="42.37263" lon="9.32503">
        <ele>1347</ele>
        <time>2026-05-14T12:56:18+00:00</time>
      </trkpt>
      <trkpt lat="42.37253" lon="9.32508">
        <ele>1344</ele>
        <time>2026-05-14T12:56:19+00:00</time>
      </trkpt>
      <trkpt lat="42.37231" lon="9.32507">
        <ele>1340</ele>
        <time>2026-05-14T12:56:20+00:00</time>
      </trkpt>
      <trkpt lat="42.37223" lon="9.32512">
        <ele>1338</ele>
        <time>2026-05-14T12:56:21+00:00</time>
      </trkpt>
      <trkpt lat="42.37218" lon="9.32532">
        <ele>1335</ele>
        <time>2026-05-14T12:56:22+00:00</time>
      </trkpt>
      <trkpt lat="42.37204" lon="9.3254">
        <ele>1333</ele>
        <time>2026-05-14T12:56:23+00:00</time>
      </trkpt>
      <trkpt lat="42.37193" lon="9.32535">
        <ele>1332</ele>
        <time>2026-05-14T12:56:24+00:00</time>
      </trkpt>
      <trkpt lat="42.37182" lon="9.32548">
        <ele>1331</ele>
        <time>2026-05-14T12:56:25+00:00</time>
      </trkpt>
      <trkpt lat="42.37163" lon="9.32556">
        <ele>1329</ele>
        <time>2026-05-14T12:56:26+00:00</time>
      </trkpt>
      <trkpt lat="42.37148" lon="9.32549">
        <ele>1327</ele>
        <time>2026-05-14T12:56:27+00:00</time>
      </trkpt>
      <trkpt lat="42.37137" lon="9.32564">
        <ele>1327</ele>
        <time>2026-05-14T12:56:28+00:00</time>
      </trkpt>
      <trkpt lat="42.3711" lon="9.32561">
        <ele>1323</ele>
        <time>2026-05-14T12:56:29+00:00</time>
      </trkpt>
      <trkpt lat="42.37091" lon="9.32556">
        <ele>1319</ele>
        <time>2026-05-14T12:56:30+00:00</time>
      </trkpt>
      <trkpt lat="42.37065" lon="9.3256">
        <ele>1316</ele>
        <time>2026-05-14T12:56:31+00:00</time>
      </trkpt>
      <trkpt lat="42.36966" lon="9.32566">
        <ele>1303</ele>
        <time>2026-05-14T12:56:32+00:00</time>
      </trkpt>
      <trkpt lat="42.36954" lon="9.3257">
        <ele>1302</ele>
        <time>2026-05-14T12:56:33+00:00</time>
      </trkpt>
      <trkpt lat="42.36941" lon="9.32587">
        <ele>1302</ele>
        <time>2026-05-14T12:56:34+00:00</time>
      </trkpt>
      <trkpt lat="42.36921" lon="9.32607">
        <ele>1296</ele>
        <time>2026-05-14T12:56:35+00:00</time>
      </trkpt>
      <trkpt lat="42.36902" lon="9.32616">
        <ele>1293</ele>
        <time>2026-05-14T12:56:36+00:00</time>
      </trkpt>
      <trkpt lat="42.36877" lon="9.32639">
        <ele>1288</ele>
        <time>2026-05-14T12:56:37+00:00</time>
      </trkpt>
      <trkpt lat="42.36848" lon="9.32638">
        <ele>1287</ele>
        <time>2026-05-14T12:56:38+00:00</time>
      </trkpt>
      <trkpt lat="42.36838" lon="9.32641">
        <ele>1286</ele>
        <time>2026-05-14T12:56:39+00:00</time>
      </trkpt>
      <trkpt lat="42.36825" lon="9.32635">
        <ele>1286</ele>
        <time>2026-05-14T12:56:40+00:00</time>
      </trkpt>
      <trkpt lat="42.36803" lon="9.32644">
        <ele>1282</ele>
        <time>2026-05-14T12:56:41+00:00</time>
      </trkpt>
      <trkpt lat="42.36782" lon="9.3267">
        <ele>1277</ele>
        <time>2026-05-14T12:56:42+00:00</time>
      </trkpt>
      <trkpt lat="42.36723" lon="9.32694">
        <ele>1276</ele>
        <time>2026-05-14T12:56:43+00:00</time>
      </trkpt>
      <trkpt lat="42.36698" lon="9.32727">
        <ele>1275</ele>
        <time>2026-05-14T12:56:44+00:00</time>
      </trkpt>
      <trkpt lat="42.36684" lon="9.32761">
        <ele>1274</ele>
        <time>2026-05-14T12:56:45+00:00</time>
      </trkpt>
      <trkpt lat="42.36667" lon="9.32786">
        <ele>1276</ele>
        <time>2026-05-14T12:56:46+00:00</time>
      </trkpt>
      <trkpt lat="42.36657" lon="9.32806">
        <ele>1279</ele>
        <time>2026-05-14T12:56:47+00:00</time>
      </trkpt>
      <trkpt lat="42.36665" lon="9.32821">
        <ele>1275</ele>
        <time>2026-05-14T12:56:48+00:00</time>
      </trkpt>
      <trkpt lat="42.3666" lon="9.32834">
        <ele>1277</ele>
        <time>2026-05-14T12:56:49+00:00</time>
      </trkpt>
      <trkpt lat="42.3666" lon="9.32866">
        <ele>1277</ele>
        <time>2026-05-14T12:56:50+00:00</time>
      </trkpt>
      <trkpt lat="42.36642" lon="9.32902">
        <ele>1285</ele>
        <time>2026-05-14T12:56:51+00:00</time>
      </trkpt>
      <trkpt lat="42.36644" lon="9.32977">
        <ele>1285</ele>
        <time>2026-05-14T12:56:52+00:00</time>
      </trkpt>
      <trkpt lat="42.36635" lon="9.33005">
        <ele>1287</ele>
        <time>2026-05-14T12:56:53+00:00</time>
      </trkpt>
      <trkpt lat="42.36631" lon="9.33009">
        <ele>1288</ele>
        <time>2026-05-14T12:56:54+00:00</time>
      </trkpt>
      <trkpt lat="42.36621" lon="9.33018">
        <ele>1291</ele>
        <time>2026-05-14T12:56:55+00:00</time>
      </trkpt>
      <trkpt lat="42.36574" lon="9.33031">
        <ele>1304</ele>
        <time>2026-05-14T12:56:56+00:00</time>
      </trkpt>
      <trkpt lat="42.36563" lon="9.33022">
        <ele>1310</ele>
        <time>2026-05-14T12:56:57+00:00</time>
      </trkpt>
      <trkpt lat="42.36544" lon="9.32998">
        <ele>1320</ele>
        <time>2026-05-14T12:56:58+00:00</time>
      </trkpt>
      <trkpt lat="42.36536" lon="9.33">
        <ele>1323</ele>
        <time>2026-05-14T12:56:59+00:00</time>
      </trkpt>
      <trkpt lat="42.3651" lon="9.33018">
        <ele>1332</ele>
        <time>2026-05-14T12:57:00+00:00</time>
      </trkpt>
      <trkpt lat="42.3649" lon="9.33013">
        <ele>1341</ele>
        <time>2026-05-14T12:57:01+00:00</time>
      </trkpt>
      <trkpt lat="42.36473" lon="9.33025">
        <ele>1347</ele>
        <time>2026-05-14T12:57:02+00:00</time>
      </trkpt>
      <trkpt lat="42.36449" lon="9.3305">
        <ele>1353</ele>
        <time>2026-05-14T12:57:03+00:00</time>
      </trkpt>
      <trkpt lat="42.36407" lon="9.33121">
        <ele>1358</ele>
        <time>2026-05-14T12:57:04+00:00</time>
      </trkpt>
      <trkpt lat="42.36394" lon="9.33131">
        <ele>1360</ele>
        <time>2026-05-14T12:57:05+00:00</time>
      </trkpt>
      <trkpt lat="42.36342" lon="9.33151">
        <ele>1374</ele>
        <time>2026-05-14T12:57:06+00:00</time>
      </trkpt>
      <trkpt lat="42.36327" lon="9.33179">
        <ele>1374</ele>
        <time>2026-05-14T12:57:07+00:00</time>
      </trkpt>
      <trkpt lat="42.36305" lon="9.33202">
        <ele>1376</ele>
        <time>2026-05-14T12:57:08+00:00</time>
      </trkpt>
      <trkpt lat="42.36271" lon="9.33227">
        <ele>1382</ele>
        <time>2026-05-14T12:57:09+00:00</time>
      </trkpt>
      <trkpt lat="42.36239" lon="9.33239">
        <ele>1388</ele>
        <time>2026-05-14T12:57:10+00:00</time>
      </trkpt>
      <trkpt lat="42.36201" lon="9.33271">
        <ele>1393</ele>
        <time>2026-05-14T12:57:11+00:00</time>
      </trkpt>
      <trkpt lat="42.36189" lon="9.33277">
        <ele>1396</ele>
        <time>2026-05-14T12:57:12+00:00</time>
      </trkpt>
      <trkpt lat="42.36133" lon="9.33338">
        <ele>1404</ele>
        <time>2026-05-14T12:57:13+00:00</time>
      </trkpt>
      <trkpt lat="42.36087" lon="9.33356">
        <ele>1417</ele>
        <time>2026-05-14T12:57:14+00:00</time>
      </trkpt>
      <trkpt lat="42.36045" lon="9.33369">
        <ele>1419</ele>
        <time>2026-05-14T12:57:15+00:00</time>
      </trkpt>
      <trkpt lat="42.36024" lon="9.33364">
        <ele>1421</ele>
        <time>2026-05-14T12:57:16+00:00</time>
      </trkpt>
      <trkpt lat="42.35996" lon="9.33346">
        <ele>1427</ele>
        <time>2026-05-14T12:57:17+00:00</time>
      </trkpt>
      <trkpt lat="42.35968" lon="9.33322">
        <ele>1427</ele>
        <time>2026-05-14T12:57:18+00:00</time>
      </trkpt>
      <trkpt lat="42.3594" lon="9.33312">
        <ele>1425</ele>
        <time>2026-05-14T12:57:19+00:00</time>
      </trkpt>
      <trkpt lat="42.3588" lon="9.33304">
        <ele>1418</ele>
        <time>2026-05-14T12:57:20+00:00</time>
      </trkpt>
      <trkpt lat="42.35861" lon="9.33299">
        <ele>1415</ele>
        <time>2026-05-14T12:57:21+00:00</time>
      </trkpt>
      <trkpt lat="42.35826" lon="9.33299">
        <ele>1410</ele>
        <time>2026-05-14T12:57:22+00:00</time>
      </trkpt>
      <trkpt lat="42.35783" lon="9.33312">
        <ele>1405</ele>
        <time>2026-05-14T12:57:23+00:00</time>
      </trkpt>
      <trkpt lat="42.35754" lon="9.33325">
        <ele>1404</ele>
        <time>2026-05-14T12:57:24+00:00</time>
      </trkpt>
      <trkpt lat="42.35719" lon="9.33352">
        <ele>1408</ele>
        <time>2026-05-14T12:57:25+00:00</time>
      </trkpt>
      <trkpt lat="42.35707" lon="9.33355">
        <ele>1410</ele>
        <time>2026-05-14T12:57:26+00:00</time>
      </trkpt>
      <trkpt lat="42.35657" lon="9.33389">
        <ele>1419</ele>
        <time>2026-05-14T12:57:27+00:00</time>
      </trkpt>
      <trkpt lat="42.35623" lon="9.33417">
        <ele>1424</ele>
        <time>2026-05-14T12:57:28+00:00</time>
      </trkpt>
      <trkpt lat="42.35574" lon="9.33443">
        <ele>1426</ele>
        <time>2026-05-14T12:57:29+00:00</time>
      </trkpt>
      <trkpt lat="42.35545" lon="9.33447">
        <ele>1431</ele>
        <time>2026-05-14T12:57:30+00:00</time>
      </trkpt>
      <trkpt lat="42.35519" lon="9.33472">
        <ele>1433</ele>
        <time>2026-05-14T12:57:31+00:00</time>
      </trkpt>
      <trkpt lat="42.35508" lon="9.33511">
        <ele>1431</ele>
        <time>2026-05-14T12:57:32+00:00</time>
      </trkpt>
      <trkpt lat="42.35487" lon="9.33558">
        <ele>1427</ele>
        <time>2026-05-14T12:57:33+00:00</time>
      </trkpt>
      <trkpt lat="42.35467" lon="9.33595">
        <ele>1423</ele>
        <time>2026-05-14T12:57:34+00:00</time>
      </trkpt>
      <trkpt lat="42.35452" lon="9.33603">
        <ele>1423</ele>
        <time>2026-05-14T12:57:35+00:00</time>
      </trkpt>
      <trkpt lat="42.35441" lon="9.33618">
        <ele>1422</ele>
        <time>2026-05-14T12:57:36+00:00</time>
      </trkpt>
      <trkpt lat="42.35406" lon="9.33624">
        <ele>1425</ele>
        <time>2026-05-14T12:57:37+00:00</time>
      </trkpt>
      <trkpt lat="42.35334" lon="9.33653">
        <ele>1418</ele>
        <time>2026-05-14T12:57:38+00:00</time>
      </trkpt>
      <trkpt lat="42.35254" lon="9.33702">
        <ele>1408</ele>
        <time>2026-05-14T12:57:39+00:00</time>
      </trkpt>
      <trkpt lat="42.35241" lon="9.33707">
        <ele>1406</ele>
        <time>2026-05-14T12:57:40+00:00</time>
      </trkpt>
      <trkpt lat="42.35216" lon="9.33709">
        <ele>1404</ele>
        <time>2026-05-14T12:57:41+00:00</time>
      </trkpt>
      <trkpt lat="42.35196" lon="9.33719">
        <ele>1400</ele>
        <time>2026-05-14T12:57:42+00:00</time>
      </trkpt>
      <trkpt lat="42.35181" lon="9.33723">
        <ele>1397</ele>
        <time>2026-05-14T12:57:43+00:00</time>
      </trkpt>
      <trkpt lat="42.35172" lon="9.33741">
        <ele>1393</ele>
        <time>2026-05-14T12:57:44+00:00</time>
      </trkpt>
      <trkpt lat="42.3515" lon="9.33751">
        <ele>1390</ele>
        <time>2026-05-14T12:57:45+00:00</time>
      </trkpt>
      <trkpt lat="42.35147" lon="9.3377">
        <ele>1384</ele>
        <time>2026-05-14T12:57:46+00:00</time>
      </trkpt>
      <trkpt lat="42.35158" lon="9.33789">
        <ele>1379</ele>
        <time>2026-05-14T12:57:47+00:00</time>
      </trkpt>
      <trkpt lat="42.3517" lon="9.33819">
        <ele>1370</ele>
        <time>2026-05-14T12:57:48+00:00</time>
      </trkpt>
      <trkpt lat="42.35187" lon="9.33834">
        <ele>1367</ele>
        <time>2026-05-14T12:57:49+00:00</time>
      </trkpt>
      <trkpt lat="42.35205" lon="9.33838">
        <ele>1367</ele>
        <time>2026-05-14T12:57:50+00:00</time>
      </trkpt>
      <trkpt lat="42.35228" lon="9.33866">
        <ele>1360</ele>
        <time>2026-05-14T12:57:51+00:00</time>
      </trkpt>
      <trkpt lat="42.35242" lon="9.33879">
        <ele>1358</ele>
        <time>2026-05-14T12:57:52+00:00</time>
      </trkpt>
      <trkpt lat="42.35254" lon="9.33901">
        <ele>1351</ele>
        <time>2026-05-14T12:57:53+00:00</time>
      </trkpt>
      <trkpt lat="42.35249" lon="9.33916">
        <ele>1347</ele>
        <time>2026-05-14T12:57:54+00:00</time>
      </trkpt>
      <trkpt lat="42.35247" lon="9.33933">
        <ele>1341</ele>
        <time>2026-05-14T12:57:55+00:00</time>
      </trkpt>
      <trkpt lat="42.35208" lon="9.33937">
        <ele>1335</ele>
        <time>2026-05-14T12:57:56+00:00</time>
      </trkpt>
      <trkpt lat="42.3519" lon="9.33927">
        <ele>1336</ele>
        <time>2026-05-14T12:57:57+00:00</time>
      </trkpt>
      <trkpt lat="42.35165" lon="9.33926">
        <ele>1334</ele>
        <time>2026-05-14T12:57:58+00:00</time>
      </trkpt>
      <trkpt lat="42.35127" lon="9.33946">
        <ele>1334</ele>
        <time>2026-05-14T12:57:59+00:00</time>
      </trkpt>
      <trkpt lat="42.35113" lon="9.33959">
        <ele>1332</ele>
        <time>2026-05-14T12:58:00+00:00</time>
      </trkpt>
      <trkpt lat="42.35106" lon="9.3397">
        <ele>1329</ele>
        <time>2026-05-14T12:58:01+00:00</time>
      </trkpt>
      <trkpt lat="42.35102" lon="9.33982">
        <ele>1326</ele>
        <time>2026-05-14T12:58:02+00:00</time>
      </trkpt>
      <trkpt lat="42.35113" lon="9.33981">
        <ele>1325</ele>
        <time>2026-05-14T12:58:03+00:00</time>
      </trkpt>
      <trkpt lat="42.35117" lon="9.3399">
        <ele>1321</ele>
        <time>2026-05-14T12:58:04+00:00</time>
      </trkpt>
      <trkpt lat="42.3511" lon="9.34">
        <ele>1319</ele>
        <time>2026-05-14T12:58:05+00:00</time>
      </trkpt>
      <trkpt lat="42.35103" lon="9.34008">
        <ele>1317</ele>
        <time>2026-05-14T12:58:06+00:00</time>
      </trkpt>
      <trkpt lat="42.3509" lon="9.34017">
        <ele>1316</ele>
        <time>2026-05-14T12:58:07+00:00</time>
      </trkpt>
      <trkpt lat="42.35079" lon="9.34023">
        <ele>1316</ele>
        <time>2026-05-14T12:58:08+00:00</time>
      </trkpt>
      <trkpt lat="42.35067" lon="9.34026">
        <ele>1316</ele>
        <time>2026-05-14T12:58:09+00:00</time>
      </trkpt>
      <trkpt lat="42.3506" lon="9.34037">
        <ele>1313</ele>
        <time>2026-05-14T12:58:10+00:00</time>
      </trkpt>
      <trkpt lat="42.35079" lon="9.34037">
        <ele>1311</ele>
        <time>2026-05-14T12:58:11+00:00</time>
      </trkpt>
      <trkpt lat="42.35085" lon="9.34045">
        <ele>1308</ele>
        <time>2026-05-14T12:58:12+00:00</time>
      </trkpt>
      <trkpt lat="42.35062" lon="9.34073">
        <ele>1301</ele>
        <time>2026-05-14T12:58:13+00:00</time>
      </trkpt>
      <trkpt lat="42.35069" lon="9.34075">
        <ele>1300</ele>
        <time>2026-05-14T12:58:14+00:00</time>
      </trkpt>
      <trkpt lat="42.35085" lon="9.34066">
        <ele>1301</ele>
        <time>2026-05-14T12:58:15+00:00</time>
      </trkpt>
      <trkpt lat="42.35093" lon="9.34064">
        <ele>1301</ele>
        <time>2026-05-14T12:58:16+00:00</time>
      </trkpt>
      <trkpt lat="42.351" lon="9.34069">
        <ele>1298</ele>
        <time>2026-05-14T12:58:17+00:00</time>
      </trkpt>
      <trkpt lat="42.35083" lon="9.3408">
        <ele>1297</ele>
        <time>2026-05-14T12:58:18+00:00</time>
      </trkpt>
      <trkpt lat="42.35077" lon="9.34092">
        <ele>1293</ele>
        <time>2026-05-14T12:58:19+00:00</time>
      </trkpt>
      <trkpt lat="42.35112" lon="9.34113">
        <ele>1280</ele>
        <time>2026-05-14T12:58:20+00:00</time>
      </trkpt>
      <trkpt lat="42.35127" lon="9.34107">
        <ele>1279</ele>
        <time>2026-05-14T12:58:21+00:00</time>
      </trkpt>
      <trkpt lat="42.35146" lon="9.34109">
        <ele>1274</ele>
        <time>2026-05-14T12:58:22+00:00</time>
      </trkpt>
      <trkpt lat="42.35165" lon="9.34118">
        <ele>1266</ele>
        <time>2026-05-14T12:58:23+00:00</time>
      </trkpt>
      <trkpt lat="42.35175" lon="9.34138">
        <ele>1256</ele>
        <time>2026-05-14T12:58:24+00:00</time>
      </trkpt>
      <trkpt lat="42.3519" lon="9.34152">
        <ele>1249</ele>
        <time>2026-05-14T12:58:25+00:00</time>
      </trkpt>
      <trkpt lat="42.35207" lon="9.34162">
        <ele>1244</ele>
        <time>2026-05-14T12:58:26+00:00</time>
      </trkpt>
      <trkpt lat="42.35236" lon="9.34205">
        <ele>1229</ele>
        <time>2026-05-14T12:58:27+00:00</time>
      </trkpt>
      <trkpt lat="42.35257" lon="9.34229">
        <ele>1221</ele>
        <time>2026-05-14T12:58:28+00:00</time>
      </trkpt>
      <trkpt lat="42.35286" lon="9.34277">
        <ele>1207</ele>
        <time>2026-05-14T12:58:29+00:00</time>
      </trkpt>
      <trkpt lat="42.35287" lon="9.34296">
        <ele>1203</ele>
        <time>2026-05-14T12:58:30+00:00</time>
      </trkpt>
      <trkpt lat="42.35301" lon="9.34333">
        <ele>1195</ele>
        <time>2026-05-14T12:58:31+00:00</time>
      </trkpt>
      <trkpt lat="42.35313" lon="9.34351">
        <ele>1192</ele>
        <time>2026-05-14T12:58:32+00:00</time>
      </trkpt>
      <trkpt lat="42.35328" lon="9.34365">
        <ele>1189</ele>
        <time>2026-05-14T12:58:33+00:00</time>
      </trkpt>
      <trkpt lat="42.35341" lon="9.34385">
        <ele>1185</ele>
        <time>2026-05-14T12:58:34+00:00</time>
      </trkpt>
      <trkpt lat="42.35348" lon="9.34415">
        <ele>1179</ele>
        <time>2026-05-14T12:58:35+00:00</time>
      </trkpt>
      <trkpt lat="42.35359" lon="9.34427">
        <ele>1174</ele>
        <time>2026-05-14T12:58:36+00:00</time>
      </trkpt>
      <trkpt lat="42.35391" lon="9.34423">
        <ele>1171</ele>
        <time>2026-05-14T12:58:37+00:00</time>
      </trkpt>
      <trkpt lat="42.35407" lon="9.34425">
        <ele>1168</ele>
        <time>2026-05-14T12:58:38+00:00</time>
      </trkpt>
      <trkpt lat="42.35429" lon="9.34424">
        <ele>1163</ele>
        <time>2026-05-14T12:58:39+00:00</time>
      </trkpt>
      <trkpt lat="42.35444" lon="9.34427">
        <ele>1157</ele>
        <time>2026-05-14T12:58:40+00:00</time>
      </trkpt>
      <trkpt lat="42.35455" lon="9.34423">
        <ele>1155</ele>
        <time>2026-05-14T12:58:41+00:00</time>
      </trkpt>
      <trkpt lat="42.35532" lon="9.34389">
        <ele>1140</ele>
        <time>2026-05-14T12:58:42+00:00</time>
      </trkpt>
      <trkpt lat="42.35578" lon="9.34348">
        <ele>1137</ele>
        <time>2026-05-14T12:58:43+00:00</time>
      </trkpt>
      <trkpt lat="42.35591" lon="9.34341">
        <ele>1135</ele>
        <time>2026-05-14T12:58:44+00:00</time>
      </trkpt>
      <trkpt lat="42.3561" lon="9.34342">
        <ele>1129</ele>
        <time>2026-05-14T12:58:45+00:00</time>
      </trkpt>
      <trkpt lat="42.35645" lon="9.34362">
        <ele>1118</ele>
        <time>2026-05-14T12:58:46+00:00</time>
      </trkpt>
      <trkpt lat="42.35666" lon="9.34371">
        <ele>1112</ele>
        <time>2026-05-14T12:58:47+00:00</time>
      </trkpt>
      <trkpt lat="42.35695" lon="9.34353">
        <ele>1101</ele>
        <time>2026-05-14T12:58:48+00:00</time>
      </trkpt>
      <trkpt lat="42.35718" lon="9.34342">
        <ele>1093</ele>
        <time>2026-05-14T12:58:49+00:00</time>
      </trkpt>
      <trkpt lat="42.35733" lon="9.34341">
        <ele>1087</ele>
        <time>2026-05-14T12:58:50+00:00</time>
      </trkpt>
      <trkpt lat="42.35764" lon="9.34334">
        <ele>1077</ele>
        <time>2026-05-14T12:58:51+00:00</time>
      </trkpt>
      <trkpt lat="42.35788" lon="9.34325">
        <ele>1072</ele>
        <time>2026-05-14T12:58:52+00:00</time>
      </trkpt>
      <trkpt lat="42.35797" lon="9.34326">
        <ele>1069</ele>
        <time>2026-05-14T12:58:53+00:00</time>
      </trkpt>
      <trkpt lat="42.35842" lon="9.34305">
        <ele>1062</ele>
        <time>2026-05-14T12:58:54+00:00</time>
      </trkpt>
      <trkpt lat="42.3584" lon="9.34352">
        <ele>1050</ele>
        <time>2026-05-14T12:58:55+00:00</time>
      </trkpt>
      <trkpt lat="42.3585" lon="9.34353">
        <ele>1048</ele>
        <time>2026-05-14T12:58:56+00:00</time>
      </trkpt>
      <trkpt lat="42.35864" lon="9.34344">
        <ele>1046</ele>
        <time>2026-05-14T12:58:57+00:00</time>
      </trkpt>
      <trkpt lat="42.35862" lon="9.34368">
        <ele>1042</ele>
        <time>2026-05-14T12:58:58+00:00</time>
      </trkpt>
      <trkpt lat="42.35852" lon="9.34402">
        <ele>1039</ele>
        <time>2026-05-14T12:58:59+00:00</time>
      </trkpt>
      <trkpt lat="42.35827" lon="9.34468">
        <ele>1037</ele>
        <time>2026-05-14T12:59:00+00:00</time>
      </trkpt>
      <trkpt lat="42.35804" lon="9.34501">
        <ele>1043</ele>
        <time>2026-05-14T12:59:01+00:00</time>
      </trkpt>
      <trkpt lat="42.35783" lon="9.34547">
        <ele>1044</ele>
        <time>2026-05-14T12:59:02+00:00</time>
      </trkpt>
      <trkpt lat="42.35774" lon="9.34588">
        <ele>1040</ele>
        <time>2026-05-14T12:59:03+00:00</time>
      </trkpt>
      <trkpt lat="42.35753" lon="9.34639">
        <ele>1037</ele>
        <time>2026-05-14T12:59:04+00:00</time>
      </trkpt>
      <trkpt lat="42.3571" lon="9.34721">
        <ele>1031</ele>
        <time>2026-05-14T12:59:05+00:00</time>
      </trkpt>
      <trkpt lat="42.35688" lon="9.34754">
        <ele>1026</ele>
        <time>2026-05-14T12:59:06+00:00</time>
      </trkpt>
      <trkpt lat="42.3566" lon="9.34773">
        <ele>1022</ele>
        <time>2026-05-14T12:59:07+00:00</time>
      </trkpt>
      <trkpt lat="42.35634" lon="9.34773">
        <ele>1019</ele>
        <time>2026-05-14T12:59:08+00:00</time>
      </trkpt>
      <trkpt lat="42.35604" lon="9.3476">
        <ele>1021</ele>
        <time>2026-05-14T12:59:09+00:00</time>
      </trkpt>
      <trkpt lat="42.35567" lon="9.34733">
        <ele>1031</ele>
        <time>2026-05-14T12:59:10+00:00</time>
      </trkpt>
      <trkpt lat="42.35506" lon="9.34758">
        <ele>1021</ele>
        <time>2026-05-14T12:59:11+00:00</time>
      </trkpt>
      <trkpt lat="42.35441" lon="9.34764">
        <ele>1025</ele>
        <time>2026-05-14T12:59:12+00:00</time>
      </trkpt>
      <trkpt lat="42.35411" lon="9.34764">
        <ele>1029</ele>
        <time>2026-05-14T12:59:13+00:00</time>
      </trkpt>
      <trkpt lat="42.35358" lon="9.34797">
        <ele>1039</ele>
        <time>2026-05-14T12:59:14+00:00</time>
      </trkpt>
      <trkpt lat="42.35364" lon="9.34838">
        <ele>1032</ele>
        <time>2026-05-14T12:59:15+00:00</time>
      </trkpt>
      <trkpt lat="42.35374" lon="9.34877">
        <ele>1025</ele>
        <time>2026-05-14T12:59:16+00:00</time>
      </trkpt>
      <trkpt lat="42.35399" lon="9.34903">
        <ele>1010</ele>
        <time>2026-05-14T12:59:17+00:00</time>
      </trkpt>
      <trkpt lat="42.35412" lon="9.35032">
        <ele>1003</ele>
        <time>2026-05-14T12:59:18+00:00</time>
      </trkpt>
      <trkpt lat="42.35424" lon="9.35103">
        <ele>997</ele>
        <time>2026-05-14T12:59:19+00:00</time>
      </trkpt>
      <trkpt lat="42.35429" lon="9.35173">
        <ele>995</ele>
        <time>2026-05-14T12:59:20+00:00</time>
      </trkpt>
      <trkpt lat="42.35452" lon="9.35285">
        <ele>983</ele>
        <time>2026-05-14T12:59:21+00:00</time>
      </trkpt>
      <trkpt lat="42.3546" lon="9.3534">
        <ele>978</ele>
        <time>2026-05-14T12:59:22+00:00</time>
      </trkpt>
      <trkpt lat="42.35459" lon="9.35401">
        <ele>976</ele>
        <time>2026-05-14T12:59:23+00:00</time>
      </trkpt>
      <trkpt lat="42.35452" lon="9.35454">
        <ele>970</ele>
        <time>2026-05-14T12:59:24+00:00</time>
      </trkpt>
      <trkpt lat="42.35439" lon="9.35495">
        <ele>966</ele>
        <time>2026-05-14T12:59:25+00:00</time>
      </trkpt>
      <trkpt lat="42.35404" lon="9.35579">
        <ele>960</ele>
        <time>2026-05-14T12:59:26+00:00</time>
      </trkpt>
      <trkpt lat="42.35397" lon="9.35625">
        <ele>953</ele>
        <time>2026-05-14T12:59:27+00:00</time>
      </trkpt>
      <trkpt lat="42.35396" lon="9.35678">
        <ele>941</ele>
        <time>2026-05-14T12:59:28+00:00</time>
      </trkpt>
      <trkpt lat="42.3538" lon="9.35708">
        <ele>938</ele>
        <time>2026-05-14T12:59:29+00:00</time>
      </trkpt>
      <trkpt lat="42.35332" lon="9.35765">
        <ele>938</ele>
        <time>2026-05-14T12:59:30+00:00</time>
      </trkpt>
      <trkpt lat="42.35325" lon="9.35785">
        <ele>939</ele>
        <time>2026-05-14T12:59:31+00:00</time>
      </trkpt>
      <trkpt lat="42.35345" lon="9.35814">
        <ele>931</ele>
        <time>2026-05-14T12:59:32+00:00</time>
      </trkpt>
      <trkpt lat="42.35399" lon="9.35881">
        <ele>914</ele>
        <time>2026-05-14T12:59:33+00:00</time>
      </trkpt>
      <trkpt lat="42.3542" lon="9.35912">
        <ele>908</ele>
        <time>2026-05-14T12:59:34+00:00</time>
      </trkpt>
      <trkpt lat="42.35451" lon="9.3594">
        <ele>905</ele>
        <time>2026-05-14T12:59:35+00:00</time>
      </trkpt>
      <trkpt lat="42.35467" lon="9.3597">
        <ele>906</ele>
        <time>2026-05-14T12:59:36+00:00</time>
      </trkpt>
      <trkpt lat="42.35527" lon="9.35991">
        <ele>894</ele>
        <time>2026-05-14T12:59:37+00:00</time>
      </trkpt>
      <trkpt lat="42.35557" lon="9.3601">
        <ele>887</ele>
        <time>2026-05-14T12:59:38+00:00</time>
      </trkpt>
      <trkpt lat="42.3558" lon="9.36043">
        <ele>883</ele>
        <time>2026-05-14T12:59:39+00:00</time>
      </trkpt>
      <trkpt lat="42.35628" lon="9.36144">
        <ele>868</ele>
        <time>2026-05-14T12:59:40+00:00</time>
      </trkpt>
      <trkpt lat="42.35629" lon="9.36172">
        <ele>866</ele>
        <time>2026-05-14T12:59:41+00:00</time>
      </trkpt>
      <trkpt lat="42.35613" lon="9.36194">
        <ele>868</ele>
        <time>2026-05-14T12:59:42+00:00</time>
      </trkpt>
      <trkpt lat="42.35596" lon="9.36228">
        <ele>866</ele>
        <time>2026-05-14T12:59:43+00:00</time>
      </trkpt>
      <trkpt lat="42.35607" lon="9.36236">
        <ele>861</ele>
        <time>2026-05-14T12:59:44+00:00</time>
      </trkpt>
      <trkpt lat="42.35623" lon="9.36216">
        <ele>859</ele>
        <time>2026-05-14T12:59:45+00:00</time>
      </trkpt>
      <trkpt lat="42.35659" lon="9.36189">
        <ele>852</ele>
        <time>2026-05-14T12:59:46+00:00</time>
      </trkpt>
      <trkpt lat="42.35671" lon="9.36161">
        <ele>852</ele>
        <time>2026-05-14T12:59:47+00:00</time>
      </trkpt>
      <trkpt lat="42.35681" lon="9.36156">
        <ele>849</ele>
        <time>2026-05-14T12:59:48+00:00</time>
      </trkpt>
      <trkpt lat="42.35684" lon="9.36174">
        <ele>846</ele>
        <time>2026-05-14T12:59:49+00:00</time>
      </trkpt>
      <trkpt lat="42.3568" lon="9.36194">
        <ele>844</ele>
        <time>2026-05-14T12:59:50+00:00</time>
      </trkpt>
      <trkpt lat="42.35673" lon="9.36212">
        <ele>843</ele>
        <time>2026-05-14T12:59:51+00:00</time>
      </trkpt>
      <trkpt lat="42.35651" lon="9.36248">
        <ele>843</ele>
        <time>2026-05-14T12:59:52+00:00</time>
      </trkpt>
      <trkpt lat="42.35635" lon="9.36284">
        <ele>839</ele>
        <time>2026-05-14T12:59:53+00:00</time>
      </trkpt>
      <trkpt lat="42.35644" lon="9.3629">
        <ele>834</ele>
        <time>2026-05-14T12:59:54+00:00</time>
      </trkpt>
      <trkpt lat="42.35673" lon="9.36263">
        <ele>832</ele>
        <time>2026-05-14T12:59:55+00:00</time>
      </trkpt>
      <trkpt lat="42.3571" lon="9.36237">
        <ele>827</ele>
        <time>2026-05-14T12:59:56+00:00</time>
      </trkpt>
      <trkpt lat="42.35737" lon="9.36228">
        <ele>820</ele>
        <time>2026-05-14T12:59:57+00:00</time>
      </trkpt>
      <trkpt lat="42.35751" lon="9.36219">
        <ele>817</ele>
        <time>2026-05-14T12:59:58+00:00</time>
      </trkpt>
      <trkpt lat="42.35789" lon="9.36183">
        <ele>811</ele>
        <time>2026-05-14T12:59:59+00:00</time>
      </trkpt>
      <trkpt lat="42.35845" lon="9.36212">
        <ele>793</ele>
        <time>2026-05-14T13:00:00+00:00</time>
      </trkpt>
      <trkpt lat="42.35928" lon="9.36235">
        <ele>776</ele>
        <time>2026-05-14T13:00:01+00:00</time>
      </trkpt>
      <trkpt lat="42.35994" lon="9.36262">
        <ele>760</ele>
        <time>2026-05-14T13:00:02+00:00</time>
      </trkpt>
      <trkpt lat="42.36049" lon="9.3628">
        <ele>750</ele>
        <time>2026-05-14T13:00:03+00:00</time>
      </trkpt>
      <trkpt lat="42.3611" lon="9.36294">
        <ele>742</ele>
        <time>2026-05-14T13:00:04+00:00</time>
      </trkpt>
      <trkpt lat="42.36173" lon="9.3633">
        <ele>737</ele>
        <time>2026-05-14T13:00:05+00:00</time>
      </trkpt>
      <trkpt lat="42.36202" lon="9.3635">
        <ele>729</ele>
        <time>2026-05-14T13:00:06+00:00</time>
      </trkpt>
      <trkpt lat="42.36246" lon="9.3639">
        <ele>720</ele>
        <time>2026-05-14T13:00:07+00:00</time>
      </trkpt>
      <trkpt lat="42.3628" lon="9.36414">
        <ele>715</ele>
        <time>2026-05-14T13:00:08+00:00</time>
      </trkpt>
      <trkpt lat="42.36303" lon="9.36438">
        <ele>708</ele>
        <time>2026-05-14T13:00:09+00:00</time>
      </trkpt>
      <trkpt lat="42.36317" lon="9.3646">
        <ele>705</ele>
        <time>2026-05-14T13:00:10+00:00</time>
      </trkpt>
      <trkpt lat="42.36331" lon="9.36494">
        <ele>702</ele>
        <time>2026-05-14T13:00:11+00:00</time>
      </trkpt>
      <trkpt lat="42.36335" lon="9.3639">
        <ele>700</ele>
        <time>2026-05-14T13:00:12+00:00</time>
      </trkpt>
      <trkpt lat="42.36344" lon="9.36393">
        <ele>696</ele>
        <time>2026-05-14T13:00:13+00:00</time>
      </trkpt>
      <trkpt lat="42.36354" lon="9.36447">
        <ele>695</ele>
        <time>2026-05-14T13:00:14+00:00</time>
      </trkpt>
      <trkpt lat="42.36368" lon="9.36471">
        <ele>689</ele>
        <time>2026-05-14T13:00:15+00:00</time>
      </trkpt>
      <trkpt lat="42.36391" lon="9.36501">
        <ele>682</ele>
        <time>2026-05-14T13:00:16+00:00</time>
      </trkpt>
      <trkpt lat="42.36412" lon="9.36519">
        <ele>676</ele>
        <time>2026-05-14T13:00:17+00:00</time>
      </trkpt>
      <trkpt lat="42.36432" lon="9.36552">
        <ele>671</ele>
        <time>2026-05-14T13:00:18+00:00</time>
      </trkpt>
      <trkpt lat="42.3644" lon="9.36561">
        <ele>669</ele>
        <time>2026-05-14T13:00:19+00:00</time>
      </trkpt>
      <trkpt lat="42.36434" lon="9.36529">
        <ele>668</ele>
        <time>2026-05-14T13:00:20+00:00</time>
      </trkpt>
      <trkpt lat="42.36443" lon="9.36536">
        <ele>665</ele>
        <time>2026-05-14T13:00:21+00:00</time>
      </trkpt>
      <trkpt lat="42.36454" lon="9.36555">
        <ele>663</ele>
        <time>2026-05-14T13:00:22+00:00</time>
      </trkpt>
      <trkpt lat="42.36459" lon="9.36586">
        <ele>663</ele>
        <time>2026-05-14T13:00:23+00:00</time>
      </trkpt>
      <trkpt lat="42.36468" lon="9.3659">
        <ele>659</ele>
        <time>2026-05-14T13:00:24+00:00</time>
      </trkpt>
      <trkpt lat="42.36468" lon="9.36561">
        <ele>657</ele>
        <time>2026-05-14T13:00:25+00:00</time>
      </trkpt>
      <trkpt lat="42.36471" lon="9.36549">
        <ele>655</ele>
        <time>2026-05-14T13:00:26+00:00</time>
      </trkpt>
      <trkpt lat="42.36487" lon="9.36571">
        <ele>651</ele>
        <time>2026-05-14T13:00:27+00:00</time>
      </trkpt>
      <trkpt lat="42.36496" lon="9.36588">
        <ele>648</ele>
        <time>2026-05-14T13:00:28+00:00</time>
      </trkpt>
      <trkpt lat="42.36515" lon="9.36609">
        <ele>640</ele>
        <time>2026-05-14T13:00:29+00:00</time>
      </trkpt>
      <trkpt lat="42.36531" lon="9.36615">
        <ele>637</ele>
        <time>2026-05-14T13:00:30+00:00</time>
      </trkpt>
      <trkpt lat="42.36543" lon="9.36615">
        <ele>634</ele>
        <time>2026-05-14T13:00:31+00:00</time>
      </trkpt>
      <trkpt lat="42.36558" lon="9.36621">
        <ele>632</ele>
        <time>2026-05-14T13:00:32+00:00</time>
      </trkpt>
      <trkpt lat="42.36574" lon="9.36631">
        <ele>630</ele>
        <time>2026-05-14T13:00:33+00:00</time>
      </trkpt>
      <trkpt lat="42.3654" lon="9.36568">
        <ele>633</ele>
        <time>2026-05-14T13:00:34+00:00</time>
      </trkpt>
      <trkpt lat="42.36529" lon="9.36542">
        <ele>633</ele>
        <time>2026-05-14T13:00:35+00:00</time>
      </trkpt>
      <trkpt lat="42.36521" lon="9.36471">
        <ele>627</ele>
        <time>2026-05-14T13:00:36+00:00</time>
      </trkpt>
      <trkpt lat="42.36522" lon="9.36433">
        <ele>623</ele>
        <time>2026-05-14T13:00:37+00:00</time>
      </trkpt>
      <trkpt lat="42.36517" lon="9.36407">
        <ele>623</ele>
        <time>2026-05-14T13:00:38+00:00</time>
      </trkpt>
      <trkpt lat="42.36503" lon="9.36387">
        <ele>628</ele>
        <time>2026-05-14T13:00:39+00:00</time>
      </trkpt>
      <trkpt lat="42.36506" lon="9.36367">
        <ele>627</ele>
        <time>2026-05-14T13:00:40+00:00</time>
      </trkpt>
      <trkpt lat="42.36518" lon="9.36348">
        <ele>622</ele>
        <time>2026-05-14T13:00:41+00:00</time>
      </trkpt>
      <trkpt lat="42.36532" lon="9.36333">
        <ele>616</ele>
        <time>2026-05-14T13:00:42+00:00</time>
      </trkpt>
      <trkpt lat="42.36548" lon="9.36323">
        <ele>611</ele>
        <time>2026-05-14T13:00:43+00:00</time>
      </trkpt>
      <trkpt lat="42.36576" lon="9.36318">
        <ele>600</ele>
        <time>2026-05-14T13:00:44+00:00</time>
      </trkpt>
      <trkpt lat="42.36579" lon="9.36261">
        <ele>604</ele>
        <time>2026-05-14T13:00:45+00:00</time>
      </trkpt>
      <trkpt lat="42.36587" lon="9.36245">
        <ele>604</ele>
        <time>2026-05-14T13:00:46+00:00</time>
      </trkpt>
      <trkpt lat="42.36616" lon="9.36255">
        <ele>598</ele>
        <time>2026-05-14T13:00:47+00:00</time>
      </trkpt>
      <trkpt lat="42.36653" lon="9.3626">
        <ele>590</ele>
        <time>2026-05-14T13:00:48+00:00</time>
      </trkpt>
      <trkpt lat="42.36669" lon="9.36249">
        <ele>589</ele>
        <time>2026-05-14T13:00:49+00:00</time>
      </trkpt>
      <trkpt lat="42.36679" lon="9.36233">
        <ele>589</ele>
        <time>2026-05-14T13:00:50+00:00</time>
      </trkpt>
      <trkpt lat="42.36683" lon="9.36213">
        <ele>591</ele>
        <time>2026-05-14T13:00:51+00:00</time>
      </trkpt>
      <trkpt lat="42.36687" lon="9.36147">
        <ele>601</ele>
        <time>2026-05-14T13:00:52+00:00</time>
      </trkpt>
      <trkpt lat="42.36698" lon="9.36054">
        <ele>604</ele>
        <time>2026-05-14T13:00:53+00:00</time>
      </trkpt>
      <trkpt lat="42.36698" lon="9.36021">
        <ele>606</ele>
        <time>2026-05-14T13:00:54+00:00</time>
      </trkpt>
      <trkpt lat="42.3669" lon="9.35964">
        <ele>609</ele>
        <time>2026-05-14T13:00:55+00:00</time>
      </trkpt>
      <trkpt lat="42.36683" lon="9.35937">
        <ele>611</ele>
        <time>2026-05-14T13:00:56+00:00</time>
      </trkpt>
      <trkpt lat="42.36664" lon="9.35884">
        <ele>614</ele>
        <time>2026-05-14T13:00:57+00:00</time>
      </trkpt>
      <trkpt lat="42.3667" lon="9.35868">
        <ele>613</ele>
        <time>2026-05-14T13:00:58+00:00</time>
      </trkpt>
      <trkpt lat="42.36692" lon="9.35844">
        <ele>614</ele>
        <time>2026-05-14T13:00:59+00:00</time>
      </trkpt>
      <trkpt lat="42.36681" lon="9.3584">
        <ele>614</ele>
        <time>2026-05-14T13:01:00+00:00</time>
      </trkpt>
      <trkpt lat="42.36679" lon="9.35827">
        <ele>616</ele>
        <time>2026-05-14T13:01:01+00:00</time>
      </trkpt>
      <trkpt lat="42.36682" lon="9.35811">
        <ele>619</ele>
        <time>2026-05-14T13:01:02+00:00</time>
      </trkpt>
      <trkpt lat="42.36671" lon="9.35817">
        <ele>618</ele>
        <time>2026-05-14T13:01:03+00:00</time>
      </trkpt>
      <trkpt lat="42.36658" lon="9.35818">
        <ele>620</ele>
        <time>2026-05-14T13:01:04+00:00</time>
      </trkpt>
      <trkpt lat="42.36644" lon="9.35811">
        <ele>624</ele>
        <time>2026-05-14T13:01:05+00:00</time>
      </trkpt>
      <trkpt lat="42.36638" lon="9.35795">
        <ele>628</ele>
        <time>2026-05-14T13:01:06+00:00</time>
      </trkpt>
    </trkseg>
  </trk>
</gpx>
