<?xml version="1.0" encoding="UTF-8" ?>
<gpx version="1.1" xmlns:xsi="http://www.w3.org/2001/XMLSchema-instance"
    xmlns="http://www.topografix.com/GPX/1/1"
    xsi:schemaLocation="http://www.topografix.com/GPX/1/1 http://www.topografix.com/GPX/1/1/gpx.xsd"
    creator="Openrunner - https://www.openrunner.com" >	<trk>
	                   <name>Parcourt Difficile-22905046</name>
						<trkseg>
					<trkpt lat="47.215890" lon="-1.542910">
						<ele>8</ele>
						<time>2026-05-01T08:37:49Z</time>
					</trkpt>
					<trkpt lat="47.215880" lon="-1.542970">
						<ele>8</ele>
						<time>2026-05-01T08:37:50Z</time>
					</trkpt>
					<trkpt lat="47.215810" lon="-1.542850">
						<ele>8</ele>
						<time>2026-05-01T08:37:54Z</time>
					</trkpt>
					<trkpt lat="47.215780" lon="-1.542840">
						<ele>8</ele>
						<time>2026-05-01T08:37:55Z</time>
					</trkpt>
					<trkpt lat="47.215700" lon="-1.542800">
						<ele>8</ele>
						<time>2026-05-01T08:37:58Z</time>
					</trkpt>
					<trkpt lat="47.215650" lon="-1.542860">
						<ele>8</ele>
						<time>2026-05-01T08:38:00Z</time>
					</trkpt>
					<trkpt lat="47.215640" lon="-1.542880">
						<ele>7</ele>
						<time>2026-05-01T08:38:01Z</time>
					</trkpt>
					<trkpt lat="47.215620" lon="-1.542860">
						<ele>7</ele>
						<time>2026-05-01T08:38:01Z</time>
					</trkpt>
					<trkpt lat="47.215550" lon="-1.542750">
						<ele>7</ele>
						<time>2026-05-01T08:38:05Z</time>
					</trkpt>
					<trkpt lat="47.215510" lon="-1.542800">
						<ele>7</ele>
						<time>2026-05-01T08:38:07Z</time>
					</trkpt>
					<trkpt lat="47.215440" lon="-1.542870">
						<ele>7</ele>
						<time>2026-05-01T08:38:09Z</time>
					</trkpt>
					<trkpt lat="47.215270" lon="-1.543150">
						<ele>6</ele>
						<time>2026-05-01T08:38:18Z</time>
					</trkpt>
					<trkpt lat="47.214860" lon="-1.542620">
						<ele>5</ele>
						<time>2026-05-01T08:38:36Z</time>
					</trkpt>
					<trkpt lat="47.214540" lon="-1.542230">
						<ele>6</ele>
						<time>2026-05-01T08:38:50Z</time>
					</trkpt>
					<trkpt lat="47.214240" lon="-1.541830">
						<ele>7</ele>
						<time>2026-05-01T08:39:03Z</time>
					</trkpt>
					<trkpt lat="47.213740" lon="-1.541200">
						<ele>6</ele>
						<time>2026-05-01T08:39:25Z</time>
					</trkpt>
					<trkpt lat="47.213400" lon="-1.540780">
						<ele>5</ele>
						<time>2026-05-01T08:39:40Z</time>
					</trkpt>
					<trkpt lat="47.213160" lon="-1.540470">
						<ele>6</ele>
						<time>2026-05-01T08:39:51Z</time>
					</trkpt>
					<trkpt lat="47.213160" lon="-1.540470">
						<ele>6</ele>
						<time>2026-05-01T08:39:51Z</time>
					</trkpt>
					<trkpt lat="47.212900" lon="-1.540140">
						<ele>8</ele>
						<time>2026-05-01T08:40:02Z</time>
					</trkpt>
					<trkpt lat="47.213050" lon="-1.539860">
						<ele>9</ele>
						<time>2026-05-01T08:40:10Z</time>
					</trkpt>
					<trkpt lat="47.213070" lon="-1.539800">
						<ele>9</ele>
						<time>2026-05-01T08:40:12Z</time>
					</trkpt>
					<trkpt lat="47.213070" lon="-1.539800">
						<ele>9</ele>
						<time>2026-05-01T08:40:12Z</time>
					</trkpt>
					<trkpt lat="47.213110" lon="-1.539730">
						<ele>9</ele>
						<time>2026-05-01T08:40:14Z</time>
					</trkpt>
					<trkpt lat="47.213430" lon="-1.539590">
						<ele>10</ele>
						<time>2026-05-01T08:40:25Z</time>
					</trkpt>
					<trkpt lat="47.213420" lon="-1.539540">
						<ele>10</ele>
						<time>2026-05-01T08:40:26Z</time>
					</trkpt>
					<trkpt lat="47.213390" lon="-1.539330">
						<ele>11</ele>
						<time>2026-05-01T08:40:31Z</time>
					</trkpt>
					<trkpt lat="47.213350" lon="-1.539160">
						<ele>12</ele>
						<time>2026-05-01T08:40:35Z</time>
					</trkpt>
					<trkpt lat="47.213360" lon="-1.538970">
						<ele>12</ele>
						<time>2026-05-01T08:40:40Z</time>
					</trkpt>
					<trkpt lat="47.213160" lon="-1.537630">
						<ele>9</ele>
						<time>2026-05-01T08:41:11Z</time>
					</trkpt>
					<trkpt lat="47.213130" lon="-1.537440">
						<ele>8</ele>
						<time>2026-05-01T08:41:15Z</time>
					</trkpt>
					<trkpt lat="47.213130" lon="-1.537400">
						<ele>8</ele>
						<time>2026-05-01T08:41:16Z</time>
					</trkpt>
					<trkpt lat="47.213100" lon="-1.537210">
						<ele>8</ele>
						<time>2026-05-01T08:41:20Z</time>
					</trkpt>
					<trkpt lat="47.213060" lon="-1.537140">
						<ele>7</ele>
						<time>2026-05-01T08:41:22Z</time>
					</trkpt>
					<trkpt lat="47.213020" lon="-1.536950">
						<ele>7</ele>
						<time>2026-05-01T08:41:27Z</time>
					</trkpt>
					<trkpt lat="47.212990" lon="-1.536870">
						<ele>6</ele>
						<time>2026-05-01T08:41:29Z</time>
					</trkpt>
					<trkpt lat="47.212880" lon="-1.536640">
						<ele>5</ele>
						<time>2026-05-01T08:41:35Z</time>
					</trkpt>
					<trkpt lat="47.212860" lon="-1.536680">
						<ele>5</ele>
						<time>2026-05-01T08:41:37Z</time>
					</trkpt>
					<trkpt lat="47.212710" lon="-1.536600">
						<ele>5</ele>
						<time>2026-05-01T08:41:42Z</time>
					</trkpt>
					<trkpt lat="47.212660" lon="-1.536540">
						<ele>5</ele>
						<time>2026-05-01T08:41:44Z</time>
					</trkpt>
					<trkpt lat="47.212610" lon="-1.536500">
						<ele>5</ele>
						<time>2026-05-01T08:41:46Z</time>
					</trkpt>
					<trkpt lat="47.212580" lon="-1.536480">
						<ele>5</ele>
						<time>2026-05-01T08:41:47Z</time>
					</trkpt>
					<trkpt lat="47.212590" lon="-1.536460">
						<ele>5</ele>
						<time>2026-05-01T08:41:48Z</time>
					</trkpt>
					<trkpt lat="47.212540" lon="-1.536440">
						<ele>5</ele>
						<time>2026-05-01T08:41:49Z</time>
					</trkpt>
					<trkpt lat="47.212490" lon="-1.536410">
						<ele>5</ele>
						<time>2026-05-01T08:41:51Z</time>
					</trkpt>
					<trkpt lat="47.212540" lon="-1.536440">
						<ele>5</ele>
						<time>2026-05-01T08:41:53Z</time>
					</trkpt>
					<trkpt lat="47.212590" lon="-1.536460">
						<ele>5</ele>
						<time>2026-05-01T08:41:55Z</time>
					</trkpt>
					<trkpt lat="47.212600" lon="-1.536420">
						<ele>5</ele>
						<time>2026-05-01T08:41:56Z</time>
					</trkpt>
					<trkpt lat="47.212610" lon="-1.536340">
						<ele>5</ele>
						<time>2026-05-01T08:41:57Z</time>
					</trkpt>
					<trkpt lat="47.212570" lon="-1.536320">
						<ele>5</ele>
						<time>2026-05-01T08:41:59Z</time>
					</trkpt>
					<trkpt lat="47.212440" lon="-1.536290">
						<ele>5</ele>
						<time>2026-05-01T08:42:03Z</time>
					</trkpt>
					<trkpt lat="47.210930" lon="-1.535570">
						<ele>3</ele>
						<time>2026-05-01T08:42:56Z</time>
					</trkpt>
					<trkpt lat="47.210830" lon="-1.535480">
						<ele>4</ele>
						<time>2026-05-01T08:43:00Z</time>
					</trkpt>
					<trkpt lat="47.210770" lon="-1.535440">
						<ele>4</ele>
						<time>2026-05-01T08:43:02Z</time>
					</trkpt>
					<trkpt lat="47.210750" lon="-1.535430">
						<ele>5</ele>
						<time>2026-05-01T08:43:03Z</time>
					</trkpt>
					<trkpt lat="47.210760" lon="-1.535370">
						<ele>5</ele>
						<time>2026-05-01T08:43:04Z</time>
					</trkpt>
					<trkpt lat="47.210730" lon="-1.535340">
						<ele>5</ele>
						<time>2026-05-01T08:43:06Z</time>
					</trkpt>
					<trkpt lat="47.210710" lon="-1.535340">
						<ele>5</ele>
						<time>2026-05-01T08:43:06Z</time>
					</trkpt>
					<trkpt lat="47.210730" lon="-1.535340">
						<ele>5</ele>
						<time>2026-05-01T08:43:07Z</time>
					</trkpt>
					<trkpt lat="47.210760" lon="-1.535370">
						<ele>5</ele>
						<time>2026-05-01T08:43:08Z</time>
					</trkpt>
					<trkpt lat="47.210760" lon="-1.535270">
						<ele>5</ele>
						<time>2026-05-01T08:43:10Z</time>
					</trkpt>
					<trkpt lat="47.210780" lon="-1.535020">
						<ele>5</ele>
						<time>2026-05-01T08:43:16Z</time>
					</trkpt>
					<trkpt lat="47.210790" lon="-1.534940">
						<ele>5</ele>
						<time>2026-05-01T08:43:18Z</time>
					</trkpt>
					<trkpt lat="47.210830" lon="-1.534590">
						<ele>6</ele>
						<time>2026-05-01T08:43:26Z</time>
					</trkpt>
					<trkpt lat="47.210860" lon="-1.534460">
						<ele>5</ele>
						<time>2026-05-01T08:43:29Z</time>
					</trkpt>
					<trkpt lat="47.210920" lon="-1.534510">
						<ele>5</ele>
						<time>2026-05-01T08:43:31Z</time>
					</trkpt>
					<trkpt lat="47.210970" lon="-1.534050">
						<ele>5</ele>
						<time>2026-05-01T08:43:42Z</time>
					</trkpt>
					<trkpt lat="47.211010" lon="-1.533740">
						<ele>4</ele>
						<time>2026-05-01T08:43:49Z</time>
					</trkpt>
					<trkpt lat="47.210990" lon="-1.533740">
						<ele>4</ele>
						<time>2026-05-01T08:43:50Z</time>
					</trkpt>
					<trkpt lat="47.211000" lon="-1.533630">
						<ele>4</ele>
						<time>2026-05-01T08:43:52Z</time>
					</trkpt>
					<trkpt lat="47.211020" lon="-1.533640">
						<ele>4</ele>
						<time>2026-05-01T08:43:53Z</time>
					</trkpt>
					<trkpt lat="47.211340" lon="-1.530870">
						<ele>4</ele>
						<time>2026-05-01T08:44:57Z</time>
					</trkpt>
					<trkpt lat="47.211510" lon="-1.529410">
						<ele>3</ele>
						<time>2026-05-01T08:45:30Z</time>
					</trkpt>
					<trkpt lat="47.211540" lon="-1.529120">
						<ele>2</ele>
						<time>2026-05-01T08:45:37Z</time>
					</trkpt>
					<trkpt lat="47.211590" lon="-1.528750">
						<ele>3</ele>
						<time>2026-05-01T08:45:45Z</time>
					</trkpt>
					<trkpt lat="47.211630" lon="-1.528470">
						<ele>4</ele>
						<time>2026-05-01T08:45:52Z</time>
					</trkpt>
					<trkpt lat="47.211730" lon="-1.527690">
						<ele>4</ele>
						<time>2026-05-01T08:46:10Z</time>
					</trkpt>
					<trkpt lat="47.211920" lon="-1.526580">
						<ele>4</ele>
						<time>2026-05-01T08:46:36Z</time>
					</trkpt>
					<trkpt lat="47.211830" lon="-1.526540">
						<ele>5</ele>
						<time>2026-05-01T08:46:39Z</time>
					</trkpt>
					<trkpt lat="47.211790" lon="-1.526530">
						<ele>5</ele>
						<time>2026-05-01T08:46:40Z</time>
					</trkpt>
					<trkpt lat="47.211820" lon="-1.526430">
						<ele>5</ele>
						<time>2026-05-01T08:46:43Z</time>
					</trkpt>
					<trkpt lat="47.211840" lon="-1.526370">
						<ele>5</ele>
						<time>2026-05-01T08:46:44Z</time>
					</trkpt>
					<trkpt lat="47.211980" lon="-1.525850">
						<ele>5</ele>
						<time>2026-05-01T08:46:57Z</time>
					</trkpt>
					<trkpt lat="47.212060" lon="-1.525510">
						<ele>5</ele>
						<time>2026-05-01T08:47:05Z</time>
					</trkpt>
					<trkpt lat="47.212100" lon="-1.525370">
						<ele>6</ele>
						<time>2026-05-01T08:47:09Z</time>
					</trkpt>
					<trkpt lat="47.212120" lon="-1.525240">
						<ele>6</ele>
						<time>2026-05-01T08:47:12Z</time>
					</trkpt>
					<trkpt lat="47.212130" lon="-1.525180">
						<ele>6</ele>
						<time>2026-05-01T08:47:13Z</time>
					</trkpt>
					<trkpt lat="47.212130" lon="-1.525180">
						<ele>6</ele>
						<time>2026-05-01T08:47:13Z</time>
					</trkpt>
					<trkpt lat="47.212240" lon="-1.524590">
						<ele>7</ele>
						<time>2026-05-01T08:47:27Z</time>
					</trkpt>
					<trkpt lat="47.212260" lon="-1.524310">
						<ele>8</ele>
						<time>2026-05-01T08:47:33Z</time>
					</trkpt>
					<trkpt lat="47.212250" lon="-1.523930">
						<ele>8</ele>
						<time>2026-05-01T08:47:42Z</time>
					</trkpt>
					<trkpt lat="47.212250" lon="-1.523830">
						<ele>8</ele>
						<time>2026-05-01T08:47:44Z</time>
					</trkpt>
					<trkpt lat="47.212280" lon="-1.523570">
						<ele>8</ele>
						<time>2026-05-01T08:47:50Z</time>
					</trkpt>
					<trkpt lat="47.212440" lon="-1.523080">
						<ele>9</ele>
						<time>2026-05-01T08:48:02Z</time>
					</trkpt>
					<trkpt lat="47.212700" lon="-1.522470">
						<ele>7</ele>
						<time>2026-05-01T08:48:19Z</time>
					</trkpt>
					<trkpt lat="47.212750" lon="-1.522370">
						<ele>6</ele>
						<time>2026-05-01T08:48:22Z</time>
					</trkpt>
					<trkpt lat="47.213110" lon="-1.521770">
						<ele>4</ele>
						<time>2026-05-01T08:48:40Z</time>
					</trkpt>
					<trkpt lat="47.213450" lon="-1.520740">
						<ele>5</ele>
						<time>2026-05-01T08:49:06Z</time>
					</trkpt>
					<trkpt lat="47.213440" lon="-1.520590">
						<ele>5</ele>
						<time>2026-05-01T08:49:09Z</time>
					</trkpt>
					<trkpt lat="47.213450" lon="-1.520440">
						<ele>5</ele>
						<time>2026-05-01T08:49:13Z</time>
					</trkpt>
					<trkpt lat="47.213500" lon="-1.520200">
						<ele>4</ele>
						<time>2026-05-01T08:49:18Z</time>
					</trkpt>
					<trkpt lat="47.213540" lon="-1.520040">
						<ele>4</ele>
						<time>2026-05-01T08:49:22Z</time>
					</trkpt>
					<trkpt lat="47.213680" lon="-1.519660">
						<ele>3</ele>
						<time>2026-05-01T08:49:32Z</time>
					</trkpt>
					<trkpt lat="47.213700" lon="-1.519400">
						<ele>3</ele>
						<time>2026-05-01T08:49:38Z</time>
					</trkpt>
					<trkpt lat="47.213740" lon="-1.519180">
						<ele>3</ele>
						<time>2026-05-01T08:49:43Z</time>
					</trkpt>
					<trkpt lat="47.213750" lon="-1.518860">
						<ele>4</ele>
						<time>2026-05-01T08:49:50Z</time>
					</trkpt>
					<trkpt lat="47.213760" lon="-1.518810">
						<ele>4</ele>
						<time>2026-05-01T08:49:51Z</time>
					</trkpt>
					<trkpt lat="47.213820" lon="-1.518580">
						<ele>4</ele>
						<time>2026-05-01T08:49:57Z</time>
					</trkpt>
					<trkpt lat="47.213880" lon="-1.518430">
						<ele>4</ele>
						<time>2026-05-01T08:50:01Z</time>
					</trkpt>
					<trkpt lat="47.213870" lon="-1.518320">
						<ele>5</ele>
						<time>2026-05-01T08:50:03Z</time>
					</trkpt>
					<trkpt lat="47.213770" lon="-1.518310">
						<ele>5</ele>
						<time>2026-05-01T08:50:07Z</time>
					</trkpt>
					<trkpt lat="47.213660" lon="-1.518430">
						<ele>5</ele>
						<time>2026-05-01T08:50:11Z</time>
					</trkpt>
					<trkpt lat="47.213550" lon="-1.518490">
						<ele>5</ele>
						<time>2026-05-01T08:50:15Z</time>
					</trkpt>
					<trkpt lat="47.213510" lon="-1.518410">
						<ele>5</ele>
						<time>2026-05-01T08:50:18Z</time>
					</trkpt>
					<trkpt lat="47.213620" lon="-1.518110">
						<ele>6</ele>
						<time>2026-05-01T08:50:25Z</time>
					</trkpt>
					<trkpt lat="47.213610" lon="-1.517980">
						<ele>6</ele>
						<time>2026-05-01T08:50:28Z</time>
					</trkpt>
					<trkpt lat="47.213560" lon="-1.517850">
						<ele>7</ele>
						<time>2026-05-01T08:50:32Z</time>
					</trkpt>
					<trkpt lat="47.213410" lon="-1.517660">
						<ele>7</ele>
						<time>2026-05-01T08:50:38Z</time>
					</trkpt>
					<trkpt lat="47.213250" lon="-1.517560">
						<ele>7</ele>
						<time>2026-05-01T08:50:44Z</time>
					</trkpt>
					<trkpt lat="47.213180" lon="-1.517550">
						<ele>7</ele>
						<time>2026-05-01T08:50:46Z</time>
					</trkpt>
					<trkpt lat="47.213110" lon="-1.517600">
						<ele>6</ele>
						<time>2026-05-01T08:50:49Z</time>
					</trkpt>
					<trkpt lat="47.213060" lon="-1.517710">
						<ele>5</ele>
						<time>2026-05-01T08:50:52Z</time>
					</trkpt>
					<trkpt lat="47.212940" lon="-1.517630">
						<ele>5</ele>
						<time>2026-05-01T08:50:56Z</time>
					</trkpt>
					<trkpt lat="47.212920" lon="-1.517630">
						<ele>4</ele>
						<time>2026-05-01T08:50:57Z</time>
					</trkpt>
					<trkpt lat="47.212880" lon="-1.517650">
						<ele>4</ele>
						<time>2026-05-01T08:50:58Z</time>
					</trkpt>
					<trkpt lat="47.212670" lon="-1.518020">
						<ele>3</ele>
						<time>2026-05-01T08:51:09Z</time>
					</trkpt>
					<trkpt lat="47.212510" lon="-1.518240">
						<ele>2</ele>
						<time>2026-05-01T08:51:17Z</time>
					</trkpt>
					<trkpt lat="47.212440" lon="-1.518350">
						<ele>2</ele>
						<time>2026-05-01T08:51:20Z</time>
					</trkpt>
					<trkpt lat="47.211690" lon="-1.519360">
						<ele>10</ele>
						<time>2026-05-01T08:51:54Z</time>
					</trkpt>
					<trkpt lat="47.211650" lon="-1.519430">
						<ele>10</ele>
						<time>2026-05-01T08:51:56Z</time>
					</trkpt>
					<trkpt lat="47.211560" lon="-1.519630">
						<ele>9</ele>
						<time>2026-05-01T08:52:01Z</time>
					</trkpt>
					<trkpt lat="47.211460" lon="-1.519740">
						<ele>8</ele>
						<time>2026-05-01T08:52:06Z</time>
					</trkpt>
					<trkpt lat="47.211010" lon="-1.520390">
						<ele>5</ele>
						<time>2026-05-01T08:52:27Z</time>
					</trkpt>
					<trkpt lat="47.210700" lon="-1.520770">
						<ele>4</ele>
						<time>2026-05-01T08:52:40Z</time>
					</trkpt>
					<trkpt lat="47.210540" lon="-1.520990">
						<ele>4</ele>
						<time>2026-05-01T08:52:47Z</time>
					</trkpt>
					<trkpt lat="47.210470" lon="-1.521100">
						<ele>4</ele>
						<time>2026-05-01T08:52:51Z</time>
					</trkpt>
					<trkpt lat="47.210360" lon="-1.521280">
						<ele>5</ele>
						<time>2026-05-01T08:52:56Z</time>
					</trkpt>
					<trkpt lat="47.209740" lon="-1.522090">
						<ele>7</ele>
						<time>2026-05-01T08:53:24Z</time>
					</trkpt>
					<trkpt lat="47.209560" lon="-1.522310">
						<ele>8</ele>
						<time>2026-05-01T08:53:32Z</time>
					</trkpt>
					<trkpt lat="47.209550" lon="-1.522330">
						<ele>9</ele>
						<time>2026-05-01T08:53:32Z</time>
					</trkpt>
					<trkpt lat="47.209560" lon="-1.522350">
						<ele>9</ele>
						<time>2026-05-01T08:53:33Z</time>
					</trkpt>
					<trkpt lat="47.209560" lon="-1.522350">
						<ele>9</ele>
						<time>2026-05-01T08:53:33Z</time>
					</trkpt>
					<trkpt lat="47.209570" lon="-1.522370">
						<ele>9</ele>
						<time>2026-05-01T08:53:33Z</time>
					</trkpt>
					<trkpt lat="47.209500" lon="-1.522420">
						<ele>9</ele>
						<time>2026-05-01T08:53:36Z</time>
					</trkpt>
					<trkpt lat="47.209360" lon="-1.522610">
						<ele>10</ele>
						<time>2026-05-01T08:53:42Z</time>
					</trkpt>
					<trkpt lat="47.209280" lon="-1.522760">
						<ele>10</ele>
						<time>2026-05-01T08:53:47Z</time>
					</trkpt>
					<trkpt lat="47.209230" lon="-1.522870">
						<ele>10</ele>
						<time>2026-05-01T08:53:50Z</time>
					</trkpt>
					<trkpt lat="47.209050" lon="-1.523120">
						<ele>10</ele>
						<time>2026-05-01T08:53:58Z</time>
					</trkpt>
					<trkpt lat="47.208580" lon="-1.523840">
						<ele>5</ele>
						<time>2026-05-01T08:54:21Z</time>
					</trkpt>
					<trkpt lat="47.208290" lon="-1.524260">
						<ele>5</ele>
						<time>2026-05-01T08:54:34Z</time>
					</trkpt>
					<trkpt lat="47.207860" lon="-1.524950">
						<ele>5</ele>
						<time>2026-05-01T08:54:55Z</time>
					</trkpt>
					<trkpt lat="47.207640" lon="-1.525300">
						<ele>6</ele>
						<time>2026-05-01T08:55:06Z</time>
					</trkpt>
					<trkpt lat="47.207490" lon="-1.525530">
						<ele>7</ele>
						<time>2026-05-01T08:55:13Z</time>
					</trkpt>
					<trkpt lat="47.207460" lon="-1.525590">
						<ele>7</ele>
						<time>2026-05-01T08:55:15Z</time>
					</trkpt>
					<trkpt lat="47.207130" lon="-1.526180">
						<ele>7</ele>
						<time>2026-05-01T08:55:32Z</time>
					</trkpt>
					<trkpt lat="47.207050" lon="-1.526350">
						<ele>7</ele>
						<time>2026-05-01T08:55:37Z</time>
					</trkpt>
					<trkpt lat="47.207010" lon="-1.526300">
						<ele>6</ele>
						<time>2026-05-01T08:55:39Z</time>
					</trkpt>
					<trkpt lat="47.206940" lon="-1.526430">
						<ele>6</ele>
						<time>2026-05-01T08:55:43Z</time>
					</trkpt>
					<trkpt lat="47.206900" lon="-1.526430">
						<ele>5</ele>
						<time>2026-05-01T08:55:44Z</time>
					</trkpt>
					<trkpt lat="47.206790" lon="-1.526630">
						<ele>5</ele>
						<time>2026-05-01T08:55:50Z</time>
					</trkpt>
					<trkpt lat="47.206770" lon="-1.526660">
						<ele>5</ele>
						<time>2026-05-01T08:55:51Z</time>
					</trkpt>
					<trkpt lat="47.206750" lon="-1.526700">
						<ele>5</ele>
						<time>2026-05-01T08:55:52Z</time>
					</trkpt>
					<trkpt lat="47.206790" lon="-1.526790">
						<ele>6</ele>
						<time>2026-05-01T08:55:54Z</time>
					</trkpt>
					<trkpt lat="47.206750" lon="-1.526700">
						<ele>5</ele>
						<time>2026-05-01T08:55:57Z</time>
					</trkpt>
					<trkpt lat="47.206720" lon="-1.526750">
						<ele>5</ele>
						<time>2026-05-01T08:55:58Z</time>
					</trkpt>
					<trkpt lat="47.206720" lon="-1.526830">
						<ele>5</ele>
						<time>2026-05-01T08:56:00Z</time>
					</trkpt>
					<trkpt lat="47.206720" lon="-1.526900">
						<ele>6</ele>
						<time>2026-05-01T08:56:02Z</time>
					</trkpt>
					<trkpt lat="47.206690" lon="-1.527000">
						<ele>6</ele>
						<time>2026-05-01T08:56:04Z</time>
					</trkpt>
					<trkpt lat="47.206430" lon="-1.527520">
						<ele>7</ele>
						<time>2026-05-01T08:56:19Z</time>
					</trkpt>
					<trkpt lat="47.206210" lon="-1.527950">
						<ele>6</ele>
						<time>2026-05-01T08:56:31Z</time>
					</trkpt>
					<trkpt lat="47.206050" lon="-1.528220">
						<ele>5</ele>
						<time>2026-05-01T08:56:39Z</time>
					</trkpt>
					<trkpt lat="47.206020" lon="-1.528320">
						<ele>5</ele>
						<time>2026-05-01T08:56:42Z</time>
					</trkpt>
					<trkpt lat="47.205910" lon="-1.528550">
						<ele>6</ele>
						<time>2026-05-01T08:56:48Z</time>
					</trkpt>
					<trkpt lat="47.205720" lon="-1.528930">
						<ele>8</ele>
						<time>2026-05-01T08:56:59Z</time>
					</trkpt>
					<trkpt lat="47.205550" lon="-1.529330">
						<ele>8</ele>
						<time>2026-05-01T08:57:09Z</time>
					</trkpt>
					<trkpt lat="47.205090" lon="-1.530350">
						<ele>7</ele>
						<time>2026-05-01T08:57:37Z</time>
					</trkpt>
					<trkpt lat="47.204930" lon="-1.530760">
						<ele>6</ele>
						<time>2026-05-01T08:57:48Z</time>
					</trkpt>
					<trkpt lat="47.204780" lon="-1.531070">
						<ele>6</ele>
						<time>2026-05-01T08:57:56Z</time>
					</trkpt>
					<trkpt lat="47.204670" lon="-1.531400">
						<ele>6</ele>
						<time>2026-05-01T08:58:05Z</time>
					</trkpt>
					<trkpt lat="47.204600" lon="-1.531580">
						<ele>6</ele>
						<time>2026-05-01T08:58:10Z</time>
					</trkpt>
					<trkpt lat="47.204130" lon="-1.532800">
						<ele>11</ele>
						<time>2026-05-01T08:58:41Z</time>
					</trkpt>
					<trkpt lat="47.203910" lon="-1.533340">
						<ele>10</ele>
						<time>2026-05-01T08:58:56Z</time>
					</trkpt>
					<trkpt lat="47.203550" lon="-1.534280">
						<ele>6</ele>
						<time>2026-05-01T08:59:20Z</time>
					</trkpt>
					<trkpt lat="47.203470" lon="-1.534510">
						<ele>7</ele>
						<time>2026-05-01T08:59:26Z</time>
					</trkpt>
					<trkpt lat="47.203320" lon="-1.534910">
						<ele>8</ele>
						<time>2026-05-01T08:59:36Z</time>
					</trkpt>
					<trkpt lat="47.202970" lon="-1.535770">
						<ele>8</ele>
						<time>2026-05-01T08:59:59Z</time>
					</trkpt>
					<trkpt lat="47.203020" lon="-1.535800">
						<ele>9</ele>
						<time>2026-05-01T09:00:01Z</time>
					</trkpt>
					<trkpt lat="47.203120" lon="-1.535540">
						<ele>9</ele>
						<time>2026-05-01T09:00:08Z</time>
					</trkpt>
					<trkpt lat="47.203020" lon="-1.535800">
						<ele>9</ele>
						<time>2026-05-01T09:00:14Z</time>
					</trkpt>
					<trkpt lat="47.202970" lon="-1.535770">
						<ele>8</ele>
						<time>2026-05-01T09:00:16Z</time>
					</trkpt>
					<trkpt lat="47.202830" lon="-1.536130">
						<ele>7</ele>
						<time>2026-05-01T09:00:26Z</time>
					</trkpt>
					<trkpt lat="47.202800" lon="-1.536230">
						<ele>7</ele>
						<time>2026-05-01T09:00:28Z</time>
					</trkpt>
					<trkpt lat="47.202740" lon="-1.536380">
						<ele>8</ele>
						<time>2026-05-01T09:00:32Z</time>
					</trkpt>
					<trkpt lat="47.202650" lon="-1.536470">
						<ele>7</ele>
						<time>2026-05-01T09:00:36Z</time>
					</trkpt>
					<trkpt lat="47.202480" lon="-1.536920">
						<ele>8</ele>
						<time>2026-05-01T09:00:47Z</time>
					</trkpt>
					<trkpt lat="47.202330" lon="-1.537330">
						<ele>9</ele>
						<time>2026-05-01T09:00:58Z</time>
					</trkpt>
					<trkpt lat="47.202140" lon="-1.537830">
						<ele>7</ele>
						<time>2026-05-01T09:01:11Z</time>
					</trkpt>
					<trkpt lat="47.201550" lon="-1.539400">
						<ele>7</ele>
						<time>2026-05-01T09:01:51Z</time>
					</trkpt>
					<trkpt lat="47.201410" lon="-1.539790">
						<ele>7</ele>
						<time>2026-05-01T09:02:01Z</time>
					</trkpt>
					<trkpt lat="47.201350" lon="-1.539970">
						<ele>7</ele>
						<time>2026-05-01T09:02:06Z</time>
					</trkpt>
					<trkpt lat="47.200980" lon="-1.541110">
						<ele>5</ele>
						<time>2026-05-01T09:02:35Z</time>
					</trkpt>
					<trkpt lat="47.200860" lon="-1.541490">
						<ele>5</ele>
						<time>2026-05-01T09:02:44Z</time>
					</trkpt>
					<trkpt lat="47.200460" lon="-1.542740">
						<ele>6</ele>
						<time>2026-05-01T09:03:15Z</time>
					</trkpt>
					<trkpt lat="47.200410" lon="-1.542980">
						<ele>6</ele>
						<time>2026-05-01T09:03:21Z</time>
					</trkpt>
					<trkpt lat="47.200370" lon="-1.543330">
						<ele>6</ele>
						<time>2026-05-01T09:03:29Z</time>
					</trkpt>
					<trkpt lat="47.200350" lon="-1.543400">
						<ele>6</ele>
						<time>2026-05-01T09:03:31Z</time>
					</trkpt>
					<trkpt lat="47.200310" lon="-1.543520">
						<ele>6</ele>
						<time>2026-05-01T09:03:34Z</time>
					</trkpt>
					<trkpt lat="47.200280" lon="-1.543680">
						<ele>5</ele>
						<time>2026-05-01T09:03:38Z</time>
					</trkpt>
					<trkpt lat="47.200250" lon="-1.543770">
						<ele>5</ele>
						<time>2026-05-01T09:03:40Z</time>
					</trkpt>
					<trkpt lat="47.200170" lon="-1.543930">
						<ele>4</ele>
						<time>2026-05-01T09:03:44Z</time>
					</trkpt>
					<trkpt lat="47.200140" lon="-1.544000">
						<ele>4</ele>
						<time>2026-05-01T09:03:46Z</time>
					</trkpt>
					<trkpt lat="47.200110" lon="-1.544130">
						<ele>4</ele>
						<time>2026-05-01T09:03:49Z</time>
					</trkpt>
					<trkpt lat="47.200090" lon="-1.544240">
						<ele>4</ele>
						<time>2026-05-01T09:03:52Z</time>
					</trkpt>
					<trkpt lat="47.200090" lon="-1.544300">
						<ele>4</ele>
						<time>2026-05-01T09:03:53Z</time>
					</trkpt>
					<trkpt lat="47.200010" lon="-1.544610">
						<ele>5</ele>
						<time>2026-05-01T09:04:01Z</time>
					</trkpt>
					<trkpt lat="47.199850" lon="-1.545170">
						<ele>5</ele>
						<time>2026-05-01T09:04:15Z</time>
					</trkpt>
					<trkpt lat="47.199830" lon="-1.545280">
						<ele>5</ele>
						<time>2026-05-01T09:04:17Z</time>
					</trkpt>
					<trkpt lat="47.199820" lon="-1.545520">
						<ele>5</ele>
						<time>2026-05-01T09:04:23Z</time>
					</trkpt>
					<trkpt lat="47.199820" lon="-1.545590">
						<ele>5</ele>
						<time>2026-05-01T09:04:24Z</time>
					</trkpt>
					<trkpt lat="47.199820" lon="-1.545520">
						<ele>5</ele>
						<time>2026-05-01T09:04:26Z</time>
					</trkpt>
					<trkpt lat="47.199830" lon="-1.545280">
						<ele>5</ele>
						<time>2026-05-01T09:04:31Z</time>
					</trkpt>
					<trkpt lat="47.199850" lon="-1.545170">
						<ele>5</ele>
						<time>2026-05-01T09:04:34Z</time>
					</trkpt>
					<trkpt lat="47.200010" lon="-1.544610">
						<ele>5</ele>
						<time>2026-05-01T09:04:48Z</time>
					</trkpt>
					<trkpt lat="47.200090" lon="-1.544300">
						<ele>4</ele>
						<time>2026-05-01T09:04:55Z</time>
					</trkpt>
					<trkpt lat="47.200090" lon="-1.544240">
						<ele>4</ele>
						<time>2026-05-01T09:04:57Z</time>
					</trkpt>
					<trkpt lat="47.200110" lon="-1.544130">
						<ele>4</ele>
						<time>2026-05-01T09:04:59Z</time>
					</trkpt>
					<trkpt lat="47.200140" lon="-1.544000">
						<ele>4</ele>
						<time>2026-05-01T09:05:02Z</time>
					</trkpt>
					<trkpt lat="47.200230" lon="-1.544060">
						<ele>5</ele>
						<time>2026-05-01T09:05:06Z</time>
					</trkpt>
					<trkpt lat="47.200280" lon="-1.544050">
						<ele>5</ele>
						<time>2026-05-01T09:05:07Z</time>
					</trkpt>
					<trkpt lat="47.200310" lon="-1.544060">
						<ele>6</ele>
						<time>2026-05-01T09:05:08Z</time>
					</trkpt>
					<trkpt lat="47.200350" lon="-1.544100">
						<ele>6</ele>
						<time>2026-05-01T09:05:10Z</time>
					</trkpt>
					<trkpt lat="47.200370" lon="-1.544170">
						<ele>6</ele>
						<time>2026-05-01T09:05:12Z</time>
					</trkpt>
					<trkpt lat="47.200370" lon="-1.544210">
						<ele>6</ele>
						<time>2026-05-01T09:05:12Z</time>
					</trkpt>
					<trkpt lat="47.200360" lon="-1.544270">
						<ele>6</ele>
						<time>2026-05-01T09:05:14Z</time>
					</trkpt>
					<trkpt lat="47.200330" lon="-1.544320">
						<ele>6</ele>
						<time>2026-05-01T09:05:15Z</time>
					</trkpt>
					<trkpt lat="47.200310" lon="-1.544340">
						<ele>6</ele>
						<time>2026-05-01T09:05:16Z</time>
					</trkpt>
					<trkpt lat="47.200290" lon="-1.544350">
						<ele>6</ele>
						<time>2026-05-01T09:05:17Z</time>
					</trkpt>
					<trkpt lat="47.200320" lon="-1.544420">
						<ele>7</ele>
						<time>2026-05-01T09:05:19Z</time>
					</trkpt>
					<trkpt lat="47.200370" lon="-1.544600">
						<ele>8</ele>
						<time>2026-05-01T09:05:23Z</time>
					</trkpt>
					<trkpt lat="47.200410" lon="-1.544710">
						<ele>9</ele>
						<time>2026-05-01T09:05:26Z</time>
					</trkpt>
					<trkpt lat="47.200560" lon="-1.545010">
						<ele>11</ele>
						<time>2026-05-01T09:05:34Z</time>
					</trkpt>
					<trkpt lat="47.200700" lon="-1.545200">
						<ele>12</ele>
						<time>2026-05-01T09:05:41Z</time>
					</trkpt>
					<trkpt lat="47.200730" lon="-1.545180">
						<ele>13</ele>
						<time>2026-05-01T09:05:42Z</time>
					</trkpt>
					<trkpt lat="47.200770" lon="-1.545190">
						<ele>13</ele>
						<time>2026-05-01T09:05:43Z</time>
					</trkpt>
					<trkpt lat="47.200800" lon="-1.545220">
						<ele>13</ele>
						<time>2026-05-01T09:05:44Z</time>
					</trkpt>
					<trkpt lat="47.200820" lon="-1.545260">
						<ele>13</ele>
						<time>2026-05-01T09:05:46Z</time>
					</trkpt>
					<trkpt lat="47.200830" lon="-1.545310">
						<ele>13</ele>
						<time>2026-05-01T09:05:47Z</time>
					</trkpt>
					<trkpt lat="47.200830" lon="-1.545360">
						<ele>13</ele>
						<time>2026-05-01T09:05:48Z</time>
					</trkpt>
					<trkpt lat="47.200920" lon="-1.545650">
						<ele>12</ele>
						<time>2026-05-01T09:05:55Z</time>
					</trkpt>
					<trkpt lat="47.200950" lon="-1.545730">
						<ele>12</ele>
						<time>2026-05-01T09:05:57Z</time>
					</trkpt>
					<trkpt lat="47.201000" lon="-1.545680">
						<ele>12</ele>
						<time>2026-05-01T09:05:59Z</time>
					</trkpt>
					<trkpt lat="47.201110" lon="-1.545940">
						<ele>11</ele>
						<time>2026-05-01T09:06:06Z</time>
					</trkpt>
					<trkpt lat="47.201420" lon="-1.546560">
						<ele>10</ele>
						<time>2026-05-01T09:06:24Z</time>
					</trkpt>
					<trkpt lat="47.201470" lon="-1.546610">
						<ele>9</ele>
						<time>2026-05-01T09:06:26Z</time>
					</trkpt>
					<trkpt lat="47.201510" lon="-1.546690">
						<ele>9</ele>
						<time>2026-05-01T09:06:28Z</time>
					</trkpt>
					<trkpt lat="47.201570" lon="-1.546810">
						<ele>9</ele>
						<time>2026-05-01T09:06:31Z</time>
					</trkpt>
					<trkpt lat="47.201610" lon="-1.546890">
						<ele>9</ele>
						<time>2026-05-01T09:06:34Z</time>
					</trkpt>
					<trkpt lat="47.201610" lon="-1.546930">
						<ele>9</ele>
						<time>2026-05-01T09:06:34Z</time>
					</trkpt>
					<trkpt lat="47.201670" lon="-1.547070">
						<ele>9</ele>
						<time>2026-05-01T09:06:38Z</time>
					</trkpt>
					<trkpt lat="47.201670" lon="-1.547190">
						<ele>9</ele>
						<time>2026-05-01T09:06:41Z</time>
					</trkpt>
					<trkpt lat="47.201670" lon="-1.547400">
						<ele>9</ele>
						<time>2026-05-01T09:06:46Z</time>
					</trkpt>
					<trkpt lat="47.201670" lon="-1.547550">
						<ele>9</ele>
						<time>2026-05-01T09:06:49Z</time>
					</trkpt>
					<trkpt lat="47.201670" lon="-1.547640">
						<ele>9</ele>
						<time>2026-05-01T09:06:51Z</time>
					</trkpt>
					<trkpt lat="47.201590" lon="-1.547630">
						<ele>9</ele>
						<time>2026-05-01T09:06:54Z</time>
					</trkpt>
					<trkpt lat="47.201640" lon="-1.547810">
						<ele>9</ele>
						<time>2026-05-01T09:06:58Z</time>
					</trkpt>
					<trkpt lat="47.201640" lon="-1.548910">
						<ele>9</ele>
						<time>2026-05-01T09:07:23Z</time>
					</trkpt>
					<trkpt lat="47.201660" lon="-1.550280">
						<ele>10</ele>
						<time>2026-05-01T09:07:54Z</time>
					</trkpt>
					<trkpt lat="47.201720" lon="-1.550280">
						<ele>10</ele>
						<time>2026-05-01T09:07:56Z</time>
					</trkpt>
					<trkpt lat="47.201900" lon="-1.550420">
						<ele>10</ele>
						<time>2026-05-01T09:08:03Z</time>
					</trkpt>
					<trkpt lat="47.202070" lon="-1.550610">
						<ele>10</ele>
						<time>2026-05-01T09:08:10Z</time>
					</trkpt>
					<trkpt lat="47.202310" lon="-1.550990">
						<ele>10</ele>
						<time>2026-05-01T09:08:22Z</time>
					</trkpt>
					<trkpt lat="47.202490" lon="-1.551260">
						<ele>9</ele>
						<time>2026-05-01T09:08:30Z</time>
					</trkpt>
					<trkpt lat="47.203060" lon="-1.552150">
						<ele>8</ele>
						<time>2026-05-01T09:08:58Z</time>
					</trkpt>
					<trkpt lat="47.203100" lon="-1.552200">
						<ele>8</ele>
						<time>2026-05-01T09:09:00Z</time>
					</trkpt>
					<trkpt lat="47.203150" lon="-1.552290">
						<ele>8</ele>
						<time>2026-05-01T09:09:03Z</time>
					</trkpt>
					<trkpt lat="47.203110" lon="-1.552330">
						<ele>8</ele>
						<time>2026-05-01T09:09:04Z</time>
					</trkpt>
					<trkpt lat="47.203150" lon="-1.552400">
						<ele>8</ele>
						<time>2026-05-01T09:09:06Z</time>
					</trkpt>
					<trkpt lat="47.203220" lon="-1.552500">
						<ele>8</ele>
						<time>2026-05-01T09:09:09Z</time>
					</trkpt>
					<trkpt lat="47.203080" lon="-1.552660">
						<ele>8</ele>
						<time>2026-05-01T09:09:15Z</time>
					</trkpt>
					<trkpt lat="47.203130" lon="-1.552750">
						<ele>8</ele>
						<time>2026-05-01T09:09:18Z</time>
					</trkpt>
					<trkpt lat="47.203130" lon="-1.552750">
						<ele>8</ele>
						<time>2026-05-01T09:09:18Z</time>
					</trkpt>
					<trkpt lat="47.203240" lon="-1.552980">
						<ele>8</ele>
						<time>2026-05-01T09:09:24Z</time>
					</trkpt>
					<trkpt lat="47.203240" lon="-1.553240">
						<ele>8</ele>
						<time>2026-05-01T09:09:30Z</time>
					</trkpt>
					<trkpt lat="47.203180" lon="-1.553460">
						<ele>8</ele>
						<time>2026-05-01T09:09:36Z</time>
					</trkpt>
					<trkpt lat="47.203190" lon="-1.553530">
						<ele>8</ele>
						<time>2026-05-01T09:09:37Z</time>
					</trkpt>
					<trkpt lat="47.203220" lon="-1.553620">
						<ele>8</ele>
						<time>2026-05-01T09:09:40Z</time>
					</trkpt>
					<trkpt lat="47.203210" lon="-1.553730">
						<ele>8</ele>
						<time>2026-05-01T09:09:42Z</time>
					</trkpt>
					<trkpt lat="47.203280" lon="-1.553830">
						<ele>8</ele>
						<time>2026-05-01T09:09:45Z</time>
					</trkpt>
					<trkpt lat="47.203260" lon="-1.553980">
						<ele>8</ele>
						<time>2026-05-01T09:09:49Z</time>
					</trkpt>
					<trkpt lat="47.203260" lon="-1.553980">
						<ele>8</ele>
						<time>2026-05-01T09:09:49Z</time>
					</trkpt>
					<trkpt lat="47.203250" lon="-1.554070">
						<ele>8</ele>
						<time>2026-05-01T09:09:51Z</time>
					</trkpt>
					<trkpt lat="47.203220" lon="-1.554160">
						<ele>8</ele>
						<time>2026-05-01T09:09:53Z</time>
					</trkpt>
					<trkpt lat="47.203210" lon="-1.554250">
						<ele>8</ele>
						<time>2026-05-01T09:09:55Z</time>
					</trkpt>
					<trkpt lat="47.203140" lon="-1.554240">
						<ele>8</ele>
						<time>2026-05-01T09:09:58Z</time>
					</trkpt>
					<trkpt lat="47.203110" lon="-1.554230">
						<ele>8</ele>
						<time>2026-05-01T09:09:59Z</time>
					</trkpt>
					<trkpt lat="47.203040" lon="-1.554910">
						<ele>7</ele>
						<time>2026-05-01T09:10:14Z</time>
					</trkpt>
					<trkpt lat="47.203000" lon="-1.555330">
						<ele>6</ele>
						<time>2026-05-01T09:10:24Z</time>
					</trkpt>
					<trkpt lat="47.202940" lon="-1.555910">
						<ele>6</ele>
						<time>2026-05-01T09:10:37Z</time>
					</trkpt>
					<trkpt lat="47.202840" lon="-1.556830">
						<ele>6</ele>
						<time>2026-05-01T09:10:58Z</time>
					</trkpt>
					<trkpt lat="47.202840" lon="-1.556880">
						<ele>6</ele>
						<time>2026-05-01T09:10:59Z</time>
					</trkpt>
					<trkpt lat="47.202770" lon="-1.557550">
						<ele>6</ele>
						<time>2026-05-01T09:11:15Z</time>
					</trkpt>
					<trkpt lat="47.202750" lon="-1.557730">
						<ele>6</ele>
						<time>2026-05-01T09:11:19Z</time>
					</trkpt>
					<trkpt lat="47.202740" lon="-1.557820">
						<ele>6</ele>
						<time>2026-05-01T09:11:21Z</time>
					</trkpt>
					<trkpt lat="47.202770" lon="-1.557820">
						<ele>6</ele>
						<time>2026-05-01T09:11:22Z</time>
					</trkpt>
					<trkpt lat="47.202730" lon="-1.558260">
						<ele>6</ele>
						<time>2026-05-01T09:11:32Z</time>
					</trkpt>
					<trkpt lat="47.202440" lon="-1.561150">
						<ele>6</ele>
						<time>2026-05-01T09:12:38Z</time>
					</trkpt>
					<trkpt lat="47.202420" lon="-1.561290">
						<ele>6</ele>
						<time>2026-05-01T09:12:41Z</time>
					</trkpt>
					<trkpt lat="47.202370" lon="-1.561420">
						<ele>5</ele>
						<time>2026-05-01T09:12:45Z</time>
					</trkpt>
					<trkpt lat="47.202310" lon="-1.561510">
						<ele>5</ele>
						<time>2026-05-01T09:12:48Z</time>
					</trkpt>
					<trkpt lat="47.202270" lon="-1.561560">
						<ele>5</ele>
						<time>2026-05-01T09:12:49Z</time>
					</trkpt>
					<trkpt lat="47.202190" lon="-1.561640">
						<ele>5</ele>
						<time>2026-05-01T09:12:53Z</time>
					</trkpt>
					<trkpt lat="47.202120" lon="-1.561690">
						<ele>5</ele>
						<time>2026-05-01T09:12:55Z</time>
					</trkpt>
					<trkpt lat="47.201930" lon="-1.561780">
						<ele>5</ele>
						<time>2026-05-01T09:13:02Z</time>
					</trkpt>
					<trkpt lat="47.201860" lon="-1.561810">
						<ele>5</ele>
						<time>2026-05-01T09:13:04Z</time>
					</trkpt>
					<trkpt lat="47.201810" lon="-1.561890">
						<ele>5</ele>
						<time>2026-05-01T09:13:07Z</time>
					</trkpt>
					<trkpt lat="47.201790" lon="-1.561970">
						<ele>5</ele>
						<time>2026-05-01T09:13:09Z</time>
					</trkpt>
					<trkpt lat="47.201730" lon="-1.561970">
						<ele>6</ele>
						<time>2026-05-01T09:13:11Z</time>
					</trkpt>
					<trkpt lat="47.201680" lon="-1.561970">
						<ele>6</ele>
						<time>2026-05-01T09:13:12Z</time>
					</trkpt>
					<trkpt lat="47.201630" lon="-1.562000">
						<ele>6</ele>
						<time>2026-05-01T09:13:14Z</time>
					</trkpt>
					<trkpt lat="47.201600" lon="-1.561900">
						<ele>6</ele>
						<time>2026-05-01T09:13:17Z</time>
					</trkpt>
					<trkpt lat="47.201550" lon="-1.561830">
						<ele>6</ele>
						<time>2026-05-01T09:13:19Z</time>
					</trkpt>
					<trkpt lat="47.201510" lon="-1.561820">
						<ele>6</ele>
						<time>2026-05-01T09:13:20Z</time>
					</trkpt>
					<trkpt lat="47.200180" lon="-1.561820">
						<ele>6</ele>
						<time>2026-05-01T09:14:05Z</time>
					</trkpt>
					<trkpt lat="47.200000" lon="-1.561930">
						<ele>6</ele>
						<time>2026-05-01T09:14:11Z</time>
					</trkpt>
					<trkpt lat="47.199960" lon="-1.561950">
						<ele>6</ele>
						<time>2026-05-01T09:14:13Z</time>
					</trkpt>
					<trkpt lat="47.199920" lon="-1.561960">
						<ele>6</ele>
						<time>2026-05-01T09:14:14Z</time>
					</trkpt>
					<trkpt lat="47.199840" lon="-1.561960">
						<ele>5</ele>
						<time>2026-05-01T09:14:17Z</time>
					</trkpt>
					<trkpt lat="47.199760" lon="-1.561910">
						<ele>5</ele>
						<time>2026-05-01T09:14:20Z</time>
					</trkpt>
					<trkpt lat="47.199750" lon="-1.561710">
						<ele>5</ele>
						<time>2026-05-01T09:14:24Z</time>
					</trkpt>
					<trkpt lat="47.199740" lon="-1.561690">
						<ele>5</ele>
						<time>2026-05-01T09:14:25Z</time>
					</trkpt>
					<trkpt lat="47.199690" lon="-1.561690">
						<ele>5</ele>
						<time>2026-05-01T09:14:26Z</time>
					</trkpt>
					<trkpt lat="47.199680" lon="-1.561650">
						<ele>4</ele>
						<time>2026-05-01T09:14:27Z</time>
					</trkpt>
					<trkpt lat="47.199680" lon="-1.561570">
						<ele>4</ele>
						<time>2026-05-01T09:14:29Z</time>
					</trkpt>
					<trkpt lat="47.199390" lon="-1.561630">
						<ele>3</ele>
						<time>2026-05-01T09:14:39Z</time>
					</trkpt>
					<trkpt lat="47.199540" lon="-1.561510">
						<ele>4</ele>
						<time>2026-05-01T09:14:45Z</time>
					</trkpt>
					<trkpt lat="47.199590" lon="-1.561440">
						<ele>4</ele>
						<time>2026-05-01T09:14:47Z</time>
					</trkpt>
					<trkpt lat="47.199610" lon="-1.561360">
						<ele>4</ele>
						<time>2026-05-01T09:14:49Z</time>
					</trkpt>
					<trkpt lat="47.199610" lon="-1.561360">
						<ele>4</ele>
						<time>2026-05-01T09:14:49Z</time>
					</trkpt>
					<trkpt lat="47.199620" lon="-1.561300">
						<ele>4</ele>
						<time>2026-05-01T09:14:50Z</time>
					</trkpt>
					<trkpt lat="47.199420" lon="-1.560780">
						<ele>3</ele>
						<time>2026-05-01T09:15:04Z</time>
					</trkpt>
					<trkpt lat="47.199380" lon="-1.560650">
						<ele>2</ele>
						<time>2026-05-01T09:15:07Z</time>
					</trkpt>
					<trkpt lat="47.199420" lon="-1.560780">
						<ele>3</ele>
						<time>2026-05-01T09:15:10Z</time>
					</trkpt>
					<trkpt lat="47.199620" lon="-1.561300">
						<ele>4</ele>
						<time>2026-05-01T09:15:24Z</time>
					</trkpt>
					<trkpt lat="47.199610" lon="-1.561360">
						<ele>4</ele>
						<time>2026-05-01T09:15:25Z</time>
					</trkpt>
					<trkpt lat="47.199610" lon="-1.561360">
						<ele>4</ele>
						<time>2026-05-01T09:15:25Z</time>
					</trkpt>
					<trkpt lat="47.199590" lon="-1.561440">
						<ele>4</ele>
						<time>2026-05-01T09:15:27Z</time>
					</trkpt>
					<trkpt lat="47.199540" lon="-1.561510">
						<ele>4</ele>
						<time>2026-05-01T09:15:29Z</time>
					</trkpt>
					<trkpt lat="47.199390" lon="-1.561630">
						<ele>3</ele>
						<time>2026-05-01T09:15:35Z</time>
					</trkpt>
					<trkpt lat="47.199680" lon="-1.561570">
						<ele>4</ele>
						<time>2026-05-01T09:15:45Z</time>
					</trkpt>
					<trkpt lat="47.199680" lon="-1.561650">
						<ele>4</ele>
						<time>2026-05-01T09:15:47Z</time>
					</trkpt>
					<trkpt lat="47.199690" lon="-1.561690">
						<ele>5</ele>
						<time>2026-05-01T09:15:48Z</time>
					</trkpt>
					<trkpt lat="47.199740" lon="-1.561690">
						<ele>5</ele>
						<time>2026-05-01T09:15:49Z</time>
					</trkpt>
					<trkpt lat="47.199750" lon="-1.561710">
						<ele>5</ele>
						<time>2026-05-01T09:15:50Z</time>
					</trkpt>
					<trkpt lat="47.199760" lon="-1.561910">
						<ele>5</ele>
						<time>2026-05-01T09:15:54Z</time>
					</trkpt>
					<trkpt lat="47.199770" lon="-1.563000">
						<ele>5</ele>
						<time>2026-05-01T09:16:19Z</time>
					</trkpt>
					<trkpt lat="47.199750" lon="-1.563210">
						<ele>5</ele>
						<time>2026-05-01T09:16:24Z</time>
					</trkpt>
					<trkpt lat="47.199690" lon="-1.563200">
						<ele>5</ele>
						<time>2026-05-01T09:16:26Z</time>
					</trkpt>
					<trkpt lat="47.199670" lon="-1.563860">
						<ele>4</ele>
						<time>2026-05-01T09:16:41Z</time>
					</trkpt>
					<trkpt lat="47.199670" lon="-1.563980">
						<ele>4</ele>
						<time>2026-05-01T09:16:44Z</time>
					</trkpt>
					<trkpt lat="47.199590" lon="-1.564290">
						<ele>3</ele>
						<time>2026-05-01T09:16:51Z</time>
					</trkpt>
					<trkpt lat="47.199620" lon="-1.564320">
						<ele>3</ele>
						<time>2026-05-01T09:16:52Z</time>
					</trkpt>
					<trkpt lat="47.199560" lon="-1.564620">
						<ele>3</ele>
						<time>2026-05-01T09:16:59Z</time>
					</trkpt>
					<trkpt lat="47.199530" lon="-1.564840">
						<ele>3</ele>
						<time>2026-05-01T09:17:05Z</time>
					</trkpt>
					<trkpt lat="47.199510" lon="-1.565320">
						<ele>3</ele>
						<time>2026-05-01T09:17:15Z</time>
					</trkpt>
					<trkpt lat="47.199510" lon="-1.568960">
						<ele>7</ele>
						<time>2026-05-01T09:18:38Z</time>
					</trkpt>
					<trkpt lat="47.199510" lon="-1.569070">
						<ele>7</ele>
						<time>2026-05-01T09:18:40Z</time>
					</trkpt>
					<trkpt lat="47.199500" lon="-1.570380">
						<ele>7</ele>
						<time>2026-05-01T09:19:10Z</time>
					</trkpt>
					<trkpt lat="47.199510" lon="-1.570430">
						<ele>7</ele>
						<time>2026-05-01T09:19:11Z</time>
					</trkpt>
					<trkpt lat="47.199530" lon="-1.570500">
						<ele>7</ele>
						<time>2026-05-01T09:19:13Z</time>
					</trkpt>
					<trkpt lat="47.199720" lon="-1.571350">
						<ele>7</ele>
						<time>2026-05-01T09:19:33Z</time>
					</trkpt>
					<trkpt lat="47.199750" lon="-1.571510">
						<ele>7</ele>
						<time>2026-05-01T09:19:37Z</time>
					</trkpt>
					<trkpt lat="47.199760" lon="-1.571660">
						<ele>7</ele>
						<time>2026-05-01T09:19:41Z</time>
					</trkpt>
					<trkpt lat="47.199760" lon="-1.572300">
						<ele>7</ele>
						<time>2026-05-01T09:19:55Z</time>
					</trkpt>
					<trkpt lat="47.199760" lon="-1.572470">
						<ele>8</ele>
						<time>2026-05-01T09:19:59Z</time>
					</trkpt>
					<trkpt lat="47.199790" lon="-1.572470">
						<ele>7</ele>
						<time>2026-05-01T09:20:00Z</time>
					</trkpt>
					<trkpt lat="47.199790" lon="-1.572980">
						<ele>6</ele>
						<time>2026-05-01T09:20:11Z</time>
					</trkpt>
					<trkpt lat="47.199790" lon="-1.573310">
						<ele>5</ele>
						<time>2026-05-01T09:20:19Z</time>
					</trkpt>
					<trkpt lat="47.199720" lon="-1.573310">
						<ele>5</ele>
						<time>2026-05-01T09:20:21Z</time>
					</trkpt>
					<trkpt lat="47.199770" lon="-1.573470">
						<ele>5</ele>
						<time>2026-05-01T09:20:25Z</time>
					</trkpt>
					<trkpt lat="47.199810" lon="-1.573610">
						<ele>4</ele>
						<time>2026-05-01T09:20:29Z</time>
					</trkpt>
					<trkpt lat="47.199820" lon="-1.573630">
						<ele>4</ele>
						<time>2026-05-01T09:20:29Z</time>
					</trkpt>
					<trkpt lat="47.199540" lon="-1.573810">
						<ele>3</ele>
						<time>2026-05-01T09:20:39Z</time>
					</trkpt>
					<trkpt lat="47.199820" lon="-1.573630">
						<ele>4</ele>
						<time>2026-05-01T09:20:50Z</time>
					</trkpt>
					<trkpt lat="47.199830" lon="-1.573620">
						<ele>4</ele>
						<time>2026-05-01T09:20:50Z</time>
					</trkpt>
					<trkpt lat="47.199850" lon="-1.573610">
						<ele>4</ele>
						<time>2026-05-01T09:20:51Z</time>
					</trkpt>
					<trkpt lat="47.199860" lon="-1.573580">
						<ele>4</ele>
						<time>2026-05-01T09:20:51Z</time>
					</trkpt>
					<trkpt lat="47.199850" lon="-1.573550">
						<ele>5</ele>
						<time>2026-05-01T09:20:52Z</time>
					</trkpt>
					<trkpt lat="47.200130" lon="-1.573350">
						<ele>6</ele>
						<time>2026-05-01T09:21:03Z</time>
					</trkpt>
					<trkpt lat="47.200260" lon="-1.573220">
						<ele>6</ele>
						<time>2026-05-01T09:21:08Z</time>
					</trkpt>
					<trkpt lat="47.200440" lon="-1.573100">
						<ele>7</ele>
						<time>2026-05-01T09:21:14Z</time>
					</trkpt>
					<trkpt lat="47.200830" lon="-1.572880">
						<ele>8</ele>
						<time>2026-05-01T09:21:28Z</time>
					</trkpt>
					<trkpt lat="47.201220" lon="-1.572620">
						<ele>7</ele>
						<time>2026-05-01T09:21:43Z</time>
					</trkpt>
					<trkpt lat="47.201270" lon="-1.572580">
						<ele>7</ele>
						<time>2026-05-01T09:21:45Z</time>
					</trkpt>
					<trkpt lat="47.201620" lon="-1.572350">
						<ele>6</ele>
						<time>2026-05-01T09:21:57Z</time>
					</trkpt>
					<trkpt lat="47.201980" lon="-1.572080">
						<ele>5</ele>
						<time>2026-05-01T09:22:11Z</time>
					</trkpt>
					<trkpt lat="47.202020" lon="-1.572210">
						<ele>5</ele>
						<time>2026-05-01T09:22:14Z</time>
					</trkpt>
					<trkpt lat="47.202110" lon="-1.572200">
						<ele>5</ele>
						<time>2026-05-01T09:22:17Z</time>
					</trkpt>
					<trkpt lat="47.202110" lon="-1.572200">
						<ele>5</ele>
						<time>2026-05-01T09:22:17Z</time>
					</trkpt>
					<trkpt lat="47.202330" lon="-1.572330">
						<ele>4</ele>
						<time>2026-05-01T09:22:25Z</time>
					</trkpt>
					<trkpt lat="47.202330" lon="-1.572330">
						<ele>4</ele>
						<time>2026-05-01T09:22:25Z</time>
					</trkpt>
					<trkpt lat="47.202370" lon="-1.572350">
						<ele>4</ele>
						<time>2026-05-01T09:22:26Z</time>
					</trkpt>
					<trkpt lat="47.202400" lon="-1.572420">
						<ele>3</ele>
						<time>2026-05-01T09:22:28Z</time>
					</trkpt>
					<trkpt lat="47.202750" lon="-1.572200">
						<ele>3</ele>
						<time>2026-05-01T09:22:41Z</time>
					</trkpt>
					<trkpt lat="47.203900" lon="-1.571410">
						<ele>3</ele>
						<time>2026-05-01T09:23:23Z</time>
					</trkpt>
					<trkpt lat="47.203910" lon="-1.571440">
						<ele>3</ele>
						<time>2026-05-01T09:23:24Z</time>
					</trkpt>
					<trkpt lat="47.204160" lon="-1.571270">
						<ele>3</ele>
						<time>2026-05-01T09:23:33Z</time>
					</trkpt>
					<trkpt lat="47.204250" lon="-1.571400">
						<ele>2</ele>
						<time>2026-05-01T09:23:37Z</time>
					</trkpt>
					<trkpt lat="47.204430" lon="-1.571180">
						<ele>3</ele>
						<time>2026-05-01T09:23:45Z</time>
					</trkpt>
					<trkpt lat="47.204540" lon="-1.571080">
						<ele>3</ele>
						<time>2026-05-01T09:23:50Z</time>
					</trkpt>
					<trkpt lat="47.204820" lon="-1.570990">
						<ele>2</ele>
						<time>2026-05-01T09:23:59Z</time>
					</trkpt>
					<trkpt lat="47.204860" lon="-1.570980">
						<ele>2</ele>
						<time>2026-05-01T09:24:01Z</time>
					</trkpt>
					<trkpt lat="47.205060" lon="-1.569960">
						<ele>8</ele>
						<time>2026-05-01T09:24:25Z</time>
					</trkpt>
					<trkpt lat="47.205120" lon="-1.569600">
						<ele>7</ele>
						<time>2026-05-01T09:24:33Z</time>
					</trkpt>
					<trkpt lat="47.205150" lon="-1.569610">
						<ele>7</ele>
						<time>2026-05-01T09:24:34Z</time>
					</trkpt>
					<trkpt lat="47.205290" lon="-1.569660">
						<ele>6</ele>
						<time>2026-05-01T09:24:39Z</time>
					</trkpt>
					<trkpt lat="47.205430" lon="-1.569720">
						<ele>5</ele>
						<time>2026-05-01T09:24:44Z</time>
					</trkpt>
					<trkpt lat="47.205460" lon="-1.569700">
						<ele>4</ele>
						<time>2026-05-01T09:24:45Z</time>
					</trkpt>
					<trkpt lat="47.205560" lon="-1.569680">
						<ele>4</ele>
						<time>2026-05-01T09:24:48Z</time>
					</trkpt>
					<trkpt lat="47.205390" lon="-1.570550">
						<ele>2</ele>
						<time>2026-05-01T09:25:09Z</time>
					</trkpt>
					<trkpt lat="47.205500" lon="-1.570430">
						<ele>2</ele>
						<time>2026-05-01T09:25:13Z</time>
					</trkpt>
					<trkpt lat="47.205390" lon="-1.570550">
						<ele>2</ele>
						<time>2026-05-01T09:25:18Z</time>
					</trkpt>
					<trkpt lat="47.205560" lon="-1.569680">
						<ele>4</ele>
						<time>2026-05-01T09:25:38Z</time>
					</trkpt>
					<trkpt lat="47.205870" lon="-1.569630">
						<ele>1</ele>
						<time>2026-05-01T09:25:49Z</time>
					</trkpt>
					<trkpt lat="47.205900" lon="-1.569670">
						<ele>1</ele>
						<time>2026-05-01T09:25:50Z</time>
					</trkpt>
					<trkpt lat="47.205970" lon="-1.569740">
						<ele>1</ele>
						<time>2026-05-01T09:25:53Z</time>
					</trkpt>
					<trkpt lat="47.206100" lon="-1.569410">
						<ele>1</ele>
						<time>2026-05-01T09:26:02Z</time>
					</trkpt>
					<trkpt lat="47.206130" lon="-1.569340">
						<ele>1</ele>
						<time>2026-05-01T09:26:03Z</time>
					</trkpt>
					<trkpt lat="47.206120" lon="-1.569160">
						<ele>2</ele>
						<time>2026-05-01T09:26:08Z</time>
					</trkpt>
					<trkpt lat="47.206570" lon="-1.568120">
						<ele>2</ele>
						<time>2026-05-01T09:26:35Z</time>
					</trkpt>
					<trkpt lat="47.206670" lon="-1.567890">
						<ele>2</ele>
						<time>2026-05-01T09:26:42Z</time>
					</trkpt>
					<trkpt lat="47.206690" lon="-1.567830">
						<ele>2</ele>
						<time>2026-05-01T09:26:43Z</time>
					</trkpt>
					<trkpt lat="47.206850" lon="-1.567470">
						<ele>2</ele>
						<time>2026-05-01T09:26:53Z</time>
					</trkpt>
					<trkpt lat="47.206860" lon="-1.567450">
						<ele>2</ele>
						<time>2026-05-01T09:26:53Z</time>
					</trkpt>
					<trkpt lat="47.206870" lon="-1.567430">
						<ele>2</ele>
						<time>2026-05-01T09:26:54Z</time>
					</trkpt>
					<trkpt lat="47.207050" lon="-1.567200">
						<ele>2</ele>
						<time>2026-05-01T09:27:02Z</time>
					</trkpt>
					<trkpt lat="47.207080" lon="-1.567180">
						<ele>2</ele>
						<time>2026-05-01T09:27:03Z</time>
					</trkpt>
					<trkpt lat="47.207110" lon="-1.567150">
						<ele>2</ele>
						<time>2026-05-01T09:27:04Z</time>
					</trkpt>
					<trkpt lat="47.207130" lon="-1.567130">
						<ele>2</ele>
						<time>2026-05-01T09:27:05Z</time>
					</trkpt>
					<trkpt lat="47.207130" lon="-1.567100">
						<ele>2</ele>
						<time>2026-05-01T09:27:06Z</time>
					</trkpt>
					<trkpt lat="47.207140" lon="-1.567080">
						<ele>2</ele>
						<time>2026-05-01T09:27:06Z</time>
					</trkpt>
					<trkpt lat="47.207150" lon="-1.567040">
						<ele>2</ele>
						<time>2026-05-01T09:27:07Z</time>
					</trkpt>
					<trkpt lat="47.207340" lon="-1.566620">
						<ele>2</ele>
						<time>2026-05-01T09:27:19Z</time>
					</trkpt>
					<trkpt lat="47.207750" lon="-1.565700">
						<ele>2</ele>
						<time>2026-05-01T09:27:44Z</time>
					</trkpt>
					<trkpt lat="47.207670" lon="-1.565530">
						<ele>4</ele>
						<time>2026-05-01T09:27:48Z</time>
					</trkpt>
					<trkpt lat="47.207650" lon="-1.565510">
						<ele>4</ele>
						<time>2026-05-01T09:27:49Z</time>
					</trkpt>
					<trkpt lat="47.207660" lon="-1.565480">
						<ele>4</ele>
						<time>2026-05-01T09:27:50Z</time>
					</trkpt>
					<trkpt lat="47.207310" lon="-1.565150">
						<ele>7</ele>
						<time>2026-05-01T09:28:04Z</time>
					</trkpt>
					<trkpt lat="47.207340" lon="-1.565050">
						<ele>7</ele>
						<time>2026-05-01T09:28:06Z</time>
					</trkpt>
					<trkpt lat="47.207360" lon="-1.565010">
						<ele>8</ele>
						<time>2026-05-01T09:28:07Z</time>
					</trkpt>
					<trkpt lat="47.207330" lon="-1.564980">
						<ele>8</ele>
						<time>2026-05-01T09:28:09Z</time>
					</trkpt>
					<trkpt lat="47.206940" lon="-1.564610">
						<ele>7</ele>
						<time>2026-05-01T09:28:24Z</time>
					</trkpt>
					<trkpt lat="47.206600" lon="-1.564290">
						<ele>6</ele>
						<time>2026-05-01T09:28:38Z</time>
					</trkpt>
					<trkpt lat="47.206750" lon="-1.563650">
						<ele>7</ele>
						<time>2026-05-01T09:28:53Z</time>
					</trkpt>
					<trkpt lat="47.206770" lon="-1.563530">
						<ele>8</ele>
						<time>2026-05-01T09:28:56Z</time>
					</trkpt>
					<trkpt lat="47.206790" lon="-1.563350">
						<ele>8</ele>
						<time>2026-05-01T09:29:00Z</time>
					</trkpt>
					<trkpt lat="47.206820" lon="-1.563010">
						<ele>8</ele>
						<time>2026-05-01T09:29:08Z</time>
					</trkpt>
					<trkpt lat="47.206870" lon="-1.562570">
						<ele>9</ele>
						<time>2026-05-01T09:29:18Z</time>
					</trkpt>
					<trkpt lat="47.206910" lon="-1.562140">
						<ele>11</ele>
						<time>2026-05-01T09:29:28Z</time>
					</trkpt>
					<trkpt lat="47.206920" lon="-1.562000">
						<ele>12</ele>
						<time>2026-05-01T09:29:31Z</time>
					</trkpt>
					<trkpt lat="47.206960" lon="-1.561610">
						<ele>14</ele>
						<time>2026-05-01T09:29:40Z</time>
					</trkpt>
					<trkpt lat="47.207000" lon="-1.561140">
						<ele>14</ele>
						<time>2026-05-01T09:29:50Z</time>
					</trkpt>
					<trkpt lat="47.207010" lon="-1.561060">
						<ele>14</ele>
						<time>2026-05-01T09:29:52Z</time>
					</trkpt>
					<trkpt lat="47.207050" lon="-1.560620">
						<ele>14</ele>
						<time>2026-05-01T09:30:02Z</time>
					</trkpt>
					<trkpt lat="47.207060" lon="-1.560580">
						<ele>13</ele>
						<time>2026-05-01T09:30:03Z</time>
					</trkpt>
					<trkpt lat="47.207070" lon="-1.560430">
						<ele>13</ele>
						<time>2026-05-01T09:30:07Z</time>
					</trkpt>
					<trkpt lat="47.207130" lon="-1.559860">
						<ele>11</ele>
						<time>2026-05-01T09:30:20Z</time>
					</trkpt>
					<trkpt lat="47.207140" lon="-1.559750">
						<ele>10</ele>
						<time>2026-05-01T09:30:22Z</time>
					</trkpt>
					<trkpt lat="47.207180" lon="-1.559290">
						<ele>9</ele>
						<time>2026-05-01T09:30:33Z</time>
					</trkpt>
					<trkpt lat="47.207190" lon="-1.559190">
						<ele>9</ele>
						<time>2026-05-01T09:30:35Z</time>
					</trkpt>
					<trkpt lat="47.207250" lon="-1.558580">
						<ele>8</ele>
						<time>2026-05-01T09:30:49Z</time>
					</trkpt>
					<trkpt lat="47.207280" lon="-1.558190">
						<ele>8</ele>
						<time>2026-05-01T09:30:58Z</time>
					</trkpt>
					<trkpt lat="47.207310" lon="-1.557920">
						<ele>8</ele>
						<time>2026-05-01T09:31:04Z</time>
					</trkpt>
					<trkpt lat="47.207330" lon="-1.557770">
						<ele>7</ele>
						<time>2026-05-01T09:31:08Z</time>
					</trkpt>
					<trkpt lat="47.207330" lon="-1.557730">
						<ele>7</ele>
						<time>2026-05-01T09:31:09Z</time>
					</trkpt>
					<trkpt lat="47.207330" lon="-1.557730">
						<ele>7</ele>
						<time>2026-05-01T09:31:09Z</time>
					</trkpt>
					<trkpt lat="47.207400" lon="-1.557010">
						<ele>6</ele>
						<time>2026-05-01T09:31:25Z</time>
					</trkpt>
					<trkpt lat="47.207400" lon="-1.557010">
						<ele>6</ele>
						<time>2026-05-01T09:31:25Z</time>
					</trkpt>
					<trkpt lat="47.207400" lon="-1.556940">
						<ele>6</ele>
						<time>2026-05-01T09:31:27Z</time>
					</trkpt>
					<trkpt lat="47.207470" lon="-1.556940">
						<ele>6</ele>
						<time>2026-05-01T09:31:29Z</time>
					</trkpt>
					<trkpt lat="47.207490" lon="-1.556930">
						<ele>6</ele>
						<time>2026-05-01T09:31:30Z</time>
					</trkpt>
					<trkpt lat="47.207520" lon="-1.556880">
						<ele>5</ele>
						<time>2026-05-01T09:31:31Z</time>
					</trkpt>
					<trkpt lat="47.207530" lon="-1.556840">
						<ele>5</ele>
						<time>2026-05-01T09:31:32Z</time>
					</trkpt>
					<trkpt lat="47.207450" lon="-1.556180">
						<ele>4</ele>
						<time>2026-05-01T09:31:47Z</time>
					</trkpt>
					<trkpt lat="47.207480" lon="-1.555950">
						<ele>3</ele>
						<time>2026-05-01T09:31:53Z</time>
					</trkpt>
					<trkpt lat="47.207480" lon="-1.555730">
						<ele>3</ele>
						<time>2026-05-01T09:31:58Z</time>
					</trkpt>
					<trkpt lat="47.207510" lon="-1.555340">
						<ele>3</ele>
						<time>2026-05-01T09:32:07Z</time>
					</trkpt>
					<trkpt lat="47.207370" lon="-1.554110">
						<ele>2</ele>
						<time>2026-05-01T09:32:35Z</time>
					</trkpt>
					<trkpt lat="47.207280" lon="-1.553370">
						<ele>2</ele>
						<time>2026-05-01T09:32:52Z</time>
					</trkpt>
					<trkpt lat="47.207270" lon="-1.553280">
						<ele>2</ele>
						<time>2026-05-01T09:32:54Z</time>
					</trkpt>
					<trkpt lat="47.207110" lon="-1.551880">
						<ele>5</ele>
						<time>2026-05-01T09:33:26Z</time>
					</trkpt>
					<trkpt lat="47.206940" lon="-1.551530">
						<ele>7</ele>
						<time>2026-05-01T09:33:36Z</time>
					</trkpt>
					<trkpt lat="47.206890" lon="-1.551310">
						<ele>8</ele>
						<time>2026-05-01T09:33:41Z</time>
					</trkpt>
					<trkpt lat="47.206880" lon="-1.551290">
						<ele>8</ele>
						<time>2026-05-01T09:33:42Z</time>
					</trkpt>
					<trkpt lat="47.206890" lon="-1.550620">
						<ele>7</ele>
						<time>2026-05-01T09:33:57Z</time>
					</trkpt>
					<trkpt lat="47.206910" lon="-1.549900">
						<ele>9</ele>
						<time>2026-05-01T09:34:13Z</time>
					</trkpt>
					<trkpt lat="47.206940" lon="-1.549260">
						<ele>8</ele>
						<time>2026-05-01T09:34:28Z</time>
					</trkpt>
					<trkpt lat="47.206950" lon="-1.549150">
						<ele>8</ele>
						<time>2026-05-01T09:34:30Z</time>
					</trkpt>
					<trkpt lat="47.206970" lon="-1.549150">
						<ele>8</ele>
						<time>2026-05-01T09:34:31Z</time>
					</trkpt>
					<trkpt lat="47.207010" lon="-1.549020">
						<ele>7</ele>
						<time>2026-05-01T09:34:34Z</time>
					</trkpt>
					<trkpt lat="47.207030" lon="-1.548950">
						<ele>7</ele>
						<time>2026-05-01T09:34:36Z</time>
					</trkpt>
					<trkpt lat="47.207710" lon="-1.549370">
						<ele>2</ele>
						<time>2026-05-01T09:35:00Z</time>
					</trkpt>
					<trkpt lat="47.208460" lon="-1.549870">
						<ele>1</ele>
						<time>2026-05-01T09:35:28Z</time>
					</trkpt>
					<trkpt lat="47.208620" lon="-1.549980">
						<ele>2</ele>
						<time>2026-05-01T09:35:34Z</time>
					</trkpt>
					<trkpt lat="47.208670" lon="-1.550080">
						<ele>2</ele>
						<time>2026-05-01T09:35:37Z</time>
					</trkpt>
					<trkpt lat="47.208710" lon="-1.550180">
						<ele>3</ele>
						<time>2026-05-01T09:35:39Z</time>
					</trkpt>
					<trkpt lat="47.208740" lon="-1.550180">
						<ele>3</ele>
						<time>2026-05-01T09:35:40Z</time>
					</trkpt>
					<trkpt lat="47.208800" lon="-1.550190">
						<ele>3</ele>
						<time>2026-05-01T09:35:42Z</time>
					</trkpt>
					<trkpt lat="47.208820" lon="-1.550190">
						<ele>4</ele>
						<time>2026-05-01T09:35:43Z</time>
					</trkpt>
					<trkpt lat="47.208850" lon="-1.550200">
						<ele>4</ele>
						<time>2026-05-01T09:35:44Z</time>
					</trkpt>
					<trkpt lat="47.208850" lon="-1.550290">
						<ele>4</ele>
						<time>2026-05-01T09:35:46Z</time>
					</trkpt>
					<trkpt lat="47.208860" lon="-1.550350">
						<ele>4</ele>
						<time>2026-05-01T09:35:47Z</time>
					</trkpt>
					<trkpt lat="47.208900" lon="-1.550320">
						<ele>4</ele>
						<time>2026-05-01T09:35:49Z</time>
					</trkpt>
					<trkpt lat="47.208970" lon="-1.550320">
						<ele>5</ele>
						<time>2026-05-01T09:35:51Z</time>
					</trkpt>
					<trkpt lat="47.209340" lon="-1.550710">
						<ele>6</ele>
						<time>2026-05-01T09:36:06Z</time>
					</trkpt>
					<trkpt lat="47.209360" lon="-1.550640">
						<ele>6</ele>
						<time>2026-05-01T09:36:08Z</time>
					</trkpt>
					<trkpt lat="47.209390" lon="-1.550590">
						<ele>7</ele>
						<time>2026-05-01T09:36:10Z</time>
					</trkpt>
					<trkpt lat="47.209430" lon="-1.550490">
						<ele>7</ele>
						<time>2026-05-01T09:36:12Z</time>
					</trkpt>
					<trkpt lat="47.209480" lon="-1.550530">
						<ele>7</ele>
						<time>2026-05-01T09:36:14Z</time>
					</trkpt>
					<trkpt lat="47.209780" lon="-1.550810">
						<ele>7</ele>
						<time>2026-05-01T09:36:26Z</time>
					</trkpt>
					<trkpt lat="47.209950" lon="-1.550970">
						<ele>9</ele>
						<time>2026-05-01T09:36:33Z</time>
					</trkpt>
					<trkpt lat="47.210010" lon="-1.550980">
						<ele>9</ele>
						<time>2026-05-01T09:36:35Z</time>
					</trkpt>
					<trkpt lat="47.210060" lon="-1.551010">
						<ele>9</ele>
						<time>2026-05-01T09:36:37Z</time>
					</trkpt>
					<trkpt lat="47.210210" lon="-1.551120">
						<ele>9</ele>
						<time>2026-05-01T09:36:42Z</time>
					</trkpt>
					<trkpt lat="47.210340" lon="-1.551230">
						<ele>10</ele>
						<time>2026-05-01T09:36:47Z</time>
					</trkpt>
					<trkpt lat="47.210320" lon="-1.551280">
						<ele>10</ele>
						<time>2026-05-01T09:36:48Z</time>
					</trkpt>
					<trkpt lat="47.210370" lon="-1.551330">
						<ele>10</ele>
						<time>2026-05-01T09:36:50Z</time>
					</trkpt>
					<trkpt lat="47.210360" lon="-1.551370">
						<ele>10</ele>
						<time>2026-05-01T09:36:51Z</time>
					</trkpt>
					<trkpt lat="47.210610" lon="-1.551670">
						<ele>11</ele>
						<time>2026-05-01T09:37:02Z</time>
					</trkpt>
					<trkpt lat="47.210770" lon="-1.551860">
						<ele>12</ele>
						<time>2026-05-01T09:37:09Z</time>
					</trkpt>
					<trkpt lat="47.211590" lon="-1.552800">
						<ele>11</ele>
						<time>2026-05-01T09:37:44Z</time>
					</trkpt>
					<trkpt lat="47.211610" lon="-1.552820">
						<ele>11</ele>
						<time>2026-05-01T09:37:45Z</time>
					</trkpt>
					<trkpt lat="47.211990" lon="-1.553240">
						<ele>11</ele>
						<time>2026-05-01T09:38:00Z</time>
					</trkpt>
					<trkpt lat="47.212080" lon="-1.553350">
						<ele>11</ele>
						<time>2026-05-01T09:38:04Z</time>
					</trkpt>
					<trkpt lat="47.212170" lon="-1.553450">
						<ele>10</ele>
						<time>2026-05-01T09:38:08Z</time>
					</trkpt>
					<trkpt lat="47.212200" lon="-1.553490">
						<ele>10</ele>
						<time>2026-05-01T09:38:09Z</time>
					</trkpt>
					<trkpt lat="47.212230" lon="-1.553570">
						<ele>10</ele>
						<time>2026-05-01T09:38:11Z</time>
					</trkpt>
					<trkpt lat="47.212430" lon="-1.553830">
						<ele>10</ele>
						<time>2026-05-01T09:38:20Z</time>
					</trkpt>
					<trkpt lat="47.212480" lon="-1.553750">
						<ele>10</ele>
						<time>2026-05-01T09:38:23Z</time>
					</trkpt>
					<trkpt lat="47.212570" lon="-1.553610">
						<ele>10</ele>
						<time>2026-05-01T09:38:27Z</time>
					</trkpt>
					<trkpt lat="47.212590" lon="-1.553570">
						<ele>10</ele>
						<time>2026-05-01T09:38:28Z</time>
					</trkpt>
					<trkpt lat="47.212640" lon="-1.553490">
						<ele>10</ele>
						<time>2026-05-01T09:38:31Z</time>
					</trkpt>
					<trkpt lat="47.212660" lon="-1.553450">
						<ele>10</ele>
						<time>2026-05-01T09:38:32Z</time>
					</trkpt>
					<trkpt lat="47.212680" lon="-1.553400">
						<ele>10</ele>
						<time>2026-05-01T09:38:33Z</time>
					</trkpt>
					<trkpt lat="47.212730" lon="-1.553470">
						<ele>10</ele>
						<time>2026-05-01T09:38:36Z</time>
					</trkpt>
					<trkpt lat="47.212830" lon="-1.553280">
						<ele>10</ele>
						<time>2026-05-01T09:38:41Z</time>
					</trkpt>
					<trkpt lat="47.213270" lon="-1.552110">
						<ele>11</ele>
						<time>2026-05-01T09:39:11Z</time>
					</trkpt>
					<trkpt lat="47.213280" lon="-1.552060">
						<ele>11</ele>
						<time>2026-05-01T09:39:12Z</time>
					</trkpt>
					<trkpt lat="47.213660" lon="-1.551110">
						<ele>10</ele>
						<time>2026-05-01T09:39:37Z</time>
					</trkpt>
					<trkpt lat="47.214000" lon="-1.550300">
						<ele>10</ele>
						<time>2026-05-01T09:39:59Z</time>
					</trkpt>
					<trkpt lat="47.214000" lon="-1.550300">
						<ele>10</ele>
						<time>2026-05-01T09:39:59Z</time>
					</trkpt>
					<trkpt lat="47.214040" lon="-1.550190">
						<ele>9</ele>
						<time>2026-05-01T09:40:02Z</time>
					</trkpt>
					<trkpt lat="47.214100" lon="-1.550050">
						<ele>9</ele>
						<time>2026-05-01T09:40:06Z</time>
					</trkpt>
					<trkpt lat="47.214170" lon="-1.549900">
						<ele>9</ele>
						<time>2026-05-01T09:40:10Z</time>
					</trkpt>
					<trkpt lat="47.214250" lon="-1.549900">
						<ele>9</ele>
						<time>2026-05-01T09:40:12Z</time>
					</trkpt>
					<trkpt lat="47.214290" lon="-1.549890">
						<ele>9</ele>
						<time>2026-05-01T09:40:14Z</time>
					</trkpt>
					<trkpt lat="47.214410" lon="-1.549880">
						<ele>9</ele>
						<time>2026-05-01T09:40:18Z</time>
					</trkpt>
					<trkpt lat="47.214480" lon="-1.549880">
						<ele>9</ele>
						<time>2026-05-01T09:40:20Z</time>
					</trkpt>
					<trkpt lat="47.214520" lon="-1.549880">
						<ele>9</ele>
						<time>2026-05-01T09:40:21Z</time>
					</trkpt>
					<trkpt lat="47.214760" lon="-1.549700">
						<ele>9</ele>
						<time>2026-05-01T09:40:30Z</time>
					</trkpt>
					<trkpt lat="47.214780" lon="-1.549680">
						<ele>9</ele>
						<time>2026-05-01T09:40:31Z</time>
					</trkpt>
					<trkpt lat="47.215090" lon="-1.549420">
						<ele>9</ele>
						<time>2026-05-01T09:40:43Z</time>
					</trkpt>
					<trkpt lat="47.215260" lon="-1.549350">
						<ele>9</ele>
						<time>2026-05-01T09:40:49Z</time>
					</trkpt>
					<trkpt lat="47.215340" lon="-1.549130">
						<ele>9</ele>
						<time>2026-05-01T09:40:55Z</time>
					</trkpt>
					<trkpt lat="47.215570" lon="-1.548610">
						<ele>8</ele>
						<time>2026-05-01T09:41:09Z</time>
					</trkpt>
					<trkpt lat="47.215850" lon="-1.548020">
						<ele>8</ele>
						<time>2026-05-01T09:41:25Z</time>
					</trkpt>
					<trkpt lat="47.215950" lon="-1.547810">
						<ele>9</ele>
						<time>2026-05-01T09:41:31Z</time>
					</trkpt>
					<trkpt lat="47.216190" lon="-1.547280">
						<ele>10</ele>
						<time>2026-05-01T09:41:45Z</time>
					</trkpt>
					<trkpt lat="47.216360" lon="-1.546870">
						<ele>10</ele>
						<time>2026-05-01T09:41:56Z</time>
					</trkpt>
					<trkpt lat="47.216390" lon="-1.546790">
						<ele>10</ele>
						<time>2026-05-01T09:41:58Z</time>
					</trkpt>
					<trkpt lat="47.216350" lon="-1.546760">
						<ele>10</ele>
						<time>2026-05-01T09:42:00Z</time>
					</trkpt>
					<trkpt lat="47.216290" lon="-1.546670">
						<ele>10</ele>
						<time>2026-05-01T09:42:03Z</time>
					</trkpt>
					<trkpt lat="47.216270" lon="-1.546630">
						<ele>10</ele>
						<time>2026-05-01T09:42:04Z</time>
					</trkpt>
					<trkpt lat="47.216280" lon="-1.546580">
						<ele>9</ele>
						<time>2026-05-01T09:42:05Z</time>
					</trkpt>
					<trkpt lat="47.216250" lon="-1.546530">
						<ele>9</ele>
						<time>2026-05-01T09:42:06Z</time>
					</trkpt>
					<trkpt lat="47.216230" lon="-1.546490">
						<ele>9</ele>
						<time>2026-05-01T09:42:08Z</time>
					</trkpt>
					<trkpt lat="47.216210" lon="-1.546520">
						<ele>9</ele>
						<time>2026-05-01T09:42:09Z</time>
					</trkpt>
					<trkpt lat="47.216200" lon="-1.546510">
						<ele>9</ele>
						<time>2026-05-01T09:42:09Z</time>
					</trkpt>
					<trkpt lat="47.216170" lon="-1.546440">
						<ele>9</ele>
						<time>2026-05-01T09:42:11Z</time>
					</trkpt>
					<trkpt lat="47.216060" lon="-1.546150">
						<ele>8</ele>
						<time>2026-05-01T09:42:18Z</time>
					</trkpt>
					<trkpt lat="47.215940" lon="-1.545840">
						<ele>8</ele>
						<time>2026-05-01T09:42:26Z</time>
					</trkpt>
					<trkpt lat="47.215940" lon="-1.545830">
						<ele>8</ele>
						<time>2026-05-01T09:42:27Z</time>
					</trkpt>
					<trkpt lat="47.215810" lon="-1.545330">
						<ele>8</ele>
						<time>2026-05-01T09:42:39Z</time>
					</trkpt>
					<trkpt lat="47.215800" lon="-1.545230">
						<ele>7</ele>
						<time>2026-05-01T09:42:41Z</time>
					</trkpt>
					<trkpt lat="47.215800" lon="-1.545090">
						<ele>7</ele>
						<time>2026-05-01T09:42:44Z</time>
					</trkpt>
					<trkpt lat="47.215820" lon="-1.545090">
						<ele>7</ele>
						<time>2026-05-01T09:42:45Z</time>
					</trkpt>
					<trkpt lat="47.215820" lon="-1.545030">
						<ele>7</ele>
						<time>2026-05-01T09:42:46Z</time>
					</trkpt>
					<trkpt lat="47.215910" lon="-1.544730">
						<ele>8</ele>
						<time>2026-05-01T09:42:54Z</time>
					</trkpt>
					<trkpt lat="47.215950" lon="-1.544360">
						<ele>8</ele>
						<time>2026-05-01T09:43:02Z</time>
					</trkpt>
					<trkpt lat="47.215940" lon="-1.544070">
						<ele>8</ele>
						<time>2026-05-01T09:43:09Z</time>
					</trkpt>
					<trkpt lat="47.215920" lon="-1.543890">
						<ele>8</ele>
						<time>2026-05-01T09:43:13Z</time>
					</trkpt>
					<trkpt lat="47.215890" lon="-1.543700">
						<ele>8</ele>
						<time>2026-05-01T09:43:17Z</time>
					</trkpt>
					<trkpt lat="47.215860" lon="-1.543600">
						<ele>7</ele>
						<time>2026-05-01T09:43:20Z</time>
					</trkpt>
					<trkpt lat="47.215840" lon="-1.543560">
						<ele>7</ele>
						<time>2026-05-01T09:43:21Z</time>
					</trkpt>
					</trkseg>
				</trk>
			</gpx>