<?xml version="1.0" encoding="UTF-8"?>
<gpx xmlns="http://www.topografix.com/GPX/1/1" xmlns:xsi="http://www.w3.org/2001/XMLSchema-instance" version="1.1" creator="phpGPX/1.3.0" xsi:schemaLocation="http://www.topografix.com/GPX/1/1 http://www.topografix.com/GPX/1/1/gpx.xsd">
  <metadata>
    <time>2026-05-14T09:48:30+00:00</time>
  </metadata>
  <trk>
    <name>Pour aller plus loin</name>
    <trkseg>
      <trkpt lat="46.92366" lon="-0.19514">
        <ele>93</ele>
        <time>2026-05-14T09:48:31+00:00</time>
      </trkpt>
      <trkpt lat="46.92335" lon="-0.19443">
        <ele>88</ele>
        <time>2026-05-14T09:48:32+00:00</time>
      </trkpt>
      <trkpt lat="46.92315" lon="-0.19424">
        <ele>86</ele>
        <time>2026-05-14T09:48:33+00:00</time>
      </trkpt>
      <trkpt lat="46.92266" lon="-0.19336">
        <ele>77</ele>
        <time>2026-05-14T09:48:34+00:00</time>
      </trkpt>
      <trkpt lat="46.92254" lon="-0.19335">
        <ele>76</ele>
        <time>2026-05-14T09:48:35+00:00</time>
      </trkpt>
      <trkpt lat="46.92236" lon="-0.19315">
        <ele>75</ele>
        <time>2026-05-14T09:48:36+00:00</time>
      </trkpt>
      <trkpt lat="46.9216" lon="-0.19262">
        <ele>72</ele>
        <time>2026-05-14T09:48:37+00:00</time>
      </trkpt>
      <trkpt lat="46.92127" lon="-0.19255">
        <ele>73</ele>
        <time>2026-05-14T09:48:38+00:00</time>
      </trkpt>
      <trkpt lat="46.92114" lon="-0.19246">
        <ele>73</ele>
        <time>2026-05-14T09:48:39+00:00</time>
      </trkpt>
      <trkpt lat="46.92076" lon="-0.19199">
        <ele>73</ele>
        <time>2026-05-14T09:48:40+00:00</time>
      </trkpt>
      <trkpt lat="46.92054" lon="-0.19139">
        <ele>72</ele>
        <time>2026-05-14T09:48:41+00:00</time>
      </trkpt>
      <trkpt lat="46.92048" lon="-0.1913">
        <ele>71</ele>
        <time>2026-05-14T09:48:42+00:00</time>
      </trkpt>
      <trkpt lat="46.92037" lon="-0.19121">
        <ele>72</ele>
        <time>2026-05-14T09:48:43+00:00</time>
      </trkpt>
      <trkpt lat="46.92001" lon="-0.191">
        <ele>72</ele>
        <time>2026-05-14T09:48:44+00:00</time>
      </trkpt>
      <trkpt lat="46.91989" lon="-0.191">
        <ele>73</ele>
        <time>2026-05-14T09:48:45+00:00</time>
      </trkpt>
      <trkpt lat="46.9197" lon="-0.19111">
        <ele>73</ele>
        <time>2026-05-14T09:48:46+00:00</time>
      </trkpt>
      <trkpt lat="46.91947" lon="-0.19133">
        <ele>73</ele>
        <time>2026-05-14T09:48:47+00:00</time>
      </trkpt>
      <trkpt lat="46.91928" lon="-0.19147">
        <ele>74</ele>
        <time>2026-05-14T09:48:48+00:00</time>
      </trkpt>
      <trkpt lat="46.91864" lon="-0.19211">
        <ele>73</ele>
        <time>2026-05-14T09:48:49+00:00</time>
      </trkpt>
      <trkpt lat="46.91814" lon="-0.19289">
        <ele>74</ele>
        <time>2026-05-14T09:48:50+00:00</time>
      </trkpt>
      <trkpt lat="46.91799" lon="-0.19327">
        <ele>75</ele>
        <time>2026-05-14T09:48:51+00:00</time>
      </trkpt>
      <trkpt lat="46.91793" lon="-0.19328">
        <ele>75</ele>
        <time>2026-05-14T09:48:52+00:00</time>
      </trkpt>
      <trkpt lat="46.91768" lon="-0.19314">
        <ele>72</ele>
        <time>2026-05-14T09:48:53+00:00</time>
      </trkpt>
      <trkpt lat="46.91742" lon="-0.19306">
        <ele>70</ele>
        <time>2026-05-14T09:48:54+00:00</time>
      </trkpt>
      <trkpt lat="46.91688" lon="-0.19303">
        <ele>69</ele>
        <time>2026-05-14T09:48:55+00:00</time>
      </trkpt>
      <trkpt lat="46.91652" lon="-0.19297">
        <ele>67</ele>
        <time>2026-05-14T09:48:56+00:00</time>
      </trkpt>
      <trkpt lat="46.91636" lon="-0.19292">
        <ele>66</ele>
        <time>2026-05-14T09:48:57+00:00</time>
      </trkpt>
      <trkpt lat="46.91629" lon="-0.19288">
        <ele>66</ele>
        <time>2026-05-14T09:48:58+00:00</time>
      </trkpt>
      <trkpt lat="46.91615" lon="-0.19271">
        <ele>65</ele>
        <time>2026-05-14T09:48:59+00:00</time>
      </trkpt>
      <trkpt lat="46.91599" lon="-0.19257">
        <ele>64</ele>
        <time>2026-05-14T09:49:00+00:00</time>
      </trkpt>
      <trkpt lat="46.91573" lon="-0.19262">
        <ele>64</ele>
        <time>2026-05-14T09:49:01+00:00</time>
      </trkpt>
      <trkpt lat="46.91587" lon="-0.19224">
        <ele>65</ele>
        <time>2026-05-14T09:49:02+00:00</time>
      </trkpt>
      <trkpt lat="46.91601" lon="-0.1917">
        <ele>66</ele>
        <time>2026-05-14T09:49:03+00:00</time>
      </trkpt>
      <trkpt lat="46.91623" lon="-0.19129">
        <ele>65</ele>
        <time>2026-05-14T09:49:04+00:00</time>
      </trkpt>
      <trkpt lat="46.91632" lon="-0.19103">
        <ele>65</ele>
        <time>2026-05-14T09:49:05+00:00</time>
      </trkpt>
      <trkpt lat="46.91679" lon="-0.19007">
        <ele>65</ele>
        <time>2026-05-14T09:49:06+00:00</time>
      </trkpt>
      <trkpt lat="46.91704" lon="-0.18971">
        <ele>65</ele>
        <time>2026-05-14T09:49:07+00:00</time>
      </trkpt>
      <trkpt lat="46.91762" lon="-0.1891">
        <ele>65</ele>
        <time>2026-05-14T09:49:08+00:00</time>
      </trkpt>
      <trkpt lat="46.91772" lon="-0.18888">
        <ele>65</ele>
        <time>2026-05-14T09:49:09+00:00</time>
      </trkpt>
      <trkpt lat="46.91789" lon="-0.1881">
        <ele>66</ele>
        <time>2026-05-14T09:49:10+00:00</time>
      </trkpt>
      <trkpt lat="46.91814" lon="-0.18748">
        <ele>67</ele>
        <time>2026-05-14T09:49:11+00:00</time>
      </trkpt>
      <trkpt lat="46.91836" lon="-0.18719">
        <ele>68</ele>
        <time>2026-05-14T09:49:12+00:00</time>
      </trkpt>
      <trkpt lat="46.91853" lon="-0.18704">
        <ele>67</ele>
        <time>2026-05-14T09:49:13+00:00</time>
      </trkpt>
      <trkpt lat="46.91868" lon="-0.18684">
        <ele>67</ele>
        <time>2026-05-14T09:49:14+00:00</time>
      </trkpt>
      <trkpt lat="46.91923" lon="-0.18656">
        <ele>67</ele>
        <time>2026-05-14T09:49:15+00:00</time>
      </trkpt>
      <trkpt lat="46.91927" lon="-0.18638">
        <ele>68</ele>
        <time>2026-05-14T09:49:16+00:00</time>
      </trkpt>
      <trkpt lat="46.91921" lon="-0.18596">
        <ele>72</ele>
        <time>2026-05-14T09:49:17+00:00</time>
      </trkpt>
      <trkpt lat="46.91924" lon="-0.18592">
        <ele>72</ele>
        <time>2026-05-14T09:49:18+00:00</time>
      </trkpt>
      <trkpt lat="46.91933" lon="-0.18589">
        <ele>72</ele>
        <time>2026-05-14T09:49:19+00:00</time>
      </trkpt>
      <trkpt lat="46.9196" lon="-0.18588">
        <ele>72</ele>
        <time>2026-05-14T09:49:20+00:00</time>
      </trkpt>
      <trkpt lat="46.92037" lon="-0.18564">
        <ele>72</ele>
        <time>2026-05-14T09:49:21+00:00</time>
      </trkpt>
      <trkpt lat="46.92051" lon="-0.18533">
        <ele>74</ele>
        <time>2026-05-14T09:49:22+00:00</time>
      </trkpt>
      <trkpt lat="46.92059" lon="-0.18494">
        <ele>76</ele>
        <time>2026-05-14T09:49:23+00:00</time>
      </trkpt>
      <trkpt lat="46.92095" lon="-0.18479">
        <ele>74</ele>
        <time>2026-05-14T09:49:24+00:00</time>
      </trkpt>
      <trkpt lat="46.9215" lon="-0.18462">
        <ele>73</ele>
        <time>2026-05-14T09:49:25+00:00</time>
      </trkpt>
      <trkpt lat="46.92179" lon="-0.18436">
        <ele>72</ele>
        <time>2026-05-14T09:49:26+00:00</time>
      </trkpt>
      <trkpt lat="46.9218" lon="-0.18418">
        <ele>72</ele>
        <time>2026-05-14T09:49:27+00:00</time>
      </trkpt>
      <trkpt lat="46.92177" lon="-0.18368">
        <ele>72</ele>
        <time>2026-05-14T09:49:28+00:00</time>
      </trkpt>
      <trkpt lat="46.92181" lon="-0.1831">
        <ele>71</ele>
        <time>2026-05-14T09:49:29+00:00</time>
      </trkpt>
      <trkpt lat="46.92176" lon="-0.18287">
        <ele>70</ele>
        <time>2026-05-14T09:49:30+00:00</time>
      </trkpt>
      <trkpt lat="46.92162" lon="-0.18255">
        <ele>69</ele>
        <time>2026-05-14T09:49:31+00:00</time>
      </trkpt>
      <trkpt lat="46.92223" lon="-0.18193">
        <ele>66</ele>
        <time>2026-05-14T09:49:32+00:00</time>
      </trkpt>
      <trkpt lat="46.92228" lon="-0.18176">
        <ele>66</ele>
        <time>2026-05-14T09:49:33+00:00</time>
      </trkpt>
      <trkpt lat="46.92227" lon="-0.18166">
        <ele>65</ele>
        <time>2026-05-14T09:49:34+00:00</time>
      </trkpt>
      <trkpt lat="46.92231" lon="-0.18148">
        <ele>65</ele>
        <time>2026-05-14T09:49:35+00:00</time>
      </trkpt>
      <trkpt lat="46.92236" lon="-0.18131">
        <ele>65</ele>
        <time>2026-05-14T09:49:36+00:00</time>
      </trkpt>
      <trkpt lat="46.92245" lon="-0.18117">
        <ele>64</ele>
        <time>2026-05-14T09:49:37+00:00</time>
      </trkpt>
      <trkpt lat="46.92248" lon="-0.18107">
        <ele>64</ele>
        <time>2026-05-14T09:49:38+00:00</time>
      </trkpt>
      <trkpt lat="46.92245" lon="-0.18089">
        <ele>64</ele>
        <time>2026-05-14T09:49:39+00:00</time>
      </trkpt>
      <trkpt lat="46.92219" lon="-0.18018">
        <ele>65</ele>
        <time>2026-05-14T09:49:40+00:00</time>
      </trkpt>
      <trkpt lat="46.92215" lon="-0.17998">
        <ele>65</ele>
        <time>2026-05-14T09:49:41+00:00</time>
      </trkpt>
      <trkpt lat="46.92205" lon="-0.17991">
        <ele>65</ele>
        <time>2026-05-14T09:49:42+00:00</time>
      </trkpt>
      <trkpt lat="46.92197" lon="-0.17989">
        <ele>65</ele>
        <time>2026-05-14T09:49:43+00:00</time>
      </trkpt>
      <trkpt lat="46.92181" lon="-0.1799">
        <ele>65</ele>
        <time>2026-05-14T09:49:44+00:00</time>
      </trkpt>
      <trkpt lat="46.92148" lon="-0.17983">
        <ele>66</ele>
        <time>2026-05-14T09:49:45+00:00</time>
      </trkpt>
      <trkpt lat="46.92131" lon="-0.17971">
        <ele>66</ele>
        <time>2026-05-14T09:49:46+00:00</time>
      </trkpt>
      <trkpt lat="46.92118" lon="-0.17921">
        <ele>65</ele>
        <time>2026-05-14T09:49:47+00:00</time>
      </trkpt>
      <trkpt lat="46.92098" lon="-0.17803">
        <ele>65</ele>
        <time>2026-05-14T09:49:48+00:00</time>
      </trkpt>
      <trkpt lat="46.92094" lon="-0.17754">
        <ele>65</ele>
        <time>2026-05-14T09:49:49+00:00</time>
      </trkpt>
      <trkpt lat="46.92092" lon="-0.17745">
        <ele>66</ele>
        <time>2026-05-14T09:49:50+00:00</time>
      </trkpt>
      <trkpt lat="46.92078" lon="-0.17723">
        <ele>70</ele>
        <time>2026-05-14T09:49:51+00:00</time>
      </trkpt>
      <trkpt lat="46.92076" lon="-0.17711">
        <ele>72</ele>
        <time>2026-05-14T09:49:52+00:00</time>
      </trkpt>
      <trkpt lat="46.92091" lon="-0.17671">
        <ele>74</ele>
        <time>2026-05-14T09:49:53+00:00</time>
      </trkpt>
      <trkpt lat="46.92092" lon="-0.17662">
        <ele>74</ele>
        <time>2026-05-14T09:49:54+00:00</time>
      </trkpt>
      <trkpt lat="46.92105" lon="-0.17638">
        <ele>75</ele>
        <time>2026-05-14T09:49:55+00:00</time>
      </trkpt>
      <trkpt lat="46.92111" lon="-0.17618">
        <ele>77</ele>
        <time>2026-05-14T09:49:56+00:00</time>
      </trkpt>
      <trkpt lat="46.92111" lon="-0.17611">
        <ele>77</ele>
        <time>2026-05-14T09:49:57+00:00</time>
      </trkpt>
      <trkpt lat="46.9212" lon="-0.17601">
        <ele>77</ele>
        <time>2026-05-14T09:49:58+00:00</time>
      </trkpt>
      <trkpt lat="46.92123" lon="-0.17562">
        <ele>80</ele>
        <time>2026-05-14T09:49:59+00:00</time>
      </trkpt>
      <trkpt lat="46.92137" lon="-0.17536">
        <ele>81</ele>
        <time>2026-05-14T09:50:00+00:00</time>
      </trkpt>
      <trkpt lat="46.92145" lon="-0.17512">
        <ele>83</ele>
        <time>2026-05-14T09:50:01+00:00</time>
      </trkpt>
      <trkpt lat="46.92156" lon="-0.17452">
        <ele>84</ele>
        <time>2026-05-14T09:50:02+00:00</time>
      </trkpt>
      <trkpt lat="46.92175" lon="-0.17392">
        <ele>86</ele>
        <time>2026-05-14T09:50:03+00:00</time>
      </trkpt>
      <trkpt lat="46.92177" lon="-0.17388">
        <ele>86</ele>
        <time>2026-05-14T09:50:04+00:00</time>
      </trkpt>
      <trkpt lat="46.92184" lon="-0.17384">
        <ele>86</ele>
        <time>2026-05-14T09:50:05+00:00</time>
      </trkpt>
      <trkpt lat="46.92193" lon="-0.17346">
        <ele>88</ele>
        <time>2026-05-14T09:50:06+00:00</time>
      </trkpt>
      <trkpt lat="46.92207" lon="-0.17316">
        <ele>90</ele>
        <time>2026-05-14T09:50:07+00:00</time>
      </trkpt>
      <trkpt lat="46.92224" lon="-0.17291">
        <ele>91</ele>
        <time>2026-05-14T09:50:08+00:00</time>
      </trkpt>
      <trkpt lat="46.92285" lon="-0.1724">
        <ele>93</ele>
        <time>2026-05-14T09:50:09+00:00</time>
      </trkpt>
      <trkpt lat="46.92323" lon="-0.17203">
        <ele>93</ele>
        <time>2026-05-14T09:50:10+00:00</time>
      </trkpt>
      <trkpt lat="46.92376" lon="-0.17133">
        <ele>93</ele>
        <time>2026-05-14T09:50:11+00:00</time>
      </trkpt>
      <trkpt lat="46.92419" lon="-0.17092">
        <ele>91</ele>
        <time>2026-05-14T09:50:12+00:00</time>
      </trkpt>
      <trkpt lat="46.92464" lon="-0.1704">
        <ele>90</ele>
        <time>2026-05-14T09:50:13+00:00</time>
      </trkpt>
      <trkpt lat="46.92591" lon="-0.16917">
        <ele>90</ele>
        <time>2026-05-14T09:50:14+00:00</time>
      </trkpt>
      <trkpt lat="46.92625" lon="-0.16876">
        <ele>90</ele>
        <time>2026-05-14T09:50:15+00:00</time>
      </trkpt>
      <trkpt lat="46.92677" lon="-0.16798">
        <ele>89</ele>
        <time>2026-05-14T09:50:16+00:00</time>
      </trkpt>
      <trkpt lat="46.92679" lon="-0.16791">
        <ele>89</ele>
        <time>2026-05-14T09:50:17+00:00</time>
      </trkpt>
      <trkpt lat="46.92635" lon="-0.16723">
        <ele>89</ele>
        <time>2026-05-14T09:50:18+00:00</time>
      </trkpt>
      <trkpt lat="46.92611" lon="-0.16706">
        <ele>89</ele>
        <time>2026-05-14T09:50:19+00:00</time>
      </trkpt>
      <trkpt lat="46.92548" lon="-0.16683">
        <ele>90</ele>
        <time>2026-05-14T09:50:20+00:00</time>
      </trkpt>
      <trkpt lat="46.92514" lon="-0.16655">
        <ele>91</ele>
        <time>2026-05-14T09:50:21+00:00</time>
      </trkpt>
      <trkpt lat="46.92475" lon="-0.16603">
        <ele>90</ele>
        <time>2026-05-14T09:50:22+00:00</time>
      </trkpt>
      <trkpt lat="46.92435" lon="-0.16537">
        <ele>90</ele>
        <time>2026-05-14T09:50:23+00:00</time>
      </trkpt>
      <trkpt lat="46.92417" lon="-0.16482">
        <ele>89</ele>
        <time>2026-05-14T09:50:24+00:00</time>
      </trkpt>
      <trkpt lat="46.92344" lon="-0.16217">
        <ele>91</ele>
        <time>2026-05-14T09:50:25+00:00</time>
      </trkpt>
      <trkpt lat="46.92332" lon="-0.16185">
        <ele>91</ele>
        <time>2026-05-14T09:50:26+00:00</time>
      </trkpt>
      <trkpt lat="46.92333" lon="-0.16195">
        <ele>91</ele>
        <time>2026-05-14T09:50:27+00:00</time>
      </trkpt>
      <trkpt lat="46.92327" lon="-0.16149">
        <ele>91</ele>
        <time>2026-05-14T09:50:28+00:00</time>
      </trkpt>
      <trkpt lat="46.9231" lon="-0.15952">
        <ele>89</ele>
        <time>2026-05-14T09:50:29+00:00</time>
      </trkpt>
      <trkpt lat="46.92304" lon="-0.15914">
        <ele>90</ele>
        <time>2026-05-14T09:50:30+00:00</time>
      </trkpt>
      <trkpt lat="46.9227" lon="-0.15922">
        <ele>89</ele>
        <time>2026-05-14T09:50:31+00:00</time>
      </trkpt>
      <trkpt lat="46.92267" lon="-0.15926">
        <ele>89</ele>
        <time>2026-05-14T09:50:32+00:00</time>
      </trkpt>
      <trkpt lat="46.9225" lon="-0.15925">
        <ele>89</ele>
        <time>2026-05-14T09:50:33+00:00</time>
      </trkpt>
      <trkpt lat="46.92234" lon="-0.15929">
        <ele>89</ele>
        <time>2026-05-14T09:50:34+00:00</time>
      </trkpt>
      <trkpt lat="46.92224" lon="-0.15928">
        <ele>89</ele>
        <time>2026-05-14T09:50:35+00:00</time>
      </trkpt>
      <trkpt lat="46.92219" lon="-0.15924">
        <ele>89</ele>
        <time>2026-05-14T09:50:36+00:00</time>
      </trkpt>
      <trkpt lat="46.92215" lon="-0.15916">
        <ele>89</ele>
        <time>2026-05-14T09:50:37+00:00</time>
      </trkpt>
      <trkpt lat="46.92206" lon="-0.15789">
        <ele>90</ele>
        <time>2026-05-14T09:50:38+00:00</time>
      </trkpt>
      <trkpt lat="46.92199" lon="-0.1573">
        <ele>90</ele>
        <time>2026-05-14T09:50:39+00:00</time>
      </trkpt>
      <trkpt lat="46.92199" lon="-0.15683">
        <ele>90</ele>
        <time>2026-05-14T09:50:40+00:00</time>
      </trkpt>
      <trkpt lat="46.92193" lon="-0.15611">
        <ele>90</ele>
        <time>2026-05-14T09:50:41+00:00</time>
      </trkpt>
      <trkpt lat="46.92182" lon="-0.15518">
        <ele>88</ele>
        <time>2026-05-14T09:50:42+00:00</time>
      </trkpt>
      <trkpt lat="46.92133" lon="-0.15204">
        <ele>84</ele>
        <time>2026-05-14T09:50:43+00:00</time>
      </trkpt>
      <trkpt lat="46.92266" lon="-0.15064">
        <ele>73</ele>
        <time>2026-05-14T09:50:44+00:00</time>
      </trkpt>
      <trkpt lat="46.92282" lon="-0.1505">
        <ele>71</ele>
        <time>2026-05-14T09:50:45+00:00</time>
      </trkpt>
      <trkpt lat="46.92292" lon="-0.15028">
        <ele>70</ele>
        <time>2026-05-14T09:50:46+00:00</time>
      </trkpt>
      <trkpt lat="46.92303" lon="-0.15012">
        <ele>69</ele>
        <time>2026-05-14T09:50:47+00:00</time>
      </trkpt>
      <trkpt lat="46.92327" lon="-0.14941">
        <ele>66</ele>
        <time>2026-05-14T09:50:48+00:00</time>
      </trkpt>
      <trkpt lat="46.92336" lon="-0.14899">
        <ele>64</ele>
        <time>2026-05-14T09:50:49+00:00</time>
      </trkpt>
      <trkpt lat="46.92335" lon="-0.14894">
        <ele>64</ele>
        <time>2026-05-14T09:50:50+00:00</time>
      </trkpt>
      <trkpt lat="46.9234" lon="-0.14886">
        <ele>64</ele>
        <time>2026-05-14T09:50:51+00:00</time>
      </trkpt>
      <trkpt lat="46.92351" lon="-0.14789">
        <ele>62</ele>
        <time>2026-05-14T09:50:52+00:00</time>
      </trkpt>
      <trkpt lat="46.92369" lon="-0.1467">
        <ele>63</ele>
        <time>2026-05-14T09:50:53+00:00</time>
      </trkpt>
      <trkpt lat="46.92367" lon="-0.14646">
        <ele>63</ele>
        <time>2026-05-14T09:50:54+00:00</time>
      </trkpt>
      <trkpt lat="46.92373" lon="-0.14637">
        <ele>63</ele>
        <time>2026-05-14T09:50:55+00:00</time>
      </trkpt>
      <trkpt lat="46.92372" lon="-0.14619">
        <ele>63</ele>
        <time>2026-05-14T09:50:56+00:00</time>
      </trkpt>
      <trkpt lat="46.9237" lon="-0.14608">
        <ele>63</ele>
        <time>2026-05-14T09:50:57+00:00</time>
      </trkpt>
      <trkpt lat="46.92354" lon="-0.14579">
        <ele>64</ele>
        <time>2026-05-14T09:50:58+00:00</time>
      </trkpt>
      <trkpt lat="46.92348" lon="-0.14563">
        <ele>65</ele>
        <time>2026-05-14T09:50:59+00:00</time>
      </trkpt>
      <trkpt lat="46.92336" lon="-0.14522">
        <ele>65</ele>
        <time>2026-05-14T09:51:00+00:00</time>
      </trkpt>
      <trkpt lat="46.92326" lon="-0.14482">
        <ele>65</ele>
        <time>2026-05-14T09:51:01+00:00</time>
      </trkpt>
      <trkpt lat="46.92321" lon="-0.14442">
        <ele>65</ele>
        <time>2026-05-14T09:51:02+00:00</time>
      </trkpt>
      <trkpt lat="46.92322" lon="-0.14427">
        <ele>64</ele>
        <time>2026-05-14T09:51:03+00:00</time>
      </trkpt>
      <trkpt lat="46.92318" lon="-0.14407">
        <ele>64</ele>
        <time>2026-05-14T09:51:04+00:00</time>
      </trkpt>
      <trkpt lat="46.92315" lon="-0.14402">
        <ele>64</ele>
        <time>2026-05-14T09:51:05+00:00</time>
      </trkpt>
      <trkpt lat="46.92287" lon="-0.14412">
        <ele>65</ele>
        <time>2026-05-14T09:51:06+00:00</time>
      </trkpt>
      <trkpt lat="46.92278" lon="-0.1441">
        <ele>65</ele>
        <time>2026-05-14T09:51:07+00:00</time>
      </trkpt>
      <trkpt lat="46.92261" lon="-0.14413">
        <ele>66</ele>
        <time>2026-05-14T09:51:08+00:00</time>
      </trkpt>
      <trkpt lat="46.92164" lon="-0.14468">
        <ele>67</ele>
        <time>2026-05-14T09:51:09+00:00</time>
      </trkpt>
      <trkpt lat="46.92152" lon="-0.14472">
        <ele>67</ele>
        <time>2026-05-14T09:51:10+00:00</time>
      </trkpt>
      <trkpt lat="46.92144" lon="-0.1447">
        <ele>67</ele>
        <time>2026-05-14T09:51:11+00:00</time>
      </trkpt>
      <trkpt lat="46.92136" lon="-0.14396">
        <ele>68</ele>
        <time>2026-05-14T09:51:12+00:00</time>
      </trkpt>
      <trkpt lat="46.92119" lon="-0.14344">
        <ele>69</ele>
        <time>2026-05-14T09:51:13+00:00</time>
      </trkpt>
      <trkpt lat="46.92071" lon="-0.14145">
        <ele>69</ele>
        <time>2026-05-14T09:51:14+00:00</time>
      </trkpt>
      <trkpt lat="46.92059" lon="-0.14113">
        <ele>69</ele>
        <time>2026-05-14T09:51:15+00:00</time>
      </trkpt>
      <trkpt lat="46.92049" lon="-0.14077">
        <ele>69</ele>
        <time>2026-05-14T09:51:16+00:00</time>
      </trkpt>
      <trkpt lat="46.92033" lon="-0.14039">
        <ele>68</ele>
        <time>2026-05-14T09:51:17+00:00</time>
      </trkpt>
      <trkpt lat="46.92004" lon="-0.13984">
        <ele>68</ele>
        <time>2026-05-14T09:51:18+00:00</time>
      </trkpt>
      <trkpt lat="46.91991" lon="-0.1395">
        <ele>68</ele>
        <time>2026-05-14T09:51:19+00:00</time>
      </trkpt>
      <trkpt lat="46.9199" lon="-0.1394">
        <ele>68</ele>
        <time>2026-05-14T09:51:20+00:00</time>
      </trkpt>
      <trkpt lat="46.91994" lon="-0.13852">
        <ele>66</ele>
        <time>2026-05-14T09:51:21+00:00</time>
      </trkpt>
      <trkpt lat="46.91993" lon="-0.13501">
        <ele>60</ele>
        <time>2026-05-14T09:51:22+00:00</time>
      </trkpt>
      <trkpt lat="46.91994" lon="-0.13485">
        <ele>60</ele>
        <time>2026-05-14T09:51:23+00:00</time>
      </trkpt>
      <trkpt lat="46.91997" lon="-0.13481">
        <ele>60</ele>
        <time>2026-05-14T09:51:24+00:00</time>
      </trkpt>
      <trkpt lat="46.9206" lon="-0.135">
        <ele>60</ele>
        <time>2026-05-14T09:51:25+00:00</time>
      </trkpt>
      <trkpt lat="46.92155" lon="-0.135">
        <ele>63</ele>
        <time>2026-05-14T09:51:26+00:00</time>
      </trkpt>
      <trkpt lat="46.92214" lon="-0.13497">
        <ele>64</ele>
        <time>2026-05-14T09:51:27+00:00</time>
      </trkpt>
      <trkpt lat="46.92283" lon="-0.1352">
        <ele>63</ele>
        <time>2026-05-14T09:51:28+00:00</time>
      </trkpt>
      <trkpt lat="46.92334" lon="-0.13554">
        <ele>61</ele>
        <time>2026-05-14T09:51:29+00:00</time>
      </trkpt>
      <trkpt lat="46.92378" lon="-0.1361">
        <ele>60</ele>
        <time>2026-05-14T09:51:30+00:00</time>
      </trkpt>
      <trkpt lat="46.92403" lon="-0.13652">
        <ele>59</ele>
        <time>2026-05-14T09:51:31+00:00</time>
      </trkpt>
      <trkpt lat="46.92432" lon="-0.13682">
        <ele>60</ele>
        <time>2026-05-14T09:51:32+00:00</time>
      </trkpt>
      <trkpt lat="46.92429" lon="-0.13677">
        <ele>60</ele>
        <time>2026-05-14T09:51:33+00:00</time>
      </trkpt>
      <trkpt lat="46.92448" lon="-0.13631">
        <ele>63</ele>
        <time>2026-05-14T09:51:34+00:00</time>
      </trkpt>
      <trkpt lat="46.92473" lon="-0.13481">
        <ele>71</ele>
        <time>2026-05-14T09:51:35+00:00</time>
      </trkpt>
      <trkpt lat="46.925" lon="-0.13282">
        <ele>75</ele>
        <time>2026-05-14T09:51:36+00:00</time>
      </trkpt>
      <trkpt lat="46.92512" lon="-0.13236">
        <ele>76</ele>
        <time>2026-05-14T09:51:37+00:00</time>
      </trkpt>
      <trkpt lat="46.92524" lon="-0.13205">
        <ele>76</ele>
        <time>2026-05-14T09:51:38+00:00</time>
      </trkpt>
      <trkpt lat="46.92528" lon="-0.13213">
        <ele>76</ele>
        <time>2026-05-14T09:51:39+00:00</time>
      </trkpt>
      <trkpt lat="46.92525" lon="-0.13205">
        <ele>76</ele>
        <time>2026-05-14T09:51:40+00:00</time>
      </trkpt>
      <trkpt lat="46.92527" lon="-0.13192">
        <ele>76</ele>
        <time>2026-05-14T09:51:41+00:00</time>
      </trkpt>
      <trkpt lat="46.9256" lon="-0.13104">
        <ele>78</ele>
        <time>2026-05-14T09:51:42+00:00</time>
      </trkpt>
      <trkpt lat="46.92562" lon="-0.13086">
        <ele>78</ele>
        <time>2026-05-14T09:51:43+00:00</time>
      </trkpt>
      <trkpt lat="46.92557" lon="-0.13067">
        <ele>77</ele>
        <time>2026-05-14T09:51:44+00:00</time>
      </trkpt>
      <trkpt lat="46.92526" lon="-0.13003">
        <ele>76</ele>
        <time>2026-05-14T09:51:45+00:00</time>
      </trkpt>
      <trkpt lat="46.92517" lon="-0.12989">
        <ele>77</ele>
        <time>2026-05-14T09:51:46+00:00</time>
      </trkpt>
      <trkpt lat="46.92524" lon="-0.12971">
        <ele>77</ele>
        <time>2026-05-14T09:51:47+00:00</time>
      </trkpt>
      <trkpt lat="46.92524" lon="-0.12962">
        <ele>77</ele>
        <time>2026-05-14T09:51:48+00:00</time>
      </trkpt>
      <trkpt lat="46.92452" lon="-0.12739">
        <ele>76</ele>
        <time>2026-05-14T09:51:49+00:00</time>
      </trkpt>
      <trkpt lat="46.92439" lon="-0.12686">
        <ele>75</ele>
        <time>2026-05-14T09:51:50+00:00</time>
      </trkpt>
      <trkpt lat="46.92429" lon="-0.12665">
        <ele>75</ele>
        <time>2026-05-14T09:51:51+00:00</time>
      </trkpt>
      <trkpt lat="46.92431" lon="-0.12639">
        <ele>76</ele>
        <time>2026-05-14T09:51:52+00:00</time>
      </trkpt>
      <trkpt lat="46.92468" lon="-0.12685">
        <ele>76</ele>
        <time>2026-05-14T09:51:53+00:00</time>
      </trkpt>
      <trkpt lat="46.92482" lon="-0.12697">
        <ele>76</ele>
        <time>2026-05-14T09:51:54+00:00</time>
      </trkpt>
      <trkpt lat="46.92582" lon="-0.12767">
        <ele>78</ele>
        <time>2026-05-14T09:51:55+00:00</time>
      </trkpt>
      <trkpt lat="46.92656" lon="-0.1278">
        <ele>80</ele>
        <time>2026-05-14T09:51:56+00:00</time>
      </trkpt>
      <trkpt lat="46.92689" lon="-0.12776">
        <ele>81</ele>
        <time>2026-05-14T09:51:57+00:00</time>
      </trkpt>
      <trkpt lat="46.92696" lon="-0.12793">
        <ele>81</ele>
        <time>2026-05-14T09:51:58+00:00</time>
      </trkpt>
      <trkpt lat="46.9271" lon="-0.12778">
        <ele>82</ele>
        <time>2026-05-14T09:51:59+00:00</time>
      </trkpt>
      <trkpt lat="46.92745" lon="-0.12757">
        <ele>83</ele>
        <time>2026-05-14T09:52:00+00:00</time>
      </trkpt>
      <trkpt lat="46.92791" lon="-0.12739">
        <ele>81</ele>
        <time>2026-05-14T09:52:01+00:00</time>
      </trkpt>
      <trkpt lat="46.92839" lon="-0.12742">
        <ele>79</ele>
        <time>2026-05-14T09:52:02+00:00</time>
      </trkpt>
      <trkpt lat="46.9285" lon="-0.12745">
        <ele>79</ele>
        <time>2026-05-14T09:52:03+00:00</time>
      </trkpt>
      <trkpt lat="46.9288" lon="-0.12741">
        <ele>79</ele>
        <time>2026-05-14T09:52:04+00:00</time>
      </trkpt>
      <trkpt lat="46.92916" lon="-0.1274">
        <ele>79</ele>
        <time>2026-05-14T09:52:05+00:00</time>
      </trkpt>
      <trkpt lat="46.92959" lon="-0.12746">
        <ele>80</ele>
        <time>2026-05-14T09:52:06+00:00</time>
      </trkpt>
      <trkpt lat="46.92999" lon="-0.12747">
        <ele>80</ele>
        <time>2026-05-14T09:52:07+00:00</time>
      </trkpt>
      <trkpt lat="46.93063" lon="-0.12756">
        <ele>81</ele>
        <time>2026-05-14T09:52:08+00:00</time>
      </trkpt>
      <trkpt lat="46.93077" lon="-0.12759">
        <ele>81</ele>
        <time>2026-05-14T09:52:09+00:00</time>
      </trkpt>
      <trkpt lat="46.93095" lon="-0.12767">
        <ele>82</ele>
        <time>2026-05-14T09:52:10+00:00</time>
      </trkpt>
      <trkpt lat="46.93109" lon="-0.12769">
        <ele>82</ele>
        <time>2026-05-14T09:52:11+00:00</time>
      </trkpt>
      <trkpt lat="46.93132" lon="-0.12817">
        <ele>84</ele>
        <time>2026-05-14T09:52:12+00:00</time>
      </trkpt>
      <trkpt lat="46.93149" lon="-0.12868">
        <ele>87</ele>
        <time>2026-05-14T09:52:13+00:00</time>
      </trkpt>
      <trkpt lat="46.93188" lon="-0.12965">
        <ele>94</ele>
        <time>2026-05-14T09:52:14+00:00</time>
      </trkpt>
      <trkpt lat="46.93183" lon="-0.12975">
        <ele>95</ele>
        <time>2026-05-14T09:52:15+00:00</time>
      </trkpt>
      <trkpt lat="46.93173" lon="-0.12987">
        <ele>96</ele>
        <time>2026-05-14T09:52:16+00:00</time>
      </trkpt>
      <trkpt lat="46.93127" lon="-0.12996">
        <ele>97</ele>
        <time>2026-05-14T09:52:17+00:00</time>
      </trkpt>
      <trkpt lat="46.9311" lon="-0.13011">
        <ele>99</ele>
        <time>2026-05-14T09:52:18+00:00</time>
      </trkpt>
      <trkpt lat="46.93111" lon="-0.13027">
        <ele>100</ele>
        <time>2026-05-14T09:52:19+00:00</time>
      </trkpt>
      <trkpt lat="46.93106" lon="-0.13038">
        <ele>102</ele>
        <time>2026-05-14T09:52:20+00:00</time>
      </trkpt>
      <trkpt lat="46.93103" lon="-0.13061">
        <ele>104</ele>
        <time>2026-05-14T09:52:21+00:00</time>
      </trkpt>
      <trkpt lat="46.93105" lon="-0.13089">
        <ele>107</ele>
        <time>2026-05-14T09:52:22+00:00</time>
      </trkpt>
      <trkpt lat="46.93103" lon="-0.13129">
        <ele>111</ele>
        <time>2026-05-14T09:52:23+00:00</time>
      </trkpt>
      <trkpt lat="46.93105" lon="-0.13141">
        <ele>112</ele>
        <time>2026-05-14T09:52:24+00:00</time>
      </trkpt>
      <trkpt lat="46.93099" lon="-0.13189">
        <ele>115</ele>
        <time>2026-05-14T09:52:25+00:00</time>
      </trkpt>
      <trkpt lat="46.93103" lon="-0.13286">
        <ele>118</ele>
        <time>2026-05-14T09:52:26+00:00</time>
      </trkpt>
      <trkpt lat="46.93083" lon="-0.1338">
        <ele>122</ele>
        <time>2026-05-14T09:52:27+00:00</time>
      </trkpt>
      <trkpt lat="46.93084" lon="-0.13401">
        <ele>122</ele>
        <time>2026-05-14T09:52:28+00:00</time>
      </trkpt>
      <trkpt lat="46.93077" lon="-0.1344">
        <ele>121</ele>
        <time>2026-05-14T09:52:29+00:00</time>
      </trkpt>
      <trkpt lat="46.93062" lon="-0.13493">
        <ele>119</ele>
        <time>2026-05-14T09:52:30+00:00</time>
      </trkpt>
      <trkpt lat="46.93047" lon="-0.13526">
        <ele>116</ele>
        <time>2026-05-14T09:52:31+00:00</time>
      </trkpt>
      <trkpt lat="46.93032" lon="-0.13584">
        <ele>114</ele>
        <time>2026-05-14T09:52:32+00:00</time>
      </trkpt>
      <trkpt lat="46.93037" lon="-0.13642">
        <ele>109</ele>
        <time>2026-05-14T09:52:33+00:00</time>
      </trkpt>
      <trkpt lat="46.93028" lon="-0.13666">
        <ele>107</ele>
        <time>2026-05-14T09:52:34+00:00</time>
      </trkpt>
      <trkpt lat="46.93008" lon="-0.13684">
        <ele>106</ele>
        <time>2026-05-14T09:52:35+00:00</time>
      </trkpt>
      <trkpt lat="46.9298" lon="-0.13692">
        <ele>104</ele>
        <time>2026-05-14T09:52:36+00:00</time>
      </trkpt>
      <trkpt lat="46.92943" lon="-0.13688">
        <ele>100</ele>
        <time>2026-05-14T09:52:37+00:00</time>
      </trkpt>
      <trkpt lat="46.92913" lon="-0.13677">
        <ele>98</ele>
        <time>2026-05-14T09:52:38+00:00</time>
      </trkpt>
      <trkpt lat="46.92913" lon="-0.13686">
        <ele>97</ele>
        <time>2026-05-14T09:52:39+00:00</time>
      </trkpt>
      <trkpt lat="46.92927" lon="-0.13715">
        <ele>97</ele>
        <time>2026-05-14T09:52:40+00:00</time>
      </trkpt>
      <trkpt lat="46.92935" lon="-0.13738">
        <ele>96</ele>
        <time>2026-05-14T09:52:41+00:00</time>
      </trkpt>
      <trkpt lat="46.92951" lon="-0.13768">
        <ele>96</ele>
        <time>2026-05-14T09:52:42+00:00</time>
      </trkpt>
      <trkpt lat="46.92972" lon="-0.13825">
        <ele>94</ele>
        <time>2026-05-14T09:52:43+00:00</time>
      </trkpt>
      <trkpt lat="46.92994" lon="-0.13873">
        <ele>92</ele>
        <time>2026-05-14T09:52:44+00:00</time>
      </trkpt>
      <trkpt lat="46.93021" lon="-0.13946">
        <ele>88</ele>
        <time>2026-05-14T09:52:45+00:00</time>
      </trkpt>
      <trkpt lat="46.93024" lon="-0.13948">
        <ele>88</ele>
        <time>2026-05-14T09:52:46+00:00</time>
      </trkpt>
      <trkpt lat="46.93025" lon="-0.13968">
        <ele>87</ele>
        <time>2026-05-14T09:52:47+00:00</time>
      </trkpt>
      <trkpt lat="46.93028" lon="-0.13977">
        <ele>87</ele>
        <time>2026-05-14T09:52:48+00:00</time>
      </trkpt>
      <trkpt lat="46.93045" lon="-0.14321">
        <ele>83</ele>
        <time>2026-05-14T09:52:49+00:00</time>
      </trkpt>
      <trkpt lat="46.93053" lon="-0.14412">
        <ele>84</ele>
        <time>2026-05-14T09:52:50+00:00</time>
      </trkpt>
      <trkpt lat="46.93053" lon="-0.14423">
        <ele>84</ele>
        <time>2026-05-14T09:52:51+00:00</time>
      </trkpt>
      <trkpt lat="46.9305" lon="-0.14433">
        <ele>84</ele>
        <time>2026-05-14T09:52:52+00:00</time>
      </trkpt>
      <trkpt lat="46.93006" lon="-0.14387">
        <ele>83</ele>
        <time>2026-05-14T09:52:53+00:00</time>
      </trkpt>
      <trkpt lat="46.9295" lon="-0.14339">
        <ele>81</ele>
        <time>2026-05-14T09:52:54+00:00</time>
      </trkpt>
      <trkpt lat="46.92902" lon="-0.14292">
        <ele>80</ele>
        <time>2026-05-14T09:52:55+00:00</time>
      </trkpt>
      <trkpt lat="46.92889" lon="-0.14284">
        <ele>80</ele>
        <time>2026-05-14T09:52:56+00:00</time>
      </trkpt>
      <trkpt lat="46.92875" lon="-0.14278">
        <ele>80</ele>
        <time>2026-05-14T09:52:57+00:00</time>
      </trkpt>
      <trkpt lat="46.92845" lon="-0.14272">
        <ele>80</ele>
        <time>2026-05-14T09:52:58+00:00</time>
      </trkpt>
      <trkpt lat="46.92824" lon="-0.14272">
        <ele>80</ele>
        <time>2026-05-14T09:52:59+00:00</time>
      </trkpt>
      <trkpt lat="46.92817" lon="-0.14269">
        <ele>79</ele>
        <time>2026-05-14T09:53:00+00:00</time>
      </trkpt>
      <trkpt lat="46.9278" lon="-0.14266">
        <ele>78</ele>
        <time>2026-05-14T09:53:01+00:00</time>
      </trkpt>
      <trkpt lat="46.92764" lon="-0.14262">
        <ele>78</ele>
        <time>2026-05-14T09:53:02+00:00</time>
      </trkpt>
      <trkpt lat="46.92751" lon="-0.14251">
        <ele>77</ele>
        <time>2026-05-14T09:53:03+00:00</time>
      </trkpt>
      <trkpt lat="46.92732" lon="-0.14224">
        <ele>77</ele>
        <time>2026-05-14T09:53:04+00:00</time>
      </trkpt>
      <trkpt lat="46.92723" lon="-0.14218">
        <ele>77</ele>
        <time>2026-05-14T09:53:05+00:00</time>
      </trkpt>
      <trkpt lat="46.92694" lon="-0.14206">
        <ele>76</ele>
        <time>2026-05-14T09:53:06+00:00</time>
      </trkpt>
      <trkpt lat="46.92668" lon="-0.14206">
        <ele>76</ele>
        <time>2026-05-14T09:53:07+00:00</time>
      </trkpt>
      <trkpt lat="46.92638" lon="-0.14211">
        <ele>72</ele>
        <time>2026-05-14T09:53:08+00:00</time>
      </trkpt>
      <trkpt lat="46.9262" lon="-0.14221">
        <ele>70</ele>
        <time>2026-05-14T09:53:09+00:00</time>
      </trkpt>
      <trkpt lat="46.92594" lon="-0.14229">
        <ele>66</ele>
        <time>2026-05-14T09:53:10+00:00</time>
      </trkpt>
      <trkpt lat="46.92591" lon="-0.14235">
        <ele>65</ele>
        <time>2026-05-14T09:53:11+00:00</time>
      </trkpt>
      <trkpt lat="46.92591" lon="-0.14303">
        <ele>65</ele>
        <time>2026-05-14T09:53:12+00:00</time>
      </trkpt>
      <trkpt lat="46.92595" lon="-0.14343">
        <ele>66</ele>
        <time>2026-05-14T09:53:13+00:00</time>
      </trkpt>
      <trkpt lat="46.92591" lon="-0.1441">
        <ele>64</ele>
        <time>2026-05-14T09:53:14+00:00</time>
      </trkpt>
      <trkpt lat="46.92591" lon="-0.14488">
        <ele>67</ele>
        <time>2026-05-14T09:53:15+00:00</time>
      </trkpt>
      <trkpt lat="46.92596" lon="-0.14585">
        <ele>69</ele>
        <time>2026-05-14T09:53:16+00:00</time>
      </trkpt>
      <trkpt lat="46.92594" lon="-0.14596">
        <ele>69</ele>
        <time>2026-05-14T09:53:17+00:00</time>
      </trkpt>
      <trkpt lat="46.92581" lon="-0.14625">
        <ele>67</ele>
        <time>2026-05-14T09:53:18+00:00</time>
      </trkpt>
      <trkpt lat="46.92566" lon="-0.14675">
        <ele>65</ele>
        <time>2026-05-14T09:53:19+00:00</time>
      </trkpt>
      <trkpt lat="46.92565" lon="-0.14808">
        <ele>66</ele>
        <time>2026-05-14T09:53:20+00:00</time>
      </trkpt>
      <trkpt lat="46.92558" lon="-0.14854">
        <ele>65</ele>
        <time>2026-05-14T09:53:21+00:00</time>
      </trkpt>
      <trkpt lat="46.92555" lon="-0.14961">
        <ele>62</ele>
        <time>2026-05-14T09:53:22+00:00</time>
      </trkpt>
      <trkpt lat="46.92551" lon="-0.14983">
        <ele>62</ele>
        <time>2026-05-14T09:53:23+00:00</time>
      </trkpt>
      <trkpt lat="46.92552" lon="-0.15002">
        <ele>61</ele>
        <time>2026-05-14T09:53:24+00:00</time>
      </trkpt>
      <trkpt lat="46.92563" lon="-0.1505">
        <ele>61</ele>
        <time>2026-05-14T09:53:25+00:00</time>
      </trkpt>
      <trkpt lat="46.92566" lon="-0.151">
        <ele>60</ele>
        <time>2026-05-14T09:53:26+00:00</time>
      </trkpt>
      <trkpt lat="46.92575" lon="-0.15146">
        <ele>59</ele>
        <time>2026-05-14T09:53:27+00:00</time>
      </trkpt>
      <trkpt lat="46.92593" lon="-0.15211">
        <ele>60</ele>
        <time>2026-05-14T09:53:28+00:00</time>
      </trkpt>
      <trkpt lat="46.92603" lon="-0.15261">
        <ele>60</ele>
        <time>2026-05-14T09:53:29+00:00</time>
      </trkpt>
      <trkpt lat="46.92606" lon="-0.15288">
        <ele>60</ele>
        <time>2026-05-14T09:53:30+00:00</time>
      </trkpt>
      <trkpt lat="46.92622" lon="-0.15351">
        <ele>59</ele>
        <time>2026-05-14T09:53:31+00:00</time>
      </trkpt>
      <trkpt lat="46.92647" lon="-0.15411">
        <ele>59</ele>
        <time>2026-05-14T09:53:32+00:00</time>
      </trkpt>
      <trkpt lat="46.92667" lon="-0.15452">
        <ele>59</ele>
        <time>2026-05-14T09:53:33+00:00</time>
      </trkpt>
      <trkpt lat="46.92695" lon="-0.15502">
        <ele>59</ele>
        <time>2026-05-14T09:53:34+00:00</time>
      </trkpt>
      <trkpt lat="46.92723" lon="-0.15539">
        <ele>59</ele>
        <time>2026-05-14T09:53:35+00:00</time>
      </trkpt>
      <trkpt lat="46.92773" lon="-0.15589">
        <ele>58</ele>
        <time>2026-05-14T09:53:36+00:00</time>
      </trkpt>
      <trkpt lat="46.928" lon="-0.15611">
        <ele>58</ele>
        <time>2026-05-14T09:53:37+00:00</time>
      </trkpt>
      <trkpt lat="46.92816" lon="-0.15621">
        <ele>58</ele>
        <time>2026-05-14T09:53:38+00:00</time>
      </trkpt>
      <trkpt lat="46.92837" lon="-0.1563">
        <ele>58</ele>
        <time>2026-05-14T09:53:39+00:00</time>
      </trkpt>
      <trkpt lat="46.9285" lon="-0.15633">
        <ele>58</ele>
        <time>2026-05-14T09:53:40+00:00</time>
      </trkpt>
      <trkpt lat="46.92865" lon="-0.15633">
        <ele>58</ele>
        <time>2026-05-14T09:53:41+00:00</time>
      </trkpt>
      <trkpt lat="46.92884" lon="-0.1563">
        <ele>59</ele>
        <time>2026-05-14T09:53:42+00:00</time>
      </trkpt>
      <trkpt lat="46.92917" lon="-0.15629">
        <ele>59</ele>
        <time>2026-05-14T09:53:43+00:00</time>
      </trkpt>
      <trkpt lat="46.92948" lon="-0.15617">
        <ele>59</ele>
        <time>2026-05-14T09:53:44+00:00</time>
      </trkpt>
      <trkpt lat="46.92959" lon="-0.15616">
        <ele>59</ele>
        <time>2026-05-14T09:53:45+00:00</time>
      </trkpt>
      <trkpt lat="46.92985" lon="-0.15601">
        <ele>58</ele>
        <time>2026-05-14T09:53:46+00:00</time>
      </trkpt>
      <trkpt lat="46.92999" lon="-0.15589">
        <ele>57</ele>
        <time>2026-05-14T09:53:47+00:00</time>
      </trkpt>
      <trkpt lat="46.93102" lon="-0.15523">
        <ele>58</ele>
        <time>2026-05-14T09:53:48+00:00</time>
      </trkpt>
      <trkpt lat="46.93116" lon="-0.1551">
        <ele>58</ele>
        <time>2026-05-14T09:53:49+00:00</time>
      </trkpt>
      <trkpt lat="46.93138" lon="-0.15496">
        <ele>59</ele>
        <time>2026-05-14T09:53:50+00:00</time>
      </trkpt>
      <trkpt lat="46.93174" lon="-0.15457">
        <ele>59</ele>
        <time>2026-05-14T09:53:51+00:00</time>
      </trkpt>
      <trkpt lat="46.93202" lon="-0.15432">
        <ele>59</ele>
        <time>2026-05-14T09:53:52+00:00</time>
      </trkpt>
      <trkpt lat="46.93228" lon="-0.15398">
        <ele>60</ele>
        <time>2026-05-14T09:53:53+00:00</time>
      </trkpt>
      <trkpt lat="46.93259" lon="-0.15366">
        <ele>61</ele>
        <time>2026-05-14T09:53:54+00:00</time>
      </trkpt>
      <trkpt lat="46.93287" lon="-0.15329">
        <ele>62</ele>
        <time>2026-05-14T09:53:55+00:00</time>
      </trkpt>
      <trkpt lat="46.93314" lon="-0.15307">
        <ele>63</ele>
        <time>2026-05-14T09:53:56+00:00</time>
      </trkpt>
      <trkpt lat="46.93327" lon="-0.15285">
        <ele>64</ele>
        <time>2026-05-14T09:53:57+00:00</time>
      </trkpt>
      <trkpt lat="46.93345" lon="-0.15264">
        <ele>64</ele>
        <time>2026-05-14T09:53:58+00:00</time>
      </trkpt>
      <trkpt lat="46.93354" lon="-0.15258">
        <ele>64</ele>
        <time>2026-05-14T09:53:59+00:00</time>
      </trkpt>
      <trkpt lat="46.93438" lon="-0.15151">
        <ele>66</ele>
        <time>2026-05-14T09:54:00+00:00</time>
      </trkpt>
      <trkpt lat="46.93467" lon="-0.15123">
        <ele>64</ele>
        <time>2026-05-14T09:54:01+00:00</time>
      </trkpt>
      <trkpt lat="46.93514" lon="-0.15067">
        <ele>64</ele>
        <time>2026-05-14T09:54:02+00:00</time>
      </trkpt>
      <trkpt lat="46.93523" lon="-0.15051">
        <ele>64</ele>
        <time>2026-05-14T09:54:03+00:00</time>
      </trkpt>
      <trkpt lat="46.93568" lon="-0.14992">
        <ele>64</ele>
        <time>2026-05-14T09:54:04+00:00</time>
      </trkpt>
      <trkpt lat="46.93593" lon="-0.14949">
        <ele>63</ele>
        <time>2026-05-14T09:54:05+00:00</time>
      </trkpt>
      <trkpt lat="46.93638" lon="-0.14831">
        <ele>65</ele>
        <time>2026-05-14T09:54:06+00:00</time>
      </trkpt>
      <trkpt lat="46.93659" lon="-0.14797">
        <ele>64</ele>
        <time>2026-05-14T09:54:07+00:00</time>
      </trkpt>
      <trkpt lat="46.93676" lon="-0.14785">
        <ele>64</ele>
        <time>2026-05-14T09:54:08+00:00</time>
      </trkpt>
      <trkpt lat="46.93744" lon="-0.14763">
        <ele>63</ele>
        <time>2026-05-14T09:54:09+00:00</time>
      </trkpt>
      <trkpt lat="46.93752" lon="-0.14763">
        <ele>63</ele>
        <time>2026-05-14T09:54:10+00:00</time>
      </trkpt>
      <trkpt lat="46.93757" lon="-0.14758">
        <ele>63</ele>
        <time>2026-05-14T09:54:11+00:00</time>
      </trkpt>
      <trkpt lat="46.93766" lon="-0.14754">
        <ele>63</ele>
        <time>2026-05-14T09:54:12+00:00</time>
      </trkpt>
      <trkpt lat="46.9392" lon="-0.14692">
        <ele>64</ele>
        <time>2026-05-14T09:54:13+00:00</time>
      </trkpt>
      <trkpt lat="46.93963" lon="-0.14679">
        <ele>64</ele>
        <time>2026-05-14T09:54:14+00:00</time>
      </trkpt>
      <trkpt lat="46.93973" lon="-0.14678">
        <ele>64</ele>
        <time>2026-05-14T09:54:15+00:00</time>
      </trkpt>
      <trkpt lat="46.94011" lon="-0.14682">
        <ele>64</ele>
        <time>2026-05-14T09:54:16+00:00</time>
      </trkpt>
      <trkpt lat="46.9403" lon="-0.14687">
        <ele>64</ele>
        <time>2026-05-14T09:54:17+00:00</time>
      </trkpt>
      <trkpt lat="46.94093" lon="-0.14689">
        <ele>64</ele>
        <time>2026-05-14T09:54:18+00:00</time>
      </trkpt>
      <trkpt lat="46.94102" lon="-0.14693">
        <ele>63</ele>
        <time>2026-05-14T09:54:19+00:00</time>
      </trkpt>
      <trkpt lat="46.94104" lon="-0.14695">
        <ele>63</ele>
        <time>2026-05-14T09:54:20+00:00</time>
      </trkpt>
      <trkpt lat="46.94104" lon="-0.14704">
        <ele>63</ele>
        <time>2026-05-14T09:54:21+00:00</time>
      </trkpt>
      <trkpt lat="46.94086" lon="-0.14738">
        <ele>63</ele>
        <time>2026-05-14T09:54:22+00:00</time>
      </trkpt>
      <trkpt lat="46.9408" lon="-0.14756">
        <ele>63</ele>
        <time>2026-05-14T09:54:23+00:00</time>
      </trkpt>
      <trkpt lat="46.94083" lon="-0.14775">
        <ele>62</ele>
        <time>2026-05-14T09:54:24+00:00</time>
      </trkpt>
      <trkpt lat="46.94085" lon="-0.14831">
        <ele>59</ele>
        <time>2026-05-14T09:54:25+00:00</time>
      </trkpt>
      <trkpt lat="46.94089" lon="-0.14841">
        <ele>59</ele>
        <time>2026-05-14T09:54:26+00:00</time>
      </trkpt>
      <trkpt lat="46.94131" lon="-0.14847">
        <ele>59</ele>
        <time>2026-05-14T09:54:27+00:00</time>
      </trkpt>
      <trkpt lat="46.94173" lon="-0.14867">
        <ele>58</ele>
        <time>2026-05-14T09:54:28+00:00</time>
      </trkpt>
      <trkpt lat="46.94197" lon="-0.14868">
        <ele>58</ele>
        <time>2026-05-14T09:54:29+00:00</time>
      </trkpt>
      <trkpt lat="46.94201" lon="-0.14864">
        <ele>59</ele>
        <time>2026-05-14T09:54:30+00:00</time>
      </trkpt>
      <trkpt lat="46.94214" lon="-0.14863">
        <ele>59</ele>
        <time>2026-05-14T09:54:31+00:00</time>
      </trkpt>
      <trkpt lat="46.94259" lon="-0.14848">
        <ele>60</ele>
        <time>2026-05-14T09:54:32+00:00</time>
      </trkpt>
      <trkpt lat="46.94263" lon="-0.14844">
        <ele>60</ele>
        <time>2026-05-14T09:54:33+00:00</time>
      </trkpt>
      <trkpt lat="46.94271" lon="-0.14853">
        <ele>60</ele>
        <time>2026-05-14T09:54:34+00:00</time>
      </trkpt>
      <trkpt lat="46.94297" lon="-0.14868">
        <ele>60</ele>
        <time>2026-05-14T09:54:35+00:00</time>
      </trkpt>
      <trkpt lat="46.94381" lon="-0.14894">
        <ele>61</ele>
        <time>2026-05-14T09:54:36+00:00</time>
      </trkpt>
      <trkpt lat="46.94391" lon="-0.14889">
        <ele>62</ele>
        <time>2026-05-14T09:54:37+00:00</time>
      </trkpt>
      <trkpt lat="46.94438" lon="-0.1489">
        <ele>65</ele>
        <time>2026-05-14T09:54:38+00:00</time>
      </trkpt>
      <trkpt lat="46.94451" lon="-0.14887">
        <ele>66</ele>
        <time>2026-05-14T09:54:39+00:00</time>
      </trkpt>
      <trkpt lat="46.94452" lon="-0.14893">
        <ele>66</ele>
        <time>2026-05-14T09:54:40+00:00</time>
      </trkpt>
      <trkpt lat="46.94446" lon="-0.14932">
        <ele>63</ele>
        <time>2026-05-14T09:54:41+00:00</time>
      </trkpt>
      <trkpt lat="46.9444" lon="-0.14954">
        <ele>61</ele>
        <time>2026-05-14T09:54:42+00:00</time>
      </trkpt>
      <trkpt lat="46.94364" lon="-0.15176">
        <ele>59</ele>
        <time>2026-05-14T09:54:43+00:00</time>
      </trkpt>
      <trkpt lat="46.94357" lon="-0.15178">
        <ele>59</ele>
        <time>2026-05-14T09:54:44+00:00</time>
      </trkpt>
      <trkpt lat="46.9435" lon="-0.15176">
        <ele>59</ele>
        <time>2026-05-14T09:54:45+00:00</time>
      </trkpt>
      <trkpt lat="46.94304" lon="-0.15144">
        <ele>60</ele>
        <time>2026-05-14T09:54:46+00:00</time>
      </trkpt>
      <trkpt lat="46.94261" lon="-0.15121">
        <ele>61</ele>
        <time>2026-05-14T09:54:47+00:00</time>
      </trkpt>
      <trkpt lat="46.94238" lon="-0.15113">
        <ele>61</ele>
        <time>2026-05-14T09:54:48+00:00</time>
      </trkpt>
      <trkpt lat="46.94155" lon="-0.15102">
        <ele>59</ele>
        <time>2026-05-14T09:54:49+00:00</time>
      </trkpt>
      <trkpt lat="46.94074" lon="-0.15105">
        <ele>58</ele>
        <time>2026-05-14T09:54:50+00:00</time>
      </trkpt>
      <trkpt lat="46.94028" lon="-0.15112">
        <ele>59</ele>
        <time>2026-05-14T09:54:51+00:00</time>
      </trkpt>
      <trkpt lat="46.93979" lon="-0.15123">
        <ele>60</ele>
        <time>2026-05-14T09:54:52+00:00</time>
      </trkpt>
      <trkpt lat="46.93956" lon="-0.15134">
        <ele>60</ele>
        <time>2026-05-14T09:54:53+00:00</time>
      </trkpt>
      <trkpt lat="46.93918" lon="-0.15163">
        <ele>60</ele>
        <time>2026-05-14T09:54:54+00:00</time>
      </trkpt>
      <trkpt lat="46.93903" lon="-0.1519">
        <ele>60</ele>
        <time>2026-05-14T09:54:55+00:00</time>
      </trkpt>
      <trkpt lat="46.93876" lon="-0.15252">
        <ele>60</ele>
        <time>2026-05-14T09:54:56+00:00</time>
      </trkpt>
      <trkpt lat="46.93841" lon="-0.15369">
        <ele>62</ele>
        <time>2026-05-14T09:54:57+00:00</time>
      </trkpt>
      <trkpt lat="46.93794" lon="-0.1546">
        <ele>63</ele>
        <time>2026-05-14T09:54:58+00:00</time>
      </trkpt>
      <trkpt lat="46.93761" lon="-0.15515">
        <ele>62</ele>
        <time>2026-05-14T09:54:59+00:00</time>
      </trkpt>
      <trkpt lat="46.93779" lon="-0.15532">
        <ele>63</ele>
        <time>2026-05-14T09:55:00+00:00</time>
      </trkpt>
      <trkpt lat="46.93787" lon="-0.15544">
        <ele>64</ele>
        <time>2026-05-14T09:55:01+00:00</time>
      </trkpt>
      <trkpt lat="46.93793" lon="-0.15555">
        <ele>64</ele>
        <time>2026-05-14T09:55:02+00:00</time>
      </trkpt>
      <trkpt lat="46.938" lon="-0.15581">
        <ele>65</ele>
        <time>2026-05-14T09:55:03+00:00</time>
      </trkpt>
      <trkpt lat="46.93796" lon="-0.15698">
        <ele>69</ele>
        <time>2026-05-14T09:55:04+00:00</time>
      </trkpt>
      <trkpt lat="46.93798" lon="-0.15719">
        <ele>69</ele>
        <time>2026-05-14T09:55:05+00:00</time>
      </trkpt>
      <trkpt lat="46.93809" lon="-0.15754">
        <ele>71</ele>
        <time>2026-05-14T09:55:06+00:00</time>
      </trkpt>
      <trkpt lat="46.93827" lon="-0.15797">
        <ele>73</ele>
        <time>2026-05-14T09:55:07+00:00</time>
      </trkpt>
      <trkpt lat="46.93884" lon="-0.15884">
        <ele>80</ele>
        <time>2026-05-14T09:55:08+00:00</time>
      </trkpt>
      <trkpt lat="46.93943" lon="-0.15997">
        <ele>86</ele>
        <time>2026-05-14T09:55:09+00:00</time>
      </trkpt>
      <trkpt lat="46.93972" lon="-0.16062">
        <ele>87</ele>
        <time>2026-05-14T09:55:10+00:00</time>
      </trkpt>
      <trkpt lat="46.94005" lon="-0.1616">
        <ele>89</ele>
        <time>2026-05-14T09:55:11+00:00</time>
      </trkpt>
      <trkpt lat="46.94007" lon="-0.16256">
        <ele>89</ele>
        <time>2026-05-14T09:55:12+00:00</time>
      </trkpt>
      <trkpt lat="46.94003" lon="-0.16325">
        <ele>90</ele>
        <time>2026-05-14T09:55:13+00:00</time>
      </trkpt>
      <trkpt lat="46.94157" lon="-0.16458">
        <ele>89</ele>
        <time>2026-05-14T09:55:14+00:00</time>
      </trkpt>
      <trkpt lat="46.942" lon="-0.16499">
        <ele>90</ele>
        <time>2026-05-14T09:55:15+00:00</time>
      </trkpt>
      <trkpt lat="46.94377" lon="-0.16648">
        <ele>95</ele>
        <time>2026-05-14T09:55:16+00:00</time>
      </trkpt>
      <trkpt lat="46.9447" lon="-0.16738">
        <ele>95</ele>
        <time>2026-05-14T09:55:17+00:00</time>
      </trkpt>
      <trkpt lat="46.94573" lon="-0.16936">
        <ele>94</ele>
        <time>2026-05-14T09:55:18+00:00</time>
      </trkpt>
      <trkpt lat="46.94621" lon="-0.17074">
        <ele>93</ele>
        <time>2026-05-14T09:55:19+00:00</time>
      </trkpt>
      <trkpt lat="46.94713" lon="-0.17107">
        <ele>90</ele>
        <time>2026-05-14T09:55:20+00:00</time>
      </trkpt>
      <trkpt lat="46.94775" lon="-0.17143">
        <ele>87</ele>
        <time>2026-05-14T09:55:21+00:00</time>
      </trkpt>
      <trkpt lat="46.94791" lon="-0.17181">
        <ele>87</ele>
        <time>2026-05-14T09:55:22+00:00</time>
      </trkpt>
      <trkpt lat="46.94806" lon="-0.17207">
        <ele>87</ele>
        <time>2026-05-14T09:55:23+00:00</time>
      </trkpt>
      <trkpt lat="46.94817" lon="-0.17253">
        <ele>88</ele>
        <time>2026-05-14T09:55:24+00:00</time>
      </trkpt>
      <trkpt lat="46.94829" lon="-0.174">
        <ele>84</ele>
        <time>2026-05-14T09:55:25+00:00</time>
      </trkpt>
      <trkpt lat="46.94859" lon="-0.17392">
        <ele>82</ele>
        <time>2026-05-14T09:55:26+00:00</time>
      </trkpt>
      <trkpt lat="46.94955" lon="-0.17356">
        <ele>74</ele>
        <time>2026-05-14T09:55:27+00:00</time>
      </trkpt>
      <trkpt lat="46.95" lon="-0.17345">
        <ele>69</ele>
        <time>2026-05-14T09:55:28+00:00</time>
      </trkpt>
      <trkpt lat="46.95031" lon="-0.17355">
        <ele>66</ele>
        <time>2026-05-14T09:55:29+00:00</time>
      </trkpt>
      <trkpt lat="46.95042" lon="-0.1738">
        <ele>65</ele>
        <time>2026-05-14T09:55:30+00:00</time>
      </trkpt>
      <trkpt lat="46.95058" lon="-0.17422">
        <ele>65</ele>
        <time>2026-05-14T09:55:31+00:00</time>
      </trkpt>
      <trkpt lat="46.95069" lon="-0.17495">
        <ele>67</ele>
        <time>2026-05-14T09:55:32+00:00</time>
      </trkpt>
      <trkpt lat="46.95075" lon="-0.17559">
        <ele>67</ele>
        <time>2026-05-14T09:55:33+00:00</time>
      </trkpt>
      <trkpt lat="46.95067" lon="-0.17732">
        <ele>67</ele>
        <time>2026-05-14T09:55:34+00:00</time>
      </trkpt>
      <trkpt lat="46.95047" lon="-0.1795">
        <ele>68</ele>
        <time>2026-05-14T09:55:35+00:00</time>
      </trkpt>
      <trkpt lat="46.9505" lon="-0.18023">
        <ele>68</ele>
        <time>2026-05-14T09:55:36+00:00</time>
      </trkpt>
      <trkpt lat="46.95042" lon="-0.18118">
        <ele>68</ele>
        <time>2026-05-14T09:55:37+00:00</time>
      </trkpt>
      <trkpt lat="46.95042" lon="-0.18172">
        <ele>67</ele>
        <time>2026-05-14T09:55:38+00:00</time>
      </trkpt>
      <trkpt lat="46.95048" lon="-0.18228">
        <ele>67</ele>
        <time>2026-05-14T09:55:39+00:00</time>
      </trkpt>
      <trkpt lat="46.95048" lon="-0.18287">
        <ele>69</ele>
        <time>2026-05-14T09:55:40+00:00</time>
      </trkpt>
      <trkpt lat="46.95052" lon="-0.18315">
        <ele>70</ele>
        <time>2026-05-14T09:55:41+00:00</time>
      </trkpt>
      <trkpt lat="46.95067" lon="-0.18346">
        <ele>70</ele>
        <time>2026-05-14T09:55:42+00:00</time>
      </trkpt>
      <trkpt lat="46.95107" lon="-0.18388">
        <ele>69</ele>
        <time>2026-05-14T09:55:43+00:00</time>
      </trkpt>
      <trkpt lat="46.95225" lon="-0.1828">
        <ele>63</ele>
        <time>2026-05-14T09:55:44+00:00</time>
      </trkpt>
      <trkpt lat="46.95256" lon="-0.18445">
        <ele>62</ele>
        <time>2026-05-14T09:55:45+00:00</time>
      </trkpt>
      <trkpt lat="46.95255" lon="-0.18596">
        <ele>62</ele>
        <time>2026-05-14T09:55:46+00:00</time>
      </trkpt>
      <trkpt lat="46.95241" lon="-0.1867">
        <ele>62</ele>
        <time>2026-05-14T09:55:47+00:00</time>
      </trkpt>
      <trkpt lat="46.95232" lon="-0.18697">
        <ele>62</ele>
        <time>2026-05-14T09:55:48+00:00</time>
      </trkpt>
      <trkpt lat="46.95232" lon="-0.18715">
        <ele>62</ele>
        <time>2026-05-14T09:55:49+00:00</time>
      </trkpt>
      <trkpt lat="46.95182" lon="-0.18878">
        <ele>64</ele>
        <time>2026-05-14T09:55:50+00:00</time>
      </trkpt>
      <trkpt lat="46.95184" lon="-0.18958">
        <ele>63</ele>
        <time>2026-05-14T09:55:51+00:00</time>
      </trkpt>
      <trkpt lat="46.95182" lon="-0.19014">
        <ele>63</ele>
        <time>2026-05-14T09:55:52+00:00</time>
      </trkpt>
      <trkpt lat="46.95174" lon="-0.19031">
        <ele>64</ele>
        <time>2026-05-14T09:55:53+00:00</time>
      </trkpt>
      <trkpt lat="46.95175" lon="-0.19052">
        <ele>64</ele>
        <time>2026-05-14T09:55:54+00:00</time>
      </trkpt>
      <trkpt lat="46.9518" lon="-0.1908">
        <ele>64</ele>
        <time>2026-05-14T09:55:55+00:00</time>
      </trkpt>
      <trkpt lat="46.95186" lon="-0.19091">
        <ele>63</ele>
        <time>2026-05-14T09:55:56+00:00</time>
      </trkpt>
      <trkpt lat="46.952" lon="-0.19101">
        <ele>62</ele>
        <time>2026-05-14T09:55:57+00:00</time>
      </trkpt>
      <trkpt lat="46.95281" lon="-0.19142">
        <ele>58</ele>
        <time>2026-05-14T09:55:58+00:00</time>
      </trkpt>
      <trkpt lat="46.95298" lon="-0.19143">
        <ele>58</ele>
        <time>2026-05-14T09:55:59+00:00</time>
      </trkpt>
      <trkpt lat="46.95314" lon="-0.19135">
        <ele>59</ele>
        <time>2026-05-14T09:56:00+00:00</time>
      </trkpt>
      <trkpt lat="46.95347" lon="-0.19084">
        <ele>60</ele>
        <time>2026-05-14T09:56:01+00:00</time>
      </trkpt>
      <trkpt lat="46.95399" lon="-0.19038">
        <ele>65</ele>
        <time>2026-05-14T09:56:02+00:00</time>
      </trkpt>
      <trkpt lat="46.95397" lon="-0.19019">
        <ele>64</ele>
        <time>2026-05-14T09:56:03+00:00</time>
      </trkpt>
      <trkpt lat="46.95404" lon="-0.18971">
        <ele>65</ele>
        <time>2026-05-14T09:56:04+00:00</time>
      </trkpt>
      <trkpt lat="46.95431" lon="-0.18839">
        <ele>66</ele>
        <time>2026-05-14T09:56:05+00:00</time>
      </trkpt>
      <trkpt lat="46.9545" lon="-0.18732">
        <ele>65</ele>
        <time>2026-05-14T09:56:06+00:00</time>
      </trkpt>
      <trkpt lat="46.95462" lon="-0.18689">
        <ele>66</ele>
        <time>2026-05-14T09:56:07+00:00</time>
      </trkpt>
      <trkpt lat="46.95539" lon="-0.1873">
        <ele>72</ele>
        <time>2026-05-14T09:56:08+00:00</time>
      </trkpt>
      <trkpt lat="46.95599" lon="-0.18478">
        <ele>83</ele>
        <time>2026-05-14T09:56:09+00:00</time>
      </trkpt>
      <trkpt lat="46.95607" lon="-0.18369">
        <ele>86</ele>
        <time>2026-05-14T09:56:10+00:00</time>
      </trkpt>
      <trkpt lat="46.95598" lon="-0.1833">
        <ele>85</ele>
        <time>2026-05-14T09:56:11+00:00</time>
      </trkpt>
      <trkpt lat="46.9561" lon="-0.18276">
        <ele>84</ele>
        <time>2026-05-14T09:56:12+00:00</time>
      </trkpt>
      <trkpt lat="46.95616" lon="-0.18267">
        <ele>84</ele>
        <time>2026-05-14T09:56:13+00:00</time>
      </trkpt>
      <trkpt lat="46.95647" lon="-0.18361">
        <ele>90</ele>
        <time>2026-05-14T09:56:14+00:00</time>
      </trkpt>
      <trkpt lat="46.95651" lon="-0.18434">
        <ele>89</ele>
        <time>2026-05-14T09:56:15+00:00</time>
      </trkpt>
      <trkpt lat="46.95686" lon="-0.18529">
        <ele>87</ele>
        <time>2026-05-14T09:56:16+00:00</time>
      </trkpt>
      <trkpt lat="46.95732" lon="-0.1859">
        <ele>87</ele>
        <time>2026-05-14T09:56:17+00:00</time>
      </trkpt>
      <trkpt lat="46.95791" lon="-0.18651">
        <ele>86</ele>
        <time>2026-05-14T09:56:18+00:00</time>
      </trkpt>
      <trkpt lat="46.95846" lon="-0.18687">
        <ele>85</ele>
        <time>2026-05-14T09:56:19+00:00</time>
      </trkpt>
      <trkpt lat="46.95877" lon="-0.18698">
        <ele>85</ele>
        <time>2026-05-14T09:56:20+00:00</time>
      </trkpt>
      <trkpt lat="46.95935" lon="-0.18735">
        <ele>84</ele>
        <time>2026-05-14T09:56:21+00:00</time>
      </trkpt>
      <trkpt lat="46.96001" lon="-0.18766">
        <ele>82</ele>
        <time>2026-05-14T09:56:22+00:00</time>
      </trkpt>
      <trkpt lat="46.96028" lon="-0.18766">
        <ele>81</ele>
        <time>2026-05-14T09:56:23+00:00</time>
      </trkpt>
      <trkpt lat="46.96077" lon="-0.18756">
        <ele>80</ele>
        <time>2026-05-14T09:56:24+00:00</time>
      </trkpt>
      <trkpt lat="46.9608" lon="-0.18775">
        <ele>78</ele>
        <time>2026-05-14T09:56:25+00:00</time>
      </trkpt>
      <trkpt lat="46.96096" lon="-0.18826">
        <ele>73</ele>
        <time>2026-05-14T09:56:26+00:00</time>
      </trkpt>
      <trkpt lat="46.96101" lon="-0.18854">
        <ele>69</ele>
        <time>2026-05-14T09:56:27+00:00</time>
      </trkpt>
      <trkpt lat="46.96116" lon="-0.18858">
        <ele>68</ele>
        <time>2026-05-14T09:56:28+00:00</time>
      </trkpt>
      <trkpt lat="46.96131" lon="-0.18852">
        <ele>67</ele>
        <time>2026-05-14T09:56:29+00:00</time>
      </trkpt>
      <trkpt lat="46.96144" lon="-0.1884">
        <ele>67</ele>
        <time>2026-05-14T09:56:30+00:00</time>
      </trkpt>
      <trkpt lat="46.96154" lon="-0.18822">
        <ele>68</ele>
        <time>2026-05-14T09:56:31+00:00</time>
      </trkpt>
      <trkpt lat="46.96162" lon="-0.18781">
        <ele>69</ele>
        <time>2026-05-14T09:56:32+00:00</time>
      </trkpt>
      <trkpt lat="46.96172" lon="-0.18759">
        <ele>70</ele>
        <time>2026-05-14T09:56:33+00:00</time>
      </trkpt>
      <trkpt lat="46.96183" lon="-0.18747">
        <ele>71</ele>
        <time>2026-05-14T09:56:34+00:00</time>
      </trkpt>
      <trkpt lat="46.96191" lon="-0.18755">
        <ele>70</ele>
        <time>2026-05-14T09:56:35+00:00</time>
      </trkpt>
      <trkpt lat="46.96218" lon="-0.18815">
        <ele>65</ele>
        <time>2026-05-14T09:56:36+00:00</time>
      </trkpt>
      <trkpt lat="46.96235" lon="-0.18826">
        <ele>63</ele>
        <time>2026-05-14T09:56:37+00:00</time>
      </trkpt>
      <trkpt lat="46.96255" lon="-0.18828">
        <ele>61</ele>
        <time>2026-05-14T09:56:38+00:00</time>
      </trkpt>
      <trkpt lat="46.96284" lon="-0.18827">
        <ele>60</ele>
        <time>2026-05-14T09:56:39+00:00</time>
      </trkpt>
      <trkpt lat="46.96309" lon="-0.1882">
        <ele>60</ele>
        <time>2026-05-14T09:56:40+00:00</time>
      </trkpt>
      <trkpt lat="46.96375" lon="-0.18821">
        <ele>58</ele>
        <time>2026-05-14T09:56:41+00:00</time>
      </trkpt>
      <trkpt lat="46.9654" lon="-0.18728">
        <ele>62</ele>
        <time>2026-05-14T09:56:42+00:00</time>
      </trkpt>
      <trkpt lat="46.96594" lon="-0.18712">
        <ele>64</ele>
        <time>2026-05-14T09:56:43+00:00</time>
      </trkpt>
      <trkpt lat="46.96651" lon="-0.1871">
        <ele>63</ele>
        <time>2026-05-14T09:56:44+00:00</time>
      </trkpt>
      <trkpt lat="46.96793" lon="-0.18724">
        <ele>61</ele>
        <time>2026-05-14T09:56:45+00:00</time>
      </trkpt>
      <trkpt lat="46.96891" lon="-0.18749">
        <ele>64</ele>
        <time>2026-05-14T09:56:46+00:00</time>
      </trkpt>
      <trkpt lat="46.96914" lon="-0.18759">
        <ele>65</ele>
        <time>2026-05-14T09:56:47+00:00</time>
      </trkpt>
      <trkpt lat="46.97014" lon="-0.18883">
        <ele>64</ele>
        <time>2026-05-14T09:56:48+00:00</time>
      </trkpt>
      <trkpt lat="46.97022" lon="-0.18898">
        <ele>63</ele>
        <time>2026-05-14T09:56:49+00:00</time>
      </trkpt>
      <trkpt lat="46.97032" lon="-0.18926">
        <ele>61</ele>
        <time>2026-05-14T09:56:50+00:00</time>
      </trkpt>
      <trkpt lat="46.97077" lon="-0.18993">
        <ele>59</ele>
        <time>2026-05-14T09:56:51+00:00</time>
      </trkpt>
      <trkpt lat="46.97081" lon="-0.19004">
        <ele>58</ele>
        <time>2026-05-14T09:56:52+00:00</time>
      </trkpt>
      <trkpt lat="46.97089" lon="-0.19009">
        <ele>60</ele>
        <time>2026-05-14T09:56:53+00:00</time>
      </trkpt>
      <trkpt lat="46.97153" lon="-0.18987">
        <ele>73</ele>
        <time>2026-05-14T09:56:54+00:00</time>
      </trkpt>
      <trkpt lat="46.97199" lon="-0.18962">
        <ele>82</ele>
        <time>2026-05-14T09:56:55+00:00</time>
      </trkpt>
      <trkpt lat="46.97215" lon="-0.18945">
        <ele>84</ele>
        <time>2026-05-14T09:56:56+00:00</time>
      </trkpt>
      <trkpt lat="46.97236" lon="-0.18908">
        <ele>85</ele>
        <time>2026-05-14T09:56:57+00:00</time>
      </trkpt>
      <trkpt lat="46.97248" lon="-0.1887">
        <ele>88</ele>
        <time>2026-05-14T09:56:58+00:00</time>
      </trkpt>
      <trkpt lat="46.97255" lon="-0.18836">
        <ele>91</ele>
        <time>2026-05-14T09:56:59+00:00</time>
      </trkpt>
      <trkpt lat="46.97254" lon="-0.18808">
        <ele>93</ele>
        <time>2026-05-14T09:57:00+00:00</time>
      </trkpt>
      <trkpt lat="46.9724" lon="-0.18729">
        <ele>101</ele>
        <time>2026-05-14T09:57:01+00:00</time>
      </trkpt>
      <trkpt lat="46.97227" lon="-0.18684">
        <ele>105</ele>
        <time>2026-05-14T09:57:02+00:00</time>
      </trkpt>
      <trkpt lat="46.972" lon="-0.18606">
        <ele>109</ele>
        <time>2026-05-14T09:57:03+00:00</time>
      </trkpt>
      <trkpt lat="46.97194" lon="-0.18579">
        <ele>110</ele>
        <time>2026-05-14T09:57:04+00:00</time>
      </trkpt>
      <trkpt lat="46.97191" lon="-0.18549">
        <ele>110</ele>
        <time>2026-05-14T09:57:05+00:00</time>
      </trkpt>
      <trkpt lat="46.97192" lon="-0.18517">
        <ele>110</ele>
        <time>2026-05-14T09:57:06+00:00</time>
      </trkpt>
      <trkpt lat="46.97142" lon="-0.18534">
        <ele>110</ele>
        <time>2026-05-14T09:57:07+00:00</time>
      </trkpt>
      <trkpt lat="46.97068" lon="-0.18548">
        <ele>112</ele>
        <time>2026-05-14T09:57:08+00:00</time>
      </trkpt>
      <trkpt lat="46.97033" lon="-0.18557">
        <ele>113</ele>
        <time>2026-05-14T09:57:09+00:00</time>
      </trkpt>
      <trkpt lat="46.97003" lon="-0.18556">
        <ele>115</ele>
        <time>2026-05-14T09:57:10+00:00</time>
      </trkpt>
      <trkpt lat="46.96976" lon="-0.18535">
        <ele>114</ele>
        <time>2026-05-14T09:57:11+00:00</time>
      </trkpt>
      <trkpt lat="46.96889" lon="-0.18433">
        <ele>117</ele>
        <time>2026-05-14T09:57:12+00:00</time>
      </trkpt>
      <trkpt lat="46.96845" lon="-0.184">
        <ele>116</ele>
        <time>2026-05-14T09:57:13+00:00</time>
      </trkpt>
      <trkpt lat="46.96806" lon="-0.18535">
        <ele>107</ele>
        <time>2026-05-14T09:57:14+00:00</time>
      </trkpt>
      <trkpt lat="46.96784" lon="-0.1853">
        <ele>107</ele>
        <time>2026-05-14T09:57:15+00:00</time>
      </trkpt>
      <trkpt lat="46.96682" lon="-0.18524">
        <ele>106</ele>
        <time>2026-05-14T09:57:16+00:00</time>
      </trkpt>
      <trkpt lat="46.96483" lon="-0.18525">
        <ele>104</ele>
        <time>2026-05-14T09:57:17+00:00</time>
      </trkpt>
      <trkpt lat="46.96459" lon="-0.1852">
        <ele>105</ele>
        <time>2026-05-14T09:57:18+00:00</time>
      </trkpt>
      <trkpt lat="46.96433" lon="-0.18505">
        <ele>106</ele>
        <time>2026-05-14T09:57:19+00:00</time>
      </trkpt>
      <trkpt lat="46.96368" lon="-0.18449">
        <ele>101</ele>
        <time>2026-05-14T09:57:20+00:00</time>
      </trkpt>
      <trkpt lat="46.9634" lon="-0.18437">
        <ele>99</ele>
        <time>2026-05-14T09:57:21+00:00</time>
      </trkpt>
      <trkpt lat="46.96308" lon="-0.18412">
        <ele>98</ele>
        <time>2026-05-14T09:57:22+00:00</time>
      </trkpt>
      <trkpt lat="46.96306" lon="-0.18388">
        <ele>98</ele>
        <time>2026-05-14T09:57:23+00:00</time>
      </trkpt>
      <trkpt lat="46.96332" lon="-0.18322">
        <ele>101</ele>
        <time>2026-05-14T09:57:24+00:00</time>
      </trkpt>
      <trkpt lat="46.96374" lon="-0.18238">
        <ele>103</ele>
        <time>2026-05-14T09:57:25+00:00</time>
      </trkpt>
      <trkpt lat="46.96401" lon="-0.18177">
        <ele>104</ele>
        <time>2026-05-14T09:57:26+00:00</time>
      </trkpt>
      <trkpt lat="46.96423" lon="-0.18137">
        <ele>104</ele>
        <time>2026-05-14T09:57:27+00:00</time>
      </trkpt>
      <trkpt lat="46.96386" lon="-0.1812">
        <ele>103</ele>
        <time>2026-05-14T09:57:28+00:00</time>
      </trkpt>
      <trkpt lat="46.96402" lon="-0.18104">
        <ele>104</ele>
        <time>2026-05-14T09:57:29+00:00</time>
      </trkpt>
      <trkpt lat="46.96418" lon="-0.18094">
        <ele>104</ele>
        <time>2026-05-14T09:57:30+00:00</time>
      </trkpt>
      <trkpt lat="46.96435" lon="-0.18076">
        <ele>106</ele>
        <time>2026-05-14T09:57:31+00:00</time>
      </trkpt>
      <trkpt lat="46.96452" lon="-0.18045">
        <ele>108</ele>
        <time>2026-05-14T09:57:32+00:00</time>
      </trkpt>
      <trkpt lat="46.96469" lon="-0.17997">
        <ele>110</ele>
        <time>2026-05-14T09:57:33+00:00</time>
      </trkpt>
      <trkpt lat="46.96487" lon="-0.17957">
        <ele>111</ele>
        <time>2026-05-14T09:57:34+00:00</time>
      </trkpt>
      <trkpt lat="46.96459" lon="-0.17928">
        <ele>111</ele>
        <time>2026-05-14T09:57:35+00:00</time>
      </trkpt>
      <trkpt lat="46.9634" lon="-0.17764">
        <ele>110</ele>
        <time>2026-05-14T09:57:36+00:00</time>
      </trkpt>
      <trkpt lat="46.96248" lon="-0.17647">
        <ele>108</ele>
        <time>2026-05-14T09:57:37+00:00</time>
      </trkpt>
      <trkpt lat="46.96181" lon="-0.17555">
        <ele>108</ele>
        <time>2026-05-14T09:57:38+00:00</time>
      </trkpt>
      <trkpt lat="46.96124" lon="-0.17483">
        <ele>107</ele>
        <time>2026-05-14T09:57:39+00:00</time>
      </trkpt>
      <trkpt lat="46.96103" lon="-0.17496">
        <ele>107</ele>
        <time>2026-05-14T09:57:40+00:00</time>
      </trkpt>
      <trkpt lat="46.96083" lon="-0.17515">
        <ele>107</ele>
        <time>2026-05-14T09:57:41+00:00</time>
      </trkpt>
      <trkpt lat="46.96037" lon="-0.1755">
        <ele>106</ele>
        <time>2026-05-14T09:57:42+00:00</time>
      </trkpt>
      <trkpt lat="46.96031" lon="-0.17433">
        <ele>106</ele>
        <time>2026-05-14T09:57:43+00:00</time>
      </trkpt>
      <trkpt lat="46.96034" lon="-0.17303">
        <ele>106</ele>
        <time>2026-05-14T09:57:44+00:00</time>
      </trkpt>
      <trkpt lat="46.9603" lon="-0.1726">
        <ele>106</ele>
        <time>2026-05-14T09:57:45+00:00</time>
      </trkpt>
      <trkpt lat="46.9603" lon="-0.17223">
        <ele>106</ele>
        <time>2026-05-14T09:57:46+00:00</time>
      </trkpt>
      <trkpt lat="46.96014" lon="-0.17097">
        <ele>104</ele>
        <time>2026-05-14T09:57:47+00:00</time>
      </trkpt>
      <trkpt lat="46.95992" lon="-0.16992">
        <ele>101</ele>
        <time>2026-05-14T09:57:48+00:00</time>
      </trkpt>
      <trkpt lat="46.95972" lon="-0.16863">
        <ele>94</ele>
        <time>2026-05-14T09:57:49+00:00</time>
      </trkpt>
      <trkpt lat="46.95956" lon="-0.16812">
        <ele>89</ele>
        <time>2026-05-14T09:57:50+00:00</time>
      </trkpt>
      <trkpt lat="46.95941" lon="-0.16798">
        <ele>88</ele>
        <time>2026-05-14T09:57:51+00:00</time>
      </trkpt>
      <trkpt lat="46.959" lon="-0.16822">
        <ele>87</ele>
        <time>2026-05-14T09:57:52+00:00</time>
      </trkpt>
      <trkpt lat="46.95868" lon="-0.16847">
        <ele>87</ele>
        <time>2026-05-14T09:57:53+00:00</time>
      </trkpt>
      <trkpt lat="46.95826" lon="-0.16897">
        <ele>86</ele>
        <time>2026-05-14T09:57:54+00:00</time>
      </trkpt>
      <trkpt lat="46.9581" lon="-0.16912">
        <ele>86</ele>
        <time>2026-05-14T09:57:55+00:00</time>
      </trkpt>
      <trkpt lat="46.9578" lon="-0.16971">
        <ele>86</ele>
        <time>2026-05-14T09:57:56+00:00</time>
      </trkpt>
      <trkpt lat="46.95703" lon="-0.17011">
        <ele>83</ele>
        <time>2026-05-14T09:57:57+00:00</time>
      </trkpt>
      <trkpt lat="46.95682" lon="-0.17027">
        <ele>82</ele>
        <time>2026-05-14T09:57:58+00:00</time>
      </trkpt>
      <trkpt lat="46.95642" lon="-0.17077">
        <ele>80</ele>
        <time>2026-05-14T09:57:59+00:00</time>
      </trkpt>
      <trkpt lat="46.95596" lon="-0.17144">
        <ele>78</ele>
        <time>2026-05-14T09:58:00+00:00</time>
      </trkpt>
      <trkpt lat="46.9557" lon="-0.17187">
        <ele>76</ele>
        <time>2026-05-14T09:58:01+00:00</time>
      </trkpt>
      <trkpt lat="46.95518" lon="-0.17256">
        <ele>73</ele>
        <time>2026-05-14T09:58:02+00:00</time>
      </trkpt>
      <trkpt lat="46.95492" lon="-0.17278">
        <ele>72</ele>
        <time>2026-05-14T09:58:03+00:00</time>
      </trkpt>
      <trkpt lat="46.95465" lon="-0.17297">
        <ele>71</ele>
        <time>2026-05-14T09:58:04+00:00</time>
      </trkpt>
      <trkpt lat="46.95436" lon="-0.17313">
        <ele>68</ele>
        <time>2026-05-14T09:58:05+00:00</time>
      </trkpt>
      <trkpt lat="46.95379" lon="-0.17354">
        <ele>63</ele>
        <time>2026-05-14T09:58:06+00:00</time>
      </trkpt>
      <trkpt lat="46.95352" lon="-0.17346">
        <ele>61</ele>
        <time>2026-05-14T09:58:07+00:00</time>
      </trkpt>
      <trkpt lat="46.9533" lon="-0.17328">
        <ele>61</ele>
        <time>2026-05-14T09:58:08+00:00</time>
      </trkpt>
      <trkpt lat="46.95304" lon="-0.17302">
        <ele>62</ele>
        <time>2026-05-14T09:58:09+00:00</time>
      </trkpt>
      <trkpt lat="46.95264" lon="-0.17228">
        <ele>63</ele>
        <time>2026-05-14T09:58:10+00:00</time>
      </trkpt>
      <trkpt lat="46.95248" lon="-0.17193">
        <ele>63</ele>
        <time>2026-05-14T09:58:11+00:00</time>
      </trkpt>
      <trkpt lat="46.95224" lon="-0.17102">
        <ele>66</ele>
        <time>2026-05-14T09:58:12+00:00</time>
      </trkpt>
      <trkpt lat="46.94986" lon="-0.16533">
        <ele>67</ele>
        <time>2026-05-14T09:58:13+00:00</time>
      </trkpt>
      <trkpt lat="46.94951" lon="-0.16454">
        <ele>67</ele>
        <time>2026-05-14T09:58:14+00:00</time>
      </trkpt>
      <trkpt lat="46.94934" lon="-0.16408">
        <ele>67</ele>
        <time>2026-05-14T09:58:15+00:00</time>
      </trkpt>
      <trkpt lat="46.94891" lon="-0.16319">
        <ele>67</ele>
        <time>2026-05-14T09:58:16+00:00</time>
      </trkpt>
      <trkpt lat="46.94869" lon="-0.16254">
        <ele>66</ele>
        <time>2026-05-14T09:58:17+00:00</time>
      </trkpt>
      <trkpt lat="46.94865" lon="-0.1623">
        <ele>66</ele>
        <time>2026-05-14T09:58:18+00:00</time>
      </trkpt>
      <trkpt lat="46.94836" lon="-0.16145">
        <ele>63</ele>
        <time>2026-05-14T09:58:19+00:00</time>
      </trkpt>
      <trkpt lat="46.9483" lon="-0.16113">
        <ele>61</ele>
        <time>2026-05-14T09:58:20+00:00</time>
      </trkpt>
      <trkpt lat="46.94796" lon="-0.16052">
        <ele>59</ele>
        <time>2026-05-14T09:58:21+00:00</time>
      </trkpt>
      <trkpt lat="46.94787" lon="-0.16025">
        <ele>59</ele>
        <time>2026-05-14T09:58:22+00:00</time>
      </trkpt>
      <trkpt lat="46.94786" lon="-0.15986">
        <ele>60</ele>
        <time>2026-05-14T09:58:23+00:00</time>
      </trkpt>
      <trkpt lat="46.94778" lon="-0.15898">
        <ele>63</ele>
        <time>2026-05-14T09:58:24+00:00</time>
      </trkpt>
      <trkpt lat="46.94784" lon="-0.15807">
        <ele>66</ele>
        <time>2026-05-14T09:58:25+00:00</time>
      </trkpt>
      <trkpt lat="46.94777" lon="-0.1565">
        <ele>66</ele>
        <time>2026-05-14T09:58:26+00:00</time>
      </trkpt>
      <trkpt lat="46.94657" lon="-0.15353">
        <ele>60</ele>
        <time>2026-05-14T09:58:27+00:00</time>
      </trkpt>
      <trkpt lat="46.94584" lon="-0.15142">
        <ele>59</ele>
        <time>2026-05-14T09:58:28+00:00</time>
      </trkpt>
      <trkpt lat="46.94529" lon="-0.15023">
        <ele>63</ele>
        <time>2026-05-14T09:58:29+00:00</time>
      </trkpt>
      <trkpt lat="46.94476" lon="-0.14963">
        <ele>63</ele>
        <time>2026-05-14T09:58:30+00:00</time>
      </trkpt>
      <trkpt lat="46.94447" lon="-0.14935">
        <ele>63</ele>
        <time>2026-05-14T09:58:31+00:00</time>
      </trkpt>
      <trkpt lat="46.94443" lon="-0.14937">
        <ele>62</ele>
        <time>2026-05-14T09:58:32+00:00</time>
      </trkpt>
      <trkpt lat="46.94439" lon="-0.14959">
        <ele>61</ele>
        <time>2026-05-14T09:58:33+00:00</time>
      </trkpt>
      <trkpt lat="46.94373" lon="-0.15156">
        <ele>59</ele>
        <time>2026-05-14T09:58:34+00:00</time>
      </trkpt>
      <trkpt lat="46.94361" lon="-0.15182">
        <ele>59</ele>
        <time>2026-05-14T09:58:35+00:00</time>
      </trkpt>
      <trkpt lat="46.94356" lon="-0.15186">
        <ele>59</ele>
        <time>2026-05-14T09:58:36+00:00</time>
      </trkpt>
      <trkpt lat="46.94269" lon="-0.15128">
        <ele>61</ele>
        <time>2026-05-14T09:58:37+00:00</time>
      </trkpt>
      <trkpt lat="46.94214" lon="-0.15114">
        <ele>60</ele>
        <time>2026-05-14T09:58:38+00:00</time>
      </trkpt>
      <trkpt lat="46.94167" lon="-0.15108">
        <ele>60</ele>
        <time>2026-05-14T09:58:39+00:00</time>
      </trkpt>
      <trkpt lat="46.94082" lon="-0.15109">
        <ele>58</ele>
        <time>2026-05-14T09:58:40+00:00</time>
      </trkpt>
      <trkpt lat="46.94017" lon="-0.1512">
        <ele>59</ele>
        <time>2026-05-14T09:58:41+00:00</time>
      </trkpt>
      <trkpt lat="46.93961" lon="-0.15135">
        <ele>60</ele>
        <time>2026-05-14T09:58:42+00:00</time>
      </trkpt>
      <trkpt lat="46.93931" lon="-0.15158">
        <ele>60</ele>
        <time>2026-05-14T09:58:43+00:00</time>
      </trkpt>
      <trkpt lat="46.93916" lon="-0.15173">
        <ele>60</ele>
        <time>2026-05-14T09:58:44+00:00</time>
      </trkpt>
      <trkpt lat="46.93896" lon="-0.15209">
        <ele>60</ele>
        <time>2026-05-14T09:58:45+00:00</time>
      </trkpt>
      <trkpt lat="46.93876" lon="-0.15262">
        <ele>60</ele>
        <time>2026-05-14T09:58:46+00:00</time>
      </trkpt>
      <trkpt lat="46.93852" lon="-0.15344">
        <ele>62</ele>
        <time>2026-05-14T09:58:47+00:00</time>
      </trkpt>
      <trkpt lat="46.93826" lon="-0.15407">
        <ele>63</ele>
        <time>2026-05-14T09:58:48+00:00</time>
      </trkpt>
      <trkpt lat="46.9377" lon="-0.15505">
        <ele>63</ele>
        <time>2026-05-14T09:58:49+00:00</time>
      </trkpt>
      <trkpt lat="46.93699" lon="-0.15607">
        <ele>63</ele>
        <time>2026-05-14T09:58:50+00:00</time>
      </trkpt>
      <trkpt lat="46.9365" lon="-0.1569">
        <ele>64</ele>
        <time>2026-05-14T09:58:51+00:00</time>
      </trkpt>
      <trkpt lat="46.93597" lon="-0.15742">
        <ele>63</ele>
        <time>2026-05-14T09:58:52+00:00</time>
      </trkpt>
      <trkpt lat="46.93491" lon="-0.15828">
        <ele>62</ele>
        <time>2026-05-14T09:58:53+00:00</time>
      </trkpt>
      <trkpt lat="46.93376" lon="-0.15882">
        <ele>62</ele>
        <time>2026-05-14T09:58:54+00:00</time>
      </trkpt>
      <trkpt lat="46.93341" lon="-0.15903">
        <ele>63</ele>
        <time>2026-05-14T09:58:55+00:00</time>
      </trkpt>
      <trkpt lat="46.93167" lon="-0.1609">
        <ele>63</ele>
        <time>2026-05-14T09:58:56+00:00</time>
      </trkpt>
      <trkpt lat="46.93145" lon="-0.16121">
        <ele>63</ele>
        <time>2026-05-14T09:58:57+00:00</time>
      </trkpt>
      <trkpt lat="46.93132" lon="-0.16159">
        <ele>64</ele>
        <time>2026-05-14T09:58:58+00:00</time>
      </trkpt>
      <trkpt lat="46.9313" lon="-0.16197">
        <ele>63</ele>
        <time>2026-05-14T09:58:59+00:00</time>
      </trkpt>
      <trkpt lat="46.93137" lon="-0.16221">
        <ele>64</ele>
        <time>2026-05-14T09:59:00+00:00</time>
      </trkpt>
      <trkpt lat="46.93155" lon="-0.16259">
        <ele>64</ele>
        <time>2026-05-14T09:59:01+00:00</time>
      </trkpt>
      <trkpt lat="46.93205" lon="-0.16351">
        <ele>64</ele>
        <time>2026-05-14T09:59:02+00:00</time>
      </trkpt>
      <trkpt lat="46.93244" lon="-0.16388">
        <ele>64</ele>
        <time>2026-05-14T09:59:03+00:00</time>
      </trkpt>
      <trkpt lat="46.93274" lon="-0.1643">
        <ele>65</ele>
        <time>2026-05-14T09:59:04+00:00</time>
      </trkpt>
      <trkpt lat="46.93287" lon="-0.16465">
        <ele>65</ele>
        <time>2026-05-14T09:59:05+00:00</time>
      </trkpt>
      <trkpt lat="46.93311" lon="-0.16507">
        <ele>65</ele>
        <time>2026-05-14T09:59:06+00:00</time>
      </trkpt>
      <trkpt lat="46.93314" lon="-0.16519">
        <ele>65</ele>
        <time>2026-05-14T09:59:07+00:00</time>
      </trkpt>
      <trkpt lat="46.93314" lon="-0.16537">
        <ele>64</ele>
        <time>2026-05-14T09:59:08+00:00</time>
      </trkpt>
      <trkpt lat="46.93275" lon="-0.16591">
        <ele>61</ele>
        <time>2026-05-14T09:59:09+00:00</time>
      </trkpt>
      <trkpt lat="46.93259" lon="-0.16609">
        <ele>60</ele>
        <time>2026-05-14T09:59:10+00:00</time>
      </trkpt>
      <trkpt lat="46.93206" lon="-0.16652">
        <ele>61</ele>
        <time>2026-05-14T09:59:11+00:00</time>
      </trkpt>
      <trkpt lat="46.93192" lon="-0.16657">
        <ele>61</ele>
        <time>2026-05-14T09:59:12+00:00</time>
      </trkpt>
      <trkpt lat="46.9318" lon="-0.16672">
        <ele>61</ele>
        <time>2026-05-14T09:59:13+00:00</time>
      </trkpt>
      <trkpt lat="46.93143" lon="-0.16698">
        <ele>62</ele>
        <time>2026-05-14T09:59:14+00:00</time>
      </trkpt>
      <trkpt lat="46.93173" lon="-0.16782">
        <ele>64</ele>
        <time>2026-05-14T09:59:15+00:00</time>
      </trkpt>
      <trkpt lat="46.93175" lon="-0.16795">
        <ele>64</ele>
        <time>2026-05-14T09:59:16+00:00</time>
      </trkpt>
      <trkpt lat="46.93169" lon="-0.16857">
        <ele>65</ele>
        <time>2026-05-14T09:59:17+00:00</time>
      </trkpt>
      <trkpt lat="46.93172" lon="-0.16887">
        <ele>65</ele>
        <time>2026-05-14T09:59:18+00:00</time>
      </trkpt>
      <trkpt lat="46.93159" lon="-0.16923">
        <ele>66</ele>
        <time>2026-05-14T09:59:19+00:00</time>
      </trkpt>
      <trkpt lat="46.93125" lon="-0.16974">
        <ele>68</ele>
        <time>2026-05-14T09:59:20+00:00</time>
      </trkpt>
      <trkpt lat="46.93083" lon="-0.17122">
        <ele>71</ele>
        <time>2026-05-14T09:59:21+00:00</time>
      </trkpt>
      <trkpt lat="46.93074" lon="-0.17162">
        <ele>72</ele>
        <time>2026-05-14T09:59:22+00:00</time>
      </trkpt>
      <trkpt lat="46.93066" lon="-0.17236">
        <ele>69</ele>
        <time>2026-05-14T09:59:23+00:00</time>
      </trkpt>
      <trkpt lat="46.93066" lon="-0.17249">
        <ele>69</ele>
        <time>2026-05-14T09:59:24+00:00</time>
      </trkpt>
      <trkpt lat="46.93077" lon="-0.17305">
        <ele>64</ele>
        <time>2026-05-14T09:59:25+00:00</time>
      </trkpt>
      <trkpt lat="46.93074" lon="-0.17341">
        <ele>62</ele>
        <time>2026-05-14T09:59:26+00:00</time>
      </trkpt>
      <trkpt lat="46.93073" lon="-0.1743">
        <ele>59</ele>
        <time>2026-05-14T09:59:27+00:00</time>
      </trkpt>
      <trkpt lat="46.93077" lon="-0.17452">
        <ele>59</ele>
        <time>2026-05-14T09:59:28+00:00</time>
      </trkpt>
      <trkpt lat="46.93084" lon="-0.17462">
        <ele>59</ele>
        <time>2026-05-14T09:59:29+00:00</time>
      </trkpt>
      <trkpt lat="46.93116" lon="-0.17487">
        <ele>59</ele>
        <time>2026-05-14T09:59:30+00:00</time>
      </trkpt>
      <trkpt lat="46.93145" lon="-0.17516">
        <ele>60</ele>
        <time>2026-05-14T09:59:31+00:00</time>
      </trkpt>
      <trkpt lat="46.93162" lon="-0.17531">
        <ele>60</ele>
        <time>2026-05-14T09:59:32+00:00</time>
      </trkpt>
      <trkpt lat="46.9317" lon="-0.17535">
        <ele>60</ele>
        <time>2026-05-14T09:59:33+00:00</time>
      </trkpt>
      <trkpt lat="46.93173" lon="-0.17541">
        <ele>60</ele>
        <time>2026-05-14T09:59:34+00:00</time>
      </trkpt>
      <trkpt lat="46.93183" lon="-0.17535">
        <ele>60</ele>
        <time>2026-05-14T09:59:35+00:00</time>
      </trkpt>
      <trkpt lat="46.9321" lon="-0.1753">
        <ele>61</ele>
        <time>2026-05-14T09:59:36+00:00</time>
      </trkpt>
      <trkpt lat="46.93226" lon="-0.17537">
        <ele>61</ele>
        <time>2026-05-14T09:59:37+00:00</time>
      </trkpt>
      <trkpt lat="46.93226" lon="-0.17539">
        <ele>61</ele>
        <time>2026-05-14T09:59:38+00:00</time>
      </trkpt>
      <trkpt lat="46.93217" lon="-0.17555">
        <ele>61</ele>
        <time>2026-05-14T09:59:39+00:00</time>
      </trkpt>
      <trkpt lat="46.93206" lon="-0.17589">
        <ele>62</ele>
        <time>2026-05-14T09:59:40+00:00</time>
      </trkpt>
      <trkpt lat="46.93181" lon="-0.17642">
        <ele>62</ele>
        <time>2026-05-14T09:59:41+00:00</time>
      </trkpt>
      <trkpt lat="46.93175" lon="-0.17661">
        <ele>62</ele>
        <time>2026-05-14T09:59:42+00:00</time>
      </trkpt>
      <trkpt lat="46.93162" lon="-0.17689">
        <ele>62</ele>
        <time>2026-05-14T09:59:43+00:00</time>
      </trkpt>
      <trkpt lat="46.93138" lon="-0.1773">
        <ele>64</ele>
        <time>2026-05-14T09:59:44+00:00</time>
      </trkpt>
      <trkpt lat="46.93122" lon="-0.17747">
        <ele>64</ele>
        <time>2026-05-14T09:59:45+00:00</time>
      </trkpt>
      <trkpt lat="46.9312" lon="-0.17762">
        <ele>66</ele>
        <time>2026-05-14T09:59:46+00:00</time>
      </trkpt>
      <trkpt lat="46.93102" lon="-0.1778">
        <ele>66</ele>
        <time>2026-05-14T09:59:47+00:00</time>
      </trkpt>
      <trkpt lat="46.93086" lon="-0.1779">
        <ele>66</ele>
        <time>2026-05-14T09:59:48+00:00</time>
      </trkpt>
      <trkpt lat="46.93083" lon="-0.17794">
        <ele>66</ele>
        <time>2026-05-14T09:59:49+00:00</time>
      </trkpt>
      <trkpt lat="46.93083" lon="-0.17799">
        <ele>67</ele>
        <time>2026-05-14T09:59:50+00:00</time>
      </trkpt>
      <trkpt lat="46.93096" lon="-0.17837">
        <ele>72</ele>
        <time>2026-05-14T09:59:51+00:00</time>
      </trkpt>
      <trkpt lat="46.93103" lon="-0.17851">
        <ele>74</ele>
        <time>2026-05-14T09:59:52+00:00</time>
      </trkpt>
      <trkpt lat="46.93106" lon="-0.17864">
        <ele>76</ele>
        <time>2026-05-14T09:59:53+00:00</time>
      </trkpt>
      <trkpt lat="46.93122" lon="-0.17887">
        <ele>80</ele>
        <time>2026-05-14T09:59:54+00:00</time>
      </trkpt>
      <trkpt lat="46.93128" lon="-0.17905">
        <ele>82</ele>
        <time>2026-05-14T09:59:55+00:00</time>
      </trkpt>
      <trkpt lat="46.93138" lon="-0.17917">
        <ele>84</ele>
        <time>2026-05-14T09:59:56+00:00</time>
      </trkpt>
      <trkpt lat="46.93149" lon="-0.17919">
        <ele>84</ele>
        <time>2026-05-14T09:59:57+00:00</time>
      </trkpt>
      <trkpt lat="46.93163" lon="-0.17934">
        <ele>85</ele>
        <time>2026-05-14T09:59:58+00:00</time>
      </trkpt>
      <trkpt lat="46.93162" lon="-0.17949">
        <ele>86</ele>
        <time>2026-05-14T09:59:59+00:00</time>
      </trkpt>
      <trkpt lat="46.93177" lon="-0.18058">
        <ele>90</ele>
        <time>2026-05-14T10:00:00+00:00</time>
      </trkpt>
      <trkpt lat="46.93182" lon="-0.18123">
        <ele>92</ele>
        <time>2026-05-14T10:00:01+00:00</time>
      </trkpt>
      <trkpt lat="46.932" lon="-0.18479">
        <ele>92</ele>
        <time>2026-05-14T10:00:02+00:00</time>
      </trkpt>
      <trkpt lat="46.93204" lon="-0.18505">
        <ele>92</ele>
        <time>2026-05-14T10:00:03+00:00</time>
      </trkpt>
      <trkpt lat="46.93213" lon="-0.18539">
        <ele>91</ele>
        <time>2026-05-14T10:00:04+00:00</time>
      </trkpt>
      <trkpt lat="46.93252" lon="-0.18657">
        <ele>88</ele>
        <time>2026-05-14T10:00:05+00:00</time>
      </trkpt>
      <trkpt lat="46.93262" lon="-0.18653">
        <ele>88</ele>
        <time>2026-05-14T10:00:06+00:00</time>
      </trkpt>
      <trkpt lat="46.93267" lon="-0.18645">
        <ele>89</ele>
        <time>2026-05-14T10:00:07+00:00</time>
      </trkpt>
      <trkpt lat="46.93299" lon="-0.18613">
        <ele>90</ele>
        <time>2026-05-14T10:00:08+00:00</time>
      </trkpt>
      <trkpt lat="46.93359" lon="-0.18559">
        <ele>91</ele>
        <time>2026-05-14T10:00:09+00:00</time>
      </trkpt>
      <trkpt lat="46.93414" lon="-0.1853">
        <ele>92</ele>
        <time>2026-05-14T10:00:10+00:00</time>
      </trkpt>
      <trkpt lat="46.93464" lon="-0.18496">
        <ele>93</ele>
        <time>2026-05-14T10:00:11+00:00</time>
      </trkpt>
      <trkpt lat="46.93488" lon="-0.18485">
        <ele>93</ele>
        <time>2026-05-14T10:00:12+00:00</time>
      </trkpt>
      <trkpt lat="46.93496" lon="-0.18484">
        <ele>92</ele>
        <time>2026-05-14T10:00:13+00:00</time>
      </trkpt>
      <trkpt lat="46.93497" lon="-0.18487">
        <ele>92</ele>
        <time>2026-05-14T10:00:14+00:00</time>
      </trkpt>
      <trkpt lat="46.93496" lon="-0.18493">
        <ele>92</ele>
        <time>2026-05-14T10:00:15+00:00</time>
      </trkpt>
      <trkpt lat="46.93498" lon="-0.18497">
        <ele>92</ele>
        <time>2026-05-14T10:00:16+00:00</time>
      </trkpt>
      <trkpt lat="46.93488" lon="-0.18563">
        <ele>91</ele>
        <time>2026-05-14T10:00:17+00:00</time>
      </trkpt>
      <trkpt lat="46.93461" lon="-0.18614">
        <ele>91</ele>
        <time>2026-05-14T10:00:18+00:00</time>
      </trkpt>
      <trkpt lat="46.9345" lon="-0.18651">
        <ele>90</ele>
        <time>2026-05-14T10:00:19+00:00</time>
      </trkpt>
      <trkpt lat="46.93446" lon="-0.18679">
        <ele>91</ele>
        <time>2026-05-14T10:00:20+00:00</time>
      </trkpt>
      <trkpt lat="46.9344" lon="-0.18772">
        <ele>92</ele>
        <time>2026-05-14T10:00:21+00:00</time>
      </trkpt>
      <trkpt lat="46.93441" lon="-0.18943">
        <ele>93</ele>
        <time>2026-05-14T10:00:22+00:00</time>
      </trkpt>
      <trkpt lat="46.93438" lon="-0.1906">
        <ele>93</ele>
        <time>2026-05-14T10:00:23+00:00</time>
      </trkpt>
      <trkpt lat="46.9344" lon="-0.19072">
        <ele>93</ele>
        <time>2026-05-14T10:00:24+00:00</time>
      </trkpt>
      <trkpt lat="46.93437" lon="-0.19072">
        <ele>93</ele>
        <time>2026-05-14T10:00:25+00:00</time>
      </trkpt>
      <trkpt lat="46.93426" lon="-0.19048">
        <ele>92</ele>
        <time>2026-05-14T10:00:26+00:00</time>
      </trkpt>
      <trkpt lat="46.93334" lon="-0.18913">
        <ele>91</ele>
        <time>2026-05-14T10:00:27+00:00</time>
      </trkpt>
      <trkpt lat="46.93295" lon="-0.18851">
        <ele>88</ele>
        <time>2026-05-14T10:00:28+00:00</time>
      </trkpt>
      <trkpt lat="46.93284" lon="-0.18812">
        <ele>87</ele>
        <time>2026-05-14T10:00:29+00:00</time>
      </trkpt>
      <trkpt lat="46.93281" lon="-0.18777">
        <ele>87</ele>
        <time>2026-05-14T10:00:30+00:00</time>
      </trkpt>
      <trkpt lat="46.93274" lon="-0.18774">
        <ele>86</ele>
        <time>2026-05-14T10:00:31+00:00</time>
      </trkpt>
      <trkpt lat="46.93221" lon="-0.18777">
        <ele>83</ele>
        <time>2026-05-14T10:00:32+00:00</time>
      </trkpt>
      <trkpt lat="46.9319" lon="-0.18774">
        <ele>82</ele>
        <time>2026-05-14T10:00:33+00:00</time>
      </trkpt>
      <trkpt lat="46.93165" lon="-0.18766">
        <ele>80</ele>
        <time>2026-05-14T10:00:34+00:00</time>
      </trkpt>
      <trkpt lat="46.93124" lon="-0.18737">
        <ele>80</ele>
        <time>2026-05-14T10:00:35+00:00</time>
      </trkpt>
      <trkpt lat="46.93101" lon="-0.18715">
        <ele>79</ele>
        <time>2026-05-14T10:00:36+00:00</time>
      </trkpt>
      <trkpt lat="46.93084" lon="-0.18691">
        <ele>77</ele>
        <time>2026-05-14T10:00:37+00:00</time>
      </trkpt>
      <trkpt lat="46.93062" lon="-0.18671">
        <ele>77</ele>
        <time>2026-05-14T10:00:38+00:00</time>
      </trkpt>
      <trkpt lat="46.93029" lon="-0.18654">
        <ele>78</ele>
        <time>2026-05-14T10:00:39+00:00</time>
      </trkpt>
      <trkpt lat="46.93001" lon="-0.18632">
        <ele>78</ele>
        <time>2026-05-14T10:00:40+00:00</time>
      </trkpt>
      <trkpt lat="46.92985" lon="-0.18614">
        <ele>78</ele>
        <time>2026-05-14T10:00:41+00:00</time>
      </trkpt>
      <trkpt lat="46.9298" lon="-0.18603">
        <ele>78</ele>
        <time>2026-05-14T10:00:42+00:00</time>
      </trkpt>
      <trkpt lat="46.92974" lon="-0.18606">
        <ele>78</ele>
        <time>2026-05-14T10:00:43+00:00</time>
      </trkpt>
      <trkpt lat="46.92961" lon="-0.18629">
        <ele>80</ele>
        <time>2026-05-14T10:00:44+00:00</time>
      </trkpt>
      <trkpt lat="46.92948" lon="-0.18655">
        <ele>81</ele>
        <time>2026-05-14T10:00:45+00:00</time>
      </trkpt>
      <trkpt lat="46.92945" lon="-0.18669">
        <ele>82</ele>
        <time>2026-05-14T10:00:46+00:00</time>
      </trkpt>
      <trkpt lat="46.92928" lon="-0.18711">
        <ele>85</ele>
        <time>2026-05-14T10:00:47+00:00</time>
      </trkpt>
      <trkpt lat="46.92899" lon="-0.18771">
        <ele>87</ele>
        <time>2026-05-14T10:00:48+00:00</time>
      </trkpt>
      <trkpt lat="46.92877" lon="-0.18806">
        <ele>87</ele>
        <time>2026-05-14T10:00:49+00:00</time>
      </trkpt>
      <trkpt lat="46.92867" lon="-0.18819">
        <ele>87</ele>
        <time>2026-05-14T10:00:50+00:00</time>
      </trkpt>
      <trkpt lat="46.92862" lon="-0.1882">
        <ele>87</ele>
        <time>2026-05-14T10:00:51+00:00</time>
      </trkpt>
      <trkpt lat="46.92834" lon="-0.18839">
        <ele>87</ele>
        <time>2026-05-14T10:00:52+00:00</time>
      </trkpt>
      <trkpt lat="46.92818" lon="-0.18844">
        <ele>85</ele>
        <time>2026-05-14T10:00:53+00:00</time>
      </trkpt>
      <trkpt lat="46.92813" lon="-0.18832">
        <ele>84</ele>
        <time>2026-05-14T10:00:54+00:00</time>
      </trkpt>
      <trkpt lat="46.92807" lon="-0.18833">
        <ele>84</ele>
        <time>2026-05-14T10:00:55+00:00</time>
      </trkpt>
      <trkpt lat="46.92739" lon="-0.18979">
        <ele>84</ele>
        <time>2026-05-14T10:00:56+00:00</time>
      </trkpt>
      <trkpt lat="46.92724" lon="-0.19005">
        <ele>83</ele>
        <time>2026-05-14T10:00:57+00:00</time>
      </trkpt>
      <trkpt lat="46.92674" lon="-0.19082">
        <ele>85</ele>
        <time>2026-05-14T10:00:58+00:00</time>
      </trkpt>
      <trkpt lat="46.92655" lon="-0.19103">
        <ele>85</ele>
        <time>2026-05-14T10:00:59+00:00</time>
      </trkpt>
      <trkpt lat="46.92613" lon="-0.19159">
        <ele>85</ele>
        <time>2026-05-14T10:01:00+00:00</time>
      </trkpt>
      <trkpt lat="46.92578" lon="-0.19212">
        <ele>89</ele>
        <time>2026-05-14T10:01:01+00:00</time>
      </trkpt>
      <trkpt lat="46.92541" lon="-0.19245">
        <ele>90</ele>
        <time>2026-05-14T10:01:02+00:00</time>
      </trkpt>
      <trkpt lat="46.92524" lon="-0.19255">
        <ele>89</ele>
        <time>2026-05-14T10:01:03+00:00</time>
      </trkpt>
      <trkpt lat="46.92502" lon="-0.19273">
        <ele>89</ele>
        <time>2026-05-14T10:01:04+00:00</time>
      </trkpt>
      <trkpt lat="46.92471" lon="-0.19288">
        <ele>89</ele>
        <time>2026-05-14T10:01:05+00:00</time>
      </trkpt>
      <trkpt lat="46.92437" lon="-0.19294">
        <ele>87</ele>
        <time>2026-05-14T10:01:06+00:00</time>
      </trkpt>
      <trkpt lat="46.92428" lon="-0.19298">
        <ele>87</ele>
        <time>2026-05-14T10:01:07+00:00</time>
      </trkpt>
      <trkpt lat="46.92366" lon="-0.19338">
        <ele>86</ele>
        <time>2026-05-14T10:01:08+00:00</time>
      </trkpt>
      <trkpt lat="46.92361" lon="-0.19345">
        <ele>86</ele>
        <time>2026-05-14T10:01:09+00:00</time>
      </trkpt>
      <trkpt lat="46.92348" lon="-0.19405">
        <ele>88</ele>
        <time>2026-05-14T10:01:10+00:00</time>
      </trkpt>
      <trkpt lat="46.92336" lon="-0.19438">
        <ele>88</ele>
        <time>2026-05-14T10:01:11+00:00</time>
      </trkpt>
      <trkpt lat="46.92374" lon="-0.19516">
        <ele>93</ele>
        <time>2026-05-14T10:01:12+00:00</time>
      </trkpt>
    </trkseg>
  </trk>
</gpx>
