<?xml version="1.0" encoding="UTF-8" ?>
<gpx version="1.1" xmlns:xsi="http://www.w3.org/2001/XMLSchema-instance"
    xmlns="http://www.topografix.com/GPX/1/1"
    xsi:schemaLocation="http://www.topografix.com/GPX/1/1 http://www.topografix.com/GPX/1/1/gpx.xsd"
    creator="Openrunner - https://www.openrunner.com" >	<trk>
	                   <name>Rezé, le long de la Sèvre, Ilette, Bernardière-14020336</name>
						<trkseg>
					<trkpt lat="47.195730" lon="-1.543970">
						<ele>6</ele>
						<time>2026-05-01T08:37:41Z</time>
					</trkpt>
					<trkpt lat="47.194960" lon="-1.543010">
						<ele>7</ele>
						<time>2026-05-01T08:39:02Z</time>
					</trkpt>
					<trkpt lat="47.193640" lon="-1.541440">
						<ele>9</ele>
						<time>2026-05-01T08:41:18Z</time>
					</trkpt>
					<trkpt lat="47.192700" lon="-1.539810">
						<ele>8</ele>
						<time>2026-05-01T08:43:14Z</time>
					</trkpt>
					<trkpt lat="47.191380" lon="-1.537860">
						<ele>8</ele>
						<time>2026-05-01T08:45:44Z</time>
					</trkpt>
					<trkpt lat="47.190040" lon="-1.536080">
						<ele>7</ele>
						<time>2026-05-01T08:48:08Z</time>
					</trkpt>
					<trkpt lat="47.187180" lon="-1.534050">
						<ele>5</ele>
						<time>2026-05-01T08:52:23Z</time>
					</trkpt>
					<trkpt lat="47.186770" lon="-1.534630">
						<ele>5</ele>
						<time>2026-05-01T08:53:08Z</time>
					</trkpt>
					<trkpt lat="47.183550" lon="-1.531340">
						<ele>5</ele>
						<time>2026-05-01T08:58:22Z</time>
					</trkpt>
					<trkpt lat="47.183330" lon="-1.531050">
						<ele>4</ele>
						<time>2026-05-01T08:58:46Z</time>
					</trkpt>
					<trkpt lat="47.182550" lon="-1.531700">
						<ele>8</ele>
						<time>2026-05-01T08:59:57Z</time>
					</trkpt>
					<trkpt lat="47.182620" lon="-1.530980">
						<ele>7</ele>
						<time>2026-05-01T09:00:37Z</time>
					</trkpt>
					<trkpt lat="47.181380" lon="-1.525810">
						<ele>6</ele>
						<time>2026-05-01T09:05:35Z</time>
					</trkpt>
					<trkpt lat="47.180200" lon="-1.526280">
						<ele>9</ele>
						<time>2026-05-01T09:07:13Z</time>
					</trkpt>
					<trkpt lat="47.179590" lon="-1.525390">
						<ele>9</ele>
						<time>2026-05-01T09:08:22Z</time>
					</trkpt>
					<trkpt lat="47.178460" lon="-1.525770">
						<ele>15</ele>
						<time>2026-05-01T09:09:55Z</time>
					</trkpt>
					<trkpt lat="47.176890" lon="-1.521470">
						<ele>9</ele>
						<time>2026-05-01T09:14:20Z</time>
					</trkpt>
					<trkpt lat="47.174290" lon="-1.521720">
						<ele>21</ele>
						<time>2026-05-01T09:17:49Z</time>
					</trkpt>
					<trkpt lat="47.173410" lon="-1.523080">
						<ele>16</ele>
						<time>2026-05-01T09:19:31Z</time>
					</trkpt>
					<trkpt lat="47.171790" lon="-1.521550">
						<ele>14</ele>
						<time>2026-05-01T09:22:05Z</time>
					</trkpt>
					<trkpt lat="47.171100" lon="-1.521190">
						<ele>14</ele>
						<time>2026-05-01T09:23:04Z</time>
					</trkpt>
					<trkpt lat="47.169610" lon="-1.520410">
						<ele>9</ele>
						<time>2026-05-01T09:25:11Z</time>
					</trkpt>
					<trkpt lat="47.169350" lon="-1.523810">
						<ele>15</ele>
						<time>2026-05-01T09:28:17Z</time>
					</trkpt>
					<trkpt lat="47.169050" lon="-1.524820">
						<ele>18</ele>
						<time>2026-05-01T09:29:17Z</time>
					</trkpt>
					<trkpt lat="47.167830" lon="-1.525680">
						<ele>20</ele>
						<time>2026-05-01T09:31:05Z</time>
					</trkpt>
					<trkpt lat="47.166920" lon="-1.525810">
						<ele>19</ele>
						<time>2026-05-01T09:32:18Z</time>
					</trkpt>
					<trkpt lat="47.166380" lon="-1.524650">
						<ele>17</ele>
						<time>2026-05-01T09:33:35Z</time>
					</trkpt>
					<trkpt lat="47.165570" lon="-1.524330">
						<ele>16</ele>
						<time>2026-05-01T09:34:42Z</time>
					</trkpt>
					<trkpt lat="47.164760" lon="-1.526280">
						<ele>23</ele>
						<time>2026-05-01T09:36:47Z</time>
					</trkpt>
					<trkpt lat="47.163530" lon="-1.527200">
						<ele>23</ele>
						<time>2026-05-01T09:38:37Z</time>
					</trkpt>
					<trkpt lat="47.162740" lon="-1.525390">
						<ele>21</ele>
						<time>2026-05-01T09:40:34Z</time>
					</trkpt>
					<trkpt lat="47.162080" lon="-1.525280">
						<ele>22</ele>
						<time>2026-05-01T09:41:27Z</time>
					</trkpt>
					<trkpt lat="47.161580" lon="-1.524710">
						<ele>20</ele>
						<time>2026-05-01T09:42:18Z</time>
					</trkpt>
					<trkpt lat="47.161470" lon="-1.526080">
						<ele>22</ele>
						<time>2026-05-01T09:43:33Z</time>
					</trkpt>
					<trkpt lat="47.160870" lon="-1.527590">
						<ele>18</ele>
						<time>2026-05-01T09:45:08Z</time>
					</trkpt>
					<trkpt lat="47.159900" lon="-1.528680">
						<ele>23</ele>
						<time>2026-05-01T09:46:46Z</time>
					</trkpt>
					<trkpt lat="47.159010" lon="-1.528680">
						<ele>22</ele>
						<time>2026-05-01T09:47:57Z</time>
					</trkpt>
					<trkpt lat="47.157300" lon="-1.530720">
						<ele>23</ele>
						<time>2026-05-01T09:50:54Z</time>
					</trkpt>
					<trkpt lat="47.157140" lon="-1.530620">
						<ele>23</ele>
						<time>2026-05-01T09:51:07Z</time>
					</trkpt>
					<trkpt lat="47.155940" lon="-1.531980">
						<ele>24</ele>
						<time>2026-05-01T09:53:09Z</time>
					</trkpt>
					<trkpt lat="47.154880" lon="-1.533640">
						<ele>28</ele>
						<time>2026-05-01T09:55:13Z</time>
					</trkpt>
					<trkpt lat="47.155890" lon="-1.535890">
						<ele>28</ele>
						<time>2026-05-01T09:57:40Z</time>
					</trkpt>
					<trkpt lat="47.156250" lon="-1.535850">
						<ele>27</ele>
						<time>2026-05-01T09:58:08Z</time>
					</trkpt>
					<trkpt lat="47.157710" lon="-1.533780">
						<ele>27</ele>
						<time>2026-05-01T10:00:51Z</time>
					</trkpt>
					<trkpt lat="47.157950" lon="-1.532500">
						<ele>25</ele>
						<time>2026-05-01T10:02:03Z</time>
					</trkpt>
					<trkpt lat="47.159760" lon="-1.535020">
						<ele>30</ele>
						<time>2026-05-01T10:05:23Z</time>
					</trkpt>
					<trkpt lat="47.160550" lon="-1.535830">
						<ele>32</ele>
						<time>2026-05-01T10:06:40Z</time>
					</trkpt>
					<trkpt lat="47.161720" lon="-1.531390">
						<ele>27</ele>
						<time>2026-05-01T10:10:59Z</time>
					</trkpt>
					<trkpt lat="47.162480" lon="-1.528710">
						<ele>23</ele>
						<time>2026-05-01T10:13:37Z</time>
					</trkpt>
					<trkpt lat="47.163830" lon="-1.528420">
						<ele>26</ele>
						<time>2026-05-01T10:15:26Z</time>
					</trkpt>
					<trkpt lat="47.165120" lon="-1.530010">
						<ele>26</ele>
						<time>2026-05-01T10:17:41Z</time>
					</trkpt>
					<trkpt lat="47.166700" lon="-1.530840">
						<ele>26</ele>
						<time>2026-05-01T10:19:55Z</time>
					</trkpt>
					<trkpt lat="47.169260" lon="-1.533390">
						<ele>33</ele>
						<time>2026-05-01T10:24:03Z</time>
					</trkpt>
					<trkpt lat="47.170160" lon="-1.533740">
						<ele>33</ele>
						<time>2026-05-01T10:25:18Z</time>
					</trkpt>
					<trkpt lat="47.171250" lon="-1.533650">
						<ele>33</ele>
						<time>2026-05-01T10:26:45Z</time>
					</trkpt>
					<trkpt lat="47.172470" lon="-1.534480">
						<ele>31</ele>
						<time>2026-05-01T10:28:33Z</time>
					</trkpt>
					<trkpt lat="47.173380" lon="-1.531760">
						<ele>27</ele>
						<time>2026-05-01T10:31:18Z</time>
					</trkpt>
					<trkpt lat="47.174080" lon="-1.532660">
						<ele>27</ele>
						<time>2026-05-01T10:32:32Z</time>
					</trkpt>
					<trkpt lat="47.175200" lon="-1.531360">
						<ele>23</ele>
						<time>2026-05-01T10:34:26Z</time>
					</trkpt>
					<trkpt lat="47.176490" lon="-1.530740">
						<ele>23</ele>
						<time>2026-05-01T10:36:15Z</time>
					</trkpt>
					<trkpt lat="47.176770" lon="-1.531200">
						<ele>22</ele>
						<time>2026-05-01T10:36:48Z</time>
					</trkpt>
					<trkpt lat="47.178040" lon="-1.529650">
						<ele>21</ele>
						<time>2026-05-01T10:39:01Z</time>
					</trkpt>
					<trkpt lat="47.178960" lon="-1.528680">
						<ele>16</ele>
						<time>2026-05-01T10:40:31Z</time>
					</trkpt>
					<trkpt lat="47.179330" lon="-1.528170">
						<ele>14</ele>
						<time>2026-05-01T10:41:12Z</time>
					</trkpt>
					<trkpt lat="47.180310" lon="-1.526640">
						<ele>9</ele>
						<time>2026-05-01T10:43:06Z</time>
					</trkpt>
					<trkpt lat="47.181310" lon="-1.527580">
						<ele>8</ele>
						<time>2026-05-01T10:44:41Z</time>
					</trkpt>
					<trkpt lat="47.181990" lon="-1.528790">
						<ele>8</ele>
						<time>2026-05-01T10:46:07Z</time>
					</trkpt>
					<trkpt lat="47.182620" lon="-1.530910">
						<ele>7</ele>
						<time>2026-05-01T10:48:13Z</time>
					</trkpt>
					<trkpt lat="47.182930" lon="-1.531830">
						<ele>7</ele>
						<time>2026-05-01T10:49:09Z</time>
					</trkpt>
					<trkpt lat="47.182940" lon="-1.531830">
						<ele>7</ele>
						<time>2026-05-01T10:49:09Z</time>
					</trkpt>
					<trkpt lat="47.186450" lon="-1.535560">
						<ele>11</ele>
						<time>2026-05-01T10:54:56Z</time>
					</trkpt>
					<trkpt lat="47.189770" lon="-1.537130">
						<ele>6</ele>
						<time>2026-05-01T10:59:35Z</time>
					</trkpt>
					<trkpt lat="47.191170" lon="-1.538810">
						<ele>6</ele>
						<time>2026-05-01T11:02:00Z</time>
					</trkpt>
					<trkpt lat="47.193370" lon="-1.542730">
						<ele>7</ele>
						<time>2026-05-01T11:06:36Z</time>
					</trkpt>
					<trkpt lat="47.194520" lon="-1.544480">
						<ele>6</ele>
						<time>2026-05-01T11:08:49Z</time>
					</trkpt>
					<trkpt lat="47.195870" lon="-1.543690">
						<ele>7</ele>
						<time>2026-05-01T11:10:45Z</time>
					</trkpt>
					</trkseg>
				</trk>
			</gpx>