<?xml version="1.0" encoding="UTF-8" ?>
<gpx version="1.1" xmlns:xsi="http://www.w3.org/2001/XMLSchema-instance"
    xmlns="http://www.topografix.com/GPX/1/1"
    xsi:schemaLocation="http://www.topografix.com/GPX/1/1 http://www.topografix.com/GPX/1/1/gpx.xsd"
    creator="Openrunner - https://www.openrunner.com" >	<trk>
	                   <name>rome-9485841</name>
						<trkseg>
					<trkpt lat="41.891480" lon="12.469140">
						<ele>26</ele>
						<time>2026-05-01T09:52:37Z</time>
					</trkpt>
					<trkpt lat="41.891590" lon="12.469350">
						<ele>26</ele>
						<time>2026-05-01T09:52:43Z</time>
					</trkpt>
					<trkpt lat="41.891560" lon="12.470000">
						<ele>25</ele>
						<time>2026-05-01T09:53:00Z</time>
					</trkpt>
					<trkpt lat="41.891860" lon="12.470340">
						<ele>22</ele>
						<time>2026-05-01T09:53:13Z</time>
					</trkpt>
					<trkpt lat="41.890810" lon="12.471840">
						<ele>21</ele>
						<time>2026-05-01T09:54:04Z</time>
					</trkpt>
					<trkpt lat="41.890280" lon="12.474400">
						<ele>25</ele>
						<time>2026-05-01T09:55:10Z</time>
					</trkpt>
					<trkpt lat="41.889550" lon="12.477060">
						<ele>23</ele>
						<time>2026-05-01T09:56:20Z</time>
					</trkpt>
					<trkpt lat="41.889200" lon="12.478260">
						<ele>20</ele>
						<time>2026-05-01T09:56:52Z</time>
					</trkpt>
					<trkpt lat="41.889390" lon="12.480320">
						<ele>16</ele>
						<time>2026-05-01T09:57:44Z</time>
					</trkpt>
					<trkpt lat="41.888600" lon="12.480380">
						<ele>17</ele>
						<time>2026-05-01T09:58:10Z</time>
					</trkpt>
					<trkpt lat="41.886400" lon="12.483390">
						<ele>29</ele>
						<time>2026-05-01T09:59:55Z</time>
					</trkpt>
					<trkpt lat="41.883730" lon="12.487890">
						<ele>27</ele>
						<time>2026-05-01T10:02:18Z</time>
					</trkpt>
					<trkpt lat="41.885150" lon="12.489290">
						<ele>27</ele>
						<time>2026-05-01T10:03:17Z</time>
					</trkpt>
					<trkpt lat="41.888090" lon="12.490150">
						<ele>30</ele>
						<time>2026-05-01T10:04:57Z</time>
					</trkpt>
					<trkpt lat="41.889020" lon="12.491130">
						<ele>31</ele>
						<time>2026-05-01T10:05:36Z</time>
					</trkpt>
					<trkpt lat="41.889100" lon="12.493560">
						<ele>39</ele>
						<time>2026-05-01T10:06:37Z</time>
					</trkpt>
					<trkpt lat="41.890590" lon="12.494090">
						<ele>35</ele>
						<time>2026-05-01T10:07:28Z</time>
					</trkpt>
					<trkpt lat="41.891320" lon="12.491460">
						<ele>33</ele>
						<time>2026-05-01T10:08:38Z</time>
					</trkpt>
					<trkpt lat="41.891460" lon="12.490490">
						<ele>33</ele>
						<time>2026-05-01T10:09:02Z</time>
					</trkpt>
					<trkpt lat="41.892950" lon="12.487610">
						<ele>25</ele>
						<time>2026-05-01T10:10:30Z</time>
					</trkpt>
					<trkpt lat="41.893350" lon="12.488040">
						<ele>28</ele>
						<time>2026-05-01T10:10:47Z</time>
					</trkpt>
					<trkpt lat="41.894070" lon="12.491050">
						<ele>39</ele>
						<time>2026-05-01T10:12:05Z</time>
					</trkpt>
					<trkpt lat="41.894750" lon="12.493280">
						<ele>47</ele>
						<time>2026-05-01T10:13:05Z</time>
					</trkpt>
					<trkpt lat="41.896890" lon="12.495620">
						<ele>57</ele>
						<time>2026-05-01T10:14:37Z</time>
					</trkpt>
					<trkpt lat="41.898320" lon="12.496910">
						<ele>53</ele>
						<time>2026-05-01T10:15:35Z</time>
					</trkpt>
					<trkpt lat="41.904620" lon="12.485950">
						<ele>53</ele>
						<time>2026-05-01T10:21:18Z</time>
					</trkpt>
					<trkpt lat="41.904070" lon="12.485700">
						<ele>47</ele>
						<time>2026-05-01T10:21:38Z</time>
					</trkpt>
					<trkpt lat="41.903830" lon="12.484390">
						<ele>40</ele>
						<time>2026-05-01T10:22:11Z</time>
					</trkpt>
					<trkpt lat="41.905820" lon="12.482360">
						<ele>36</ele>
						<time>2026-05-01T10:23:35Z</time>
					</trkpt>
					<trkpt lat="41.906100" lon="12.483400">
						<ele>47</ele>
						<time>2026-05-01T10:24:02Z</time>
					</trkpt>
					<trkpt lat="41.906510" lon="12.483180">
						<ele>45</ele>
						<time>2026-05-01T10:24:17Z</time>
					</trkpt>
					<trkpt lat="41.906790" lon="12.484470">
						<ele>60</ele>
						<time>2026-05-01T10:24:50Z</time>
					</trkpt>
					<trkpt lat="41.908440" lon="12.485830">
						<ele>62</ele>
						<time>2026-05-01T10:25:55Z</time>
					</trkpt>
					<trkpt lat="41.909590" lon="12.486180">
						<ele>58</ele>
						<time>2026-05-01T10:26:34Z</time>
					</trkpt>
					<trkpt lat="41.909380" lon="12.486930">
						<ele>65</ele>
						<time>2026-05-01T10:26:54Z</time>
					</trkpt>
					<trkpt lat="41.909960" lon="12.487850">
						<ele>70</ele>
						<time>2026-05-01T10:27:24Z</time>
					</trkpt>
					<trkpt lat="41.913360" lon="12.491270">
						<ele>62</ele>
						<time>2026-05-01T10:29:46Z</time>
					</trkpt>
					<trkpt lat="41.914100" lon="12.490170">
						<ele>57</ele>
						<time>2026-05-01T10:30:22Z</time>
					</trkpt>
					<trkpt lat="41.914850" lon="12.489710">
						<ele>58</ele>
						<time>2026-05-01T10:30:50Z</time>
					</trkpt>
					<trkpt lat="41.915120" lon="12.489040">
						<ele>56</ele>
						<time>2026-05-01T10:31:09Z</time>
					</trkpt>
					<trkpt lat="41.915670" lon="12.488260">
						<ele>53</ele>
						<time>2026-05-01T10:31:36Z</time>
					</trkpt>
					<trkpt lat="41.915930" lon="12.487710">
						<ele>54</ele>
						<time>2026-05-01T10:31:52Z</time>
					</trkpt>
					<trkpt lat="41.916290" lon="12.487180">
						<ele>52</ele>
						<time>2026-05-01T10:32:10Z</time>
					</trkpt>
					<trkpt lat="41.916320" lon="12.486190">
						<ele>51</ele>
						<time>2026-05-01T10:32:34Z</time>
					</trkpt>
					<trkpt lat="41.915890" lon="12.483790">
						<ele>48</ele>
						<time>2026-05-01T10:33:35Z</time>
					</trkpt>
					<trkpt lat="41.914740" lon="12.484730">
						<ele>56</ele>
						<time>2026-05-01T10:34:20Z</time>
					</trkpt>
					<trkpt lat="41.914270" lon="12.485520">
						<ele>59</ele>
						<time>2026-05-01T10:34:45Z</time>
					</trkpt>
					<trkpt lat="41.914080" lon="12.486180">
						<ele>59</ele>
						<time>2026-05-01T10:35:03Z</time>
					</trkpt>
					<trkpt lat="41.912760" lon="12.484950">
						<ele>62</ele>
						<time>2026-05-01T10:35:57Z</time>
					</trkpt>
					<trkpt lat="41.914090" lon="12.482860">
						<ele>58</ele>
						<time>2026-05-01T10:37:05Z</time>
					</trkpt>
					<trkpt lat="41.914590" lon="12.481920">
						<ele>57</ele>
						<time>2026-05-01T10:37:34Z</time>
					</trkpt>
					<trkpt lat="41.913260" lon="12.479250">
						<ele>47</ele>
						<time>2026-05-01T10:38:53Z</time>
					</trkpt>
					<trkpt lat="41.912030" lon="12.476550">
						<ele>30</ele>
						<time>2026-05-01T10:40:12Z</time>
					</trkpt>
					<trkpt lat="41.910930" lon="12.472990">
						<ele>26</ele>
						<time>2026-05-01T10:41:48Z</time>
					</trkpt>
					<trkpt lat="41.909940" lon="12.473310">
						<ele>23</ele>
						<time>2026-05-01T10:42:22Z</time>
					</trkpt>
					<trkpt lat="41.909430" lon="12.471500">
						<ele>21</ele>
						<time>2026-05-01T10:43:10Z</time>
					</trkpt>
					<trkpt lat="41.906020" lon="12.470380">
						<ele>30</ele>
						<time>2026-05-01T10:45:07Z</time>
					</trkpt>
					<trkpt lat="41.905460" lon="12.468560">
						<ele>30</ele>
						<time>2026-05-01T10:45:56Z</time>
					</trkpt>
					<trkpt lat="41.904530" lon="12.468980">
						<ele>28</ele>
						<time>2026-05-01T10:46:28Z</time>
					</trkpt>
					<trkpt lat="41.902760" lon="12.468250">
						<ele>17</ele>
						<time>2026-05-01T10:47:30Z</time>
					</trkpt>
					<trkpt lat="41.902760" lon="12.467460">
						<ele>18</ele>
						<time>2026-05-01T10:47:50Z</time>
					</trkpt>
					<trkpt lat="41.904020" lon="12.467750">
						<ele>23</ele>
						<time>2026-05-01T10:48:32Z</time>
					</trkpt>
					<trkpt lat="41.904650" lon="12.466330">
						<ele>24</ele>
						<time>2026-05-01T10:49:13Z</time>
					</trkpt>
					<trkpt lat="41.903710" lon="12.464810">
						<ele>26</ele>
						<time>2026-05-01T10:50:03Z</time>
					</trkpt>
					<trkpt lat="41.902510" lon="12.465370">
						<ele>21</ele>
						<time>2026-05-01T10:50:45Z</time>
					</trkpt>
					<trkpt lat="41.902260" lon="12.458600">
						<ele>26</ele>
						<time>2026-05-01T10:53:33Z</time>
					</trkpt>
					<trkpt lat="41.901640" lon="12.458500">
						<ele>31</ele>
						<time>2026-05-01T10:53:54Z</time>
					</trkpt>
					<trkpt lat="41.901480" lon="12.460770">
						<ele>30</ele>
						<time>2026-05-01T10:54:51Z</time>
					</trkpt>
					<trkpt lat="41.897650" lon="12.463650">
						<ele>23</ele>
						<time>2026-05-01T10:57:17Z</time>
					</trkpt>
					<trkpt lat="41.894000" lon="12.467590">
						<ele>24</ele>
						<time>2026-05-01T10:59:53Z</time>
					</trkpt>
					<trkpt lat="41.892120" lon="12.470340">
						<ele>20</ele>
						<time>2026-05-01T11:01:26Z</time>
					</trkpt>
					</trkseg>
				</trk>
			</gpx>