<?xml version="1.0" encoding="UTF-8" ?>
<gpx version="1.1" xmlns:xsi="http://www.w3.org/2001/XMLSchema-instance"
    xmlns="http://www.topografix.com/GPX/1/1"
    xsi:schemaLocation="http://www.topografix.com/GPX/1/1 http://www.topografix.com/GPX/1/1/gpx.xsd"
    creator="Openrunner - https://www.openrunner.com" >	<trk>
	                   <name>Rssto Lacrouzette lac du merle  23/01/2025-19786912</name>
						<trkseg>
					<trkpt lat="43.662900" lon="2.371050">
						<ele>596</ele>
						<time>2026-05-01T09:39:46Z</time>
					</trkpt>
					<trkpt lat="43.663180" lon="2.371280">
						<ele>598</ele>
						<time>2026-05-01T09:40:29Z</time>
					</trkpt>
					<trkpt lat="43.663090" lon="2.371950">
						<ele>595</ele>
						<time>2026-05-01T09:41:35Z</time>
					</trkpt>
					<trkpt lat="43.663170" lon="2.372420">
						<ele>595</ele>
						<time>2026-05-01T09:42:22Z</time>
					</trkpt>
					<trkpt lat="43.663190" lon="2.373430">
						<ele>593</ele>
						<time>2026-05-01T09:43:59Z</time>
					</trkpt>
					<trkpt lat="43.663240" lon="2.373720">
						<ele>593</ele>
						<time>2026-05-01T09:44:28Z</time>
					</trkpt>
					<trkpt lat="43.663390" lon="2.374000">
						<ele>590</ele>
						<time>2026-05-01T09:45:02Z</time>
					</trkpt>
					<trkpt lat="43.663420" lon="2.374190">
						<ele>588</ele>
						<time>2026-05-01T09:45:21Z</time>
					</trkpt>
					<trkpt lat="43.663190" lon="2.374530">
						<ele>590</ele>
						<time>2026-05-01T09:46:06Z</time>
					</trkpt>
					<trkpt lat="43.663090" lon="2.374780">
						<ele>589</ele>
						<time>2026-05-01T09:46:33Z</time>
					</trkpt>
					<trkpt lat="43.662990" lon="2.375150">
						<ele>588</ele>
						<time>2026-05-01T09:47:11Z</time>
					</trkpt>
					<trkpt lat="43.662820" lon="2.375740">
						<ele>584</ele>
						<time>2026-05-01T09:48:13Z</time>
					</trkpt>
					<trkpt lat="43.662740" lon="2.376330">
						<ele>582</ele>
						<time>2026-05-01T09:49:10Z</time>
					</trkpt>
					<trkpt lat="43.662420" lon="2.376800">
						<ele>584</ele>
						<time>2026-05-01T09:50:13Z</time>
					</trkpt>
					<trkpt lat="43.662400" lon="2.377270">
						<ele>584</ele>
						<time>2026-05-01T09:50:58Z</time>
					</trkpt>
					<trkpt lat="43.662500" lon="2.377350">
						<ele>584</ele>
						<time>2026-05-01T09:51:14Z</time>
					</trkpt>
					<trkpt lat="43.662790" lon="2.377280">
						<ele>584</ele>
						<time>2026-05-01T09:51:53Z</time>
					</trkpt>
					<trkpt lat="43.663090" lon="2.377340">
						<ele>585</ele>
						<time>2026-05-01T09:52:33Z</time>
					</trkpt>
					<trkpt lat="43.663250" lon="2.377420">
						<ele>586</ele>
						<time>2026-05-01T09:52:56Z</time>
					</trkpt>
					<trkpt lat="43.663430" lon="2.377610">
						<ele>588</ele>
						<time>2026-05-01T09:53:26Z</time>
					</trkpt>
					<trkpt lat="43.663520" lon="2.378100">
						<ele>592</ele>
						<time>2026-05-01T09:54:15Z</time>
					</trkpt>
					<trkpt lat="43.663730" lon="2.378360">
						<ele>592</ele>
						<time>2026-05-01T09:54:53Z</time>
					</trkpt>
					<trkpt lat="43.663710" lon="2.378890">
						<ele>595</ele>
						<time>2026-05-01T09:55:44Z</time>
					</trkpt>
					<trkpt lat="43.663840" lon="2.379270">
						<ele>596</ele>
						<time>2026-05-01T09:56:25Z</time>
					</trkpt>
					<trkpt lat="43.664210" lon="2.379980">
						<ele>601</ele>
						<time>2026-05-01T09:57:49Z</time>
					</trkpt>
					<trkpt lat="43.664430" lon="2.380650">
						<ele>603</ele>
						<time>2026-05-01T09:59:00Z</time>
					</trkpt>
					<trkpt lat="43.664740" lon="2.381750">
						<ele>604</ele>
						<time>2026-05-01T10:00:54Z</time>
					</trkpt>
					<trkpt lat="43.664920" lon="2.381910">
						<ele>604</ele>
						<time>2026-05-01T10:01:23Z</time>
					</trkpt>
					<trkpt lat="43.665340" lon="2.381850">
						<ele>602</ele>
						<time>2026-05-01T10:02:19Z</time>
					</trkpt>
					<trkpt lat="43.665590" lon="2.382110">
						<ele>604</ele>
						<time>2026-05-01T10:03:01Z</time>
					</trkpt>
					<trkpt lat="43.665820" lon="2.382350">
						<ele>606</ele>
						<time>2026-05-01T10:03:39Z</time>
					</trkpt>
					<trkpt lat="43.666070" lon="2.382760">
						<ele>605</ele>
						<time>2026-05-01T10:04:31Z</time>
					</trkpt>
					<trkpt lat="43.666280" lon="2.382840">
						<ele>602</ele>
						<time>2026-05-01T10:05:00Z</time>
					</trkpt>
					<trkpt lat="43.666590" lon="2.382600">
						<ele>595</ele>
						<time>2026-05-01T10:05:47Z</time>
					</trkpt>
					<trkpt lat="43.666690" lon="2.382120">
						<ele>590</ele>
						<time>2026-05-01T10:06:36Z</time>
					</trkpt>
					<trkpt lat="43.666880" lon="2.381860">
						<ele>585</ele>
						<time>2026-05-01T10:07:11Z</time>
					</trkpt>
					<trkpt lat="43.667050" lon="2.381470">
						<ele>580</ele>
						<time>2026-05-01T10:07:55Z</time>
					</trkpt>
					<trkpt lat="43.667150" lon="2.381040">
						<ele>576</ele>
						<time>2026-05-01T10:08:39Z</time>
					</trkpt>
					<trkpt lat="43.667280" lon="2.380800">
						<ele>572</ele>
						<time>2026-05-01T10:09:08Z</time>
					</trkpt>
					<trkpt lat="43.667440" lon="2.380730">
						<ele>569</ele>
						<time>2026-05-01T10:09:30Z</time>
					</trkpt>
					<trkpt lat="43.667250" lon="2.380630">
						<ele>571</ele>
						<time>2026-05-01T10:09:57Z</time>
					</trkpt>
					<trkpt lat="43.667140" lon="2.380760">
						<ele>573</ele>
						<time>2026-05-01T10:10:17Z</time>
					</trkpt>
					<trkpt lat="43.667050" lon="2.381050">
						<ele>577</ele>
						<time>2026-05-01T10:10:47Z</time>
					</trkpt>
					<trkpt lat="43.666970" lon="2.381370">
						<ele>580</ele>
						<time>2026-05-01T10:11:20Z</time>
					</trkpt>
					<trkpt lat="43.666890" lon="2.381650">
						<ele>583</ele>
						<time>2026-05-01T10:11:49Z</time>
					</trkpt>
					<trkpt lat="43.666710" lon="2.381960">
						<ele>588</ele>
						<time>2026-05-01T10:12:27Z</time>
					</trkpt>
					<trkpt lat="43.666520" lon="2.382310">
						<ele>594</ele>
						<time>2026-05-01T10:13:09Z</time>
					</trkpt>
					<trkpt lat="43.666490" lon="2.382590">
						<ele>597</ele>
						<time>2026-05-01T10:13:37Z</time>
					</trkpt>
					<trkpt lat="43.666580" lon="2.383020">
						<ele>599</ele>
						<time>2026-05-01T10:14:20Z</time>
					</trkpt>
					<trkpt lat="43.666800" lon="2.383030">
						<ele>597</ele>
						<time>2026-05-01T10:14:49Z</time>
					</trkpt>
					<trkpt lat="43.667040" lon="2.383160">
						<ele>598</ele>
						<time>2026-05-01T10:15:24Z</time>
					</trkpt>
					<trkpt lat="43.667400" lon="2.383170">
						<ele>598</ele>
						<time>2026-05-01T10:16:12Z</time>
					</trkpt>
					<trkpt lat="43.668070" lon="2.383080">
						<ele>594</ele>
						<time>2026-05-01T10:17:42Z</time>
					</trkpt>
					<trkpt lat="43.668380" lon="2.383020">
						<ele>590</ele>
						<time>2026-05-01T10:18:23Z</time>
					</trkpt>
					<trkpt lat="43.668710" lon="2.383000">
						<ele>587</ele>
						<time>2026-05-01T10:19:07Z</time>
					</trkpt>
					<trkpt lat="43.669120" lon="2.382950">
						<ele>582</ele>
						<time>2026-05-01T10:20:02Z</time>
					</trkpt>
					<trkpt lat="43.669720" lon="2.382900">
						<ele>568</ele>
						<time>2026-05-01T10:21:23Z</time>
					</trkpt>
					<trkpt lat="43.670220" lon="2.383130">
						<ele>560</ele>
						<time>2026-05-01T10:22:33Z</time>
					</trkpt>
					<trkpt lat="43.670510" lon="2.383560">
						<ele>559</ele>
						<time>2026-05-01T10:23:30Z</time>
					</trkpt>
					<trkpt lat="43.670570" lon="2.384130">
						<ele>564</ele>
						<time>2026-05-01T10:24:25Z</time>
					</trkpt>
					<trkpt lat="43.670800" lon="2.384530">
						<ele>557</ele>
						<time>2026-05-01T10:25:15Z</time>
					</trkpt>
					<trkpt lat="43.670920" lon="2.384720">
						<ele>556</ele>
						<time>2026-05-01T10:25:39Z</time>
					</trkpt>
					<trkpt lat="43.670910" lon="2.385230">
						<ele>563</ele>
						<time>2026-05-01T10:26:28Z</time>
					</trkpt>
					<trkpt lat="43.671090" lon="2.385350">
						<ele>562</ele>
						<time>2026-05-01T10:26:55Z</time>
					</trkpt>
					<trkpt lat="43.671300" lon="2.385420">
						<ele>559</ele>
						<time>2026-05-01T10:27:24Z</time>
					</trkpt>
					<trkpt lat="43.671570" lon="2.385060">
						<ele>549</ele>
						<time>2026-05-01T10:28:14Z</time>
					</trkpt>
					<trkpt lat="43.671760" lon="2.384880">
						<ele>543</ele>
						<time>2026-05-01T10:28:44Z</time>
					</trkpt>
					<trkpt lat="43.671960" lon="2.384750">
						<ele>540</ele>
						<time>2026-05-01T10:29:14Z</time>
					</trkpt>
					<trkpt lat="43.672100" lon="2.384820">
						<ele>539</ele>
						<time>2026-05-01T10:29:34Z</time>
					</trkpt>
					<trkpt lat="43.672070" lon="2.385100">
						<ele>541</ele>
						<time>2026-05-01T10:30:01Z</time>
					</trkpt>
					<trkpt lat="43.671950" lon="2.385320">
						<ele>544</ele>
						<time>2026-05-01T10:30:28Z</time>
					</trkpt>
					<trkpt lat="43.671860" lon="2.385660">
						<ele>550</ele>
						<time>2026-05-01T10:31:03Z</time>
					</trkpt>
					<trkpt lat="43.671730" lon="2.385900">
						<ele>557</ele>
						<time>2026-05-01T10:31:32Z</time>
					</trkpt>
					<trkpt lat="43.671620" lon="2.386390">
						<ele>566</ele>
						<time>2026-05-01T10:32:21Z</time>
					</trkpt>
					<trkpt lat="43.671490" lon="2.386680">
						<ele>573</ele>
						<time>2026-05-01T10:32:54Z</time>
					</trkpt>
					<trkpt lat="43.671280" lon="2.387100">
						<ele>581</ele>
						<time>2026-05-01T10:33:43Z</time>
					</trkpt>
					<trkpt lat="43.670970" lon="2.387600">
						<ele>596</ele>
						<time>2026-05-01T10:34:47Z</time>
					</trkpt>
					<trkpt lat="43.670840" lon="2.387550">
						<ele>602</ele>
						<time>2026-05-01T10:35:05Z</time>
					</trkpt>
					<trkpt lat="43.670720" lon="2.387360">
						<ele>605</ele>
						<time>2026-05-01T10:35:29Z</time>
					</trkpt>
					<trkpt lat="43.670630" lon="2.387390">
						<ele>608</ele>
						<time>2026-05-01T10:35:42Z</time>
					</trkpt>
					<trkpt lat="43.670480" lon="2.387570">
						<ele>614</ele>
						<time>2026-05-01T10:36:08Z</time>
					</trkpt>
					<trkpt lat="43.670370" lon="2.387650">
						<ele>617</ele>
						<time>2026-05-01T10:36:25Z</time>
					</trkpt>
					<trkpt lat="43.670320" lon="2.387850">
						<ele>619</ele>
						<time>2026-05-01T10:36:45Z</time>
					</trkpt>
					<trkpt lat="43.670270" lon="2.388190">
						<ele>622</ele>
						<time>2026-05-01T10:37:19Z</time>
					</trkpt>
					<trkpt lat="43.670140" lon="2.388130">
						<ele>628</ele>
						<time>2026-05-01T10:37:37Z</time>
					</trkpt>
					<trkpt lat="43.669890" lon="2.388130">
						<ele>635</ele>
						<time>2026-05-01T10:38:10Z</time>
					</trkpt>
					<trkpt lat="43.669630" lon="2.388230">
						<ele>641</ele>
						<time>2026-05-01T10:38:46Z</time>
					</trkpt>
					<trkpt lat="43.669550" lon="2.388510">
						<ele>645</ele>
						<time>2026-05-01T10:39:15Z</time>
					</trkpt>
					<trkpt lat="43.669450" lon="2.388690">
						<ele>649</ele>
						<time>2026-05-01T10:39:37Z</time>
					</trkpt>
					<trkpt lat="43.669290" lon="2.388970">
						<ele>655</ele>
						<time>2026-05-01T10:40:12Z</time>
					</trkpt>
					<trkpt lat="43.669100" lon="2.389390">
						<ele>661</ele>
						<time>2026-05-01T10:41:00Z</time>
					</trkpt>
					<trkpt lat="43.668930" lon="2.389460">
						<ele>663</ele>
						<time>2026-05-01T10:41:23Z</time>
					</trkpt>
					<trkpt lat="43.668770" lon="2.389280">
						<ele>662</ele>
						<time>2026-05-01T10:41:51Z</time>
					</trkpt>
					<trkpt lat="43.668380" lon="2.389390">
						<ele>665</ele>
						<time>2026-05-01T10:42:44Z</time>
					</trkpt>
					<trkpt lat="43.668260" lon="2.389610">
						<ele>665</ele>
						<time>2026-05-01T10:43:10Z</time>
					</trkpt>
					<trkpt lat="43.668280" lon="2.389680">
						<ele>665</ele>
						<time>2026-05-01T10:43:18Z</time>
					</trkpt>
					<trkpt lat="43.668470" lon="2.389780">
						<ele>666</ele>
						<time>2026-05-01T10:43:45Z</time>
					</trkpt>
					<trkpt lat="43.668600" lon="2.390140">
						<ele>668</ele>
						<time>2026-05-01T10:44:24Z</time>
					</trkpt>
					<trkpt lat="43.668610" lon="2.390290">
						<ele>669</ele>
						<time>2026-05-01T10:44:38Z</time>
					</trkpt>
					<trkpt lat="43.668790" lon="2.390560">
						<ele>670</ele>
						<time>2026-05-01T10:45:14Z</time>
					</trkpt>
					<trkpt lat="43.668820" lon="2.390790">
						<ele>671</ele>
						<time>2026-05-01T10:45:36Z</time>
					</trkpt>
					<trkpt lat="43.668790" lon="2.391120">
						<ele>671</ele>
						<time>2026-05-01T10:46:08Z</time>
					</trkpt>
					<trkpt lat="43.668860" lon="2.391290">
						<ele>671</ele>
						<time>2026-05-01T10:46:27Z</time>
					</trkpt>
					<trkpt lat="43.669090" lon="2.391490">
						<ele>671</ele>
						<time>2026-05-01T10:47:03Z</time>
					</trkpt>
					<trkpt lat="43.669210" lon="2.391620">
						<ele>670</ele>
						<time>2026-05-01T10:47:24Z</time>
					</trkpt>
					<trkpt lat="43.669250" lon="2.391860">
						<ele>669</ele>
						<time>2026-05-01T10:47:48Z</time>
					</trkpt>
					<trkpt lat="43.669150" lon="2.392220">
						<ele>670</ele>
						<time>2026-05-01T10:48:25Z</time>
					</trkpt>
					<trkpt lat="43.669140" lon="2.392360">
						<ele>670</ele>
						<time>2026-05-01T10:48:38Z</time>
					</trkpt>
					<trkpt lat="43.669190" lon="2.392470">
						<ele>670</ele>
						<time>2026-05-01T10:48:51Z</time>
					</trkpt>
					<trkpt lat="43.669110" lon="2.392890">
						<ele>667</ele>
						<time>2026-05-01T10:49:33Z</time>
					</trkpt>
					<trkpt lat="43.669310" lon="2.393050">
						<ele>662</ele>
						<time>2026-05-01T10:50:04Z</time>
					</trkpt>
					<trkpt lat="43.669420" lon="2.393260">
						<ele>659</ele>
						<time>2026-05-01T10:50:29Z</time>
					</trkpt>
					<trkpt lat="43.669450" lon="2.393640">
						<ele>657</ele>
						<time>2026-05-01T10:51:06Z</time>
					</trkpt>
					<trkpt lat="43.669600" lon="2.393870">
						<ele>655</ele>
						<time>2026-05-01T10:51:36Z</time>
					</trkpt>
					<trkpt lat="43.669590" lon="2.394220">
						<ele>655</ele>
						<time>2026-05-01T10:52:09Z</time>
					</trkpt>
					<trkpt lat="43.669540" lon="2.394540">
						<ele>656</ele>
						<time>2026-05-01T10:52:41Z</time>
					</trkpt>
					<trkpt lat="43.669480" lon="2.395130">
						<ele>656</ele>
						<time>2026-05-01T10:53:38Z</time>
					</trkpt>
					<trkpt lat="43.669470" lon="2.395400">
						<ele>656</ele>
						<time>2026-05-01T10:54:05Z</time>
					</trkpt>
					<trkpt lat="43.669260" lon="2.395820">
						<ele>656</ele>
						<time>2026-05-01T10:54:54Z</time>
					</trkpt>
					<trkpt lat="43.669220" lon="2.396070">
						<ele>655</ele>
						<time>2026-05-01T10:55:19Z</time>
					</trkpt>
					<trkpt lat="43.669070" lon="2.396240">
						<ele>654</ele>
						<time>2026-05-01T10:55:44Z</time>
					</trkpt>
					<trkpt lat="43.668890" lon="2.396350">
						<ele>654</ele>
						<time>2026-05-01T10:56:11Z</time>
					</trkpt>
					<trkpt lat="43.668590" lon="2.396660">
						<ele>654</ele>
						<time>2026-05-01T10:57:01Z</time>
					</trkpt>
					<trkpt lat="43.668440" lon="2.396630">
						<ele>655</ele>
						<time>2026-05-01T10:57:21Z</time>
					</trkpt>
					<trkpt lat="43.668330" lon="2.396250">
						<ele>657</ele>
						<time>2026-05-01T10:58:00Z</time>
					</trkpt>
					<trkpt lat="43.668240" lon="2.396020">
						<ele>658</ele>
						<time>2026-05-01T10:58:26Z</time>
					</trkpt>
					<trkpt lat="43.667970" lon="2.395880">
						<ele>657</ele>
						<time>2026-05-01T10:59:04Z</time>
					</trkpt>
					<trkpt lat="43.667520" lon="2.396060">
						<ele>654</ele>
						<time>2026-05-01T11:00:07Z</time>
					</trkpt>
					<trkpt lat="43.667340" lon="2.396040">
						<ele>652</ele>
						<time>2026-05-01T11:00:31Z</time>
					</trkpt>
					<trkpt lat="43.667160" lon="2.395850">
						<ele>651</ele>
						<time>2026-05-01T11:01:01Z</time>
					</trkpt>
					<trkpt lat="43.667040" lon="2.395540">
						<ele>651</ele>
						<time>2026-05-01T11:01:35Z</time>
					</trkpt>
					<trkpt lat="43.666870" lon="2.395190">
						<ele>649</ele>
						<time>2026-05-01T11:02:16Z</time>
					</trkpt>
					<trkpt lat="43.666730" lon="2.394760">
						<ele>649</ele>
						<time>2026-05-01T11:03:01Z</time>
					</trkpt>
					<trkpt lat="43.666650" lon="2.394640">
						<ele>649</ele>
						<time>2026-05-01T11:03:17Z</time>
					</trkpt>
					<trkpt lat="43.666480" lon="2.394550">
						<ele>649</ele>
						<time>2026-05-01T11:03:41Z</time>
					</trkpt>
					<trkpt lat="43.666350" lon="2.394450">
						<ele>650</ele>
						<time>2026-05-01T11:04:01Z</time>
					</trkpt>
					<trkpt lat="43.666190" lon="2.394280">
						<ele>651</ele>
						<time>2026-05-01T11:04:28Z</time>
					</trkpt>
					<trkpt lat="43.666080" lon="2.393790">
						<ele>654</ele>
						<time>2026-05-01T11:05:17Z</time>
					</trkpt>
					<trkpt lat="43.666070" lon="2.393620">
						<ele>655</ele>
						<time>2026-05-01T11:05:34Z</time>
					</trkpt>
					<trkpt lat="43.665990" lon="2.393470">
						<ele>656</ele>
						<time>2026-05-01T11:05:52Z</time>
					</trkpt>
					<trkpt lat="43.665790" lon="2.393210">
						<ele>656</ele>
						<time>2026-05-01T11:06:29Z</time>
					</trkpt>
					<trkpt lat="43.665480" lon="2.392990">
						<ele>657</ele>
						<time>2026-05-01T11:07:15Z</time>
					</trkpt>
					<trkpt lat="43.665170" lon="2.393250">
						<ele>658</ele>
						<time>2026-05-01T11:08:03Z</time>
					</trkpt>
					<trkpt lat="43.664860" lon="2.393830">
						<ele>658</ele>
						<time>2026-05-01T11:09:13Z</time>
					</trkpt>
					<trkpt lat="43.664690" lon="2.394040">
						<ele>658</ele>
						<time>2026-05-01T11:09:43Z</time>
					</trkpt>
					<trkpt lat="43.664470" lon="2.394170">
						<ele>658</ele>
						<time>2026-05-01T11:10:15Z</time>
					</trkpt>
					<trkpt lat="43.664390" lon="2.394670">
						<ele>660</ele>
						<time>2026-05-01T11:11:05Z</time>
					</trkpt>
					<trkpt lat="43.664410" lon="2.394800">
						<ele>661</ele>
						<time>2026-05-01T11:11:18Z</time>
					</trkpt>
					<trkpt lat="43.664340" lon="2.394980">
						<ele>662</ele>
						<time>2026-05-01T11:11:37Z</time>
					</trkpt>
					<trkpt lat="43.664290" lon="2.395130">
						<ele>663</ele>
						<time>2026-05-01T11:11:53Z</time>
					</trkpt>
					<trkpt lat="43.664200" lon="2.395410">
						<ele>665</ele>
						<time>2026-05-01T11:12:23Z</time>
					</trkpt>
					<trkpt lat="43.664030" lon="2.395660">
						<ele>665</ele>
						<time>2026-05-01T11:12:56Z</time>
					</trkpt>
					<trkpt lat="43.663770" lon="2.395930">
						<ele>662</ele>
						<time>2026-05-01T11:13:39Z</time>
					</trkpt>
					<trkpt lat="43.663600" lon="2.396260">
						<ele>661</ele>
						<time>2026-05-01T11:14:19Z</time>
					</trkpt>
					<trkpt lat="43.663530" lon="2.396610">
						<ele>661</ele>
						<time>2026-05-01T11:14:54Z</time>
					</trkpt>
					<trkpt lat="43.663520" lon="2.396910">
						<ele>662</ele>
						<time>2026-05-01T11:15:23Z</time>
					</trkpt>
					<trkpt lat="43.663580" lon="2.397120">
						<ele>662</ele>
						<time>2026-05-01T11:15:44Z</time>
					</trkpt>
					<trkpt lat="43.663520" lon="2.397530">
						<ele>664</ele>
						<time>2026-05-01T11:16:25Z</time>
					</trkpt>
					<trkpt lat="43.663420" lon="2.397650">
						<ele>665</ele>
						<time>2026-05-01T11:16:42Z</time>
					</trkpt>
					<trkpt lat="43.663280" lon="2.398150">
						<ele>667</ele>
						<time>2026-05-01T11:17:34Z</time>
					</trkpt>
					<trkpt lat="43.663180" lon="2.398690">
						<ele>669</ele>
						<time>2026-05-01T11:18:28Z</time>
					</trkpt>
					<trkpt lat="43.663100" lon="2.398990">
						<ele>670</ele>
						<time>2026-05-01T11:18:59Z</time>
					</trkpt>
					<trkpt lat="43.663030" lon="2.399260">
						<ele>671</ele>
						<time>2026-05-01T11:19:27Z</time>
					</trkpt>
					<trkpt lat="43.662950" lon="2.399540">
						<ele>672</ele>
						<time>2026-05-01T11:19:56Z</time>
					</trkpt>
					<trkpt lat="43.662670" lon="2.400360">
						<ele>673</ele>
						<time>2026-05-01T11:21:23Z</time>
					</trkpt>
					<trkpt lat="43.662550" lon="2.400820">
						<ele>674</ele>
						<time>2026-05-01T11:22:10Z</time>
					</trkpt>
					<trkpt lat="43.662420" lon="2.401110">
						<ele>675</ele>
						<time>2026-05-01T11:22:43Z</time>
					</trkpt>
					<trkpt lat="43.662350" lon="2.401270">
						<ele>675</ele>
						<time>2026-05-01T11:23:01Z</time>
					</trkpt>
					<trkpt lat="43.662220" lon="2.401580">
						<ele>676</ele>
						<time>2026-05-01T11:23:36Z</time>
					</trkpt>
					<trkpt lat="43.661800" lon="2.402120">
						<ele>676</ele>
						<time>2026-05-01T11:24:53Z</time>
					</trkpt>
					<trkpt lat="43.661430" lon="2.402470">
						<ele>678</ele>
						<time>2026-05-01T11:25:52Z</time>
					</trkpt>
					<trkpt lat="43.661000" lon="2.402660">
						<ele>679</ele>
						<time>2026-05-01T11:26:53Z</time>
					</trkpt>
					<trkpt lat="43.660540" lon="2.403020">
						<ele>679</ele>
						<time>2026-05-01T11:28:03Z</time>
					</trkpt>
					<trkpt lat="43.660290" lon="2.403240">
						<ele>679</ele>
						<time>2026-05-01T11:28:43Z</time>
					</trkpt>
					<trkpt lat="43.659770" lon="2.403800">
						<ele>679</ele>
						<time>2026-05-01T11:30:11Z</time>
					</trkpt>
					<trkpt lat="43.659440" lon="2.404340">
						<ele>677</ele>
						<time>2026-05-01T11:31:19Z</time>
					</trkpt>
					<trkpt lat="43.659190" lon="2.404920">
						<ele>676</ele>
						<time>2026-05-01T11:32:24Z</time>
					</trkpt>
					<trkpt lat="43.658850" lon="2.405050">
						<ele>674</ele>
						<time>2026-05-01T11:33:11Z</time>
					</trkpt>
					<trkpt lat="43.658140" lon="2.404760">
						<ele>670</ele>
						<time>2026-05-01T11:34:50Z</time>
					</trkpt>
					<trkpt lat="43.657880" lon="2.404460">
						<ele>669</ele>
						<time>2026-05-01T11:35:35Z</time>
					</trkpt>
					<trkpt lat="43.657580" lon="2.404250">
						<ele>668</ele>
						<time>2026-05-01T11:36:20Z</time>
					</trkpt>
					<trkpt lat="43.657470" lon="2.404110">
						<ele>668</ele>
						<time>2026-05-01T11:36:40Z</time>
					</trkpt>
					<trkpt lat="43.657050" lon="2.403480">
						<ele>669</ele>
						<time>2026-05-01T11:38:03Z</time>
					</trkpt>
					<trkpt lat="43.656730" lon="2.403370">
						<ele>671</ele>
						<time>2026-05-01T11:38:47Z</time>
					</trkpt>
					<trkpt lat="43.656360" lon="2.403140">
						<ele>672</ele>
						<time>2026-05-01T11:39:41Z</time>
					</trkpt>
					<trkpt lat="43.656160" lon="2.402930">
						<ele>673</ele>
						<time>2026-05-01T11:40:14Z</time>
					</trkpt>
					<trkpt lat="43.655860" lon="2.402750">
						<ele>674</ele>
						<time>2026-05-01T11:40:58Z</time>
					</trkpt>
					<trkpt lat="43.655560" lon="2.402380">
						<ele>676</ele>
						<time>2026-05-01T11:41:52Z</time>
					</trkpt>
					<trkpt lat="43.655280" lon="2.401650">
						<ele>678</ele>
						<time>2026-05-01T11:43:11Z</time>
					</trkpt>
					<trkpt lat="43.655130" lon="2.401420">
						<ele>679</ele>
						<time>2026-05-01T11:43:41Z</time>
					</trkpt>
					<trkpt lat="43.654600" lon="2.400990">
						<ele>673</ele>
						<time>2026-05-01T11:45:03Z</time>
					</trkpt>
					<trkpt lat="43.654540" lon="2.400720">
						<ele>672</ele>
						<time>2026-05-01T11:45:31Z</time>
					</trkpt>
					<trkpt lat="43.654550" lon="2.399600">
						<ele>671</ele>
						<time>2026-05-01T11:47:19Z</time>
					</trkpt>
					<trkpt lat="43.654390" lon="2.399190">
						<ele>669</ele>
						<time>2026-05-01T11:48:04Z</time>
					</trkpt>
					<trkpt lat="43.654220" lon="2.398780">
						<ele>668</ele>
						<time>2026-05-01T11:48:49Z</time>
					</trkpt>
					<trkpt lat="43.654060" lon="2.398370">
						<ele>666</ele>
						<time>2026-05-01T11:49:34Z</time>
					</trkpt>
					<trkpt lat="43.653970" lon="2.398210">
						<ele>665</ele>
						<time>2026-05-01T11:49:54Z</time>
					</trkpt>
					<trkpt lat="43.653520" lon="2.397760">
						<ele>661</ele>
						<time>2026-05-01T11:51:08Z</time>
					</trkpt>
					<trkpt lat="43.653280" lon="2.397650">
						<ele>660</ele>
						<time>2026-05-01T11:51:42Z</time>
					</trkpt>
					<trkpt lat="43.653190" lon="2.397550">
						<ele>660</ele>
						<time>2026-05-01T11:51:57Z</time>
					</trkpt>
					<trkpt lat="43.653150" lon="2.396790">
						<ele>657</ele>
						<time>2026-05-01T11:53:11Z</time>
					</trkpt>
					<trkpt lat="43.652970" lon="2.396230">
						<ele>655</ele>
						<time>2026-05-01T11:54:10Z</time>
					</trkpt>
					<trkpt lat="43.652750" lon="2.395880">
						<ele>653</ele>
						<time>2026-05-01T11:54:55Z</time>
					</trkpt>
					<trkpt lat="43.652480" lon="2.395600">
						<ele>652</ele>
						<time>2026-05-01T11:55:40Z</time>
					</trkpt>
					<trkpt lat="43.652130" lon="2.395300">
						<ele>653</ele>
						<time>2026-05-01T11:56:35Z</time>
					</trkpt>
					<trkpt lat="43.651830" lon="2.394930">
						<ele>654</ele>
						<time>2026-05-01T11:57:28Z</time>
					</trkpt>
					<trkpt lat="43.651650" lon="2.394460">
						<ele>656</ele>
						<time>2026-05-01T11:58:20Z</time>
					</trkpt>
					<trkpt lat="43.651560" lon="2.393760">
						<ele>656</ele>
						<time>2026-05-01T11:59:28Z</time>
					</trkpt>
					<trkpt lat="43.651450" lon="2.393460">
						<ele>655</ele>
						<time>2026-05-01T12:00:01Z</time>
					</trkpt>
					<trkpt lat="43.651370" lon="2.392790">
						<ele>653</ele>
						<time>2026-05-01T12:01:06Z</time>
					</trkpt>
					<trkpt lat="43.651480" lon="2.391870">
						<ele>648</ele>
						<time>2026-05-01T12:02:36Z</time>
					</trkpt>
					<trkpt lat="43.651450" lon="2.391330">
						<ele>643</ele>
						<time>2026-05-01T12:03:29Z</time>
					</trkpt>
					<trkpt lat="43.651360" lon="2.391270">
						<ele>641</ele>
						<time>2026-05-01T12:03:42Z</time>
					</trkpt>
					<trkpt lat="43.651130" lon="2.391250">
						<ele>638</ele>
						<time>2026-05-01T12:04:13Z</time>
					</trkpt>
					<trkpt lat="43.650870" lon="2.391320">
						<ele>635</ele>
						<time>2026-05-01T12:04:48Z</time>
					</trkpt>
					<trkpt lat="43.650780" lon="2.391440">
						<ele>636</ele>
						<time>2026-05-01T12:05:05Z</time>
					</trkpt>
					<trkpt lat="43.650460" lon="2.391610">
						<ele>635</ele>
						<time>2026-05-01T12:05:51Z</time>
					</trkpt>
					<trkpt lat="43.650320" lon="2.391460">
						<ele>634</ele>
						<time>2026-05-01T12:06:14Z</time>
					</trkpt>
					<trkpt lat="43.650160" lon="2.391310">
						<ele>632</ele>
						<time>2026-05-01T12:06:40Z</time>
					</trkpt>
					<trkpt lat="43.649980" lon="2.391150">
						<ele>631</ele>
						<time>2026-05-01T12:07:09Z</time>
					</trkpt>
					<trkpt lat="43.649850" lon="2.390670">
						<ele>630</ele>
						<time>2026-05-01T12:07:58Z</time>
					</trkpt>
					<trkpt lat="43.649700" lon="2.390410">
						<ele>630</ele>
						<time>2026-05-01T12:08:30Z</time>
					</trkpt>
					<trkpt lat="43.649490" lon="2.389780">
						<ele>627</ele>
						<time>2026-05-01T12:09:37Z</time>
					</trkpt>
					<trkpt lat="43.649440" lon="2.389420">
						<ele>625</ele>
						<time>2026-05-01T12:10:13Z</time>
					</trkpt>
					<trkpt lat="43.649470" lon="2.388670">
						<ele>618</ele>
						<time>2026-05-01T12:11:25Z</time>
					</trkpt>
					<trkpt lat="43.649470" lon="2.388270">
						<ele>615</ele>
						<time>2026-05-01T12:12:04Z</time>
					</trkpt>
					<trkpt lat="43.649050" lon="2.387430">
						<ele>608</ele>
						<time>2026-05-01T12:13:42Z</time>
					</trkpt>
					<trkpt lat="43.648900" lon="2.386780">
						<ele>604</ele>
						<time>2026-05-01T12:14:48Z</time>
					</trkpt>
					<trkpt lat="43.648530" lon="2.385560">
						<ele>605</ele>
						<time>2026-05-01T12:16:56Z</time>
					</trkpt>
					<trkpt lat="43.648610" lon="2.384780">
						<ele>606</ele>
						<time>2026-05-01T12:18:12Z</time>
					</trkpt>
					<trkpt lat="43.648330" lon="2.384790">
						<ele>609</ele>
						<time>2026-05-01T12:18:49Z</time>
					</trkpt>
					<trkpt lat="43.647940" lon="2.385190">
						<ele>612</ele>
						<time>2026-05-01T12:19:54Z</time>
					</trkpt>
					<trkpt lat="43.647360" lon="2.385500">
						<ele>616</ele>
						<time>2026-05-01T12:21:17Z</time>
					</trkpt>
					<trkpt lat="43.646900" lon="2.385550">
						<ele>618</ele>
						<time>2026-05-01T12:22:19Z</time>
					</trkpt>
					<trkpt lat="43.646770" lon="2.385570">
						<ele>618</ele>
						<time>2026-05-01T12:22:36Z</time>
					</trkpt>
					<trkpt lat="43.646680" lon="2.385640">
						<ele>618</ele>
						<time>2026-05-01T12:22:50Z</time>
					</trkpt>
					<trkpt lat="43.646670" lon="2.385790">
						<ele>617</ele>
						<time>2026-05-01T12:23:04Z</time>
					</trkpt>
					<trkpt lat="43.646210" lon="2.385690">
						<ele>614</ele>
						<time>2026-05-01T12:24:07Z</time>
					</trkpt>
					<trkpt lat="43.646070" lon="2.385460">
						<ele>614</ele>
						<time>2026-05-01T12:24:36Z</time>
					</trkpt>
					<trkpt lat="43.645880" lon="2.385320">
						<ele>613</ele>
						<time>2026-05-01T12:25:04Z</time>
					</trkpt>
					<trkpt lat="43.645690" lon="2.386750">
						<ele>615</ele>
						<time>2026-05-01T12:27:25Z</time>
					</trkpt>
					<trkpt lat="43.645720" lon="2.385660">
						<ele>611</ele>
						<time>2026-05-01T12:29:10Z</time>
					</trkpt>
					<trkpt lat="43.645790" lon="2.384990">
						<ele>614</ele>
						<time>2026-05-01T12:30:15Z</time>
					</trkpt>
					<trkpt lat="43.645870" lon="2.385020">
						<ele>614</ele>
						<time>2026-05-01T12:30:27Z</time>
					</trkpt>
					<trkpt lat="43.645890" lon="2.384920">
						<ele>615</ele>
						<time>2026-05-01T12:30:37Z</time>
					</trkpt>
					<trkpt lat="43.646010" lon="2.384970">
						<ele>616</ele>
						<time>2026-05-01T12:30:53Z</time>
					</trkpt>
					<trkpt lat="43.645860" lon="2.385310">
						<ele>613</ele>
						<time>2026-05-01T12:31:32Z</time>
					</trkpt>
					<trkpt lat="43.646010" lon="2.385550">
						<ele>613</ele>
						<time>2026-05-01T12:32:02Z</time>
					</trkpt>
					<trkpt lat="43.646190" lon="2.385750">
						<ele>613</ele>
						<time>2026-05-01T12:32:33Z</time>
					</trkpt>
					<trkpt lat="43.646610" lon="2.385740">
						<ele>617</ele>
						<time>2026-05-01T12:33:29Z</time>
					</trkpt>
					<trkpt lat="43.646700" lon="2.385740">
						<ele>617</ele>
						<time>2026-05-01T12:33:41Z</time>
					</trkpt>
					<trkpt lat="43.646690" lon="2.385540">
						<ele>618</ele>
						<time>2026-05-01T12:34:01Z</time>
					</trkpt>
					<trkpt lat="43.647650" lon="2.385450">
						<ele>614</ele>
						<time>2026-05-01T12:36:09Z</time>
					</trkpt>
					<trkpt lat="43.647800" lon="2.385290">
						<ele>613</ele>
						<time>2026-05-01T12:36:34Z</time>
					</trkpt>
					<trkpt lat="43.648100" lon="2.385150">
						<ele>611</ele>
						<time>2026-05-01T12:37:17Z</time>
					</trkpt>
					<trkpt lat="43.648280" lon="2.384850">
						<ele>610</ele>
						<time>2026-05-01T12:37:54Z</time>
					</trkpt>
					<trkpt lat="43.648400" lon="2.384770">
						<ele>609</ele>
						<time>2026-05-01T12:38:12Z</time>
					</trkpt>
					<trkpt lat="43.648470" lon="2.384770">
						<ele>608</ele>
						<time>2026-05-01T12:38:21Z</time>
					</trkpt>
					<trkpt lat="43.648570" lon="2.384780">
						<ele>607</ele>
						<time>2026-05-01T12:38:35Z</time>
					</trkpt>
					<trkpt lat="43.648580" lon="2.385130">
						<ele>606</ele>
						<time>2026-05-01T12:39:08Z</time>
					</trkpt>
					<trkpt lat="43.648450" lon="2.385330">
						<ele>607</ele>
						<time>2026-05-01T12:39:34Z</time>
					</trkpt>
					<trkpt lat="43.648480" lon="2.385650">
						<ele>605</ele>
						<time>2026-05-01T12:40:06Z</time>
					</trkpt>
					<trkpt lat="43.648790" lon="2.386640">
						<ele>604</ele>
						<time>2026-05-01T12:41:50Z</time>
					</trkpt>
					<trkpt lat="43.648940" lon="2.387350">
						<ele>608</ele>
						<time>2026-05-01T12:43:01Z</time>
					</trkpt>
					<trkpt lat="43.649130" lon="2.387690">
						<ele>611</ele>
						<time>2026-05-01T12:43:43Z</time>
					</trkpt>
					<trkpt lat="43.649380" lon="2.388120">
						<ele>614</ele>
						<time>2026-05-01T12:44:36Z</time>
					</trkpt>
					<trkpt lat="43.649400" lon="2.388920">
						<ele>621</ele>
						<time>2026-05-01T12:45:53Z</time>
					</trkpt>
					<trkpt lat="43.649410" lon="2.389610">
						<ele>627</ele>
						<time>2026-05-01T12:47:00Z</time>
					</trkpt>
					<trkpt lat="43.649540" lon="2.390150">
						<ele>630</ele>
						<time>2026-05-01T12:47:55Z</time>
					</trkpt>
					<trkpt lat="43.649740" lon="2.390580">
						<ele>631</ele>
						<time>2026-05-01T12:48:44Z</time>
					</trkpt>
					<trkpt lat="43.649910" lon="2.391080">
						<ele>631</ele>
						<time>2026-05-01T12:49:38Z</time>
					</trkpt>
					<trkpt lat="43.650530" lon="2.391670">
						<ele>636</ele>
						<time>2026-05-01T12:51:18Z</time>
					</trkpt>
					<trkpt lat="43.650980" lon="2.391230">
						<ele>636</ele>
						<time>2026-05-01T12:52:32Z</time>
					</trkpt>
					<trkpt lat="43.651290" lon="2.391270">
						<ele>640</ele>
						<time>2026-05-01T12:53:13Z</time>
					</trkpt>
					<trkpt lat="43.651500" lon="2.391430">
						<ele>645</ele>
						<time>2026-05-01T12:53:45Z</time>
					</trkpt>
					<trkpt lat="43.651330" lon="2.393040">
						<ele>653</ele>
						<time>2026-05-01T12:56:22Z</time>
					</trkpt>
					<trkpt lat="43.651520" lon="2.393670">
						<ele>656</ele>
						<time>2026-05-01T12:57:28Z</time>
					</trkpt>
					<trkpt lat="43.651580" lon="2.394180">
						<ele>657</ele>
						<time>2026-05-01T12:58:18Z</time>
					</trkpt>
					<trkpt lat="43.651950" lon="2.395120">
						<ele>654</ele>
						<time>2026-05-01T13:00:01Z</time>
					</trkpt>
					<trkpt lat="43.652640" lon="2.395760">
						<ele>653</ele>
						<time>2026-05-01T13:01:52Z</time>
					</trkpt>
					<trkpt lat="43.652930" lon="2.396060">
						<ele>654</ele>
						<time>2026-05-01T13:02:41Z</time>
					</trkpt>
					<trkpt lat="43.653150" lon="2.396890">
						<ele>658</ele>
						<time>2026-05-01T13:04:06Z</time>
					</trkpt>
					<trkpt lat="43.653180" lon="2.397480">
						<ele>660</ele>
						<time>2026-05-01T13:05:03Z</time>
					</trkpt>
					<trkpt lat="43.653390" lon="2.397700">
						<ele>660</ele>
						<time>2026-05-01T13:05:38Z</time>
					</trkpt>
					<trkpt lat="43.653730" lon="2.397890">
						<ele>663</ele>
						<time>2026-05-01T13:06:27Z</time>
					</trkpt>
					<trkpt lat="43.654120" lon="2.398580">
						<ele>667</ele>
						<time>2026-05-01T13:07:52Z</time>
					</trkpt>
					<trkpt lat="43.654280" lon="2.398660">
						<ele>668</ele>
						<time>2026-05-01T13:08:14Z</time>
					</trkpt>
					<trkpt lat="43.654410" lon="2.398690">
						<ele>668</ele>
						<time>2026-05-01T13:08:32Z</time>
					</trkpt>
					<trkpt lat="43.654600" lon="2.398630">
						<ele>668</ele>
						<time>2026-05-01T13:08:58Z</time>
					</trkpt>
					<trkpt lat="43.654810" lon="2.398540">
						<ele>668</ele>
						<time>2026-05-01T13:09:27Z</time>
					</trkpt>
					<trkpt lat="43.654980" lon="2.398530">
						<ele>668</ele>
						<time>2026-05-01T13:09:50Z</time>
					</trkpt>
					<trkpt lat="43.655400" lon="2.398370">
						<ele>666</ele>
						<time>2026-05-01T13:10:48Z</time>
					</trkpt>
					<trkpt lat="43.655750" lon="2.398490">
						<ele>667</ele>
						<time>2026-05-01T13:11:36Z</time>
					</trkpt>
					<trkpt lat="43.656040" lon="2.398640">
						<ele>665</ele>
						<time>2026-05-01T13:12:18Z</time>
					</trkpt>
					<trkpt lat="43.656690" lon="2.399080">
						<ele>660</ele>
						<time>2026-05-01T13:13:54Z</time>
					</trkpt>
					<trkpt lat="43.656850" lon="2.399140">
						<ele>661</ele>
						<time>2026-05-01T13:14:16Z</time>
					</trkpt>
					<trkpt lat="43.657190" lon="2.398940">
						<ele>661</ele>
						<time>2026-05-01T13:15:06Z</time>
					</trkpt>
					<trkpt lat="43.657340" lon="2.398940">
						<ele>661</ele>
						<time>2026-05-01T13:15:26Z</time>
					</trkpt>
					<trkpt lat="43.657670" lon="2.398980">
						<ele>664</ele>
						<time>2026-05-01T13:16:10Z</time>
					</trkpt>
					<trkpt lat="43.658130" lon="2.398560">
						<ele>670</ele>
						<time>2026-05-01T13:17:23Z</time>
					</trkpt>
					<trkpt lat="43.658260" lon="2.398290">
						<ele>672</ele>
						<time>2026-05-01T13:17:55Z</time>
					</trkpt>
					<trkpt lat="43.658480" lon="2.398080">
						<ele>673</ele>
						<time>2026-05-01T13:18:30Z</time>
					</trkpt>
					<trkpt lat="43.658500" lon="2.397980">
						<ele>673</ele>
						<time>2026-05-01T13:18:40Z</time>
					</trkpt>
					<trkpt lat="43.658300" lon="2.397600">
						<ele>673</ele>
						<time>2026-05-01T13:19:26Z</time>
					</trkpt>
					<trkpt lat="43.658160" lon="2.397230">
						<ele>672</ele>
						<time>2026-05-01T13:20:06Z</time>
					</trkpt>
					<trkpt lat="43.658190" lon="2.396720">
						<ele>673</ele>
						<time>2026-05-01T13:20:55Z</time>
					</trkpt>
					<trkpt lat="43.658220" lon="2.396300">
						<ele>672</ele>
						<time>2026-05-01T13:21:36Z</time>
					</trkpt>
					<trkpt lat="43.658350" lon="2.396130">
						<ele>672</ele>
						<time>2026-05-01T13:22:00Z</time>
					</trkpt>
					<trkpt lat="43.658380" lon="2.395880">
						<ele>671</ele>
						<time>2026-05-01T13:22:25Z</time>
					</trkpt>
					<trkpt lat="43.658540" lon="2.395100">
						<ele>669</ele>
						<time>2026-05-01T13:23:43Z</time>
					</trkpt>
					<trkpt lat="43.658620" lon="2.394830">
						<ele>669</ele>
						<time>2026-05-01T13:24:11Z</time>
					</trkpt>
					<trkpt lat="43.658690" lon="2.394500">
						<ele>669</ele>
						<time>2026-05-01T13:24:44Z</time>
					</trkpt>
					<trkpt lat="43.658810" lon="2.393990">
						<ele>670</ele>
						<time>2026-05-01T13:25:36Z</time>
					</trkpt>
					<trkpt lat="43.658950" lon="2.393540">
						<ele>671</ele>
						<time>2026-05-01T13:26:23Z</time>
					</trkpt>
					<trkpt lat="43.659000" lon="2.392930">
						<ele>671</ele>
						<time>2026-05-01T13:27:23Z</time>
					</trkpt>
					<trkpt lat="43.658800" lon="2.392530">
						<ele>670</ele>
						<time>2026-05-01T13:28:09Z</time>
					</trkpt>
					<trkpt lat="43.658820" lon="2.392070">
						<ele>671</ele>
						<time>2026-05-01T13:28:54Z</time>
					</trkpt>
					<trkpt lat="43.658720" lon="2.391980">
						<ele>670</ele>
						<time>2026-05-01T13:29:10Z</time>
					</trkpt>
					<trkpt lat="43.658710" lon="2.391700">
						<ele>670</ele>
						<time>2026-05-01T13:29:37Z</time>
					</trkpt>
					<trkpt lat="43.658930" lon="2.391240">
						<ele>672</ele>
						<time>2026-05-01T13:30:30Z</time>
					</trkpt>
					<trkpt lat="43.659050" lon="2.390720">
						<ele>674</ele>
						<time>2026-05-01T13:31:23Z</time>
					</trkpt>
					<trkpt lat="43.659100" lon="2.389900">
						<ele>676</ele>
						<time>2026-05-01T13:32:42Z</time>
					</trkpt>
					<trkpt lat="43.659250" lon="2.389510">
						<ele>675</ele>
						<time>2026-05-01T13:33:25Z</time>
					</trkpt>
					<trkpt lat="43.659380" lon="2.389060">
						<ele>673</ele>
						<time>2026-05-01T13:34:12Z</time>
					</trkpt>
					<trkpt lat="43.659180" lon="2.388180">
						<ele>669</ele>
						<time>2026-05-01T13:35:41Z</time>
					</trkpt>
					<trkpt lat="43.659030" lon="2.387540">
						<ele>666</ele>
						<time>2026-05-01T13:36:46Z</time>
					</trkpt>
					<trkpt lat="43.659010" lon="2.386990">
						<ele>662</ele>
						<time>2026-05-01T13:37:39Z</time>
					</trkpt>
					<trkpt lat="43.658890" lon="2.386410">
						<ele>657</ele>
						<time>2026-05-01T13:38:37Z</time>
					</trkpt>
					<trkpt lat="43.658630" lon="2.385720">
						<ele>652</ele>
						<time>2026-05-01T13:39:52Z</time>
					</trkpt>
					<trkpt lat="43.658440" lon="2.385190">
						<ele>649</ele>
						<time>2026-05-01T13:40:49Z</time>
					</trkpt>
					<trkpt lat="43.658230" lon="2.384640">
						<ele>647</ele>
						<time>2026-05-01T13:41:49Z</time>
					</trkpt>
					<trkpt lat="43.658150" lon="2.384180">
						<ele>645</ele>
						<time>2026-05-01T13:42:35Z</time>
					</trkpt>
					<trkpt lat="43.658160" lon="2.383770">
						<ele>645</ele>
						<time>2026-05-01T13:43:15Z</time>
					</trkpt>
					<trkpt lat="43.658290" lon="2.383110">
						<ele>646</ele>
						<time>2026-05-01T13:44:21Z</time>
					</trkpt>
					<trkpt lat="43.658250" lon="2.382550">
						<ele>645</ele>
						<time>2026-05-01T13:45:15Z</time>
					</trkpt>
					<trkpt lat="43.658320" lon="2.382240">
						<ele>645</ele>
						<time>2026-05-01T13:45:46Z</time>
					</trkpt>
					<trkpt lat="43.658430" lon="2.382110">
						<ele>643</ele>
						<time>2026-05-01T13:46:06Z</time>
					</trkpt>
					<trkpt lat="43.658510" lon="2.381870">
						<ele>642</ele>
						<time>2026-05-01T13:46:31Z</time>
					</trkpt>
					<trkpt lat="43.658480" lon="2.381260">
						<ele>638</ele>
						<time>2026-05-01T13:47:30Z</time>
					</trkpt>
					<trkpt lat="43.658530" lon="2.380960">
						<ele>636</ele>
						<time>2026-05-01T13:48:00Z</time>
					</trkpt>
					<trkpt lat="43.658520" lon="2.380670">
						<ele>634</ele>
						<time>2026-05-01T13:48:28Z</time>
					</trkpt>
					<trkpt lat="43.658620" lon="2.380460">
						<ele>632</ele>
						<time>2026-05-01T13:48:52Z</time>
					</trkpt>
					<trkpt lat="43.658900" lon="2.380360">
						<ele>629</ele>
						<time>2026-05-01T13:49:31Z</time>
					</trkpt>
					<trkpt lat="43.659070" lon="2.379980">
						<ele>628</ele>
						<time>2026-05-01T13:50:14Z</time>
					</trkpt>
					<trkpt lat="43.659230" lon="2.379510">
						<ele>625</ele>
						<time>2026-05-01T13:51:04Z</time>
					</trkpt>
					<trkpt lat="43.659540" lon="2.378650">
						<ele>617</ele>
						<time>2026-05-01T13:52:37Z</time>
					</trkpt>
					<trkpt lat="43.659650" lon="2.378080">
						<ele>615</ele>
						<time>2026-05-01T13:53:34Z</time>
					</trkpt>
					<trkpt lat="43.659700" lon="2.377610">
						<ele>612</ele>
						<time>2026-05-01T13:54:20Z</time>
					</trkpt>
					<trkpt lat="43.659740" lon="2.377260">
						<ele>609</ele>
						<time>2026-05-01T13:54:54Z</time>
					</trkpt>
					<trkpt lat="43.659710" lon="2.377030">
						<ele>607</ele>
						<time>2026-05-01T13:55:16Z</time>
					</trkpt>
					<trkpt lat="43.659740" lon="2.376890">
						<ele>606</ele>
						<time>2026-05-01T13:55:31Z</time>
					</trkpt>
					<trkpt lat="43.659980" lon="2.376330">
						<ele>605</ele>
						<time>2026-05-01T13:56:33Z</time>
					</trkpt>
					<trkpt lat="43.660100" lon="2.375370">
						<ele>604</ele>
						<time>2026-05-01T13:58:07Z</time>
					</trkpt>
					<trkpt lat="43.660310" lon="2.375100">
						<ele>605</ele>
						<time>2026-05-01T13:58:46Z</time>
					</trkpt>
					<trkpt lat="43.660620" lon="2.374930">
						<ele>607</ele>
						<time>2026-05-01T13:59:30Z</time>
					</trkpt>
					<trkpt lat="43.660870" lon="2.374640">
						<ele>610</ele>
						<time>2026-05-01T14:00:14Z</time>
					</trkpt>
					<trkpt lat="43.661190" lon="2.374150">
						<ele>611</ele>
						<time>2026-05-01T14:01:18Z</time>
					</trkpt>
					<trkpt lat="43.661540" lon="2.373790">
						<ele>608</ele>
						<time>2026-05-01T14:02:16Z</time>
					</trkpt>
					<trkpt lat="43.662190" lon="2.373000">
						<ele>601</ele>
						<time>2026-05-01T14:04:11Z</time>
					</trkpt>
					<trkpt lat="43.662450" lon="2.372660">
						<ele>599</ele>
						<time>2026-05-01T14:04:59Z</time>
					</trkpt>
					<trkpt lat="43.662690" lon="2.372270">
						<ele>596</ele>
						<time>2026-05-01T14:05:48Z</time>
					</trkpt>
					<trkpt lat="43.662780" lon="2.372020">
						<ele>595</ele>
						<time>2026-05-01T14:06:15Z</time>
					</trkpt>
					<trkpt lat="43.662850" lon="2.371570">
						<ele>594</ele>
						<time>2026-05-01T14:07:00Z</time>
					</trkpt>
					<trkpt lat="43.662970" lon="2.371230">
						<ele>596</ele>
						<time>2026-05-01T14:07:36Z</time>
					</trkpt>
					<trkpt lat="43.662720" lon="2.371360">
						<ele>594</ele>
						<time>2026-05-01T14:08:12Z</time>
					</trkpt>
					</trkseg>
				</trk>
			</gpx>