<?xml version="1.0" encoding="UTF-8"?>
<gpx xmlns="http://www.topografix.com/GPX/1/1" xmlns:xsi="http://www.w3.org/2001/XMLSchema-instance" version="1.1" creator="phpGPX/1.3.0" xsi:schemaLocation="http://www.topografix.com/GPX/1/1 http://www.topografix.com/GPX/1/1/gpx.xsd">
  <metadata>
    <time>2026-05-14T12:52:44+00:00</time>
  </metadata>
  <trk>
    <name>Semi Marathon des 3 Puigmal</name>
    <trkseg>
      <trkpt lat="42.40988" lon="2.0586">
        <ele>1851</ele>
        <time>2026-05-14T12:52:45+00:00</time>
      </trkpt>
      <trkpt lat="42.41011" lon="2.0585">
        <ele>1848</ele>
        <time>2026-05-14T12:52:46+00:00</time>
      </trkpt>
      <trkpt lat="42.41056" lon="2.05839">
        <ele>1844</ele>
        <time>2026-05-14T12:52:47+00:00</time>
      </trkpt>
      <trkpt lat="42.41117" lon="2.0583">
        <ele>1835</ele>
        <time>2026-05-14T12:52:48+00:00</time>
      </trkpt>
      <trkpt lat="42.41148" lon="2.05819">
        <ele>1831</ele>
        <time>2026-05-14T12:52:49+00:00</time>
      </trkpt>
      <trkpt lat="42.41168" lon="2.05807">
        <ele>1829</ele>
        <time>2026-05-14T12:52:50+00:00</time>
      </trkpt>
      <trkpt lat="42.41187" lon="2.05789">
        <ele>1826</ele>
        <time>2026-05-14T12:52:51+00:00</time>
      </trkpt>
      <trkpt lat="42.41201" lon="2.05788">
        <ele>1822</ele>
        <time>2026-05-14T12:52:52+00:00</time>
      </trkpt>
      <trkpt lat="42.41253" lon="2.05743">
        <ele>1817</ele>
        <time>2026-05-14T12:52:53+00:00</time>
      </trkpt>
      <trkpt lat="42.4132" lon="2.05669">
        <ele>1802</ele>
        <time>2026-05-14T12:52:54+00:00</time>
      </trkpt>
      <trkpt lat="42.41376" lon="2.05615">
        <ele>1794</ele>
        <time>2026-05-14T12:52:55+00:00</time>
      </trkpt>
      <trkpt lat="42.41519" lon="2.05542">
        <ele>1767</ele>
        <time>2026-05-14T12:52:56+00:00</time>
      </trkpt>
      <trkpt lat="42.41563" lon="2.05513">
        <ele>1761</ele>
        <time>2026-05-14T12:52:57+00:00</time>
      </trkpt>
      <trkpt lat="42.41597" lon="2.05484">
        <ele>1756</ele>
        <time>2026-05-14T12:52:58+00:00</time>
      </trkpt>
      <trkpt lat="42.4161" lon="2.05467">
        <ele>1755</ele>
        <time>2026-05-14T12:52:59+00:00</time>
      </trkpt>
      <trkpt lat="42.41638" lon="2.05443">
        <ele>1751</ele>
        <time>2026-05-14T12:53:00+00:00</time>
      </trkpt>
      <trkpt lat="42.41658" lon="2.05421">
        <ele>1750</ele>
        <time>2026-05-14T12:53:01+00:00</time>
      </trkpt>
      <trkpt lat="42.41797" lon="2.0535">
        <ele>1725</ele>
        <time>2026-05-14T12:53:02+00:00</time>
      </trkpt>
      <trkpt lat="42.41909" lon="2.05308">
        <ele>1700</ele>
        <time>2026-05-14T12:53:03+00:00</time>
      </trkpt>
      <trkpt lat="42.41944" lon="2.05284">
        <ele>1691</ele>
        <time>2026-05-14T12:53:04+00:00</time>
      </trkpt>
      <trkpt lat="42.42001" lon="2.05204">
        <ele>1686</ele>
        <time>2026-05-14T12:53:05+00:00</time>
      </trkpt>
      <trkpt lat="42.42029" lon="2.05189">
        <ele>1678</ele>
        <time>2026-05-14T12:53:06+00:00</time>
      </trkpt>
      <trkpt lat="42.4206" lon="2.05177">
        <ele>1669</ele>
        <time>2026-05-14T12:53:07+00:00</time>
      </trkpt>
      <trkpt lat="42.42097" lon="2.05165">
        <ele>1661</ele>
        <time>2026-05-14T12:53:08+00:00</time>
      </trkpt>
      <trkpt lat="42.42122" lon="2.05163">
        <ele>1658</ele>
        <time>2026-05-14T12:53:09+00:00</time>
      </trkpt>
      <trkpt lat="42.4216" lon="2.05171">
        <ele>1650</ele>
        <time>2026-05-14T12:53:10+00:00</time>
      </trkpt>
      <trkpt lat="42.42172" lon="2.05178">
        <ele>1646</ele>
        <time>2026-05-14T12:53:11+00:00</time>
      </trkpt>
      <trkpt lat="42.42218" lon="2.0524">
        <ele>1628</ele>
        <time>2026-05-14T12:53:12+00:00</time>
      </trkpt>
      <trkpt lat="42.42242" lon="2.05256">
        <ele>1624</ele>
        <time>2026-05-14T12:53:13+00:00</time>
      </trkpt>
      <trkpt lat="42.42239" lon="2.05378">
        <ele>1574</ele>
        <time>2026-05-14T12:53:14+00:00</time>
      </trkpt>
      <trkpt lat="42.42237" lon="2.0541">
        <ele>1558</ele>
        <time>2026-05-14T12:53:15+00:00</time>
      </trkpt>
      <trkpt lat="42.42231" lon="2.05441">
        <ele>1547</ele>
        <time>2026-05-14T12:53:16+00:00</time>
      </trkpt>
      <trkpt lat="42.4216" lon="2.05533">
        <ele>1526</ele>
        <time>2026-05-14T12:53:17+00:00</time>
      </trkpt>
      <trkpt lat="42.42174" lon="2.05574">
        <ele>1521</ele>
        <time>2026-05-14T12:53:18+00:00</time>
      </trkpt>
      <trkpt lat="42.42162" lon="2.05589">
        <ele>1522</ele>
        <time>2026-05-14T12:53:19+00:00</time>
      </trkpt>
      <trkpt lat="42.42162" lon="2.056">
        <ele>1527</ele>
        <time>2026-05-14T12:53:20+00:00</time>
      </trkpt>
      <trkpt lat="42.42191" lon="2.05595">
        <ele>1528</ele>
        <time>2026-05-14T12:53:21+00:00</time>
      </trkpt>
      <trkpt lat="42.42218" lon="2.05596">
        <ele>1533</ele>
        <time>2026-05-14T12:53:22+00:00</time>
      </trkpt>
      <trkpt lat="42.42279" lon="2.05632">
        <ele>1564</ele>
        <time>2026-05-14T12:53:23+00:00</time>
      </trkpt>
      <trkpt lat="42.42306" lon="2.05654">
        <ele>1580</ele>
        <time>2026-05-14T12:53:24+00:00</time>
      </trkpt>
      <trkpt lat="42.42365" lon="2.05686">
        <ele>1594</ele>
        <time>2026-05-14T12:53:25+00:00</time>
      </trkpt>
      <trkpt lat="42.42385" lon="2.05718">
        <ele>1604</ele>
        <time>2026-05-14T12:53:26+00:00</time>
      </trkpt>
      <trkpt lat="42.42398" lon="2.05748">
        <ele>1613</ele>
        <time>2026-05-14T12:53:27+00:00</time>
      </trkpt>
      <trkpt lat="42.42428" lon="2.05774">
        <ele>1611</ele>
        <time>2026-05-14T12:53:28+00:00</time>
      </trkpt>
      <trkpt lat="42.42442" lon="2.05803">
        <ele>1613</ele>
        <time>2026-05-14T12:53:29+00:00</time>
      </trkpt>
      <trkpt lat="42.42469" lon="2.05893">
        <ele>1617</ele>
        <time>2026-05-14T12:53:30+00:00</time>
      </trkpt>
      <trkpt lat="42.42476" lon="2.05934">
        <ele>1620</ele>
        <time>2026-05-14T12:53:31+00:00</time>
      </trkpt>
      <trkpt lat="42.42481" lon="2.06005">
        <ele>1629</ele>
        <time>2026-05-14T12:53:32+00:00</time>
      </trkpt>
      <trkpt lat="42.42487" lon="2.06007">
        <ele>1626</ele>
        <time>2026-05-14T12:53:33+00:00</time>
      </trkpt>
      <trkpt lat="42.42503" lon="2.05977">
        <ele>1617</ele>
        <time>2026-05-14T12:53:34+00:00</time>
      </trkpt>
      <trkpt lat="42.42513" lon="2.05979">
        <ele>1621</ele>
        <time>2026-05-14T12:53:35+00:00</time>
      </trkpt>
      <trkpt lat="42.42522" lon="2.05961">
        <ele>1621</ele>
        <time>2026-05-14T12:53:36+00:00</time>
      </trkpt>
      <trkpt lat="42.42549" lon="2.0585">
        <ele>1615</ele>
        <time>2026-05-14T12:53:37+00:00</time>
      </trkpt>
      <trkpt lat="42.42556" lon="2.05816">
        <ele>1615</ele>
        <time>2026-05-14T12:53:38+00:00</time>
      </trkpt>
      <trkpt lat="42.42556" lon="2.05779">
        <ele>1615</ele>
        <time>2026-05-14T12:53:39+00:00</time>
      </trkpt>
      <trkpt lat="42.4254" lon="2.05758">
        <ele>1607</ele>
        <time>2026-05-14T12:53:40+00:00</time>
      </trkpt>
      <trkpt lat="42.4253" lon="2.05734">
        <ele>1601</ele>
        <time>2026-05-14T12:53:41+00:00</time>
      </trkpt>
      <trkpt lat="42.42534" lon="2.05694">
        <ele>1600</ele>
        <time>2026-05-14T12:53:42+00:00</time>
      </trkpt>
      <trkpt lat="42.42543" lon="2.05661">
        <ele>1603</ele>
        <time>2026-05-14T12:53:43+00:00</time>
      </trkpt>
      <trkpt lat="42.42569" lon="2.05616">
        <ele>1609</ele>
        <time>2026-05-14T12:53:44+00:00</time>
      </trkpt>
      <trkpt lat="42.42577" lon="2.05577">
        <ele>1604</ele>
        <time>2026-05-14T12:53:45+00:00</time>
      </trkpt>
      <trkpt lat="42.42585" lon="2.05556">
        <ele>1597</ele>
        <time>2026-05-14T12:53:46+00:00</time>
      </trkpt>
      <trkpt lat="42.42607" lon="2.05546">
        <ele>1595</ele>
        <time>2026-05-14T12:53:47+00:00</time>
      </trkpt>
      <trkpt lat="42.42612" lon="2.05549">
        <ele>1598</ele>
        <time>2026-05-14T12:53:48+00:00</time>
      </trkpt>
      <trkpt lat="42.42644" lon="2.05554">
        <ele>1607</ele>
        <time>2026-05-14T12:53:49+00:00</time>
      </trkpt>
      <trkpt lat="42.42672" lon="2.05566">
        <ele>1618</ele>
        <time>2026-05-14T12:53:50+00:00</time>
      </trkpt>
      <trkpt lat="42.42703" lon="2.05565">
        <ele>1622</ele>
        <time>2026-05-14T12:53:51+00:00</time>
      </trkpt>
      <trkpt lat="42.42731" lon="2.05569">
        <ele>1629</ele>
        <time>2026-05-14T12:53:52+00:00</time>
      </trkpt>
      <trkpt lat="42.42732" lon="2.05578">
        <ele>1633</ele>
        <time>2026-05-14T12:53:53+00:00</time>
      </trkpt>
      <trkpt lat="42.4273" lon="2.05579">
        <ele>1634</ele>
        <time>2026-05-14T12:53:54+00:00</time>
      </trkpt>
      <trkpt lat="42.42692" lon="2.0559">
        <ele>1633</ele>
        <time>2026-05-14T12:53:55+00:00</time>
      </trkpt>
      <trkpt lat="42.42646" lon="2.05607">
        <ele>1630</ele>
        <time>2026-05-14T12:53:56+00:00</time>
      </trkpt>
      <trkpt lat="42.4263" lon="2.05624">
        <ele>1632</ele>
        <time>2026-05-14T12:53:57+00:00</time>
      </trkpt>
      <trkpt lat="42.42621" lon="2.05638">
        <ele>1633</ele>
        <time>2026-05-14T12:53:58+00:00</time>
      </trkpt>
      <trkpt lat="42.42617" lon="2.05655">
        <ele>1636</ele>
        <time>2026-05-14T12:53:59+00:00</time>
      </trkpt>
      <trkpt lat="42.42618" lon="2.05662">
        <ele>1639</ele>
        <time>2026-05-14T12:54:00+00:00</time>
      </trkpt>
      <trkpt lat="42.42623" lon="2.05665">
        <ele>1641</ele>
        <time>2026-05-14T12:54:01+00:00</time>
      </trkpt>
      <trkpt lat="42.42639" lon="2.05651">
        <ele>1643</ele>
        <time>2026-05-14T12:54:02+00:00</time>
      </trkpt>
      <trkpt lat="42.42706" lon="2.05629">
        <ele>1651</ele>
        <time>2026-05-14T12:54:03+00:00</time>
      </trkpt>
      <trkpt lat="42.42734" lon="2.05623">
        <ele>1653</ele>
        <time>2026-05-14T12:54:04+00:00</time>
      </trkpt>
      <trkpt lat="42.42753" lon="2.05629">
        <ele>1659</ele>
        <time>2026-05-14T12:54:05+00:00</time>
      </trkpt>
      <trkpt lat="42.42749" lon="2.05634">
        <ele>1661</ele>
        <time>2026-05-14T12:54:06+00:00</time>
      </trkpt>
      <trkpt lat="42.42733" lon="2.05638">
        <ele>1659</ele>
        <time>2026-05-14T12:54:07+00:00</time>
      </trkpt>
      <trkpt lat="42.42719" lon="2.05647">
        <ele>1661</ele>
        <time>2026-05-14T12:54:08+00:00</time>
      </trkpt>
      <trkpt lat="42.42681" lon="2.05686">
        <ele>1665</ele>
        <time>2026-05-14T12:54:09+00:00</time>
      </trkpt>
      <trkpt lat="42.42665" lon="2.05715">
        <ele>1666</ele>
        <time>2026-05-14T12:54:10+00:00</time>
      </trkpt>
      <trkpt lat="42.4267" lon="2.05718">
        <ele>1668</ele>
        <time>2026-05-14T12:54:11+00:00</time>
      </trkpt>
      <trkpt lat="42.42712" lon="2.05694">
        <ele>1674</ele>
        <time>2026-05-14T12:54:12+00:00</time>
      </trkpt>
      <trkpt lat="42.42805" lon="2.05682">
        <ele>1686</ele>
        <time>2026-05-14T12:54:13+00:00</time>
      </trkpt>
      <trkpt lat="42.42821" lon="2.05686">
        <ele>1690</ele>
        <time>2026-05-14T12:54:14+00:00</time>
      </trkpt>
      <trkpt lat="42.42819" lon="2.05692">
        <ele>1692</ele>
        <time>2026-05-14T12:54:15+00:00</time>
      </trkpt>
      <trkpt lat="42.42765" lon="2.05722">
        <ele>1693</ele>
        <time>2026-05-14T12:54:16+00:00</time>
      </trkpt>
      <trkpt lat="42.42716" lon="2.05761">
        <ele>1691</ele>
        <time>2026-05-14T12:54:17+00:00</time>
      </trkpt>
      <trkpt lat="42.42716" lon="2.0577">
        <ele>1694</ele>
        <time>2026-05-14T12:54:18+00:00</time>
      </trkpt>
      <trkpt lat="42.42722" lon="2.05768">
        <ele>1695</ele>
        <time>2026-05-14T12:54:19+00:00</time>
      </trkpt>
      <trkpt lat="42.42736" lon="2.05757">
        <ele>1697</ele>
        <time>2026-05-14T12:54:20+00:00</time>
      </trkpt>
      <trkpt lat="42.42762" lon="2.05745">
        <ele>1700</ele>
        <time>2026-05-14T12:54:21+00:00</time>
      </trkpt>
      <trkpt lat="42.42823" lon="2.05723">
        <ele>1703</ele>
        <time>2026-05-14T12:54:22+00:00</time>
      </trkpt>
      <trkpt lat="42.4288" lon="2.05716">
        <ele>1707</ele>
        <time>2026-05-14T12:54:23+00:00</time>
      </trkpt>
      <trkpt lat="42.42944" lon="2.05728">
        <ele>1713</ele>
        <time>2026-05-14T12:54:24+00:00</time>
      </trkpt>
      <trkpt lat="42.42954" lon="2.05737">
        <ele>1717</ele>
        <time>2026-05-14T12:54:25+00:00</time>
      </trkpt>
      <trkpt lat="42.42949" lon="2.0574">
        <ele>1719</ele>
        <time>2026-05-14T12:54:26+00:00</time>
      </trkpt>
      <trkpt lat="42.4292" lon="2.0574">
        <ele>1722</ele>
        <time>2026-05-14T12:54:27+00:00</time>
      </trkpt>
      <trkpt lat="42.42879" lon="2.05755">
        <ele>1724</ele>
        <time>2026-05-14T12:54:28+00:00</time>
      </trkpt>
      <trkpt lat="42.42842" lon="2.05772">
        <ele>1725</ele>
        <time>2026-05-14T12:54:29+00:00</time>
      </trkpt>
      <trkpt lat="42.4281" lon="2.05795">
        <ele>1728</ele>
        <time>2026-05-14T12:54:30+00:00</time>
      </trkpt>
      <trkpt lat="42.42779" lon="2.05829">
        <ele>1732</ele>
        <time>2026-05-14T12:54:31+00:00</time>
      </trkpt>
      <trkpt lat="42.42755" lon="2.0587">
        <ele>1734</ele>
        <time>2026-05-14T12:54:32+00:00</time>
      </trkpt>
      <trkpt lat="42.42752" lon="2.0593">
        <ele>1743</ele>
        <time>2026-05-14T12:54:33+00:00</time>
      </trkpt>
      <trkpt lat="42.4276" lon="2.05953">
        <ele>1745</ele>
        <time>2026-05-14T12:54:34+00:00</time>
      </trkpt>
      <trkpt lat="42.42779" lon="2.05971">
        <ele>1751</ele>
        <time>2026-05-14T12:54:35+00:00</time>
      </trkpt>
      <trkpt lat="42.42814" lon="2.05969">
        <ele>1762</ele>
        <time>2026-05-14T12:54:36+00:00</time>
      </trkpt>
      <trkpt lat="42.42817" lon="2.05962">
        <ele>1763</ele>
        <time>2026-05-14T12:54:37+00:00</time>
      </trkpt>
      <trkpt lat="42.42826" lon="2.05963">
        <ele>1765</ele>
        <time>2026-05-14T12:54:38+00:00</time>
      </trkpt>
      <trkpt lat="42.42832" lon="2.0597">
        <ele>1768</ele>
        <time>2026-05-14T12:54:39+00:00</time>
      </trkpt>
      <trkpt lat="42.42838" lon="2.06012">
        <ele>1772</ele>
        <time>2026-05-14T12:54:40+00:00</time>
      </trkpt>
      <trkpt lat="42.42841" lon="2.06115">
        <ele>1781</ele>
        <time>2026-05-14T12:54:41+00:00</time>
      </trkpt>
      <trkpt lat="42.42846" lon="2.06147">
        <ele>1788</ele>
        <time>2026-05-14T12:54:42+00:00</time>
      </trkpt>
      <trkpt lat="42.42841" lon="2.06163">
        <ele>1788</ele>
        <time>2026-05-14T12:54:43+00:00</time>
      </trkpt>
      <trkpt lat="42.42833" lon="2.06176">
        <ele>1787</ele>
        <time>2026-05-14T12:54:44+00:00</time>
      </trkpt>
      <trkpt lat="42.4282" lon="2.06226">
        <ele>1794</ele>
        <time>2026-05-14T12:54:45+00:00</time>
      </trkpt>
      <trkpt lat="42.42809" lon="2.06258">
        <ele>1795</ele>
        <time>2026-05-14T12:54:46+00:00</time>
      </trkpt>
      <trkpt lat="42.42807" lon="2.06276">
        <ele>1796</ele>
        <time>2026-05-14T12:54:47+00:00</time>
      </trkpt>
      <trkpt lat="42.42817" lon="2.06314">
        <ele>1806</ele>
        <time>2026-05-14T12:54:48+00:00</time>
      </trkpt>
      <trkpt lat="42.42823" lon="2.06364">
        <ele>1816</ele>
        <time>2026-05-14T12:54:49+00:00</time>
      </trkpt>
      <trkpt lat="42.42834" lon="2.064">
        <ele>1825</ele>
        <time>2026-05-14T12:54:50+00:00</time>
      </trkpt>
      <trkpt lat="42.42832" lon="2.06404">
        <ele>1825</ele>
        <time>2026-05-14T12:54:51+00:00</time>
      </trkpt>
      <trkpt lat="42.42824" lon="2.06404">
        <ele>1822</ele>
        <time>2026-05-14T12:54:52+00:00</time>
      </trkpt>
      <trkpt lat="42.42812" lon="2.0641">
        <ele>1820</ele>
        <time>2026-05-14T12:54:53+00:00</time>
      </trkpt>
      <trkpt lat="42.4277" lon="2.06449">
        <ele>1820</ele>
        <time>2026-05-14T12:54:54+00:00</time>
      </trkpt>
      <trkpt lat="42.42813" lon="2.06452">
        <ele>1832</ele>
        <time>2026-05-14T12:54:55+00:00</time>
      </trkpt>
      <trkpt lat="42.42826" lon="2.06447">
        <ele>1834</ele>
        <time>2026-05-14T12:54:56+00:00</time>
      </trkpt>
      <trkpt lat="42.42829" lon="2.0645">
        <ele>1835</ele>
        <time>2026-05-14T12:54:57+00:00</time>
      </trkpt>
      <trkpt lat="42.42825" lon="2.06462">
        <ele>1838</ele>
        <time>2026-05-14T12:54:58+00:00</time>
      </trkpt>
      <trkpt lat="42.42815" lon="2.06478">
        <ele>1841</ele>
        <time>2026-05-14T12:54:59+00:00</time>
      </trkpt>
      <trkpt lat="42.42744" lon="2.06548">
        <ele>1849</ele>
        <time>2026-05-14T12:55:00+00:00</time>
      </trkpt>
      <trkpt lat="42.42731" lon="2.06564">
        <ele>1849</ele>
        <time>2026-05-14T12:55:01+00:00</time>
      </trkpt>
      <trkpt lat="42.4272" lon="2.06592">
        <ele>1853</ele>
        <time>2026-05-14T12:55:02+00:00</time>
      </trkpt>
      <trkpt lat="42.42697" lon="2.06697">
        <ele>1870</ele>
        <time>2026-05-14T12:55:03+00:00</time>
      </trkpt>
      <trkpt lat="42.42693" lon="2.06717">
        <ele>1874</ele>
        <time>2026-05-14T12:55:04+00:00</time>
      </trkpt>
      <trkpt lat="42.42693" lon="2.0674">
        <ele>1880</ele>
        <time>2026-05-14T12:55:05+00:00</time>
      </trkpt>
      <trkpt lat="42.42685" lon="2.06745">
        <ele>1879</ele>
        <time>2026-05-14T12:55:06+00:00</time>
      </trkpt>
      <trkpt lat="42.42658" lon="2.06792">
        <ele>1888</ele>
        <time>2026-05-14T12:55:07+00:00</time>
      </trkpt>
      <trkpt lat="42.42647" lon="2.06795">
        <ele>1889</ele>
        <time>2026-05-14T12:55:08+00:00</time>
      </trkpt>
      <trkpt lat="42.42643" lon="2.06801">
        <ele>1891</ele>
        <time>2026-05-14T12:55:09+00:00</time>
      </trkpt>
      <trkpt lat="42.42644" lon="2.06807">
        <ele>1893</ele>
        <time>2026-05-14T12:55:10+00:00</time>
      </trkpt>
      <trkpt lat="42.42665" lon="2.06801">
        <ele>1890</ele>
        <time>2026-05-14T12:55:11+00:00</time>
      </trkpt>
      <trkpt lat="42.4267" lon="2.06806">
        <ele>1892</ele>
        <time>2026-05-14T12:55:12+00:00</time>
      </trkpt>
      <trkpt lat="42.42675" lon="2.06807">
        <ele>1894</ele>
        <time>2026-05-14T12:55:13+00:00</time>
      </trkpt>
      <trkpt lat="42.42678" lon="2.06815">
        <ele>1898</ele>
        <time>2026-05-14T12:55:14+00:00</time>
      </trkpt>
      <trkpt lat="42.42664" lon="2.06833">
        <ele>1900</ele>
        <time>2026-05-14T12:55:15+00:00</time>
      </trkpt>
      <trkpt lat="42.42649" lon="2.06862">
        <ele>1911</ele>
        <time>2026-05-14T12:55:16+00:00</time>
      </trkpt>
      <trkpt lat="42.42627" lon="2.06875">
        <ele>1917</ele>
        <time>2026-05-14T12:55:17+00:00</time>
      </trkpt>
      <trkpt lat="42.42578" lon="2.06889">
        <ele>1926</ele>
        <time>2026-05-14T12:55:18+00:00</time>
      </trkpt>
      <trkpt lat="42.42509" lon="2.06886">
        <ele>1937</ele>
        <time>2026-05-14T12:55:19+00:00</time>
      </trkpt>
      <trkpt lat="42.42495" lon="2.06889">
        <ele>1938</ele>
        <time>2026-05-14T12:55:20+00:00</time>
      </trkpt>
      <trkpt lat="42.42455" lon="2.06918">
        <ele>1938</ele>
        <time>2026-05-14T12:55:21+00:00</time>
      </trkpt>
      <trkpt lat="42.42455" lon="2.06941">
        <ele>1947</ele>
        <time>2026-05-14T12:55:22+00:00</time>
      </trkpt>
      <trkpt lat="42.42464" lon="2.06972">
        <ele>1961</ele>
        <time>2026-05-14T12:55:23+00:00</time>
      </trkpt>
      <trkpt lat="42.4249" lon="2.0702">
        <ele>1984</ele>
        <time>2026-05-14T12:55:24+00:00</time>
      </trkpt>
      <trkpt lat="42.4249" lon="2.07087">
        <ele>2007</ele>
        <time>2026-05-14T12:55:25+00:00</time>
      </trkpt>
      <trkpt lat="42.42473" lon="2.07151">
        <ele>2030</ele>
        <time>2026-05-14T12:55:26+00:00</time>
      </trkpt>
      <trkpt lat="42.42465" lon="2.07227">
        <ele>2056</ele>
        <time>2026-05-14T12:55:27+00:00</time>
      </trkpt>
      <trkpt lat="42.42449" lon="2.07327">
        <ele>2083</ele>
        <time>2026-05-14T12:55:28+00:00</time>
      </trkpt>
      <trkpt lat="42.42449" lon="2.07387">
        <ele>2096</ele>
        <time>2026-05-14T12:55:29+00:00</time>
      </trkpt>
      <trkpt lat="42.42425" lon="2.07438">
        <ele>2106</ele>
        <time>2026-05-14T12:55:30+00:00</time>
      </trkpt>
      <trkpt lat="42.42402" lon="2.07455">
        <ele>2110</ele>
        <time>2026-05-14T12:55:31+00:00</time>
      </trkpt>
      <trkpt lat="42.42348" lon="2.07473">
        <ele>2117</ele>
        <time>2026-05-14T12:55:32+00:00</time>
      </trkpt>
      <trkpt lat="42.42331" lon="2.07485">
        <ele>2120</ele>
        <time>2026-05-14T12:55:33+00:00</time>
      </trkpt>
      <trkpt lat="42.42311" lon="2.0751">
        <ele>2126</ele>
        <time>2026-05-14T12:55:34+00:00</time>
      </trkpt>
      <trkpt lat="42.42294" lon="2.07578">
        <ele>2138</ele>
        <time>2026-05-14T12:55:35+00:00</time>
      </trkpt>
      <trkpt lat="42.42295" lon="2.07693">
        <ele>2160</ele>
        <time>2026-05-14T12:55:36+00:00</time>
      </trkpt>
      <trkpt lat="42.42302" lon="2.07774">
        <ele>2177</ele>
        <time>2026-05-14T12:55:37+00:00</time>
      </trkpt>
      <trkpt lat="42.42299" lon="2.07819">
        <ele>2182</ele>
        <time>2026-05-14T12:55:38+00:00</time>
      </trkpt>
      <trkpt lat="42.42269" lon="2.07884">
        <ele>2181</ele>
        <time>2026-05-14T12:55:39+00:00</time>
      </trkpt>
      <trkpt lat="42.42137" lon="2.08066">
        <ele>2185</ele>
        <time>2026-05-14T12:55:40+00:00</time>
      </trkpt>
      <trkpt lat="42.42108" lon="2.08099">
        <ele>2186</ele>
        <time>2026-05-14T12:55:41+00:00</time>
      </trkpt>
      <trkpt lat="42.42028" lon="2.08163">
        <ele>2188</ele>
        <time>2026-05-14T12:55:42+00:00</time>
      </trkpt>
      <trkpt lat="42.41964" lon="2.08189">
        <ele>2199</ele>
        <time>2026-05-14T12:55:43+00:00</time>
      </trkpt>
      <trkpt lat="42.41915" lon="2.08212">
        <ele>2209</ele>
        <time>2026-05-14T12:55:44+00:00</time>
      </trkpt>
      <trkpt lat="42.4183" lon="2.08265">
        <ele>2221</ele>
        <time>2026-05-14T12:55:45+00:00</time>
      </trkpt>
      <trkpt lat="42.41778" lon="2.08314">
        <ele>2223</ele>
        <time>2026-05-14T12:55:46+00:00</time>
      </trkpt>
      <trkpt lat="42.41762" lon="2.08332">
        <ele>2223</ele>
        <time>2026-05-14T12:55:47+00:00</time>
      </trkpt>
      <trkpt lat="42.41746" lon="2.08357">
        <ele>2224</ele>
        <time>2026-05-14T12:55:48+00:00</time>
      </trkpt>
      <trkpt lat="42.4173" lon="2.08369">
        <ele>2225</ele>
        <time>2026-05-14T12:55:49+00:00</time>
      </trkpt>
      <trkpt lat="42.41615" lon="2.08423">
        <ele>2239</ele>
        <time>2026-05-14T12:55:50+00:00</time>
      </trkpt>
      <trkpt lat="42.41536" lon="2.08433">
        <ele>2256</ele>
        <time>2026-05-14T12:55:51+00:00</time>
      </trkpt>
      <trkpt lat="42.41431" lon="2.08512">
        <ele>2268</ele>
        <time>2026-05-14T12:55:52+00:00</time>
      </trkpt>
      <trkpt lat="42.41363" lon="2.08557">
        <ele>2275</ele>
        <time>2026-05-14T12:55:53+00:00</time>
      </trkpt>
      <trkpt lat="42.41297" lon="2.08605">
        <ele>2282</ele>
        <time>2026-05-14T12:55:54+00:00</time>
      </trkpt>
      <trkpt lat="42.41237" lon="2.08639">
        <ele>2289</ele>
        <time>2026-05-14T12:55:55+00:00</time>
      </trkpt>
      <trkpt lat="42.41178" lon="2.08664">
        <ele>2297</ele>
        <time>2026-05-14T12:55:56+00:00</time>
      </trkpt>
      <trkpt lat="42.41081" lon="2.0872">
        <ele>2313</ele>
        <time>2026-05-14T12:55:57+00:00</time>
      </trkpt>
      <trkpt lat="42.40977" lon="2.0876">
        <ele>2325</ele>
        <time>2026-05-14T12:55:58+00:00</time>
      </trkpt>
      <trkpt lat="42.40934" lon="2.08758">
        <ele>2332</ele>
        <time>2026-05-14T12:55:59+00:00</time>
      </trkpt>
      <trkpt lat="42.40843" lon="2.0876">
        <ele>2341</ele>
        <time>2026-05-14T12:56:00+00:00</time>
      </trkpt>
      <trkpt lat="42.40818" lon="2.0877">
        <ele>2343</ele>
        <time>2026-05-14T12:56:01+00:00</time>
      </trkpt>
      <trkpt lat="42.40655" lon="2.08974">
        <ele>2382</ele>
        <time>2026-05-14T12:56:02+00:00</time>
      </trkpt>
      <trkpt lat="42.40465" lon="2.0912">
        <ele>2441</ele>
        <time>2026-05-14T12:56:03+00:00</time>
      </trkpt>
      <trkpt lat="42.40104" lon="2.09425">
        <ele>2534</ele>
        <time>2026-05-14T12:56:04+00:00</time>
      </trkpt>
      <trkpt lat="42.39963" lon="2.09622">
        <ele>2552</ele>
        <time>2026-05-14T12:56:05+00:00</time>
      </trkpt>
      <trkpt lat="42.3984" lon="2.099">
        <ele>2567</ele>
        <time>2026-05-14T12:56:06+00:00</time>
      </trkpt>
      <trkpt lat="42.39815" lon="2.10005">
        <ele>2570</ele>
        <time>2026-05-14T12:56:07+00:00</time>
      </trkpt>
      <trkpt lat="42.39734" lon="2.10199">
        <ele>2624</ele>
        <time>2026-05-14T12:56:08+00:00</time>
      </trkpt>
      <trkpt lat="42.39652" lon="2.10508">
        <ele>2734</ele>
        <time>2026-05-14T12:56:09+00:00</time>
      </trkpt>
      <trkpt lat="42.3965" lon="2.10565">
        <ele>2743</ele>
        <time>2026-05-14T12:56:10+00:00</time>
      </trkpt>
      <trkpt lat="42.39634" lon="2.10615">
        <ele>2742</ele>
        <time>2026-05-14T12:56:11+00:00</time>
      </trkpt>
      <trkpt lat="42.39616" lon="2.10661">
        <ele>2744</ele>
        <time>2026-05-14T12:56:12+00:00</time>
      </trkpt>
      <trkpt lat="42.3961" lon="2.10691">
        <ele>2745</ele>
        <time>2026-05-14T12:56:13+00:00</time>
      </trkpt>
      <trkpt lat="42.39583" lon="2.10762">
        <ele>2755</ele>
        <time>2026-05-14T12:56:14+00:00</time>
      </trkpt>
      <trkpt lat="42.39548" lon="2.10843">
        <ele>2755</ele>
        <time>2026-05-14T12:56:15+00:00</time>
      </trkpt>
      <trkpt lat="42.39488" lon="2.10929">
        <ele>2770</ele>
        <time>2026-05-14T12:56:16+00:00</time>
      </trkpt>
      <trkpt lat="42.39474" lon="2.11002">
        <ele>2758</ele>
        <time>2026-05-14T12:56:17+00:00</time>
      </trkpt>
      <trkpt lat="42.3949" lon="2.11046">
        <ele>2753</ele>
        <time>2026-05-14T12:56:18+00:00</time>
      </trkpt>
      <trkpt lat="42.39489" lon="2.11069">
        <ele>2747</ele>
        <time>2026-05-14T12:56:19+00:00</time>
      </trkpt>
      <trkpt lat="42.39482" lon="2.11086">
        <ele>2741</ele>
        <time>2026-05-14T12:56:20+00:00</time>
      </trkpt>
      <trkpt lat="42.3948" lon="2.11113">
        <ele>2736</ele>
        <time>2026-05-14T12:56:21+00:00</time>
      </trkpt>
      <trkpt lat="42.39489" lon="2.11143">
        <ele>2735</ele>
        <time>2026-05-14T12:56:22+00:00</time>
      </trkpt>
      <trkpt lat="42.39497" lon="2.11202">
        <ele>2734</ele>
        <time>2026-05-14T12:56:23+00:00</time>
      </trkpt>
      <trkpt lat="42.39477" lon="2.11285">
        <ele>2739</ele>
        <time>2026-05-14T12:56:24+00:00</time>
      </trkpt>
      <trkpt lat="42.39478" lon="2.11301">
        <ele>2743</ele>
        <time>2026-05-14T12:56:25+00:00</time>
      </trkpt>
      <trkpt lat="42.39474" lon="2.11307">
        <ele>2744</ele>
        <time>2026-05-14T12:56:26+00:00</time>
      </trkpt>
      <trkpt lat="42.39476" lon="2.11312">
        <ele>2745</ele>
        <time>2026-05-14T12:56:27+00:00</time>
      </trkpt>
      <trkpt lat="42.39473" lon="2.11312">
        <ele>2745</ele>
        <time>2026-05-14T12:56:28+00:00</time>
      </trkpt>
      <trkpt lat="42.39473" lon="2.11318">
        <ele>2746</ele>
        <time>2026-05-14T12:56:29+00:00</time>
      </trkpt>
      <trkpt lat="42.3947" lon="2.11317">
        <ele>2745</ele>
        <time>2026-05-14T12:56:30+00:00</time>
      </trkpt>
      <trkpt lat="42.3947" lon="2.11322">
        <ele>2747</ele>
        <time>2026-05-14T12:56:31+00:00</time>
      </trkpt>
      <trkpt lat="42.39453" lon="2.11349">
        <ele>2753</ele>
        <time>2026-05-14T12:56:32+00:00</time>
      </trkpt>
      <trkpt lat="42.3945" lon="2.11367">
        <ele>2759</ele>
        <time>2026-05-14T12:56:33+00:00</time>
      </trkpt>
      <trkpt lat="42.3943" lon="2.11407">
        <ele>2774</ele>
        <time>2026-05-14T12:56:34+00:00</time>
      </trkpt>
      <trkpt lat="42.39437" lon="2.11422">
        <ele>2778</ele>
        <time>2026-05-14T12:56:35+00:00</time>
      </trkpt>
      <trkpt lat="42.39445" lon="2.11429">
        <ele>2779</ele>
        <time>2026-05-14T12:56:36+00:00</time>
      </trkpt>
      <trkpt lat="42.39432" lon="2.11439">
        <ele>2781</ele>
        <time>2026-05-14T12:56:37+00:00</time>
      </trkpt>
      <trkpt lat="42.39429" lon="2.1145">
        <ele>2783</ele>
        <time>2026-05-14T12:56:38+00:00</time>
      </trkpt>
      <trkpt lat="42.39408" lon="2.11482">
        <ele>2788</ele>
        <time>2026-05-14T12:56:39+00:00</time>
      </trkpt>
      <trkpt lat="42.39388" lon="2.11492">
        <ele>2787</ele>
        <time>2026-05-14T12:56:40+00:00</time>
      </trkpt>
      <trkpt lat="42.3938" lon="2.11491">
        <ele>2786</ele>
        <time>2026-05-14T12:56:41+00:00</time>
      </trkpt>
      <trkpt lat="42.39369" lon="2.11496">
        <ele>2785</ele>
        <time>2026-05-14T12:56:42+00:00</time>
      </trkpt>
      <trkpt lat="42.39295" lon="2.1147">
        <ele>2772</ele>
        <time>2026-05-14T12:56:43+00:00</time>
      </trkpt>
      <trkpt lat="42.39274" lon="2.11468">
        <ele>2771</ele>
        <time>2026-05-14T12:56:44+00:00</time>
      </trkpt>
      <trkpt lat="42.39264" lon="2.11464">
        <ele>2769</ele>
        <time>2026-05-14T12:56:45+00:00</time>
      </trkpt>
      <trkpt lat="42.39254" lon="2.11467">
        <ele>2769</ele>
        <time>2026-05-14T12:56:46+00:00</time>
      </trkpt>
      <trkpt lat="42.39214" lon="2.11459">
        <ele>2770</ele>
        <time>2026-05-14T12:56:47+00:00</time>
      </trkpt>
      <trkpt lat="42.392" lon="2.11451">
        <ele>2770</ele>
        <time>2026-05-14T12:56:48+00:00</time>
      </trkpt>
      <trkpt lat="42.39174" lon="2.11452">
        <ele>2772</ele>
        <time>2026-05-14T12:56:49+00:00</time>
      </trkpt>
      <trkpt lat="42.39165" lon="2.11448">
        <ele>2772</ele>
        <time>2026-05-14T12:56:50+00:00</time>
      </trkpt>
      <trkpt lat="42.39122" lon="2.1144">
        <ele>2776</ele>
        <time>2026-05-14T12:56:51+00:00</time>
      </trkpt>
      <trkpt lat="42.39099" lon="2.11439">
        <ele>2778</ele>
        <time>2026-05-14T12:56:52+00:00</time>
      </trkpt>
      <trkpt lat="42.39085" lon="2.11434">
        <ele>2778</ele>
        <time>2026-05-14T12:56:53+00:00</time>
      </trkpt>
      <trkpt lat="42.39049" lon="2.11444">
        <ele>2777</ele>
        <time>2026-05-14T12:56:54+00:00</time>
      </trkpt>
      <trkpt lat="42.38976" lon="2.11449">
        <ele>2767</ele>
        <time>2026-05-14T12:56:55+00:00</time>
      </trkpt>
      <trkpt lat="42.38963" lon="2.11456">
        <ele>2765</ele>
        <time>2026-05-14T12:56:56+00:00</time>
      </trkpt>
      <trkpt lat="42.38951" lon="2.11456">
        <ele>2762</ele>
        <time>2026-05-14T12:56:57+00:00</time>
      </trkpt>
      <trkpt lat="42.38937" lon="2.11461">
        <ele>2759</ele>
        <time>2026-05-14T12:56:58+00:00</time>
      </trkpt>
      <trkpt lat="42.38918" lon="2.11456">
        <ele>2755</ele>
        <time>2026-05-14T12:56:59+00:00</time>
      </trkpt>
      <trkpt lat="42.38876" lon="2.11461">
        <ele>2755</ele>
        <time>2026-05-14T12:57:00+00:00</time>
      </trkpt>
      <trkpt lat="42.38853" lon="2.11475">
        <ele>2756</ele>
        <time>2026-05-14T12:57:01+00:00</time>
      </trkpt>
      <trkpt lat="42.38827" lon="2.11486">
        <ele>2758</ele>
        <time>2026-05-14T12:57:02+00:00</time>
      </trkpt>
      <trkpt lat="42.38813" lon="2.11488">
        <ele>2762</ele>
        <time>2026-05-14T12:57:03+00:00</time>
      </trkpt>
      <trkpt lat="42.38807" lon="2.11492">
        <ele>2764</ele>
        <time>2026-05-14T12:57:04+00:00</time>
      </trkpt>
      <trkpt lat="42.38764" lon="2.115">
        <ele>2775</ele>
        <time>2026-05-14T12:57:05+00:00</time>
      </trkpt>
      <trkpt lat="42.38757" lon="2.11499">
        <ele>2777</ele>
        <time>2026-05-14T12:57:06+00:00</time>
      </trkpt>
      <trkpt lat="42.38746" lon="2.11489">
        <ele>2777</ele>
        <time>2026-05-14T12:57:07+00:00</time>
      </trkpt>
      <trkpt lat="42.38724" lon="2.11504">
        <ele>2784</ele>
        <time>2026-05-14T12:57:08+00:00</time>
      </trkpt>
      <trkpt lat="42.38699" lon="2.11502">
        <ele>2790</ele>
        <time>2026-05-14T12:57:09+00:00</time>
      </trkpt>
      <trkpt lat="42.38672" lon="2.11511">
        <ele>2796</ele>
        <time>2026-05-14T12:57:10+00:00</time>
      </trkpt>
      <trkpt lat="42.38648" lon="2.1151">
        <ele>2802</ele>
        <time>2026-05-14T12:57:11+00:00</time>
      </trkpt>
      <trkpt lat="42.38637" lon="2.11513">
        <ele>2804</ele>
        <time>2026-05-14T12:57:12+00:00</time>
      </trkpt>
      <trkpt lat="42.38629" lon="2.1152">
        <ele>2806</ele>
        <time>2026-05-14T12:57:13+00:00</time>
      </trkpt>
      <trkpt lat="42.38613" lon="2.11525">
        <ele>2810</ele>
        <time>2026-05-14T12:57:14+00:00</time>
      </trkpt>
      <trkpt lat="42.38593" lon="2.11541">
        <ele>2816</ele>
        <time>2026-05-14T12:57:15+00:00</time>
      </trkpt>
      <trkpt lat="42.3858" lon="2.11542">
        <ele>2819</ele>
        <time>2026-05-14T12:57:16+00:00</time>
      </trkpt>
      <trkpt lat="42.38565" lon="2.11547">
        <ele>2824</ele>
        <time>2026-05-14T12:57:17+00:00</time>
      </trkpt>
      <trkpt lat="42.38555" lon="2.11554">
        <ele>2828</ele>
        <time>2026-05-14T12:57:18+00:00</time>
      </trkpt>
      <trkpt lat="42.38532" lon="2.11563">
        <ele>2837</ele>
        <time>2026-05-14T12:57:19+00:00</time>
      </trkpt>
      <trkpt lat="42.38529" lon="2.11578">
        <ele>2841</ele>
        <time>2026-05-14T12:57:20+00:00</time>
      </trkpt>
      <trkpt lat="42.38522" lon="2.11588">
        <ele>2844</ele>
        <time>2026-05-14T12:57:21+00:00</time>
      </trkpt>
      <trkpt lat="42.3852" lon="2.116">
        <ele>2845</ele>
        <time>2026-05-14T12:57:22+00:00</time>
      </trkpt>
      <trkpt lat="42.38514" lon="2.11601">
        <ele>2847</ele>
        <time>2026-05-14T12:57:23+00:00</time>
      </trkpt>
      <trkpt lat="42.385" lon="2.11616">
        <ele>2853</ele>
        <time>2026-05-14T12:57:24+00:00</time>
      </trkpt>
      <trkpt lat="42.38472" lon="2.11618">
        <ele>2863</ele>
        <time>2026-05-14T12:57:25+00:00</time>
      </trkpt>
      <trkpt lat="42.38455" lon="2.11625">
        <ele>2869</ele>
        <time>2026-05-14T12:57:26+00:00</time>
      </trkpt>
      <trkpt lat="42.38449" lon="2.1163">
        <ele>2871</ele>
        <time>2026-05-14T12:57:27+00:00</time>
      </trkpt>
      <trkpt lat="42.38445" lon="2.1163">
        <ele>2873</ele>
        <time>2026-05-14T12:57:28+00:00</time>
      </trkpt>
      <trkpt lat="42.38434" lon="2.1164">
        <ele>2877</ele>
        <time>2026-05-14T12:57:29+00:00</time>
      </trkpt>
      <trkpt lat="42.38422" lon="2.11634">
        <ele>2881</ele>
        <time>2026-05-14T12:57:30+00:00</time>
      </trkpt>
      <trkpt lat="42.3842" lon="2.11639">
        <ele>2882</ele>
        <time>2026-05-14T12:57:31+00:00</time>
      </trkpt>
      <trkpt lat="42.3841" lon="2.11636">
        <ele>2884</ele>
        <time>2026-05-14T12:57:32+00:00</time>
      </trkpt>
      <trkpt lat="42.38406" lon="2.11632">
        <ele>2884</ele>
        <time>2026-05-14T12:57:33+00:00</time>
      </trkpt>
      <trkpt lat="42.38401" lon="2.11632">
        <ele>2885</ele>
        <time>2026-05-14T12:57:34+00:00</time>
      </trkpt>
      <trkpt lat="42.384" lon="2.11635">
        <ele>2886</ele>
        <time>2026-05-14T12:57:35+00:00</time>
      </trkpt>
      <trkpt lat="42.38379" lon="2.11652">
        <ele>2891</ele>
        <time>2026-05-14T12:57:36+00:00</time>
      </trkpt>
      <trkpt lat="42.38346" lon="2.11662">
        <ele>2898</ele>
        <time>2026-05-14T12:57:37+00:00</time>
      </trkpt>
      <trkpt lat="42.38325" lon="2.11679">
        <ele>2898</ele>
        <time>2026-05-14T12:57:38+00:00</time>
      </trkpt>
      <trkpt lat="42.3832" lon="2.11675">
        <ele>2897</ele>
        <time>2026-05-14T12:57:39+00:00</time>
      </trkpt>
      <trkpt lat="42.38319" lon="2.11661">
        <ele>2897</ele>
        <time>2026-05-14T12:57:40+00:00</time>
      </trkpt>
      <trkpt lat="42.38321" lon="2.11648">
        <ele>2896</ele>
        <time>2026-05-14T12:57:41+00:00</time>
      </trkpt>
      <trkpt lat="42.38311" lon="2.11644">
        <ele>2893</ele>
        <time>2026-05-14T12:57:42+00:00</time>
      </trkpt>
      <trkpt lat="42.38308" lon="2.11645">
        <ele>2892</ele>
        <time>2026-05-14T12:57:43+00:00</time>
      </trkpt>
      <trkpt lat="42.38301" lon="2.11629">
        <ele>2890</ele>
        <time>2026-05-14T12:57:44+00:00</time>
      </trkpt>
      <trkpt lat="42.38296" lon="2.11625">
        <ele>2888</ele>
        <time>2026-05-14T12:57:45+00:00</time>
      </trkpt>
      <trkpt lat="42.38285" lon="2.11622">
        <ele>2886</ele>
        <time>2026-05-14T12:57:46+00:00</time>
      </trkpt>
      <trkpt lat="42.38273" lon="2.11613">
        <ele>2883</ele>
        <time>2026-05-14T12:57:47+00:00</time>
      </trkpt>
      <trkpt lat="42.3827" lon="2.11614">
        <ele>2882</ele>
        <time>2026-05-14T12:57:48+00:00</time>
      </trkpt>
      <trkpt lat="42.38261" lon="2.11588">
        <ele>2880</ele>
        <time>2026-05-14T12:57:49+00:00</time>
      </trkpt>
      <trkpt lat="42.38243" lon="2.11559">
        <ele>2870</ele>
        <time>2026-05-14T12:57:50+00:00</time>
      </trkpt>
      <trkpt lat="42.38235" lon="2.11521">
        <ele>2861</ele>
        <time>2026-05-14T12:57:51+00:00</time>
      </trkpt>
      <trkpt lat="42.3823" lon="2.11517">
        <ele>2859</ele>
        <time>2026-05-14T12:57:52+00:00</time>
      </trkpt>
      <trkpt lat="42.3821" lon="2.11483">
        <ele>2847</ele>
        <time>2026-05-14T12:57:53+00:00</time>
      </trkpt>
      <trkpt lat="42.38209" lon="2.11452">
        <ele>2840</ele>
        <time>2026-05-14T12:57:54+00:00</time>
      </trkpt>
      <trkpt lat="42.38207" lon="2.11444">
        <ele>2837</ele>
        <time>2026-05-14T12:57:55+00:00</time>
      </trkpt>
      <trkpt lat="42.38202" lon="2.11439">
        <ele>2836</ele>
        <time>2026-05-14T12:57:56+00:00</time>
      </trkpt>
      <trkpt lat="42.38224" lon="2.11431">
        <ele>2835</ele>
        <time>2026-05-14T12:57:57+00:00</time>
      </trkpt>
      <trkpt lat="42.38223" lon="2.11411">
        <ele>2829</ele>
        <time>2026-05-14T12:57:58+00:00</time>
      </trkpt>
      <trkpt lat="42.38231" lon="2.11396">
        <ele>2825</ele>
        <time>2026-05-14T12:57:59+00:00</time>
      </trkpt>
      <trkpt lat="42.38235" lon="2.11391">
        <ele>2823</ele>
        <time>2026-05-14T12:58:00+00:00</time>
      </trkpt>
      <trkpt lat="42.38241" lon="2.11391">
        <ele>2823</ele>
        <time>2026-05-14T12:58:01+00:00</time>
      </trkpt>
      <trkpt lat="42.38244" lon="2.11383">
        <ele>2820</ele>
        <time>2026-05-14T12:58:02+00:00</time>
      </trkpt>
      <trkpt lat="42.38235" lon="2.11343">
        <ele>2809</ele>
        <time>2026-05-14T12:58:03+00:00</time>
      </trkpt>
      <trkpt lat="42.38238" lon="2.1133">
        <ele>2804</ele>
        <time>2026-05-14T12:58:04+00:00</time>
      </trkpt>
      <trkpt lat="42.38233" lon="2.11311">
        <ele>2801</ele>
        <time>2026-05-14T12:58:05+00:00</time>
      </trkpt>
      <trkpt lat="42.38228" lon="2.11271">
        <ele>2793</ele>
        <time>2026-05-14T12:58:06+00:00</time>
      </trkpt>
      <trkpt lat="42.38229" lon="2.1125">
        <ele>2788</ele>
        <time>2026-05-14T12:58:07+00:00</time>
      </trkpt>
      <trkpt lat="42.38232" lon="2.1125">
        <ele>2787</ele>
        <time>2026-05-14T12:58:08+00:00</time>
      </trkpt>
      <trkpt lat="42.38235" lon="2.11244">
        <ele>2784</ele>
        <time>2026-05-14T12:58:09+00:00</time>
      </trkpt>
      <trkpt lat="42.38233" lon="2.112">
        <ele>2773</ele>
        <time>2026-05-14T12:58:10+00:00</time>
      </trkpt>
      <trkpt lat="42.38241" lon="2.11198">
        <ele>2769</ele>
        <time>2026-05-14T12:58:11+00:00</time>
      </trkpt>
      <trkpt lat="42.3824" lon="2.1118">
        <ele>2765</ele>
        <time>2026-05-14T12:58:12+00:00</time>
      </trkpt>
      <trkpt lat="42.38234" lon="2.11153">
        <ele>2760</ele>
        <time>2026-05-14T12:58:13+00:00</time>
      </trkpt>
      <trkpt lat="42.38235" lon="2.11146">
        <ele>2758</ele>
        <time>2026-05-14T12:58:14+00:00</time>
      </trkpt>
      <trkpt lat="42.38227" lon="2.11121">
        <ele>2754</ele>
        <time>2026-05-14T12:58:15+00:00</time>
      </trkpt>
      <trkpt lat="42.38225" lon="2.11106">
        <ele>2751</ele>
        <time>2026-05-14T12:58:16+00:00</time>
      </trkpt>
      <trkpt lat="42.38221" lon="2.11102">
        <ele>2751</ele>
        <time>2026-05-14T12:58:17+00:00</time>
      </trkpt>
      <trkpt lat="42.38215" lon="2.11022">
        <ele>2728</ele>
        <time>2026-05-14T12:58:18+00:00</time>
      </trkpt>
      <trkpt lat="42.38204" lon="2.11005">
        <ele>2725</ele>
        <time>2026-05-14T12:58:19+00:00</time>
      </trkpt>
      <trkpt lat="42.382" lon="2.10986">
        <ele>2719</ele>
        <time>2026-05-14T12:58:20+00:00</time>
      </trkpt>
      <trkpt lat="42.38194" lon="2.10974">
        <ele>2716</ele>
        <time>2026-05-14T12:58:21+00:00</time>
      </trkpt>
      <trkpt lat="42.38196" lon="2.10965">
        <ele>2712</ele>
        <time>2026-05-14T12:58:22+00:00</time>
      </trkpt>
      <trkpt lat="42.38195" lon="2.10957">
        <ele>2710</ele>
        <time>2026-05-14T12:58:23+00:00</time>
      </trkpt>
      <trkpt lat="42.38193" lon="2.10956">
        <ele>2710</ele>
        <time>2026-05-14T12:58:24+00:00</time>
      </trkpt>
      <trkpt lat="42.38195" lon="2.10952">
        <ele>2708</ele>
        <time>2026-05-14T12:58:25+00:00</time>
      </trkpt>
      <trkpt lat="42.38189" lon="2.10944">
        <ele>2706</ele>
        <time>2026-05-14T12:58:26+00:00</time>
      </trkpt>
      <trkpt lat="42.38192" lon="2.10941">
        <ele>2705</ele>
        <time>2026-05-14T12:58:27+00:00</time>
      </trkpt>
      <trkpt lat="42.38185" lon="2.10929">
        <ele>2701</ele>
        <time>2026-05-14T12:58:28+00:00</time>
      </trkpt>
      <trkpt lat="42.38186" lon="2.10922">
        <ele>2698</ele>
        <time>2026-05-14T12:58:29+00:00</time>
      </trkpt>
      <trkpt lat="42.38192" lon="2.10914">
        <ele>2695</ele>
        <time>2026-05-14T12:58:30+00:00</time>
      </trkpt>
      <trkpt lat="42.38188" lon="2.10903">
        <ele>2691</ele>
        <time>2026-05-14T12:58:31+00:00</time>
      </trkpt>
      <trkpt lat="42.38189" lon="2.10898">
        <ele>2690</ele>
        <time>2026-05-14T12:58:32+00:00</time>
      </trkpt>
      <trkpt lat="42.38192" lon="2.10898">
        <ele>2690</ele>
        <time>2026-05-14T12:58:33+00:00</time>
      </trkpt>
      <trkpt lat="42.38194" lon="2.10895">
        <ele>2689</ele>
        <time>2026-05-14T12:58:34+00:00</time>
      </trkpt>
      <trkpt lat="42.38192" lon="2.10889">
        <ele>2687</ele>
        <time>2026-05-14T12:58:35+00:00</time>
      </trkpt>
      <trkpt lat="42.38199" lon="2.10883">
        <ele>2685</ele>
        <time>2026-05-14T12:58:36+00:00</time>
      </trkpt>
      <trkpt lat="42.38207" lon="2.10845">
        <ele>2672</ele>
        <time>2026-05-14T12:58:37+00:00</time>
      </trkpt>
      <trkpt lat="42.38213" lon="2.10836">
        <ele>2669</ele>
        <time>2026-05-14T12:58:38+00:00</time>
      </trkpt>
      <trkpt lat="42.38214" lon="2.10827">
        <ele>2666</ele>
        <time>2026-05-14T12:58:39+00:00</time>
      </trkpt>
      <trkpt lat="42.38204" lon="2.10816">
        <ele>2662</ele>
        <time>2026-05-14T12:58:40+00:00</time>
      </trkpt>
      <trkpt lat="42.38196" lon="2.10814">
        <ele>2661</ele>
        <time>2026-05-14T12:58:41+00:00</time>
      </trkpt>
      <trkpt lat="42.38196" lon="2.10805">
        <ele>2658</ele>
        <time>2026-05-14T12:58:42+00:00</time>
      </trkpt>
      <trkpt lat="42.38193" lon="2.10797">
        <ele>2655</ele>
        <time>2026-05-14T12:58:43+00:00</time>
      </trkpt>
      <trkpt lat="42.38195" lon="2.1076">
        <ele>2642</ele>
        <time>2026-05-14T12:58:44+00:00</time>
      </trkpt>
      <trkpt lat="42.38198" lon="2.10749">
        <ele>2639</ele>
        <time>2026-05-14T12:58:45+00:00</time>
      </trkpt>
      <trkpt lat="42.38193" lon="2.1072">
        <ele>2634</ele>
        <time>2026-05-14T12:58:46+00:00</time>
      </trkpt>
      <trkpt lat="42.38165" lon="2.10667">
        <ele>2627</ele>
        <time>2026-05-14T12:58:47+00:00</time>
      </trkpt>
      <trkpt lat="42.38129" lon="2.10616">
        <ele>2627</ele>
        <time>2026-05-14T12:58:48+00:00</time>
      </trkpt>
      <trkpt lat="42.38088" lon="2.10591">
        <ele>2635</ele>
        <time>2026-05-14T12:58:49+00:00</time>
      </trkpt>
      <trkpt lat="42.38035" lon="2.10537">
        <ele>2637</ele>
        <time>2026-05-14T12:58:50+00:00</time>
      </trkpt>
      <trkpt lat="42.38" lon="2.10493">
        <ele>2640</ele>
        <time>2026-05-14T12:58:51+00:00</time>
      </trkpt>
      <trkpt lat="42.37996" lon="2.10474">
        <ele>2636</ele>
        <time>2026-05-14T12:58:52+00:00</time>
      </trkpt>
      <trkpt lat="42.37984" lon="2.10439">
        <ele>2630</ele>
        <time>2026-05-14T12:58:53+00:00</time>
      </trkpt>
      <trkpt lat="42.3796" lon="2.10429">
        <ele>2625</ele>
        <time>2026-05-14T12:58:54+00:00</time>
      </trkpt>
      <trkpt lat="42.37952" lon="2.10403">
        <ele>2622</ele>
        <time>2026-05-14T12:58:55+00:00</time>
      </trkpt>
      <trkpt lat="42.37929" lon="2.10358">
        <ele>2621</ele>
        <time>2026-05-14T12:58:56+00:00</time>
      </trkpt>
      <trkpt lat="42.3792" lon="2.10327">
        <ele>2622</ele>
        <time>2026-05-14T12:58:57+00:00</time>
      </trkpt>
      <trkpt lat="42.3792" lon="2.10303">
        <ele>2621</ele>
        <time>2026-05-14T12:58:58+00:00</time>
      </trkpt>
      <trkpt lat="42.37916" lon="2.10291">
        <ele>2620</ele>
        <time>2026-05-14T12:58:59+00:00</time>
      </trkpt>
      <trkpt lat="42.37849" lon="2.10212">
        <ele>2613</ele>
        <time>2026-05-14T12:59:00+00:00</time>
      </trkpt>
      <trkpt lat="42.37838" lon="2.10161">
        <ele>2621</ele>
        <time>2026-05-14T12:59:01+00:00</time>
      </trkpt>
      <trkpt lat="42.37836" lon="2.10141">
        <ele>2621</ele>
        <time>2026-05-14T12:59:02+00:00</time>
      </trkpt>
      <trkpt lat="42.3782" lon="2.10106">
        <ele>2621</ele>
        <time>2026-05-14T12:59:03+00:00</time>
      </trkpt>
      <trkpt lat="42.37789" lon="2.10024">
        <ele>2626</ele>
        <time>2026-05-14T12:59:04+00:00</time>
      </trkpt>
      <trkpt lat="42.37717" lon="2.0992">
        <ele>2632</ele>
        <time>2026-05-14T12:59:05+00:00</time>
      </trkpt>
      <trkpt lat="42.37689" lon="2.09868">
        <ele>2633</ele>
        <time>2026-05-14T12:59:06+00:00</time>
      </trkpt>
      <trkpt lat="42.37668" lon="2.09812">
        <ele>2639</ele>
        <time>2026-05-14T12:59:07+00:00</time>
      </trkpt>
      <trkpt lat="42.37661" lon="2.09786">
        <ele>2639</ele>
        <time>2026-05-14T12:59:08+00:00</time>
      </trkpt>
      <trkpt lat="42.37656" lon="2.09762">
        <ele>2638</ele>
        <time>2026-05-14T12:59:09+00:00</time>
      </trkpt>
      <trkpt lat="42.37651" lon="2.09705">
        <ele>2635</ele>
        <time>2026-05-14T12:59:10+00:00</time>
      </trkpt>
      <trkpt lat="42.37645" lon="2.09677">
        <ele>2634</ele>
        <time>2026-05-14T12:59:11+00:00</time>
      </trkpt>
      <trkpt lat="42.37636" lon="2.09664">
        <ele>2633</ele>
        <time>2026-05-14T12:59:12+00:00</time>
      </trkpt>
      <trkpt lat="42.37625" lon="2.09654">
        <ele>2633</ele>
        <time>2026-05-14T12:59:13+00:00</time>
      </trkpt>
      <trkpt lat="42.37584" lon="2.09625">
        <ele>2633</ele>
        <time>2026-05-14T12:59:14+00:00</time>
      </trkpt>
      <trkpt lat="42.37581" lon="2.0961">
        <ele>2632</ele>
        <time>2026-05-14T12:59:15+00:00</time>
      </trkpt>
      <trkpt lat="42.37582" lon="2.09593">
        <ele>2632</ele>
        <time>2026-05-14T12:59:16+00:00</time>
      </trkpt>
      <trkpt lat="42.37593" lon="2.09562">
        <ele>2628</ele>
        <time>2026-05-14T12:59:17+00:00</time>
      </trkpt>
      <trkpt lat="42.37594" lon="2.09521">
        <ele>2624</ele>
        <time>2026-05-14T12:59:18+00:00</time>
      </trkpt>
      <trkpt lat="42.37582" lon="2.095">
        <ele>2625</ele>
        <time>2026-05-14T12:59:19+00:00</time>
      </trkpt>
      <trkpt lat="42.37559" lon="2.0948">
        <ele>2618</ele>
        <time>2026-05-14T12:59:20+00:00</time>
      </trkpt>
      <trkpt lat="42.37552" lon="2.09468">
        <ele>2616</ele>
        <time>2026-05-14T12:59:21+00:00</time>
      </trkpt>
      <trkpt lat="42.37549" lon="2.09412">
        <ele>2613</ele>
        <time>2026-05-14T12:59:22+00:00</time>
      </trkpt>
      <trkpt lat="42.37542" lon="2.09352">
        <ele>2608</ele>
        <time>2026-05-14T12:59:23+00:00</time>
      </trkpt>
      <trkpt lat="42.37535" lon="2.09337">
        <ele>2607</ele>
        <time>2026-05-14T12:59:24+00:00</time>
      </trkpt>
      <trkpt lat="42.37523" lon="2.09333">
        <ele>2608</ele>
        <time>2026-05-14T12:59:25+00:00</time>
      </trkpt>
      <trkpt lat="42.37515" lon="2.09323">
        <ele>2608</ele>
        <time>2026-05-14T12:59:26+00:00</time>
      </trkpt>
      <trkpt lat="42.3749" lon="2.09223">
        <ele>2606</ele>
        <time>2026-05-14T12:59:27+00:00</time>
      </trkpt>
      <trkpt lat="42.37482" lon="2.09209">
        <ele>2606</ele>
        <time>2026-05-14T12:59:28+00:00</time>
      </trkpt>
      <trkpt lat="42.37481" lon="2.09183">
        <ele>2606</ele>
        <time>2026-05-14T12:59:29+00:00</time>
      </trkpt>
      <trkpt lat="42.37485" lon="2.09174">
        <ele>2606</ele>
        <time>2026-05-14T12:59:30+00:00</time>
      </trkpt>
      <trkpt lat="42.37489" lon="2.09146">
        <ele>2607</ele>
        <time>2026-05-14T12:59:31+00:00</time>
      </trkpt>
      <trkpt lat="42.37487" lon="2.09126">
        <ele>2608</ele>
        <time>2026-05-14T12:59:32+00:00</time>
      </trkpt>
      <trkpt lat="42.37462" lon="2.09043">
        <ele>2620</ele>
        <time>2026-05-14T12:59:33+00:00</time>
      </trkpt>
      <trkpt lat="42.37461" lon="2.09028">
        <ele>2621</ele>
        <time>2026-05-14T12:59:34+00:00</time>
      </trkpt>
      <trkpt lat="42.37467" lon="2.08995">
        <ele>2621</ele>
        <time>2026-05-14T12:59:35+00:00</time>
      </trkpt>
      <trkpt lat="42.37482" lon="2.0896">
        <ele>2618</ele>
        <time>2026-05-14T12:59:36+00:00</time>
      </trkpt>
      <trkpt lat="42.37479" lon="2.0891">
        <ele>2622</ele>
        <time>2026-05-14T12:59:37+00:00</time>
      </trkpt>
      <trkpt lat="42.37484" lon="2.0888">
        <ele>2620</ele>
        <time>2026-05-14T12:59:38+00:00</time>
      </trkpt>
      <trkpt lat="42.37473" lon="2.0883">
        <ele>2625</ele>
        <time>2026-05-14T12:59:39+00:00</time>
      </trkpt>
      <trkpt lat="42.37469" lon="2.088">
        <ele>2625</ele>
        <time>2026-05-14T12:59:40+00:00</time>
      </trkpt>
      <trkpt lat="42.37473" lon="2.08743">
        <ele>2622</ele>
        <time>2026-05-14T12:59:41+00:00</time>
      </trkpt>
      <trkpt lat="42.37488" lon="2.08687">
        <ele>2620</ele>
        <time>2026-05-14T12:59:42+00:00</time>
      </trkpt>
      <trkpt lat="42.37492" lon="2.08645">
        <ele>2620</ele>
        <time>2026-05-14T12:59:43+00:00</time>
      </trkpt>
      <trkpt lat="42.37488" lon="2.08616">
        <ele>2619</ele>
        <time>2026-05-14T12:59:44+00:00</time>
      </trkpt>
      <trkpt lat="42.37478" lon="2.08584">
        <ele>2619</ele>
        <time>2026-05-14T12:59:45+00:00</time>
      </trkpt>
      <trkpt lat="42.37476" lon="2.08568">
        <ele>2617</ele>
        <time>2026-05-14T12:59:46+00:00</time>
      </trkpt>
      <trkpt lat="42.37625" lon="2.08405">
        <ele>2569</ele>
        <time>2026-05-14T12:59:47+00:00</time>
      </trkpt>
      <trkpt lat="42.37696" lon="2.08332">
        <ele>2549</ele>
        <time>2026-05-14T12:59:48+00:00</time>
      </trkpt>
      <trkpt lat="42.37801" lon="2.08265">
        <ele>2527</ele>
        <time>2026-05-14T12:59:49+00:00</time>
      </trkpt>
      <trkpt lat="42.37993" lon="2.08156">
        <ele>2494</ele>
        <time>2026-05-14T12:59:50+00:00</time>
      </trkpt>
      <trkpt lat="42.38027" lon="2.08087">
        <ele>2499</ele>
        <time>2026-05-14T12:59:51+00:00</time>
      </trkpt>
      <trkpt lat="42.38052" lon="2.08032">
        <ele>2507</ele>
        <time>2026-05-14T12:59:52+00:00</time>
      </trkpt>
      <trkpt lat="42.38089" lon="2.07941">
        <ele>2523</ele>
        <time>2026-05-14T12:59:53+00:00</time>
      </trkpt>
      <trkpt lat="42.38118" lon="2.07881">
        <ele>2523</ele>
        <time>2026-05-14T12:59:54+00:00</time>
      </trkpt>
      <trkpt lat="42.38159" lon="2.07858">
        <ele>2519</ele>
        <time>2026-05-14T12:59:55+00:00</time>
      </trkpt>
      <trkpt lat="42.38182" lon="2.07842">
        <ele>2515</ele>
        <time>2026-05-14T12:59:56+00:00</time>
      </trkpt>
      <trkpt lat="42.38255" lon="2.07777">
        <ele>2496</ele>
        <time>2026-05-14T12:59:57+00:00</time>
      </trkpt>
      <trkpt lat="42.38281" lon="2.0773">
        <ele>2487</ele>
        <time>2026-05-14T12:59:58+00:00</time>
      </trkpt>
      <trkpt lat="42.38295" lon="2.07714">
        <ele>2483</ele>
        <time>2026-05-14T12:59:59+00:00</time>
      </trkpt>
      <trkpt lat="42.38341" lon="2.07667">
        <ele>2473</ele>
        <time>2026-05-14T13:00:00+00:00</time>
      </trkpt>
      <trkpt lat="42.3845" lon="2.07566">
        <ele>2439</ele>
        <time>2026-05-14T13:00:01+00:00</time>
      </trkpt>
      <trkpt lat="42.38486" lon="2.07539">
        <ele>2428</ele>
        <time>2026-05-14T13:00:02+00:00</time>
      </trkpt>
      <trkpt lat="42.38517" lon="2.07521">
        <ele>2420</ele>
        <time>2026-05-14T13:00:03+00:00</time>
      </trkpt>
      <trkpt lat="42.38535" lon="2.07516">
        <ele>2416</ele>
        <time>2026-05-14T13:00:04+00:00</time>
      </trkpt>
      <trkpt lat="42.38556" lon="2.07495">
        <ele>2411</ele>
        <time>2026-05-14T13:00:05+00:00</time>
      </trkpt>
      <trkpt lat="42.38585" lon="2.07456">
        <ele>2405</ele>
        <time>2026-05-14T13:00:06+00:00</time>
      </trkpt>
      <trkpt lat="42.38699" lon="2.07335">
        <ele>2381</ele>
        <time>2026-05-14T13:00:07+00:00</time>
      </trkpt>
      <trkpt lat="42.38756" lon="2.0728">
        <ele>2365</ele>
        <time>2026-05-14T13:00:08+00:00</time>
      </trkpt>
      <trkpt lat="42.388" lon="2.07226">
        <ele>2352</ele>
        <time>2026-05-14T13:00:09+00:00</time>
      </trkpt>
      <trkpt lat="42.38864" lon="2.07123">
        <ele>2343</ele>
        <time>2026-05-14T13:00:10+00:00</time>
      </trkpt>
      <trkpt lat="42.38897" lon="2.07096">
        <ele>2340</ele>
        <time>2026-05-14T13:00:11+00:00</time>
      </trkpt>
      <trkpt lat="42.38969" lon="2.06976">
        <ele>2328</ele>
        <time>2026-05-14T13:00:12+00:00</time>
      </trkpt>
      <trkpt lat="42.39055" lon="2.06826">
        <ele>2315</ele>
        <time>2026-05-14T13:00:13+00:00</time>
      </trkpt>
      <trkpt lat="42.39073" lon="2.068">
        <ele>2311</ele>
        <time>2026-05-14T13:00:14+00:00</time>
      </trkpt>
      <trkpt lat="42.39112" lon="2.06773">
        <ele>2305</ele>
        <time>2026-05-14T13:00:15+00:00</time>
      </trkpt>
      <trkpt lat="42.39121" lon="2.06763">
        <ele>2303</ele>
        <time>2026-05-14T13:00:16+00:00</time>
      </trkpt>
      <trkpt lat="42.39633" lon="2.06162">
        <ele>2214</ele>
        <time>2026-05-14T13:00:17+00:00</time>
      </trkpt>
      <trkpt lat="42.39643" lon="2.06133">
        <ele>2212</ele>
        <time>2026-05-14T13:00:18+00:00</time>
      </trkpt>
      <trkpt lat="42.39664" lon="2.06104">
        <ele>2207</ele>
        <time>2026-05-14T13:00:19+00:00</time>
      </trkpt>
      <trkpt lat="42.39689" lon="2.06045">
        <ele>2203</ele>
        <time>2026-05-14T13:00:20+00:00</time>
      </trkpt>
      <trkpt lat="42.39742" lon="2.0597">
        <ele>2198</ele>
        <time>2026-05-14T13:00:21+00:00</time>
      </trkpt>
      <trkpt lat="42.39857" lon="2.05875">
        <ele>2179</ele>
        <time>2026-05-14T13:00:22+00:00</time>
      </trkpt>
      <trkpt lat="42.39884" lon="2.05862">
        <ele>2175</ele>
        <time>2026-05-14T13:00:23+00:00</time>
      </trkpt>
      <trkpt lat="42.3993" lon="2.05827">
        <ele>2168</ele>
        <time>2026-05-14T13:00:24+00:00</time>
      </trkpt>
      <trkpt lat="42.40005" lon="2.05792">
        <ele>2155</ele>
        <time>2026-05-14T13:00:25+00:00</time>
      </trkpt>
      <trkpt lat="42.40057" lon="2.05802">
        <ele>2142</ele>
        <time>2026-05-14T13:00:26+00:00</time>
      </trkpt>
      <trkpt lat="42.40079" lon="2.05826">
        <ele>2135</ele>
        <time>2026-05-14T13:00:27+00:00</time>
      </trkpt>
      <trkpt lat="42.40099" lon="2.05858">
        <ele>2127</ele>
        <time>2026-05-14T13:00:28+00:00</time>
      </trkpt>
      <trkpt lat="42.4013" lon="2.05981">
        <ele>2101</ele>
        <time>2026-05-14T13:00:29+00:00</time>
      </trkpt>
      <trkpt lat="42.40136" lon="2.06037">
        <ele>2091</ele>
        <time>2026-05-14T13:00:30+00:00</time>
      </trkpt>
      <trkpt lat="42.40135" lon="2.06129">
        <ele>2079</ele>
        <time>2026-05-14T13:00:31+00:00</time>
      </trkpt>
      <trkpt lat="42.40115" lon="2.06219">
        <ele>2071</ele>
        <time>2026-05-14T13:00:32+00:00</time>
      </trkpt>
      <trkpt lat="42.40083" lon="2.06449">
        <ele>2046</ele>
        <time>2026-05-14T13:00:33+00:00</time>
      </trkpt>
      <trkpt lat="42.40082" lon="2.06492">
        <ele>2041</ele>
        <time>2026-05-14T13:00:34+00:00</time>
      </trkpt>
      <trkpt lat="42.40085" lon="2.06515">
        <ele>2036</ele>
        <time>2026-05-14T13:00:35+00:00</time>
      </trkpt>
      <trkpt lat="42.40098" lon="2.06522">
        <ele>2030</ele>
        <time>2026-05-14T13:00:36+00:00</time>
      </trkpt>
      <trkpt lat="42.40116" lon="2.06498">
        <ele>2026</ele>
        <time>2026-05-14T13:00:37+00:00</time>
      </trkpt>
      <trkpt lat="42.40256" lon="2.06397">
        <ele>1992</ele>
        <time>2026-05-14T13:00:38+00:00</time>
      </trkpt>
      <trkpt lat="42.40304" lon="2.06342">
        <ele>1980</ele>
        <time>2026-05-14T13:00:39+00:00</time>
      </trkpt>
      <trkpt lat="42.40338" lon="2.06299">
        <ele>1972</ele>
        <time>2026-05-14T13:00:40+00:00</time>
      </trkpt>
      <trkpt lat="42.40525" lon="2.06148">
        <ele>1925</ele>
        <time>2026-05-14T13:00:41+00:00</time>
      </trkpt>
      <trkpt lat="42.40668" lon="2.05996">
        <ele>1902</ele>
        <time>2026-05-14T13:00:42+00:00</time>
      </trkpt>
      <trkpt lat="42.40719" lon="2.05948">
        <ele>1897</ele>
        <time>2026-05-14T13:00:43+00:00</time>
      </trkpt>
      <trkpt lat="42.40761" lon="2.05887">
        <ele>1897</ele>
        <time>2026-05-14T13:00:44+00:00</time>
      </trkpt>
      <trkpt lat="42.40789" lon="2.05874">
        <ele>1892</ele>
        <time>2026-05-14T13:00:45+00:00</time>
      </trkpt>
      <trkpt lat="42.4084" lon="2.05857">
        <ele>1882</ele>
        <time>2026-05-14T13:00:46+00:00</time>
      </trkpt>
      <trkpt lat="42.40885" lon="2.05845">
        <ele>1875</ele>
        <time>2026-05-14T13:00:47+00:00</time>
      </trkpt>
      <trkpt lat="42.40933" lon="2.05826">
        <ele>1868</ele>
        <time>2026-05-14T13:00:48+00:00</time>
      </trkpt>
      <trkpt lat="42.41015" lon="2.05788">
        <ele>1860</ele>
        <time>2026-05-14T13:00:49+00:00</time>
      </trkpt>
    </trkseg>
  </trk>
</gpx>
