<?xml version="1.0" encoding="UTF-8" ?>
<gpx version="1.1" xmlns:xsi="http://www.w3.org/2001/XMLSchema-instance"
    xmlns="http://www.topografix.com/GPX/1/1"
    xsi:schemaLocation="http://www.topografix.com/GPX/1/1 http://www.topografix.com/GPX/1/1/gpx.xsd"
    creator="Openrunner - https://www.openrunner.com" >	<trk>
	                   <name>Soubes - Camp Rouch - Les Barasquettes-20375149</name>
						<trkseg>
					<trkpt lat="43.767310" lon="3.348200">
						<ele>254</ele>
						<time>2026-05-01T08:36:52Z</time>
					</trkpt>
					<trkpt lat="43.767400" lon="3.348630">
						<ele>255</ele>
						<time>2026-05-01T08:37:35Z</time>
					</trkpt>
					<trkpt lat="43.767490" lon="3.348720">
						<ele>255</ele>
						<time>2026-05-01T08:37:50Z</time>
					</trkpt>
					<trkpt lat="43.767570" lon="3.348820">
						<ele>255</ele>
						<time>2026-05-01T08:38:04Z</time>
					</trkpt>
					<trkpt lat="43.767740" lon="3.348970">
						<ele>254</ele>
						<time>2026-05-01T08:38:31Z</time>
					</trkpt>
					<trkpt lat="43.768040" lon="3.349140">
						<ele>252</ele>
						<time>2026-05-01T08:39:14Z</time>
					</trkpt>
					<trkpt lat="43.768530" lon="3.349260">
						<ele>252</ele>
						<time>2026-05-01T08:40:21Z</time>
					</trkpt>
					<trkpt lat="43.768730" lon="3.349250">
						<ele>253</ele>
						<time>2026-05-01T08:40:48Z</time>
					</trkpt>
					<trkpt lat="43.769060" lon="3.349140">
						<ele>251</ele>
						<time>2026-05-01T08:41:33Z</time>
					</trkpt>
					<trkpt lat="43.769460" lon="3.349140">
						<ele>249</ele>
						<time>2026-05-01T08:42:26Z</time>
					</trkpt>
					<trkpt lat="43.769870" lon="3.348690">
						<ele>244</ele>
						<time>2026-05-01T08:43:36Z</time>
					</trkpt>
					<trkpt lat="43.770190" lon="3.348550">
						<ele>246</ele>
						<time>2026-05-01T08:44:21Z</time>
					</trkpt>
					<trkpt lat="43.770340" lon="3.348440">
						<ele>248</ele>
						<time>2026-05-01T08:44:44Z</time>
					</trkpt>
					<trkpt lat="43.770660" lon="3.348680">
						<ele>251</ele>
						<time>2026-05-01T08:45:32Z</time>
					</trkpt>
					<trkpt lat="43.770900" lon="3.348390">
						<ele>256</ele>
						<time>2026-05-01T08:46:15Z</time>
					</trkpt>
					<trkpt lat="43.771250" lon="3.348320">
						<ele>262</ele>
						<time>2026-05-01T08:47:02Z</time>
					</trkpt>
					<trkpt lat="43.771390" lon="3.348170">
						<ele>266</ele>
						<time>2026-05-01T08:47:25Z</time>
					</trkpt>
					<trkpt lat="43.772320" lon="3.348590">
						<ele>274</ele>
						<time>2026-05-01T08:49:36Z</time>
					</trkpt>
					<trkpt lat="43.771920" lon="3.347310">
						<ele>285</ele>
						<time>2026-05-01T08:51:50Z</time>
					</trkpt>
					<trkpt lat="43.772170" lon="3.347300">
						<ele>290</ele>
						<time>2026-05-01T08:52:24Z</time>
					</trkpt>
					<trkpt lat="43.772700" lon="3.347280">
						<ele>299</ele>
						<time>2026-05-01T08:53:34Z</time>
					</trkpt>
					<trkpt lat="43.772730" lon="3.346370">
						<ele>310</ele>
						<time>2026-05-01T08:55:02Z</time>
					</trkpt>
					<trkpt lat="43.773030" lon="3.345930">
						<ele>317</ele>
						<time>2026-05-01T08:56:01Z</time>
					</trkpt>
					<trkpt lat="43.773530" lon="3.345750">
						<ele>324</ele>
						<time>2026-05-01T08:57:10Z</time>
					</trkpt>
					<trkpt lat="43.773890" lon="3.345290">
						<ele>332</ele>
						<time>2026-05-01T08:58:15Z</time>
					</trkpt>
					<trkpt lat="43.774300" lon="3.344530">
						<ele>348</ele>
						<time>2026-05-01T08:59:46Z</time>
					</trkpt>
					<trkpt lat="43.774540" lon="3.344260">
						<ele>358</ele>
						<time>2026-05-01T09:00:28Z</time>
					</trkpt>
					<trkpt lat="43.774590" lon="3.344010">
						<ele>359</ele>
						<time>2026-05-01T09:00:53Z</time>
					</trkpt>
					<trkpt lat="43.774720" lon="3.343590">
						<ele>358</ele>
						<time>2026-05-01T09:01:37Z</time>
					</trkpt>
					<trkpt lat="43.774990" lon="3.343520">
						<ele>361</ele>
						<time>2026-05-01T09:02:13Z</time>
					</trkpt>
					<trkpt lat="43.775320" lon="3.343520">
						<ele>365</ele>
						<time>2026-05-01T09:02:57Z</time>
					</trkpt>
					<trkpt lat="43.775770" lon="3.343650">
						<ele>373</ele>
						<time>2026-05-01T09:03:59Z</time>
					</trkpt>
					<trkpt lat="43.775980" lon="3.343680">
						<ele>375</ele>
						<time>2026-05-01T09:04:27Z</time>
					</trkpt>
					<trkpt lat="43.775950" lon="3.343670">
						<ele>374</ele>
						<time>2026-05-01T09:04:31Z</time>
					</trkpt>
					<trkpt lat="43.775890" lon="3.343850">
						<ele>379</ele>
						<time>2026-05-01T09:04:50Z</time>
					</trkpt>
					<trkpt lat="43.775350" lon="3.344190">
						<ele>377</ele>
						<time>2026-05-01T09:06:09Z</time>
					</trkpt>
					<trkpt lat="43.775540" lon="3.344400">
						<ele>381</ele>
						<time>2026-05-01T09:06:42Z</time>
					</trkpt>
					<trkpt lat="43.775540" lon="3.344690">
						<ele>382</ele>
						<time>2026-05-01T09:07:10Z</time>
					</trkpt>
					<trkpt lat="43.775900" lon="3.344640">
						<ele>392</ele>
						<time>2026-05-01T09:07:58Z</time>
					</trkpt>
					<trkpt lat="43.776210" lon="3.344460">
						<ele>396</ele>
						<time>2026-05-01T09:08:43Z</time>
					</trkpt>
					<trkpt lat="43.776350" lon="3.344240">
						<ele>395</ele>
						<time>2026-05-01T09:09:11Z</time>
					</trkpt>
					<trkpt lat="43.776800" lon="3.345690">
						<ele>417</ele>
						<time>2026-05-01T09:11:43Z</time>
					</trkpt>
					<trkpt lat="43.776950" lon="3.345760">
						<ele>424</ele>
						<time>2026-05-01T09:12:04Z</time>
					</trkpt>
					<trkpt lat="43.777010" lon="3.345670">
						<ele>428</ele>
						<time>2026-05-01T09:12:16Z</time>
					</trkpt>
					<trkpt lat="43.776910" lon="3.345420">
						<ele>425</ele>
						<time>2026-05-01T09:12:43Z</time>
					</trkpt>
					<trkpt lat="43.776910" lon="3.345280">
						<ele>426</ele>
						<time>2026-05-01T09:12:57Z</time>
					</trkpt>
					<trkpt lat="43.777130" lon="3.345450">
						<ele>435</ele>
						<time>2026-05-01T09:13:31Z</time>
					</trkpt>
					<trkpt lat="43.776940" lon="3.344850">
						<ele>424</ele>
						<time>2026-05-01T09:14:34Z</time>
					</trkpt>
					<trkpt lat="43.776750" lon="3.344500">
						<ele>408</ele>
						<time>2026-05-01T09:15:16Z</time>
					</trkpt>
					<trkpt lat="43.777040" lon="3.344830">
						<ele>426</ele>
						<time>2026-05-01T09:16:06Z</time>
					</trkpt>
					<trkpt lat="43.777630" lon="3.344850">
						<ele>445</ele>
						<time>2026-05-01T09:17:25Z</time>
					</trkpt>
					<trkpt lat="43.778620" lon="3.344500">
						<ele>454</ele>
						<time>2026-05-01T09:19:41Z</time>
					</trkpt>
					<trkpt lat="43.779060" lon="3.344170">
						<ele>452</ele>
						<time>2026-05-01T09:20:48Z</time>
					</trkpt>
					<trkpt lat="43.779370" lon="3.343680">
						<ele>448</ele>
						<time>2026-05-01T09:21:51Z</time>
					</trkpt>
					<trkpt lat="43.779810" lon="3.343450">
						<ele>462</ele>
						<time>2026-05-01T09:22:53Z</time>
					</trkpt>
					<trkpt lat="43.780430" lon="3.342930">
						<ele>472</ele>
						<time>2026-05-01T09:24:30Z</time>
					</trkpt>
					<trkpt lat="43.780710" lon="3.342510">
						<ele>469</ele>
						<time>2026-05-01T09:25:25Z</time>
					</trkpt>
					<trkpt lat="43.780590" lon="3.342770">
						<ele>473</ele>
						<time>2026-05-01T09:25:55Z</time>
					</trkpt>
					<trkpt lat="43.780350" lon="3.343380">
						<ele>484</ele>
						<time>2026-05-01T09:27:02Z</time>
					</trkpt>
					<trkpt lat="43.779790" lon="3.344160">
						<ele>490</ele>
						<time>2026-05-01T09:28:48Z</time>
					</trkpt>
					<trkpt lat="43.779840" lon="3.344210">
						<ele>495</ele>
						<time>2026-05-01T09:28:56Z</time>
					</trkpt>
					<trkpt lat="43.779920" lon="3.344180">
						<ele>498</ele>
						<time>2026-05-01T09:29:07Z</time>
					</trkpt>
					<trkpt lat="43.779990" lon="3.344100">
						<ele>499</ele>
						<time>2026-05-01T09:29:19Z</time>
					</trkpt>
					<trkpt lat="43.780250" lon="3.343950">
						<ele>504</ele>
						<time>2026-05-01T09:29:57Z</time>
					</trkpt>
					<trkpt lat="43.780610" lon="3.343540">
						<ele>503</ele>
						<time>2026-05-01T09:30:59Z</time>
					</trkpt>
					<trkpt lat="43.781070" lon="3.343140">
						<ele>504</ele>
						<time>2026-05-01T09:32:12Z</time>
					</trkpt>
					<trkpt lat="43.780820" lon="3.343550">
						<ele>513</ele>
						<time>2026-05-01T09:33:03Z</time>
					</trkpt>
					<trkpt lat="43.780720" lon="3.343800">
						<ele>518</ele>
						<time>2026-05-01T09:33:31Z</time>
					</trkpt>
					<trkpt lat="43.780530" lon="3.344080">
						<ele>521</ele>
						<time>2026-05-01T09:34:08Z</time>
					</trkpt>
					<trkpt lat="43.780940" lon="3.343970">
						<ele>533</ele>
						<time>2026-05-01T09:35:04Z</time>
					</trkpt>
					<trkpt lat="43.780960" lon="3.344020">
						<ele>535</ele>
						<time>2026-05-01T09:35:09Z</time>
					</trkpt>
					<trkpt lat="43.780710" lon="3.344420">
						<ele>542</ele>
						<time>2026-05-01T09:36:00Z</time>
					</trkpt>
					<trkpt lat="43.780540" lon="3.344600">
						<ele>542</ele>
						<time>2026-05-01T09:36:29Z</time>
					</trkpt>
					<trkpt lat="43.780350" lon="3.344750">
						<ele>541</ele>
						<time>2026-05-01T09:36:58Z</time>
					</trkpt>
					<trkpt lat="43.780080" lon="3.345050">
						<ele>545</ele>
						<time>2026-05-01T09:37:44Z</time>
					</trkpt>
					<trkpt lat="43.779850" lon="3.345190">
						<ele>541</ele>
						<time>2026-05-01T09:38:17Z</time>
					</trkpt>
					<trkpt lat="43.779700" lon="3.345480">
						<ele>546</ele>
						<time>2026-05-01T09:38:52Z</time>
					</trkpt>
					<trkpt lat="43.779580" lon="3.345850">
						<ele>555</ele>
						<time>2026-05-01T09:39:31Z</time>
					</trkpt>
					<trkpt lat="43.779570" lon="3.346010">
						<ele>554</ele>
						<time>2026-05-01T09:39:46Z</time>
					</trkpt>
					<trkpt lat="43.779630" lon="3.346060">
						<ele>555</ele>
						<time>2026-05-01T09:39:56Z</time>
					</trkpt>
					<trkpt lat="43.779790" lon="3.346020">
						<ele>562</ele>
						<time>2026-05-01T09:40:17Z</time>
					</trkpt>
					<trkpt lat="43.779880" lon="3.345950">
						<ele>566</ele>
						<time>2026-05-01T09:40:31Z</time>
					</trkpt>
					<trkpt lat="43.779860" lon="3.346240">
						<ele>562</ele>
						<time>2026-05-01T09:40:59Z</time>
					</trkpt>
					<trkpt lat="43.780740" lon="3.346770">
						<ele>575</ele>
						<time>2026-05-01T09:43:07Z</time>
					</trkpt>
					<trkpt lat="43.781460" lon="3.346550">
						<ele>595</ele>
						<time>2026-05-01T09:44:46Z</time>
					</trkpt>
					<trkpt lat="43.781800" lon="3.346810">
						<ele>602</ele>
						<time>2026-05-01T09:45:38Z</time>
					</trkpt>
					<trkpt lat="43.782310" lon="3.346860">
						<ele>613</ele>
						<time>2026-05-01T09:46:46Z</time>
					</trkpt>
					<trkpt lat="43.782760" lon="3.347670">
						<ele>628</ele>
						<time>2026-05-01T09:48:24Z</time>
					</trkpt>
					<trkpt lat="43.783650" lon="3.348490">
						<ele>645</ele>
						<time>2026-05-01T09:50:47Z</time>
					</trkpt>
					<trkpt lat="43.784790" lon="3.348380">
						<ele>653</ele>
						<time>2026-05-01T09:53:19Z</time>
					</trkpt>
					<trkpt lat="43.785400" lon="3.348470">
						<ele>664</ele>
						<time>2026-05-01T09:54:41Z</time>
					</trkpt>
					<trkpt lat="43.786070" lon="3.347940">
						<ele>674</ele>
						<time>2026-05-01T09:56:24Z</time>
					</trkpt>
					<trkpt lat="43.786730" lon="3.347480">
						<ele>677</ele>
						<time>2026-05-01T09:58:03Z</time>
					</trkpt>
					<trkpt lat="43.787190" lon="3.347440">
						<ele>683</ele>
						<time>2026-05-01T09:59:04Z</time>
					</trkpt>
					<trkpt lat="43.788160" lon="3.347300">
						<ele>693</ele>
						<time>2026-05-01T10:01:14Z</time>
					</trkpt>
					<trkpt lat="43.788710" lon="3.347010">
						<ele>694</ele>
						<time>2026-05-01T10:02:33Z</time>
					</trkpt>
					<trkpt lat="43.789580" lon="3.347440">
						<ele>700</ele>
						<time>2026-05-01T10:04:36Z</time>
					</trkpt>
					<trkpt lat="43.790980" lon="3.347410">
						<ele>696</ele>
						<time>2026-05-01T10:07:43Z</time>
					</trkpt>
					<trkpt lat="43.791660" lon="3.346750">
						<ele>696</ele>
						<time>2026-05-01T10:09:34Z</time>
					</trkpt>
					<trkpt lat="43.792220" lon="3.345690">
						<ele>693</ele>
						<time>2026-05-01T10:11:40Z</time>
					</trkpt>
					<trkpt lat="43.793860" lon="3.345360">
						<ele>692</ele>
						<time>2026-05-01T10:15:22Z</time>
					</trkpt>
					<trkpt lat="43.794150" lon="3.345160">
						<ele>692</ele>
						<time>2026-05-01T10:16:05Z</time>
					</trkpt>
					<trkpt lat="43.794610" lon="3.345010">
						<ele>691</ele>
						<time>2026-05-01T10:17:08Z</time>
					</trkpt>
					<trkpt lat="43.794690" lon="3.345450">
						<ele>691</ele>
						<time>2026-05-01T10:17:52Z</time>
					</trkpt>
					<trkpt lat="43.794890" lon="3.345450">
						<ele>691</ele>
						<time>2026-05-01T10:18:18Z</time>
					</trkpt>
					<trkpt lat="43.795360" lon="3.345340">
						<ele>691</ele>
						<time>2026-05-01T10:19:22Z</time>
					</trkpt>
					<trkpt lat="43.795860" lon="3.345580">
						<ele>691</ele>
						<time>2026-05-01T10:20:32Z</time>
					</trkpt>
					<trkpt lat="43.796560" lon="3.345700">
						<ele>694</ele>
						<time>2026-05-01T10:22:07Z</time>
					</trkpt>
					<trkpt lat="43.796950" lon="3.346700">
						<ele>693</ele>
						<time>2026-05-01T10:23:56Z</time>
					</trkpt>
					<trkpt lat="43.797700" lon="3.346920">
						<ele>694</ele>
						<time>2026-05-01T10:25:38Z</time>
					</trkpt>
					<trkpt lat="43.797860" lon="3.347630">
						<ele>693</ele>
						<time>2026-05-01T10:26:50Z</time>
					</trkpt>
					<trkpt lat="43.798270" lon="3.347740">
						<ele>694</ele>
						<time>2026-05-01T10:27:46Z</time>
					</trkpt>
					<trkpt lat="43.799120" lon="3.348220">
						<ele>693</ele>
						<time>2026-05-01T10:29:48Z</time>
					</trkpt>
					<trkpt lat="43.799940" lon="3.348020">
						<ele>696</ele>
						<time>2026-05-01T10:31:39Z</time>
					</trkpt>
					<trkpt lat="43.800880" lon="3.348040">
						<ele>698</ele>
						<time>2026-05-01T10:33:45Z</time>
					</trkpt>
					<trkpt lat="43.802030" lon="3.348160">
						<ele>701</ele>
						<time>2026-05-01T10:36:19Z</time>
					</trkpt>
					<trkpt lat="43.802560" lon="3.348170">
						<ele>702</ele>
						<time>2026-05-01T10:37:29Z</time>
					</trkpt>
					<trkpt lat="43.802940" lon="3.347790">
						<ele>707</ele>
						<time>2026-05-01T10:38:32Z</time>
					</trkpt>
					<trkpt lat="43.803460" lon="3.347600">
						<ele>715</ele>
						<time>2026-05-01T10:39:44Z</time>
					</trkpt>
					<trkpt lat="43.803740" lon="3.347430">
						<ele>719</ele>
						<time>2026-05-01T10:40:25Z</time>
					</trkpt>
					<trkpt lat="43.804430" lon="3.348050">
						<ele>726</ele>
						<time>2026-05-01T10:42:14Z</time>
					</trkpt>
					<trkpt lat="43.805310" lon="3.347950">
						<ele>733</ele>
						<time>2026-05-01T10:44:12Z</time>
					</trkpt>
					<trkpt lat="43.806050" lon="3.348220">
						<ele>740</ele>
						<time>2026-05-01T10:45:54Z</time>
					</trkpt>
					<trkpt lat="43.806630" lon="3.347620">
						<ele>750</ele>
						<time>2026-05-01T10:47:31Z</time>
					</trkpt>
					<trkpt lat="43.807340" lon="3.348020">
						<ele>754</ele>
						<time>2026-05-01T10:49:13Z</time>
					</trkpt>
					<trkpt lat="43.808480" lon="3.346490">
						<ele>773</ele>
						<time>2026-05-01T10:52:45Z</time>
					</trkpt>
					<trkpt lat="43.809270" lon="3.345600">
						<ele>777</ele>
						<time>2026-05-01T10:55:01Z</time>
					</trkpt>
					<trkpt lat="43.809630" lon="3.345260">
						<ele>775</ele>
						<time>2026-05-01T10:55:59Z</time>
					</trkpt>
					<trkpt lat="43.810100" lon="3.345080">
						<ele>774</ele>
						<time>2026-05-01T10:57:04Z</time>
					</trkpt>
					<trkpt lat="43.810350" lon="3.345290">
						<ele>771</ele>
						<time>2026-05-01T10:57:43Z</time>
					</trkpt>
					<trkpt lat="43.810820" lon="3.345200">
						<ele>773</ele>
						<time>2026-05-01T10:58:46Z</time>
					</trkpt>
					<trkpt lat="43.811210" lon="3.344990">
						<ele>772</ele>
						<time>2026-05-01T10:59:42Z</time>
					</trkpt>
					<trkpt lat="43.812450" lon="3.344150">
						<ele>763</ele>
						<time>2026-05-01T11:02:46Z</time>
					</trkpt>
					<trkpt lat="43.813380" lon="3.343500">
						<ele>758</ele>
						<time>2026-05-01T11:05:05Z</time>
					</trkpt>
					<trkpt lat="43.814120" lon="3.342740">
						<ele>759</ele>
						<time>2026-05-01T11:07:08Z</time>
					</trkpt>
					<trkpt lat="43.814840" lon="3.342000">
						<ele>760</ele>
						<time>2026-05-01T11:09:08Z</time>
					</trkpt>
					<trkpt lat="43.815720" lon="3.341050">
						<ele>760</ele>
						<time>2026-05-01T11:11:37Z</time>
					</trkpt>
					<trkpt lat="43.815960" lon="3.340010">
						<ele>759</ele>
						<time>2026-05-01T11:13:22Z</time>
					</trkpt>
					<trkpt lat="43.816200" lon="3.339860">
						<ele>759</ele>
						<time>2026-05-01T11:13:57Z</time>
					</trkpt>
					<trkpt lat="43.816680" lon="3.340190">
						<ele>760</ele>
						<time>2026-05-01T11:15:08Z</time>
					</trkpt>
					<trkpt lat="43.816960" lon="3.340830">
						<ele>761</ele>
						<time>2026-05-01T11:16:21Z</time>
					</trkpt>
					<trkpt lat="43.817270" lon="3.340990">
						<ele>760</ele>
						<time>2026-05-01T11:17:05Z</time>
					</trkpt>
					<trkpt lat="43.818150" lon="3.340870">
						<ele>753</ele>
						<time>2026-05-01T11:19:03Z</time>
					</trkpt>
					<trkpt lat="43.818660" lon="3.340600">
						<ele>748</ele>
						<time>2026-05-01T11:20:16Z</time>
					</trkpt>
					<trkpt lat="43.819620" lon="3.340700">
						<ele>737</ele>
						<time>2026-05-01T11:22:24Z</time>
					</trkpt>
					<trkpt lat="43.820870" lon="3.341120">
						<ele>730</ele>
						<time>2026-05-01T11:25:16Z</time>
					</trkpt>
					<trkpt lat="43.821280" lon="3.341470">
						<ele>729</ele>
						<time>2026-05-01T11:26:20Z</time>
					</trkpt>
					<trkpt lat="43.821580" lon="3.342590">
						<ele>730</ele>
						<time>2026-05-01T11:28:15Z</time>
					</trkpt>
					<trkpt lat="43.824160" lon="3.344100">
						<ele>742</ele>
						<time>2026-05-01T11:34:29Z</time>
					</trkpt>
					<trkpt lat="43.825330" lon="3.346070">
						<ele>740</ele>
						<time>2026-05-01T11:38:34Z</time>
					</trkpt>
					<trkpt lat="43.826460" lon="3.346210">
						<ele>734</ele>
						<time>2026-05-01T11:41:06Z</time>
					</trkpt>
					<trkpt lat="43.827190" lon="3.346560">
						<ele>736</ele>
						<time>2026-05-01T11:42:49Z</time>
					</trkpt>
					<trkpt lat="43.828330" lon="3.345950">
						<ele>736</ele>
						<time>2026-05-01T11:45:32Z</time>
					</trkpt>
					<trkpt lat="43.829500" lon="3.343530">
						<ele>747</ele>
						<time>2026-05-01T11:50:12Z</time>
					</trkpt>
					<trkpt lat="43.830560" lon="3.341230">
						<ele>756</ele>
						<time>2026-05-01T11:54:35Z</time>
					</trkpt>
					<trkpt lat="43.835220" lon="3.336370">
						<ele>767</ele>
						<time>2026-05-01T12:07:33Z</time>
					</trkpt>
					<trkpt lat="43.835420" lon="3.335010">
						<ele>765</ele>
						<time>2026-05-01T12:09:47Z</time>
					</trkpt>
					<trkpt lat="43.835360" lon="3.333770">
						<ele>763</ele>
						<time>2026-05-01T12:11:46Z</time>
					</trkpt>
					<trkpt lat="43.833870" lon="3.333810">
						<ele>763</ele>
						<time>2026-05-01T12:15:05Z</time>
					</trkpt>
					<trkpt lat="43.832850" lon="3.333440">
						<ele>769</ele>
						<time>2026-05-01T12:17:26Z</time>
					</trkpt>
					<trkpt lat="43.831110" lon="3.335170">
						<ele>756</ele>
						<time>2026-05-01T12:22:12Z</time>
					</trkpt>
					<trkpt lat="43.830720" lon="3.336420">
						<ele>754</ele>
						<time>2026-05-01T12:24:23Z</time>
					</trkpt>
					<trkpt lat="43.830220" lon="3.337220">
						<ele>752</ele>
						<time>2026-05-01T12:26:05Z</time>
					</trkpt>
					<trkpt lat="43.827950" lon="3.337970">
						<ele>728</ele>
						<time>2026-05-01T12:31:16Z</time>
					</trkpt>
					<trkpt lat="43.827020" lon="3.337660">
						<ele>724</ele>
						<time>2026-05-01T12:33:24Z</time>
					</trkpt>
					<trkpt lat="43.825460" lon="3.336700">
						<ele>718</ele>
						<time>2026-05-01T12:37:12Z</time>
					</trkpt>
					<trkpt lat="43.825680" lon="3.335320">
						<ele>720</ele>
						<time>2026-05-01T12:39:28Z</time>
					</trkpt>
					<trkpt lat="43.825280" lon="3.334660">
						<ele>723</ele>
						<time>2026-05-01T12:40:51Z</time>
					</trkpt>
					<trkpt lat="43.825600" lon="3.333770">
						<ele>724</ele>
						<time>2026-05-01T12:42:26Z</time>
					</trkpt>
					<trkpt lat="43.825530" lon="3.333010">
						<ele>725</ele>
						<time>2026-05-01T12:43:40Z</time>
					</trkpt>
					<trkpt lat="43.824940" lon="3.333160">
						<ele>725</ele>
						<time>2026-05-01T12:45:00Z</time>
					</trkpt>
					<trkpt lat="43.824230" lon="3.332730">
						<ele>717</ele>
						<time>2026-05-01T12:46:44Z</time>
					</trkpt>
					<trkpt lat="43.823530" lon="3.332970">
						<ele>714</ele>
						<time>2026-05-01T12:48:20Z</time>
					</trkpt>
					<trkpt lat="43.823160" lon="3.332920">
						<ele>710</ele>
						<time>2026-05-01T12:49:09Z</time>
					</trkpt>
					<trkpt lat="43.822310" lon="3.333250">
						<ele>708</ele>
						<time>2026-05-01T12:51:07Z</time>
					</trkpt>
					<trkpt lat="43.821450" lon="3.333840">
						<ele>712</ele>
						<time>2026-05-01T12:53:15Z</time>
					</trkpt>
					<trkpt lat="43.820720" lon="3.334140">
						<ele>715</ele>
						<time>2026-05-01T12:54:57Z</time>
					</trkpt>
					<trkpt lat="43.820210" lon="3.334000">
						<ele>718</ele>
						<time>2026-05-01T12:56:06Z</time>
					</trkpt>
					<trkpt lat="43.819440" lon="3.334450">
						<ele>722</ele>
						<time>2026-05-01T12:57:58Z</time>
					</trkpt>
					<trkpt lat="43.818580" lon="3.333860">
						<ele>723</ele>
						<time>2026-05-01T13:00:06Z</time>
					</trkpt>
					<trkpt lat="43.818450" lon="3.332990">
						<ele>720</ele>
						<time>2026-05-01T13:01:31Z</time>
					</trkpt>
					<trkpt lat="43.818560" lon="3.332310">
						<ele>716</ele>
						<time>2026-05-01T13:02:39Z</time>
					</trkpt>
					<trkpt lat="43.818250" lon="3.331370">
						<ele>712</ele>
						<time>2026-05-01T13:04:18Z</time>
					</trkpt>
					<trkpt lat="43.818020" lon="3.331150">
						<ele>713</ele>
						<time>2026-05-01T13:04:55Z</time>
					</trkpt>
					<trkpt lat="43.817970" lon="3.330530">
						<ele>715</ele>
						<time>2026-05-01T13:05:55Z</time>
					</trkpt>
					<trkpt lat="43.816610" lon="3.331540">
						<ele>703</ele>
						<time>2026-05-01T13:09:21Z</time>
					</trkpt>
					<trkpt lat="43.815610" lon="3.332180">
						<ele>689</ele>
						<time>2026-05-01T13:11:48Z</time>
					</trkpt>
					<trkpt lat="43.815050" lon="3.332750">
						<ele>691</ele>
						<time>2026-05-01T13:13:21Z</time>
					</trkpt>
					<trkpt lat="43.814310" lon="3.332950">
						<ele>698</ele>
						<time>2026-05-01T13:15:02Z</time>
					</trkpt>
					<trkpt lat="43.813250" lon="3.332570">
						<ele>696</ele>
						<time>2026-05-01T13:17:28Z</time>
					</trkpt>
					<trkpt lat="43.812730" lon="3.333210">
						<ele>692</ele>
						<time>2026-05-01T13:19:01Z</time>
					</trkpt>
					<trkpt lat="43.812050" lon="3.333340">
						<ele>680</ele>
						<time>2026-05-01T13:20:32Z</time>
					</trkpt>
					<trkpt lat="43.811830" lon="3.333140">
						<ele>671</ele>
						<time>2026-05-01T13:21:07Z</time>
					</trkpt>
					<trkpt lat="43.810220" lon="3.333070">
						<ele>625</ele>
						<time>2026-05-01T13:24:42Z</time>
					</trkpt>
					<trkpt lat="43.809790" lon="3.333930">
						<ele>642</ele>
						<time>2026-05-01T13:26:23Z</time>
					</trkpt>
					<trkpt lat="43.809040" lon="3.334500">
						<ele>643</ele>
						<time>2026-05-01T13:28:17Z</time>
					</trkpt>
					<trkpt lat="43.808720" lon="3.335340">
						<ele>660</ele>
						<time>2026-05-01T13:29:49Z</time>
					</trkpt>
					<trkpt lat="43.807360" lon="3.335920">
						<ele>673</ele>
						<time>2026-05-01T13:32:58Z</time>
					</trkpt>
					<trkpt lat="43.806330" lon="3.336270">
						<ele>689</ele>
						<time>2026-05-01T13:35:20Z</time>
					</trkpt>
					<trkpt lat="43.805860" lon="3.336170">
						<ele>683</ele>
						<time>2026-05-01T13:36:23Z</time>
					</trkpt>
					<trkpt lat="43.805040" lon="3.336520">
						<ele>674</ele>
						<time>2026-05-01T13:38:18Z</time>
					</trkpt>
					<trkpt lat="43.804530" lon="3.336980">
						<ele>669</ele>
						<time>2026-05-01T13:39:39Z</time>
					</trkpt>
					<trkpt lat="43.803520" lon="3.337670">
						<ele>659</ele>
						<time>2026-05-01T13:42:09Z</time>
					</trkpt>
					<trkpt lat="43.803600" lon="3.339100">
						<ele>666</ele>
						<time>2026-05-01T13:44:28Z</time>
					</trkpt>
					<trkpt lat="43.803380" lon="3.339860">
						<ele>673</ele>
						<time>2026-05-01T13:45:46Z</time>
					</trkpt>
					<trkpt lat="43.802280" lon="3.339690">
						<ele>668</ele>
						<time>2026-05-01T13:48:14Z</time>
					</trkpt>
					<trkpt lat="43.801680" lon="3.339540">
						<ele>668</ele>
						<time>2026-05-01T13:49:35Z</time>
					</trkpt>
					<trkpt lat="43.801150" lon="3.338880">
						<ele>660</ele>
						<time>2026-05-01T13:51:11Z</time>
					</trkpt>
					<trkpt lat="43.800110" lon="3.339100">
						<ele>670</ele>
						<time>2026-05-01T13:53:31Z</time>
					</trkpt>
					<trkpt lat="43.799440" lon="3.338710">
						<ele>671</ele>
						<time>2026-05-01T13:55:08Z</time>
					</trkpt>
					<trkpt lat="43.798680" lon="3.338560">
						<ele>677</ele>
						<time>2026-05-01T13:56:50Z</time>
					</trkpt>
					<trkpt lat="43.798530" lon="3.338140">
						<ele>674</ele>
						<time>2026-05-01T13:57:36Z</time>
					</trkpt>
					<trkpt lat="43.797840" lon="3.338370">
						<ele>682</ele>
						<time>2026-05-01T13:59:10Z</time>
					</trkpt>
					<trkpt lat="43.797450" lon="3.339060">
						<ele>684</ele>
						<time>2026-05-01T14:00:35Z</time>
					</trkpt>
					<trkpt lat="43.797130" lon="3.339770">
						<ele>683</ele>
						<time>2026-05-01T14:01:55Z</time>
					</trkpt>
					<trkpt lat="43.795840" lon="3.340230">
						<ele>682</ele>
						<time>2026-05-01T14:04:53Z</time>
					</trkpt>
					<trkpt lat="43.794840" lon="3.340680">
						<ele>682</ele>
						<time>2026-05-01T14:07:13Z</time>
					</trkpt>
					<trkpt lat="43.794050" lon="3.340160">
						<ele>685</ele>
						<time>2026-05-01T14:09:10Z</time>
					</trkpt>
					<trkpt lat="43.793280" lon="3.340260">
						<ele>684</ele>
						<time>2026-05-01T14:10:53Z</time>
					</trkpt>
					<trkpt lat="43.792540" lon="3.340240">
						<ele>684</ele>
						<time>2026-05-01T14:12:32Z</time>
					</trkpt>
					<trkpt lat="43.792130" lon="3.340580">
						<ele>681</ele>
						<time>2026-05-01T14:13:36Z</time>
					</trkpt>
					<trkpt lat="43.792030" lon="3.341930">
						<ele>679</ele>
						<time>2026-05-01T14:15:47Z</time>
					</trkpt>
					<trkpt lat="43.791820" lon="3.341480">
						<ele>679</ele>
						<time>2026-05-01T14:16:38Z</time>
					</trkpt>
					<trkpt lat="43.791440" lon="3.341660">
						<ele>676</ele>
						<time>2026-05-01T14:17:32Z</time>
					</trkpt>
					<trkpt lat="43.790900" lon="3.341890">
						<ele>673</ele>
						<time>2026-05-01T14:18:47Z</time>
					</trkpt>
					<trkpt lat="43.789830" lon="3.341760">
						<ele>661</ele>
						<time>2026-05-01T14:21:10Z</time>
					</trkpt>
					<trkpt lat="43.789170" lon="3.342100">
						<ele>647</ele>
						<time>2026-05-01T14:22:44Z</time>
					</trkpt>
					<trkpt lat="43.788440" lon="3.342370">
						<ele>631</ele>
						<time>2026-05-01T14:24:25Z</time>
					</trkpt>
					<trkpt lat="43.788080" lon="3.342560">
						<ele>624</ele>
						<time>2026-05-01T14:25:17Z</time>
					</trkpt>
					<trkpt lat="43.787340" lon="3.342720">
						<ele>615</ele>
						<time>2026-05-01T14:26:57Z</time>
					</trkpt>
					<trkpt lat="43.787050" lon="3.342600">
						<ele>611</ele>
						<time>2026-05-01T14:27:37Z</time>
					</trkpt>
					<trkpt lat="43.786610" lon="3.342650">
						<ele>605</ele>
						<time>2026-05-01T14:28:36Z</time>
					</trkpt>
					<trkpt lat="43.785930" lon="3.342570">
						<ele>597</ele>
						<time>2026-05-01T14:30:07Z</time>
					</trkpt>
					<trkpt lat="43.785630" lon="3.342620">
						<ele>590</ele>
						<time>2026-05-01T14:30:47Z</time>
					</trkpt>
					<trkpt lat="43.784420" lon="3.342400">
						<ele>571</ele>
						<time>2026-05-01T14:33:30Z</time>
					</trkpt>
					<trkpt lat="43.783950" lon="3.341890">
						<ele>569</ele>
						<time>2026-05-01T14:34:50Z</time>
					</trkpt>
					<trkpt lat="43.783760" lon="3.341920">
						<ele>560</ele>
						<time>2026-05-01T14:35:15Z</time>
					</trkpt>
					<trkpt lat="43.783700" lon="3.342060">
						<ele>553</ele>
						<time>2026-05-01T14:35:31Z</time>
					</trkpt>
					<trkpt lat="43.783700" lon="3.342230">
						<ele>547</ele>
						<time>2026-05-01T14:35:47Z</time>
					</trkpt>
					<trkpt lat="43.783770" lon="3.342490">
						<ele>543</ele>
						<time>2026-05-01T14:36:14Z</time>
					</trkpt>
					<trkpt lat="43.784090" lon="3.343120">
						<ele>539</ele>
						<time>2026-05-01T14:37:28Z</time>
					</trkpt>
					<trkpt lat="43.784100" lon="3.343250">
						<ele>535</ele>
						<time>2026-05-01T14:37:41Z</time>
					</trkpt>
					<trkpt lat="43.784250" lon="3.343390">
						<ele>537</ele>
						<time>2026-05-01T14:38:05Z</time>
					</trkpt>
					<trkpt lat="43.784060" lon="3.343610">
						<ele>536</ele>
						<time>2026-05-01T14:38:38Z</time>
					</trkpt>
					<trkpt lat="43.783940" lon="3.343630">
						<ele>535</ele>
						<time>2026-05-01T14:38:54Z</time>
					</trkpt>
					<trkpt lat="43.783840" lon="3.343590">
						<ele>534</ele>
						<time>2026-05-01T14:39:08Z</time>
					</trkpt>
					<trkpt lat="43.783680" lon="3.343380">
						<ele>527</ele>
						<time>2026-05-01T14:39:38Z</time>
					</trkpt>
					<trkpt lat="43.783280" lon="3.343240">
						<ele>520</ele>
						<time>2026-05-01T14:40:33Z</time>
					</trkpt>
					<trkpt lat="43.782660" lon="3.342820">
						<ele>507</ele>
						<time>2026-05-01T14:42:05Z</time>
					</trkpt>
					<trkpt lat="43.782320" lon="3.342540">
						<ele>497</ele>
						<time>2026-05-01T14:42:58Z</time>
					</trkpt>
					<trkpt lat="43.782220" lon="3.342540">
						<ele>496</ele>
						<time>2026-05-01T14:43:11Z</time>
					</trkpt>
					<trkpt lat="43.782260" lon="3.342560">
						<ele>497</ele>
						<time>2026-05-01T14:43:17Z</time>
					</trkpt>
					<trkpt lat="43.782220" lon="3.342580">
						<ele>497</ele>
						<time>2026-05-01T14:43:22Z</time>
					</trkpt>
					<trkpt lat="43.781730" lon="3.342360">
						<ele>489</ele>
						<time>2026-05-01T14:44:31Z</time>
					</trkpt>
					<trkpt lat="43.781010" lon="3.341660">
						<ele>457</ele>
						<time>2026-05-01T14:46:28Z</time>
					</trkpt>
					<trkpt lat="43.780480" lon="3.341720">
						<ele>445</ele>
						<time>2026-05-01T14:47:39Z</time>
					</trkpt>
					<trkpt lat="43.779900" lon="3.342070">
						<ele>435</ele>
						<time>2026-05-01T14:49:04Z</time>
					</trkpt>
					<trkpt lat="43.779550" lon="3.342640">
						<ele>426</ele>
						<time>2026-05-01T14:50:16Z</time>
					</trkpt>
					<trkpt lat="43.779450" lon="3.343060">
						<ele>432</ele>
						<time>2026-05-01T14:50:58Z</time>
					</trkpt>
					<trkpt lat="43.779150" lon="3.343210">
						<ele>422</ele>
						<time>2026-05-01T14:51:41Z</time>
					</trkpt>
					<trkpt lat="43.779090" lon="3.343180">
						<ele>419</ele>
						<time>2026-05-01T14:51:50Z</time>
					</trkpt>
					<trkpt lat="43.778920" lon="3.343290">
						<ele>414</ele>
						<time>2026-05-01T14:52:15Z</time>
					</trkpt>
					<trkpt lat="43.778750" lon="3.343480">
						<ele>413</ele>
						<time>2026-05-01T14:52:44Z</time>
					</trkpt>
					<trkpt lat="43.778400" lon="3.343560">
						<ele>402</ele>
						<time>2026-05-01T14:53:31Z</time>
					</trkpt>
					<trkpt lat="43.778310" lon="3.343640">
						<ele>402</ele>
						<time>2026-05-01T14:53:45Z</time>
					</trkpt>
					<trkpt lat="43.777960" lon="3.343700">
						<ele>396</ele>
						<time>2026-05-01T14:54:32Z</time>
					</trkpt>
					<trkpt lat="43.777750" lon="3.343790">
						<ele>395</ele>
						<time>2026-05-01T14:55:02Z</time>
					</trkpt>
					<trkpt lat="43.777530" lon="3.343810">
						<ele>390</ele>
						<time>2026-05-01T14:55:31Z</time>
					</trkpt>
					<trkpt lat="43.777400" lon="3.343790">
						<ele>388</ele>
						<time>2026-05-01T14:55:49Z</time>
					</trkpt>
					<trkpt lat="43.777360" lon="3.343700">
						<ele>384</ele>
						<time>2026-05-01T14:55:59Z</time>
					</trkpt>
					<trkpt lat="43.776630" lon="3.343170">
						<ele>362</ele>
						<time>2026-05-01T14:57:49Z</time>
					</trkpt>
					<trkpt lat="43.776060" lon="3.343260">
						<ele>363</ele>
						<time>2026-05-01T14:59:05Z</time>
					</trkpt>
					<trkpt lat="43.775620" lon="3.343240">
						<ele>361</ele>
						<time>2026-05-01T15:00:04Z</time>
					</trkpt>
					<trkpt lat="43.775490" lon="3.342920">
						<ele>352</ele>
						<time>2026-05-01T15:00:39Z</time>
					</trkpt>
					<trkpt lat="43.775420" lon="3.342630">
						<ele>346</ele>
						<time>2026-05-01T15:01:09Z</time>
					</trkpt>
					<trkpt lat="43.775010" lon="3.342320">
						<ele>341</ele>
						<time>2026-05-01T15:02:11Z</time>
					</trkpt>
					<trkpt lat="43.774580" lon="3.341960">
						<ele>333</ele>
						<time>2026-05-01T15:03:18Z</time>
					</trkpt>
					<trkpt lat="43.774010" lon="3.341800">
						<ele>329</ele>
						<time>2026-05-01T15:04:36Z</time>
					</trkpt>
					<trkpt lat="43.773860" lon="3.341780">
						<ele>328</ele>
						<time>2026-05-01T15:04:56Z</time>
					</trkpt>
					<trkpt lat="43.773940" lon="3.341340">
						<ele>321</ele>
						<time>2026-05-01T15:05:40Z</time>
					</trkpt>
					<trkpt lat="43.773810" lon="3.341090">
						<ele>317</ele>
						<time>2026-05-01T15:06:09Z</time>
					</trkpt>
					<trkpt lat="43.773440" lon="3.340800">
						<ele>312</ele>
						<time>2026-05-01T15:07:06Z</time>
					</trkpt>
					<trkpt lat="43.773310" lon="3.340820">
						<ele>313</ele>
						<time>2026-05-01T15:07:24Z</time>
					</trkpt>
					<trkpt lat="43.773090" lon="3.340930">
						<ele>313</ele>
						<time>2026-05-01T15:07:55Z</time>
					</trkpt>
					<trkpt lat="43.772970" lon="3.340940">
						<ele>312</ele>
						<time>2026-05-01T15:08:11Z</time>
					</trkpt>
					<trkpt lat="43.772290" lon="3.340650">
						<ele>306</ele>
						<time>2026-05-01T15:09:46Z</time>
					</trkpt>
					<trkpt lat="43.771970" lon="3.340700">
						<ele>308</ele>
						<time>2026-05-01T15:10:29Z</time>
					</trkpt>
					<trkpt lat="43.771620" lon="3.340230">
						<ele>301</ele>
						<time>2026-05-01T15:11:34Z</time>
					</trkpt>
					<trkpt lat="43.771300" lon="3.340180">
						<ele>298</ele>
						<time>2026-05-01T15:12:17Z</time>
					</trkpt>
					<trkpt lat="43.770720" lon="3.340570">
						<ele>295</ele>
						<time>2026-05-01T15:13:43Z</time>
					</trkpt>
					<trkpt lat="43.770100" lon="3.340760">
						<ele>286</ele>
						<time>2026-05-01T15:15:08Z</time>
					</trkpt>
					<trkpt lat="43.769640" lon="3.341170">
						<ele>281</ele>
						<time>2026-05-01T15:16:21Z</time>
					</trkpt>
					<trkpt lat="43.769080" lon="3.341510">
						<ele>272</ele>
						<time>2026-05-01T15:17:42Z</time>
					</trkpt>
					<trkpt lat="43.768430" lon="3.341860">
						<ele>256</ele>
						<time>2026-05-01T15:19:15Z</time>
					</trkpt>
					<trkpt lat="43.768110" lon="3.341890">
						<ele>248</ele>
						<time>2026-05-01T15:19:58Z</time>
					</trkpt>
					<trkpt lat="43.768210" lon="3.342590">
						<ele>250</ele>
						<time>2026-05-01T15:21:07Z</time>
					</trkpt>
					<trkpt lat="43.768000" lon="3.343820">
						<ele>238</ele>
						<time>2026-05-01T15:23:09Z</time>
					</trkpt>
					<trkpt lat="43.767930" lon="3.344260">
						<ele>237</ele>
						<time>2026-05-01T15:23:52Z</time>
					</trkpt>
					<trkpt lat="43.767350" lon="3.344830">
						<ele>236</ele>
						<time>2026-05-01T15:25:27Z</time>
					</trkpt>
					<trkpt lat="43.767280" lon="3.345350">
						<ele>238</ele>
						<time>2026-05-01T15:26:18Z</time>
					</trkpt>
					<trkpt lat="43.767170" lon="3.346100">
						<ele>243</ele>
						<time>2026-05-01T15:27:32Z</time>
					</trkpt>
					<trkpt lat="43.767000" lon="3.346350">
						<ele>246</ele>
						<time>2026-05-01T15:28:05Z</time>
					</trkpt>
					<trkpt lat="43.766960" lon="3.346480">
						<ele>247</ele>
						<time>2026-05-01T15:28:18Z</time>
					</trkpt>
					<trkpt lat="43.766970" lon="3.346900">
						<ele>249</ele>
						<time>2026-05-01T15:28:59Z</time>
					</trkpt>
					<trkpt lat="43.767120" lon="3.347410">
						<ele>251</ele>
						<time>2026-05-01T15:29:52Z</time>
					</trkpt>
					<trkpt lat="43.767090" lon="3.347800">
						<ele>254</ele>
						<time>2026-05-01T15:30:30Z</time>
					</trkpt>
					<trkpt lat="43.767180" lon="3.348120">
						<ele>255</ele>
						<time>2026-05-01T15:31:03Z</time>
					</trkpt>
					</trkseg>
				</trk>
			</gpx>