<?xml version="1.0" encoding="UTF-8"?>
<gpx xmlns="http://www.topografix.com/GPX/1/1" xmlns:xsi="http://www.w3.org/2001/XMLSchema-instance" version="1.1" creator="phpGPX/1.3.0" xsi:schemaLocation="http://www.topografix.com/GPX/1/1 http://www.topografix.com/GPX/1/1/gpx.xsd">
  <metadata>
    <time>2026-05-14T09:45:34+00:00</time>
  </metadata>
  <trk>
    <name>Source de la Hem</name>
    <trkseg>
      <trkpt lat="50.70087" lon="2.03693">
        <ele>95</ele>
        <time>2026-05-14T09:45:35+00:00</time>
      </trkpt>
      <trkpt lat="50.70124" lon="2.03708">
        <ele>94</ele>
        <time>2026-05-14T09:45:36+00:00</time>
      </trkpt>
      <trkpt lat="50.70155" lon="2.03712">
        <ele>93</ele>
        <time>2026-05-14T09:45:37+00:00</time>
      </trkpt>
      <trkpt lat="50.70192" lon="2.0374">
        <ele>92</ele>
        <time>2026-05-14T09:45:38+00:00</time>
      </trkpt>
      <trkpt lat="50.70176" lon="2.03817">
        <ele>90</ele>
        <time>2026-05-14T09:45:39+00:00</time>
      </trkpt>
      <trkpt lat="50.70164" lon="2.03898">
        <ele>90</ele>
        <time>2026-05-14T09:45:40+00:00</time>
      </trkpt>
      <trkpt lat="50.70154" lon="2.03892">
        <ele>90</ele>
        <time>2026-05-14T09:45:41+00:00</time>
      </trkpt>
      <trkpt lat="50.70131" lon="2.03886">
        <ele>91</ele>
        <time>2026-05-14T09:45:42+00:00</time>
      </trkpt>
      <trkpt lat="50.70124" lon="2.03891">
        <ele>91</ele>
        <time>2026-05-14T09:45:43+00:00</time>
      </trkpt>
      <trkpt lat="50.70114" lon="2.0392">
        <ele>91</ele>
        <time>2026-05-14T09:45:44+00:00</time>
      </trkpt>
      <trkpt lat="50.70098" lon="2.03954">
        <ele>90</ele>
        <time>2026-05-14T09:45:45+00:00</time>
      </trkpt>
      <trkpt lat="50.7008" lon="2.04011">
        <ele>90</ele>
        <time>2026-05-14T09:45:46+00:00</time>
      </trkpt>
      <trkpt lat="50.7006" lon="2.04056">
        <ele>89</ele>
        <time>2026-05-14T09:45:47+00:00</time>
      </trkpt>
      <trkpt lat="50.70046" lon="2.04073">
        <ele>90</ele>
        <time>2026-05-14T09:45:48+00:00</time>
      </trkpt>
      <trkpt lat="50.70028" lon="2.04084">
        <ele>91</ele>
        <time>2026-05-14T09:45:49+00:00</time>
      </trkpt>
      <trkpt lat="50.70009" lon="2.0414">
        <ele>91</ele>
        <time>2026-05-14T09:45:50+00:00</time>
      </trkpt>
      <trkpt lat="50.6999" lon="2.04209">
        <ele>89</ele>
        <time>2026-05-14T09:45:51+00:00</time>
      </trkpt>
      <trkpt lat="50.69957" lon="2.04314">
        <ele>86</ele>
        <time>2026-05-14T09:45:52+00:00</time>
      </trkpt>
      <trkpt lat="50.69926" lon="2.04429">
        <ele>86</ele>
        <time>2026-05-14T09:45:53+00:00</time>
      </trkpt>
      <trkpt lat="50.69911" lon="2.04454">
        <ele>86</ele>
        <time>2026-05-14T09:45:54+00:00</time>
      </trkpt>
      <trkpt lat="50.69898" lon="2.04498">
        <ele>87</ele>
        <time>2026-05-14T09:45:55+00:00</time>
      </trkpt>
      <trkpt lat="50.69886" lon="2.04518">
        <ele>87</ele>
        <time>2026-05-14T09:45:56+00:00</time>
      </trkpt>
      <trkpt lat="50.69873" lon="2.0459">
        <ele>87</ele>
        <time>2026-05-14T09:45:57+00:00</time>
      </trkpt>
      <trkpt lat="50.69849" lon="2.04768">
        <ele>88</ele>
        <time>2026-05-14T09:45:58+00:00</time>
      </trkpt>
      <trkpt lat="50.69844" lon="2.04787">
        <ele>88</ele>
        <time>2026-05-14T09:45:59+00:00</time>
      </trkpt>
      <trkpt lat="50.69832" lon="2.04816">
        <ele>87</ele>
        <time>2026-05-14T09:46:00+00:00</time>
      </trkpt>
      <trkpt lat="50.69823" lon="2.04874">
        <ele>85</ele>
        <time>2026-05-14T09:46:01+00:00</time>
      </trkpt>
      <trkpt lat="50.69831" lon="2.04923">
        <ele>84</ele>
        <time>2026-05-14T09:46:02+00:00</time>
      </trkpt>
      <trkpt lat="50.69834" lon="2.04931">
        <ele>84</ele>
        <time>2026-05-14T09:46:03+00:00</time>
      </trkpt>
      <trkpt lat="50.69841" lon="2.04936">
        <ele>83</ele>
        <time>2026-05-14T09:46:04+00:00</time>
      </trkpt>
      <trkpt lat="50.69849" lon="2.0495">
        <ele>83</ele>
        <time>2026-05-14T09:46:05+00:00</time>
      </trkpt>
      <trkpt lat="50.69861" lon="2.05014">
        <ele>82</ele>
        <time>2026-05-14T09:46:06+00:00</time>
      </trkpt>
      <trkpt lat="50.6987" lon="2.05021">
        <ele>82</ele>
        <time>2026-05-14T09:46:07+00:00</time>
      </trkpt>
      <trkpt lat="50.69877" lon="2.05039">
        <ele>81</ele>
        <time>2026-05-14T09:46:08+00:00</time>
      </trkpt>
      <trkpt lat="50.69897" lon="2.05051">
        <ele>81</ele>
        <time>2026-05-14T09:46:09+00:00</time>
      </trkpt>
      <trkpt lat="50.69901" lon="2.05109">
        <ele>80</ele>
        <time>2026-05-14T09:46:10+00:00</time>
      </trkpt>
      <trkpt lat="50.69885" lon="2.05118">
        <ele>80</ele>
        <time>2026-05-14T09:46:11+00:00</time>
      </trkpt>
      <trkpt lat="50.69823" lon="2.05146">
        <ele>80</ele>
        <time>2026-05-14T09:46:12+00:00</time>
      </trkpt>
      <trkpt lat="50.69818" lon="2.05154">
        <ele>80</ele>
        <time>2026-05-14T09:46:13+00:00</time>
      </trkpt>
      <trkpt lat="50.69798" lon="2.05103">
        <ele>82</ele>
        <time>2026-05-14T09:46:14+00:00</time>
      </trkpt>
      <trkpt lat="50.69774" lon="2.05097">
        <ele>84</ele>
        <time>2026-05-14T09:46:15+00:00</time>
      </trkpt>
      <trkpt lat="50.69708" lon="2.05092">
        <ele>90</ele>
        <time>2026-05-14T09:46:16+00:00</time>
      </trkpt>
      <trkpt lat="50.69682" lon="2.05081">
        <ele>92</ele>
        <time>2026-05-14T09:46:17+00:00</time>
      </trkpt>
      <trkpt lat="50.69636" lon="2.05046">
        <ele>97</ele>
        <time>2026-05-14T09:46:18+00:00</time>
      </trkpt>
      <trkpt lat="50.69619" lon="2.04976">
        <ele>98</ele>
        <time>2026-05-14T09:46:19+00:00</time>
      </trkpt>
      <trkpt lat="50.69595" lon="2.04949">
        <ele>102</ele>
        <time>2026-05-14T09:46:20+00:00</time>
      </trkpt>
      <trkpt lat="50.69549" lon="2.04952">
        <ele>110</ele>
        <time>2026-05-14T09:46:21+00:00</time>
      </trkpt>
      <trkpt lat="50.69519" lon="2.04944">
        <ele>116</ele>
        <time>2026-05-14T09:46:22+00:00</time>
      </trkpt>
      <trkpt lat="50.69437" lon="2.04794">
        <ele>131</ele>
        <time>2026-05-14T09:46:23+00:00</time>
      </trkpt>
      <trkpt lat="50.69361" lon="2.04631">
        <ele>136</ele>
        <time>2026-05-14T09:46:24+00:00</time>
      </trkpt>
      <trkpt lat="50.69323" lon="2.0458">
        <ele>139</ele>
        <time>2026-05-14T09:46:25+00:00</time>
      </trkpt>
      <trkpt lat="50.69267" lon="2.04557">
        <ele>148</ele>
        <time>2026-05-14T09:46:26+00:00</time>
      </trkpt>
      <trkpt lat="50.69213" lon="2.04555">
        <ele>155</ele>
        <time>2026-05-14T09:46:27+00:00</time>
      </trkpt>
      <trkpt lat="50.6918" lon="2.0454">
        <ele>158</ele>
        <time>2026-05-14T09:46:28+00:00</time>
      </trkpt>
      <trkpt lat="50.69137" lon="2.04495">
        <ele>160</ele>
        <time>2026-05-14T09:46:29+00:00</time>
      </trkpt>
      <trkpt lat="50.69086" lon="2.04412">
        <ele>160</ele>
        <time>2026-05-14T09:46:30+00:00</time>
      </trkpt>
      <trkpt lat="50.69014" lon="2.04306">
        <ele>164</ele>
        <time>2026-05-14T09:46:31+00:00</time>
      </trkpt>
      <trkpt lat="50.68998" lon="2.04288">
        <ele>165</ele>
        <time>2026-05-14T09:46:32+00:00</time>
      </trkpt>
      <trkpt lat="50.69007" lon="2.04321">
        <ele>165</ele>
        <time>2026-05-14T09:46:33+00:00</time>
      </trkpt>
      <trkpt lat="50.69031" lon="2.04474">
        <ele>159</ele>
        <time>2026-05-14T09:46:34+00:00</time>
      </trkpt>
      <trkpt lat="50.69043" lon="2.04596">
        <ele>159</ele>
        <time>2026-05-14T09:46:35+00:00</time>
      </trkpt>
      <trkpt lat="50.69055" lon="2.04672">
        <ele>160</ele>
        <time>2026-05-14T09:46:36+00:00</time>
      </trkpt>
      <trkpt lat="50.69064" lon="2.04778">
        <ele>160</ele>
        <time>2026-05-14T09:46:37+00:00</time>
      </trkpt>
      <trkpt lat="50.69085" lon="2.04895">
        <ele>159</ele>
        <time>2026-05-14T09:46:38+00:00</time>
      </trkpt>
      <trkpt lat="50.69096" lon="2.04937">
        <ele>157</ele>
        <time>2026-05-14T09:46:39+00:00</time>
      </trkpt>
      <trkpt lat="50.69093" lon="2.04993">
        <ele>157</ele>
        <time>2026-05-14T09:46:40+00:00</time>
      </trkpt>
      <trkpt lat="50.69076" lon="2.05064">
        <ele>157</ele>
        <time>2026-05-14T09:46:41+00:00</time>
      </trkpt>
      <trkpt lat="50.6905" lon="2.05288">
        <ele>153</ele>
        <time>2026-05-14T09:46:42+00:00</time>
      </trkpt>
      <trkpt lat="50.69018" lon="2.05432">
        <ele>150</ele>
        <time>2026-05-14T09:46:43+00:00</time>
      </trkpt>
      <trkpt lat="50.68967" lon="2.05728">
        <ele>141</ele>
        <time>2026-05-14T09:46:44+00:00</time>
      </trkpt>
      <trkpt lat="50.68901" lon="2.06017">
        <ele>122</ele>
        <time>2026-05-14T09:46:45+00:00</time>
      </trkpt>
      <trkpt lat="50.6888" lon="2.06067">
        <ele>119</ele>
        <time>2026-05-14T09:46:46+00:00</time>
      </trkpt>
      <trkpt lat="50.68836" lon="2.06155">
        <ele>112</ele>
        <time>2026-05-14T09:46:47+00:00</time>
      </trkpt>
      <trkpt lat="50.68664" lon="2.06479">
        <ele>89</ele>
        <time>2026-05-14T09:46:48+00:00</time>
      </trkpt>
      <trkpt lat="50.68627" lon="2.06414">
        <ele>89</ele>
        <time>2026-05-14T09:46:49+00:00</time>
      </trkpt>
      <trkpt lat="50.68606" lon="2.06355">
        <ele>90</ele>
        <time>2026-05-14T09:46:50+00:00</time>
      </trkpt>
      <trkpt lat="50.68571" lon="2.06198">
        <ele>88</ele>
        <time>2026-05-14T09:46:51+00:00</time>
      </trkpt>
      <trkpt lat="50.68544" lon="2.06058">
        <ele>89</ele>
        <time>2026-05-14T09:46:52+00:00</time>
      </trkpt>
      <trkpt lat="50.68513" lon="2.05914">
        <ele>92</ele>
        <time>2026-05-14T09:46:53+00:00</time>
      </trkpt>
      <trkpt lat="50.6849" lon="2.05828">
        <ele>94</ele>
        <time>2026-05-14T09:46:54+00:00</time>
      </trkpt>
      <trkpt lat="50.68458" lon="2.05747">
        <ele>95</ele>
        <time>2026-05-14T09:46:55+00:00</time>
      </trkpt>
      <trkpt lat="50.68355" lon="2.05541">
        <ele>93</ele>
        <time>2026-05-14T09:46:56+00:00</time>
      </trkpt>
      <trkpt lat="50.68198" lon="2.05256">
        <ele>97</ele>
        <time>2026-05-14T09:46:57+00:00</time>
      </trkpt>
      <trkpt lat="50.68072" lon="2.0504">
        <ele>105</ele>
        <time>2026-05-14T09:46:58+00:00</time>
      </trkpt>
      <trkpt lat="50.67966" lon="2.04742">
        <ele>111</ele>
        <time>2026-05-14T09:46:59+00:00</time>
      </trkpt>
      <trkpt lat="50.67911" lon="2.04427">
        <ele>120</ele>
        <time>2026-05-14T09:47:00+00:00</time>
      </trkpt>
      <trkpt lat="50.67889" lon="2.0416">
        <ele>114</ele>
        <time>2026-05-14T09:47:01+00:00</time>
      </trkpt>
      <trkpt lat="50.67859" lon="2.03842">
        <ele>114</ele>
        <time>2026-05-14T09:47:02+00:00</time>
      </trkpt>
      <trkpt lat="50.67859" lon="2.0383">
        <ele>114</ele>
        <time>2026-05-14T09:47:03+00:00</time>
      </trkpt>
      <trkpt lat="50.6788" lon="2.038">
        <ele>118</ele>
        <time>2026-05-14T09:47:04+00:00</time>
      </trkpt>
      <trkpt lat="50.67882" lon="2.03791">
        <ele>119</ele>
        <time>2026-05-14T09:47:05+00:00</time>
      </trkpt>
      <trkpt lat="50.67873" lon="2.03718">
        <ele>120</ele>
        <time>2026-05-14T09:47:06+00:00</time>
      </trkpt>
      <trkpt lat="50.67861" lon="2.03653">
        <ele>123</ele>
        <time>2026-05-14T09:47:07+00:00</time>
      </trkpt>
      <trkpt lat="50.67847" lon="2.03596">
        <ele>128</ele>
        <time>2026-05-14T09:47:08+00:00</time>
      </trkpt>
      <trkpt lat="50.6785" lon="2.03575">
        <ele>130</ele>
        <time>2026-05-14T09:47:09+00:00</time>
      </trkpt>
      <trkpt lat="50.67849" lon="2.03429">
        <ele>137</ele>
        <time>2026-05-14T09:47:10+00:00</time>
      </trkpt>
      <trkpt lat="50.67872" lon="2.03281">
        <ele>139</ele>
        <time>2026-05-14T09:47:11+00:00</time>
      </trkpt>
      <trkpt lat="50.67917" lon="2.03092">
        <ele>135</ele>
        <time>2026-05-14T09:47:12+00:00</time>
      </trkpt>
      <trkpt lat="50.6796" lon="2.02933">
        <ele>139</ele>
        <time>2026-05-14T09:47:13+00:00</time>
      </trkpt>
      <trkpt lat="50.68027" lon="2.0267">
        <ele>146</ele>
        <time>2026-05-14T09:47:14+00:00</time>
      </trkpt>
      <trkpt lat="50.68045" lon="2.02564">
        <ele>145</ele>
        <time>2026-05-14T09:47:15+00:00</time>
      </trkpt>
      <trkpt lat="50.68061" lon="2.02414">
        <ele>149</ele>
        <time>2026-05-14T09:47:16+00:00</time>
      </trkpt>
      <trkpt lat="50.68058" lon="2.02164">
        <ele>149</ele>
        <time>2026-05-14T09:47:17+00:00</time>
      </trkpt>
      <trkpt lat="50.68052" lon="2.0195">
        <ele>149</ele>
        <time>2026-05-14T09:47:18+00:00</time>
      </trkpt>
      <trkpt lat="50.68053" lon="2.01838">
        <ele>151</ele>
        <time>2026-05-14T09:47:19+00:00</time>
      </trkpt>
      <trkpt lat="50.68064" lon="2.01698">
        <ele>148</ele>
        <time>2026-05-14T09:47:20+00:00</time>
      </trkpt>
      <trkpt lat="50.68084" lon="2.01583">
        <ele>151</ele>
        <time>2026-05-14T09:47:21+00:00</time>
      </trkpt>
      <trkpt lat="50.68093" lon="2.0158">
        <ele>154</ele>
        <time>2026-05-14T09:47:22+00:00</time>
      </trkpt>
      <trkpt lat="50.68142" lon="2.01478">
        <ele>165</ele>
        <time>2026-05-14T09:47:23+00:00</time>
      </trkpt>
      <trkpt lat="50.68174" lon="2.01437">
        <ele>173</ele>
        <time>2026-05-14T09:47:24+00:00</time>
      </trkpt>
      <trkpt lat="50.68183" lon="2.01428">
        <ele>173</ele>
        <time>2026-05-14T09:47:25+00:00</time>
      </trkpt>
      <trkpt lat="50.68201" lon="2.01416">
        <ele>174</ele>
        <time>2026-05-14T09:47:26+00:00</time>
      </trkpt>
      <trkpt lat="50.682" lon="2.01438">
        <ele>174</ele>
        <time>2026-05-14T09:47:27+00:00</time>
      </trkpt>
      <trkpt lat="50.68205" lon="2.01467">
        <ele>174</ele>
        <time>2026-05-14T09:47:28+00:00</time>
      </trkpt>
      <trkpt lat="50.68209" lon="2.01515">
        <ele>175</ele>
        <time>2026-05-14T09:47:29+00:00</time>
      </trkpt>
      <trkpt lat="50.68313" lon="2.01496">
        <ele>172</ele>
        <time>2026-05-14T09:47:30+00:00</time>
      </trkpt>
      <trkpt lat="50.6836" lon="2.01497">
        <ele>168</ele>
        <time>2026-05-14T09:47:31+00:00</time>
      </trkpt>
      <trkpt lat="50.68393" lon="2.01504">
        <ele>166</ele>
        <time>2026-05-14T09:47:32+00:00</time>
      </trkpt>
      <trkpt lat="50.68447" lon="2.01509">
        <ele>163</ele>
        <time>2026-05-14T09:47:33+00:00</time>
      </trkpt>
      <trkpt lat="50.68484" lon="2.01509">
        <ele>160</ele>
        <time>2026-05-14T09:47:34+00:00</time>
      </trkpt>
      <trkpt lat="50.68507" lon="2.01517">
        <ele>158</ele>
        <time>2026-05-14T09:47:35+00:00</time>
      </trkpt>
      <trkpt lat="50.68524" lon="2.01541">
        <ele>157</ele>
        <time>2026-05-14T09:47:36+00:00</time>
      </trkpt>
      <trkpt lat="50.68567" lon="2.01615">
        <ele>153</ele>
        <time>2026-05-14T09:47:37+00:00</time>
      </trkpt>
      <trkpt lat="50.68579" lon="2.01628">
        <ele>152</ele>
        <time>2026-05-14T09:47:38+00:00</time>
      </trkpt>
      <trkpt lat="50.6859" lon="2.01622">
        <ele>151</ele>
        <time>2026-05-14T09:47:39+00:00</time>
      </trkpt>
      <trkpt lat="50.68605" lon="2.01603">
        <ele>149</ele>
        <time>2026-05-14T09:47:40+00:00</time>
      </trkpt>
      <trkpt lat="50.68615" lon="2.01581">
        <ele>147</ele>
        <time>2026-05-14T09:47:41+00:00</time>
      </trkpt>
      <trkpt lat="50.68617" lon="2.01569">
        <ele>147</ele>
        <time>2026-05-14T09:47:42+00:00</time>
      </trkpt>
      <trkpt lat="50.68627" lon="2.01551">
        <ele>144</ele>
        <time>2026-05-14T09:47:43+00:00</time>
      </trkpt>
      <trkpt lat="50.68637" lon="2.01513">
        <ele>141</ele>
        <time>2026-05-14T09:47:44+00:00</time>
      </trkpt>
      <trkpt lat="50.68635" lon="2.0147">
        <ele>140</ele>
        <time>2026-05-14T09:47:45+00:00</time>
      </trkpt>
      <trkpt lat="50.68643" lon="2.01432">
        <ele>138</ele>
        <time>2026-05-14T09:47:46+00:00</time>
      </trkpt>
      <trkpt lat="50.68682" lon="2.01404">
        <ele>133</ele>
        <time>2026-05-14T09:47:47+00:00</time>
      </trkpt>
      <trkpt lat="50.68698" lon="2.01341">
        <ele>135</ele>
        <time>2026-05-14T09:47:48+00:00</time>
      </trkpt>
      <trkpt lat="50.6872" lon="2.01278">
        <ele>134</ele>
        <time>2026-05-14T09:47:49+00:00</time>
      </trkpt>
      <trkpt lat="50.68732" lon="2.01263">
        <ele>134</ele>
        <time>2026-05-14T09:47:50+00:00</time>
      </trkpt>
      <trkpt lat="50.68741" lon="2.01257">
        <ele>133</ele>
        <time>2026-05-14T09:47:51+00:00</time>
      </trkpt>
      <trkpt lat="50.68748" lon="2.01257">
        <ele>132</ele>
        <time>2026-05-14T09:47:52+00:00</time>
      </trkpt>
      <trkpt lat="50.68779" lon="2.01304">
        <ele>129</ele>
        <time>2026-05-14T09:47:53+00:00</time>
      </trkpt>
      <trkpt lat="50.68784" lon="2.01308">
        <ele>128</ele>
        <time>2026-05-14T09:47:54+00:00</time>
      </trkpt>
      <trkpt lat="50.68803" lon="2.01279">
        <ele>127</ele>
        <time>2026-05-14T09:47:55+00:00</time>
      </trkpt>
      <trkpt lat="50.68819" lon="2.01247">
        <ele>127</ele>
        <time>2026-05-14T09:47:56+00:00</time>
      </trkpt>
      <trkpt lat="50.68828" lon="2.01193">
        <ele>129</ele>
        <time>2026-05-14T09:47:57+00:00</time>
      </trkpt>
      <trkpt lat="50.6883" lon="2.01119">
        <ele>132</ele>
        <time>2026-05-14T09:47:58+00:00</time>
      </trkpt>
      <trkpt lat="50.68834" lon="2.01067">
        <ele>135</ele>
        <time>2026-05-14T09:47:59+00:00</time>
      </trkpt>
      <trkpt lat="50.68836" lon="2.00965">
        <ele>139</ele>
        <time>2026-05-14T09:48:00+00:00</time>
      </trkpt>
      <trkpt lat="50.68846" lon="2.00891">
        <ele>141</ele>
        <time>2026-05-14T09:48:01+00:00</time>
      </trkpt>
      <trkpt lat="50.68853" lon="2.00887">
        <ele>140</ele>
        <time>2026-05-14T09:48:02+00:00</time>
      </trkpt>
      <trkpt lat="50.68874" lon="2.00866">
        <ele>139</ele>
        <time>2026-05-14T09:48:03+00:00</time>
      </trkpt>
      <trkpt lat="50.68895" lon="2.00801">
        <ele>138</ele>
        <time>2026-05-14T09:48:04+00:00</time>
      </trkpt>
      <trkpt lat="50.68907" lon="2.0074">
        <ele>138</ele>
        <time>2026-05-14T09:48:05+00:00</time>
      </trkpt>
      <trkpt lat="50.68923" lon="2.00746">
        <ele>137</ele>
        <time>2026-05-14T09:48:06+00:00</time>
      </trkpt>
      <trkpt lat="50.68963" lon="2.00788">
        <ele>135</ele>
        <time>2026-05-14T09:48:07+00:00</time>
      </trkpt>
      <trkpt lat="50.68975" lon="2.00785">
        <ele>135</ele>
        <time>2026-05-14T09:48:08+00:00</time>
      </trkpt>
      <trkpt lat="50.68981" lon="2.00777">
        <ele>135</ele>
        <time>2026-05-14T09:48:09+00:00</time>
      </trkpt>
      <trkpt lat="50.69043" lon="2.00633">
        <ele>140</ele>
        <time>2026-05-14T09:48:10+00:00</time>
      </trkpt>
      <trkpt lat="50.69135" lon="2.00438">
        <ele>144</ele>
        <time>2026-05-14T09:48:11+00:00</time>
      </trkpt>
      <trkpt lat="50.69201" lon="2.00306">
        <ele>147</ele>
        <time>2026-05-14T09:48:12+00:00</time>
      </trkpt>
      <trkpt lat="50.69239" lon="2.00186">
        <ele>148</ele>
        <time>2026-05-14T09:48:13+00:00</time>
      </trkpt>
      <trkpt lat="50.69251" lon="2.00129">
        <ele>149</ele>
        <time>2026-05-14T09:48:14+00:00</time>
      </trkpt>
      <trkpt lat="50.69268" lon="1.99996">
        <ele>153</ele>
        <time>2026-05-14T09:48:15+00:00</time>
      </trkpt>
      <trkpt lat="50.69259" lon="1.9995">
        <ele>152</ele>
        <time>2026-05-14T09:48:16+00:00</time>
      </trkpt>
      <trkpt lat="50.6924" lon="1.99877">
        <ele>155</ele>
        <time>2026-05-14T09:48:17+00:00</time>
      </trkpt>
      <trkpt lat="50.69198" lon="1.99759">
        <ele>163</ele>
        <time>2026-05-14T09:48:18+00:00</time>
      </trkpt>
      <trkpt lat="50.69163" lon="1.99675">
        <ele>170</ele>
        <time>2026-05-14T09:48:19+00:00</time>
      </trkpt>
      <trkpt lat="50.69151" lon="1.99632">
        <ele>172</ele>
        <time>2026-05-14T09:48:20+00:00</time>
      </trkpt>
      <trkpt lat="50.6915" lon="1.99577">
        <ele>173</ele>
        <time>2026-05-14T09:48:21+00:00</time>
      </trkpt>
      <trkpt lat="50.69155" lon="1.99437">
        <ele>180</ele>
        <time>2026-05-14T09:48:22+00:00</time>
      </trkpt>
      <trkpt lat="50.69155" lon="1.99374">
        <ele>183</ele>
        <time>2026-05-14T09:48:23+00:00</time>
      </trkpt>
      <trkpt lat="50.69149" lon="1.99237">
        <ele>188</ele>
        <time>2026-05-14T09:48:24+00:00</time>
      </trkpt>
      <trkpt lat="50.69136" lon="1.99121">
        <ele>192</ele>
        <time>2026-05-14T09:48:25+00:00</time>
      </trkpt>
      <trkpt lat="50.69113" lon="1.9896">
        <ele>188</ele>
        <time>2026-05-14T09:48:26+00:00</time>
      </trkpt>
      <trkpt lat="50.69102" lon="1.98908">
        <ele>187</ele>
        <time>2026-05-14T09:48:27+00:00</time>
      </trkpt>
      <trkpt lat="50.69093" lon="1.98847">
        <ele>188</ele>
        <time>2026-05-14T09:48:28+00:00</time>
      </trkpt>
      <trkpt lat="50.69081" lon="1.98705">
        <ele>193</ele>
        <time>2026-05-14T09:48:29+00:00</time>
      </trkpt>
      <trkpt lat="50.69077" lon="1.98681">
        <ele>193</ele>
        <time>2026-05-14T09:48:30+00:00</time>
      </trkpt>
      <trkpt lat="50.69093" lon="1.98485">
        <ele>197</ele>
        <time>2026-05-14T09:48:31+00:00</time>
      </trkpt>
      <trkpt lat="50.69094" lon="1.98409">
        <ele>196</ele>
        <time>2026-05-14T09:48:32+00:00</time>
      </trkpt>
      <trkpt lat="50.69098" lon="1.98339">
        <ele>198</ele>
        <time>2026-05-14T09:48:33+00:00</time>
      </trkpt>
      <trkpt lat="50.69133" lon="1.98267">
        <ele>201</ele>
        <time>2026-05-14T09:48:34+00:00</time>
      </trkpt>
      <trkpt lat="50.6909" lon="1.98223">
        <ele>199</ele>
        <time>2026-05-14T09:48:35+00:00</time>
      </trkpt>
      <trkpt lat="50.68989" lon="1.98153">
        <ele>200</ele>
        <time>2026-05-14T09:48:36+00:00</time>
      </trkpt>
      <trkpt lat="50.68956" lon="1.9814">
        <ele>200</ele>
        <time>2026-05-14T09:48:37+00:00</time>
      </trkpt>
      <trkpt lat="50.68911" lon="1.98087">
        <ele>201</ele>
        <time>2026-05-14T09:48:38+00:00</time>
      </trkpt>
      <trkpt lat="50.6886" lon="1.98003">
        <ele>201</ele>
        <time>2026-05-14T09:48:39+00:00</time>
      </trkpt>
      <trkpt lat="50.68759" lon="1.97759">
        <ele>201</ele>
        <time>2026-05-14T09:48:40+00:00</time>
      </trkpt>
      <trkpt lat="50.68749" lon="1.97749">
        <ele>201</ele>
        <time>2026-05-14T09:48:41+00:00</time>
      </trkpt>
      <trkpt lat="50.6876" lon="1.97711">
        <ele>200</ele>
        <time>2026-05-14T09:48:42+00:00</time>
      </trkpt>
      <trkpt lat="50.68772" lon="1.97653">
        <ele>199</ele>
        <time>2026-05-14T09:48:43+00:00</time>
      </trkpt>
      <trkpt lat="50.68838" lon="1.97444">
        <ele>191</ele>
        <time>2026-05-14T09:48:44+00:00</time>
      </trkpt>
      <trkpt lat="50.68857" lon="1.97363">
        <ele>188</ele>
        <time>2026-05-14T09:48:45+00:00</time>
      </trkpt>
      <trkpt lat="50.68864" lon="1.97323">
        <ele>187</ele>
        <time>2026-05-14T09:48:46+00:00</time>
      </trkpt>
      <trkpt lat="50.6887" lon="1.97271">
        <ele>186</ele>
        <time>2026-05-14T09:48:47+00:00</time>
      </trkpt>
      <trkpt lat="50.68871" lon="1.9723">
        <ele>187</ele>
        <time>2026-05-14T09:48:48+00:00</time>
      </trkpt>
      <trkpt lat="50.68898" lon="1.97277">
        <ele>185</ele>
        <time>2026-05-14T09:48:49+00:00</time>
      </trkpt>
      <trkpt lat="50.68927" lon="1.97316">
        <ele>183</ele>
        <time>2026-05-14T09:48:50+00:00</time>
      </trkpt>
      <trkpt lat="50.68979" lon="1.97361">
        <ele>181</ele>
        <time>2026-05-14T09:48:51+00:00</time>
      </trkpt>
      <trkpt lat="50.69062" lon="1.97424">
        <ele>177</ele>
        <time>2026-05-14T09:48:52+00:00</time>
      </trkpt>
      <trkpt lat="50.6913" lon="1.97446">
        <ele>176</ele>
        <time>2026-05-14T09:48:53+00:00</time>
      </trkpt>
      <trkpt lat="50.69132" lon="1.9736">
        <ele>180</ele>
        <time>2026-05-14T09:48:54+00:00</time>
      </trkpt>
      <trkpt lat="50.69145" lon="1.97253">
        <ele>191</ele>
        <time>2026-05-14T09:48:55+00:00</time>
      </trkpt>
      <trkpt lat="50.6914" lon="1.97171">
        <ele>197</ele>
        <time>2026-05-14T09:48:56+00:00</time>
      </trkpt>
      <trkpt lat="50.69145" lon="1.97136">
        <ele>200</ele>
        <time>2026-05-14T09:48:57+00:00</time>
      </trkpt>
      <trkpt lat="50.69178" lon="1.97019">
        <ele>204</ele>
        <time>2026-05-14T09:48:58+00:00</time>
      </trkpt>
      <trkpt lat="50.69196" lon="1.96925">
        <ele>199</ele>
        <time>2026-05-14T09:48:59+00:00</time>
      </trkpt>
      <trkpt lat="50.69222" lon="1.96874">
        <ele>196</ele>
        <time>2026-05-14T09:49:00+00:00</time>
      </trkpt>
      <trkpt lat="50.69266" lon="1.96829">
        <ele>192</ele>
        <time>2026-05-14T09:49:01+00:00</time>
      </trkpt>
      <trkpt lat="50.693" lon="1.96808">
        <ele>189</ele>
        <time>2026-05-14T09:49:02+00:00</time>
      </trkpt>
      <trkpt lat="50.69372" lon="1.96808">
        <ele>185</ele>
        <time>2026-05-14T09:49:03+00:00</time>
      </trkpt>
      <trkpt lat="50.69399" lon="1.96739">
        <ele>184</ele>
        <time>2026-05-14T09:49:04+00:00</time>
      </trkpt>
      <trkpt lat="50.69441" lon="1.96701">
        <ele>187</ele>
        <time>2026-05-14T09:49:05+00:00</time>
      </trkpt>
      <trkpt lat="50.69462" lon="1.96659">
        <ele>190</ele>
        <time>2026-05-14T09:49:06+00:00</time>
      </trkpt>
      <trkpt lat="50.69457" lon="1.96631">
        <ele>191</ele>
        <time>2026-05-14T09:49:07+00:00</time>
      </trkpt>
      <trkpt lat="50.69475" lon="1.96648">
        <ele>191</ele>
        <time>2026-05-14T09:49:08+00:00</time>
      </trkpt>
      <trkpt lat="50.69605" lon="1.96637">
        <ele>195</ele>
        <time>2026-05-14T09:49:09+00:00</time>
      </trkpt>
      <trkpt lat="50.69759" lon="1.96697">
        <ele>191</ele>
        <time>2026-05-14T09:49:10+00:00</time>
      </trkpt>
      <trkpt lat="50.69864" lon="1.9664">
        <ele>181</ele>
        <time>2026-05-14T09:49:11+00:00</time>
      </trkpt>
      <trkpt lat="50.69863" lon="1.96573">
        <ele>181</ele>
        <time>2026-05-14T09:49:12+00:00</time>
      </trkpt>
      <trkpt lat="50.69882" lon="1.96439">
        <ele>181</ele>
        <time>2026-05-14T09:49:13+00:00</time>
      </trkpt>
      <trkpt lat="50.69895" lon="1.96384">
        <ele>182</ele>
        <time>2026-05-14T09:49:14+00:00</time>
      </trkpt>
      <trkpt lat="50.69894" lon="1.96265">
        <ele>186</ele>
        <time>2026-05-14T09:49:15+00:00</time>
      </trkpt>
      <trkpt lat="50.69882" lon="1.96165">
        <ele>189</ele>
        <time>2026-05-14T09:49:16+00:00</time>
      </trkpt>
      <trkpt lat="50.69884" lon="1.96027">
        <ele>191</ele>
        <time>2026-05-14T09:49:17+00:00</time>
      </trkpt>
      <trkpt lat="50.69891" lon="1.96021">
        <ele>191</ele>
        <time>2026-05-14T09:49:18+00:00</time>
      </trkpt>
      <trkpt lat="50.69987" lon="1.95841">
        <ele>199</ele>
        <time>2026-05-14T09:49:19+00:00</time>
      </trkpt>
      <trkpt lat="50.7003" lon="1.9579">
        <ele>201</ele>
        <time>2026-05-14T09:49:20+00:00</time>
      </trkpt>
      <trkpt lat="50.70074" lon="1.95749">
        <ele>203</ele>
        <time>2026-05-14T09:49:21+00:00</time>
      </trkpt>
      <trkpt lat="50.70079" lon="1.95748">
        <ele>204</ele>
        <time>2026-05-14T09:49:22+00:00</time>
      </trkpt>
      <trkpt lat="50.70154" lon="1.95604">
        <ele>205</ele>
        <time>2026-05-14T09:49:23+00:00</time>
      </trkpt>
      <trkpt lat="50.7013" lon="1.95565">
        <ele>204</ele>
        <time>2026-05-14T09:49:24+00:00</time>
      </trkpt>
      <trkpt lat="50.70189" lon="1.95493">
        <ele>205</ele>
        <time>2026-05-14T09:49:25+00:00</time>
      </trkpt>
      <trkpt lat="50.70221" lon="1.95439">
        <ele>205</ele>
        <time>2026-05-14T09:49:26+00:00</time>
      </trkpt>
      <trkpt lat="50.70291" lon="1.95355">
        <ele>206</ele>
        <time>2026-05-14T09:49:27+00:00</time>
      </trkpt>
      <trkpt lat="50.70354" lon="1.95306">
        <ele>205</ele>
        <time>2026-05-14T09:49:28+00:00</time>
      </trkpt>
      <trkpt lat="50.70414" lon="1.95317">
        <ele>204</ele>
        <time>2026-05-14T09:49:29+00:00</time>
      </trkpt>
      <trkpt lat="50.7045" lon="1.95315">
        <ele>203</ele>
        <time>2026-05-14T09:49:30+00:00</time>
      </trkpt>
      <trkpt lat="50.70507" lon="1.95282">
        <ele>201</ele>
        <time>2026-05-14T09:49:31+00:00</time>
      </trkpt>
      <trkpt lat="50.70472" lon="1.95213">
        <ele>200</ele>
        <time>2026-05-14T09:49:32+00:00</time>
      </trkpt>
      <trkpt lat="50.70468" lon="1.9518">
        <ele>200</ele>
        <time>2026-05-14T09:49:33+00:00</time>
      </trkpt>
      <trkpt lat="50.70543" lon="1.94975">
        <ele>180</ele>
        <time>2026-05-14T09:49:34+00:00</time>
      </trkpt>
      <trkpt lat="50.70589" lon="1.94808">
        <ele>162</ele>
        <time>2026-05-14T09:49:35+00:00</time>
      </trkpt>
      <trkpt lat="50.70645" lon="1.94671">
        <ele>158</ele>
        <time>2026-05-14T09:49:36+00:00</time>
      </trkpt>
      <trkpt lat="50.70647" lon="1.94623">
        <ele>155</ele>
        <time>2026-05-14T09:49:37+00:00</time>
      </trkpt>
      <trkpt lat="50.70638" lon="1.94584">
        <ele>151</ele>
        <time>2026-05-14T09:49:38+00:00</time>
      </trkpt>
      <trkpt lat="50.70621" lon="1.94542">
        <ele>146</ele>
        <time>2026-05-14T09:49:39+00:00</time>
      </trkpt>
      <trkpt lat="50.70597" lon="1.94454">
        <ele>140</ele>
        <time>2026-05-14T09:49:40+00:00</time>
      </trkpt>
      <trkpt lat="50.70523" lon="1.94166">
        <ele>125</ele>
        <time>2026-05-14T09:49:41+00:00</time>
      </trkpt>
      <trkpt lat="50.70488" lon="1.94093">
        <ele>123</ele>
        <time>2026-05-14T09:49:42+00:00</time>
      </trkpt>
      <trkpt lat="50.70428" lon="1.93985">
        <ele>115</ele>
        <time>2026-05-14T09:49:43+00:00</time>
      </trkpt>
      <trkpt lat="50.70397" lon="1.93854">
        <ele>108</ele>
        <time>2026-05-14T09:49:44+00:00</time>
      </trkpt>
      <trkpt lat="50.70392" lon="1.93786">
        <ele>106</ele>
        <time>2026-05-14T09:49:45+00:00</time>
      </trkpt>
      <trkpt lat="50.70393" lon="1.93754">
        <ele>105</ele>
        <time>2026-05-14T09:49:46+00:00</time>
      </trkpt>
      <trkpt lat="50.70381" lon="1.93672">
        <ele>102</ele>
        <time>2026-05-14T09:49:47+00:00</time>
      </trkpt>
      <trkpt lat="50.70362" lon="1.93617">
        <ele>101</ele>
        <time>2026-05-14T09:49:48+00:00</time>
      </trkpt>
      <trkpt lat="50.70329" lon="1.93585">
        <ele>100</ele>
        <time>2026-05-14T09:49:49+00:00</time>
      </trkpt>
      <trkpt lat="50.70287" lon="1.93578">
        <ele>99</ele>
        <time>2026-05-14T09:49:50+00:00</time>
      </trkpt>
      <trkpt lat="50.70297" lon="1.93539">
        <ele>99</ele>
        <time>2026-05-14T09:49:51+00:00</time>
      </trkpt>
      <trkpt lat="50.70328" lon="1.93502">
        <ele>99</ele>
        <time>2026-05-14T09:49:52+00:00</time>
      </trkpt>
      <trkpt lat="50.70362" lon="1.93425">
        <ele>100</ele>
        <time>2026-05-14T09:49:53+00:00</time>
      </trkpt>
      <trkpt lat="50.70376" lon="1.9335">
        <ele>99</ele>
        <time>2026-05-14T09:49:54+00:00</time>
      </trkpt>
      <trkpt lat="50.70423" lon="1.93273">
        <ele>100</ele>
        <time>2026-05-14T09:49:55+00:00</time>
      </trkpt>
      <trkpt lat="50.70468" lon="1.93166">
        <ele>101</ele>
        <time>2026-05-14T09:49:56+00:00</time>
      </trkpt>
      <trkpt lat="50.70497" lon="1.93196">
        <ele>103</ele>
        <time>2026-05-14T09:49:57+00:00</time>
      </trkpt>
      <trkpt lat="50.70523" lon="1.93211">
        <ele>104</ele>
        <time>2026-05-14T09:49:58+00:00</time>
      </trkpt>
      <trkpt lat="50.70554" lon="1.93224">
        <ele>105</ele>
        <time>2026-05-14T09:49:59+00:00</time>
      </trkpt>
      <trkpt lat="50.70608" lon="1.93264">
        <ele>107</ele>
        <time>2026-05-14T09:50:00+00:00</time>
      </trkpt>
      <trkpt lat="50.70666" lon="1.93311">
        <ele>110</ele>
        <time>2026-05-14T09:50:01+00:00</time>
      </trkpt>
      <trkpt lat="50.70713" lon="1.93369">
        <ele>114</ele>
        <time>2026-05-14T09:50:02+00:00</time>
      </trkpt>
      <trkpt lat="50.70751" lon="1.93399">
        <ele>117</ele>
        <time>2026-05-14T09:50:03+00:00</time>
      </trkpt>
      <trkpt lat="50.70833" lon="1.93443">
        <ele>120</ele>
        <time>2026-05-14T09:50:04+00:00</time>
      </trkpt>
      <trkpt lat="50.70916" lon="1.9348">
        <ele>125</ele>
        <time>2026-05-14T09:50:05+00:00</time>
      </trkpt>
      <trkpt lat="50.70982" lon="1.93476">
        <ele>133</ele>
        <time>2026-05-14T09:50:06+00:00</time>
      </trkpt>
      <trkpt lat="50.71056" lon="1.93439">
        <ele>141</ele>
        <time>2026-05-14T09:50:07+00:00</time>
      </trkpt>
      <trkpt lat="50.71085" lon="1.93421">
        <ele>144</ele>
        <time>2026-05-14T09:50:08+00:00</time>
      </trkpt>
      <trkpt lat="50.71108" lon="1.934">
        <ele>147</ele>
        <time>2026-05-14T09:50:09+00:00</time>
      </trkpt>
      <trkpt lat="50.71139" lon="1.9336">
        <ele>148</ele>
        <time>2026-05-14T09:50:10+00:00</time>
      </trkpt>
      <trkpt lat="50.71157" lon="1.9335">
        <ele>149</ele>
        <time>2026-05-14T09:50:11+00:00</time>
      </trkpt>
      <trkpt lat="50.71176" lon="1.93355">
        <ele>151</ele>
        <time>2026-05-14T09:50:12+00:00</time>
      </trkpt>
      <trkpt lat="50.7122" lon="1.93405">
        <ele>161</ele>
        <time>2026-05-14T09:50:13+00:00</time>
      </trkpt>
      <trkpt lat="50.71237" lon="1.93408">
        <ele>164</ele>
        <time>2026-05-14T09:50:14+00:00</time>
      </trkpt>
      <trkpt lat="50.71286" lon="1.93386">
        <ele>172</ele>
        <time>2026-05-14T09:50:15+00:00</time>
      </trkpt>
      <trkpt lat="50.71329" lon="1.93346">
        <ele>181</ele>
        <time>2026-05-14T09:50:16+00:00</time>
      </trkpt>
      <trkpt lat="50.71322" lon="1.93333">
        <ele>179</ele>
        <time>2026-05-14T09:50:17+00:00</time>
      </trkpt>
      <trkpt lat="50.71323" lon="1.93304">
        <ele>176</ele>
        <time>2026-05-14T09:50:18+00:00</time>
      </trkpt>
      <trkpt lat="50.71333" lon="1.93255">
        <ele>172</ele>
        <time>2026-05-14T09:50:19+00:00</time>
      </trkpt>
      <trkpt lat="50.71409" lon="1.93089">
        <ele>170</ele>
        <time>2026-05-14T09:50:20+00:00</time>
      </trkpt>
      <trkpt lat="50.71435" lon="1.93027">
        <ele>166</ele>
        <time>2026-05-14T09:50:21+00:00</time>
      </trkpt>
      <trkpt lat="50.71478" lon="1.92985">
        <ele>166</ele>
        <time>2026-05-14T09:50:22+00:00</time>
      </trkpt>
      <trkpt lat="50.71511" lon="1.92969">
        <ele>167</ele>
        <time>2026-05-14T09:50:23+00:00</time>
      </trkpt>
      <trkpt lat="50.71581" lon="1.92804">
        <ele>159</ele>
        <time>2026-05-14T09:50:24+00:00</time>
      </trkpt>
      <trkpt lat="50.71634" lon="1.92724">
        <ele>156</ele>
        <time>2026-05-14T09:50:25+00:00</time>
      </trkpt>
      <trkpt lat="50.71652" lon="1.92645">
        <ele>155</ele>
        <time>2026-05-14T09:50:26+00:00</time>
      </trkpt>
      <trkpt lat="50.71697" lon="1.92552">
        <ele>154</ele>
        <time>2026-05-14T09:50:27+00:00</time>
      </trkpt>
      <trkpt lat="50.71721" lon="1.9251">
        <ele>154</ele>
        <time>2026-05-14T09:50:28+00:00</time>
      </trkpt>
      <trkpt lat="50.71771" lon="1.92473">
        <ele>155</ele>
        <time>2026-05-14T09:50:29+00:00</time>
      </trkpt>
      <trkpt lat="50.71802" lon="1.92428">
        <ele>155</ele>
        <time>2026-05-14T09:50:30+00:00</time>
      </trkpt>
      <trkpt lat="50.71828" lon="1.92365">
        <ele>152</ele>
        <time>2026-05-14T09:50:31+00:00</time>
      </trkpt>
      <trkpt lat="50.71865" lon="1.92195">
        <ele>146</ele>
        <time>2026-05-14T09:50:32+00:00</time>
      </trkpt>
      <trkpt lat="50.71878" lon="1.92098">
        <ele>142</ele>
        <time>2026-05-14T09:50:33+00:00</time>
      </trkpt>
      <trkpt lat="50.71894" lon="1.91974">
        <ele>139</ele>
        <time>2026-05-14T09:50:34+00:00</time>
      </trkpt>
      <trkpt lat="50.71899" lon="1.91908">
        <ele>139</ele>
        <time>2026-05-14T09:50:35+00:00</time>
      </trkpt>
      <trkpt lat="50.71897" lon="1.91822">
        <ele>137</ele>
        <time>2026-05-14T09:50:36+00:00</time>
      </trkpt>
      <trkpt lat="50.71901" lon="1.91778">
        <ele>136</ele>
        <time>2026-05-14T09:50:37+00:00</time>
      </trkpt>
      <trkpt lat="50.71915" lon="1.91714">
        <ele>135</ele>
        <time>2026-05-14T09:50:38+00:00</time>
      </trkpt>
      <trkpt lat="50.71931" lon="1.91685">
        <ele>134</ele>
        <time>2026-05-14T09:50:39+00:00</time>
      </trkpt>
      <trkpt lat="50.71991" lon="1.91611">
        <ele>139</ele>
        <time>2026-05-14T09:50:40+00:00</time>
      </trkpt>
      <trkpt lat="50.72135" lon="1.91391">
        <ele>154</ele>
        <time>2026-05-14T09:50:41+00:00</time>
      </trkpt>
      <trkpt lat="50.72236" lon="1.91307">
        <ele>138</ele>
        <time>2026-05-14T09:50:42+00:00</time>
      </trkpt>
      <trkpt lat="50.72228" lon="1.91286">
        <ele>140</ele>
        <time>2026-05-14T09:50:43+00:00</time>
      </trkpt>
      <trkpt lat="50.72323" lon="1.91162">
        <ele>145</ele>
        <time>2026-05-14T09:50:44+00:00</time>
      </trkpt>
      <trkpt lat="50.72336" lon="1.9115">
        <ele>146</ele>
        <time>2026-05-14T09:50:45+00:00</time>
      </trkpt>
      <trkpt lat="50.72341" lon="1.91137">
        <ele>148</ele>
        <time>2026-05-14T09:50:46+00:00</time>
      </trkpt>
      <trkpt lat="50.72342" lon="1.91126">
        <ele>148</ele>
        <time>2026-05-14T09:50:47+00:00</time>
      </trkpt>
      <trkpt lat="50.72349" lon="1.91121">
        <ele>149</ele>
        <time>2026-05-14T09:50:48+00:00</time>
      </trkpt>
      <trkpt lat="50.72353" lon="1.91101">
        <ele>150</ele>
        <time>2026-05-14T09:50:49+00:00</time>
      </trkpt>
      <trkpt lat="50.72367" lon="1.91068">
        <ele>152</ele>
        <time>2026-05-14T09:50:50+00:00</time>
      </trkpt>
      <trkpt lat="50.72413" lon="1.90996">
        <ele>153</ele>
        <time>2026-05-14T09:50:51+00:00</time>
      </trkpt>
      <trkpt lat="50.72471" lon="1.90914">
        <ele>147</ele>
        <time>2026-05-14T09:50:52+00:00</time>
      </trkpt>
      <trkpt lat="50.72511" lon="1.90863">
        <ele>141</ele>
        <time>2026-05-14T09:50:53+00:00</time>
      </trkpt>
      <trkpt lat="50.72549" lon="1.90821">
        <ele>138</ele>
        <time>2026-05-14T09:50:54+00:00</time>
      </trkpt>
      <trkpt lat="50.72595" lon="1.90765">
        <ele>135</ele>
        <time>2026-05-14T09:50:55+00:00</time>
      </trkpt>
      <trkpt lat="50.72702" lon="1.90669">
        <ele>130</ele>
        <time>2026-05-14T09:50:56+00:00</time>
      </trkpt>
      <trkpt lat="50.72715" lon="1.90669">
        <ele>130</ele>
        <time>2026-05-14T09:50:57+00:00</time>
      </trkpt>
      <trkpt lat="50.72796" lon="1.90698">
        <ele>131</ele>
        <time>2026-05-14T09:50:58+00:00</time>
      </trkpt>
      <trkpt lat="50.72814" lon="1.90721">
        <ele>131</ele>
        <time>2026-05-14T09:50:59+00:00</time>
      </trkpt>
      <trkpt lat="50.72836" lon="1.90742">
        <ele>131</ele>
        <time>2026-05-14T09:51:00+00:00</time>
      </trkpt>
      <trkpt lat="50.72865" lon="1.9075">
        <ele>131</ele>
        <time>2026-05-14T09:51:01+00:00</time>
      </trkpt>
      <trkpt lat="50.72847" lon="1.90772">
        <ele>131</ele>
        <time>2026-05-14T09:51:02+00:00</time>
      </trkpt>
      <trkpt lat="50.72832" lon="1.90804">
        <ele>130</ele>
        <time>2026-05-14T09:51:03+00:00</time>
      </trkpt>
      <trkpt lat="50.72787" lon="1.90977">
        <ele>128</ele>
        <time>2026-05-14T09:51:04+00:00</time>
      </trkpt>
      <trkpt lat="50.72758" lon="1.91139">
        <ele>127</ele>
        <time>2026-05-14T09:51:05+00:00</time>
      </trkpt>
      <trkpt lat="50.72752" lon="1.91223">
        <ele>126</ele>
        <time>2026-05-14T09:51:06+00:00</time>
      </trkpt>
      <trkpt lat="50.72736" lon="1.91333">
        <ele>125</ele>
        <time>2026-05-14T09:51:07+00:00</time>
      </trkpt>
      <trkpt lat="50.72734" lon="1.91371">
        <ele>127</ele>
        <time>2026-05-14T09:51:08+00:00</time>
      </trkpt>
      <trkpt lat="50.72736" lon="1.91497">
        <ele>128</ele>
        <time>2026-05-14T09:51:09+00:00</time>
      </trkpt>
      <trkpt lat="50.72746" lon="1.91609">
        <ele>129</ele>
        <time>2026-05-14T09:51:10+00:00</time>
      </trkpt>
      <trkpt lat="50.72748" lon="1.91691">
        <ele>130</ele>
        <time>2026-05-14T09:51:11+00:00</time>
      </trkpt>
      <trkpt lat="50.72747" lon="1.91725">
        <ele>130</ele>
        <time>2026-05-14T09:51:12+00:00</time>
      </trkpt>
      <trkpt lat="50.72738" lon="1.91753">
        <ele>130</ele>
        <time>2026-05-14T09:51:13+00:00</time>
      </trkpt>
      <trkpt lat="50.72734" lon="1.91802">
        <ele>127</ele>
        <time>2026-05-14T09:51:14+00:00</time>
      </trkpt>
      <trkpt lat="50.72735" lon="1.91868">
        <ele>124</ele>
        <time>2026-05-14T09:51:15+00:00</time>
      </trkpt>
      <trkpt lat="50.72741" lon="1.91931">
        <ele>121</ele>
        <time>2026-05-14T09:51:16+00:00</time>
      </trkpt>
      <trkpt lat="50.72741" lon="1.92026">
        <ele>119</ele>
        <time>2026-05-14T09:51:17+00:00</time>
      </trkpt>
      <trkpt lat="50.72723" lon="1.92162">
        <ele>120</ele>
        <time>2026-05-14T09:51:18+00:00</time>
      </trkpt>
      <trkpt lat="50.72712" lon="1.92218">
        <ele>119</ele>
        <time>2026-05-14T09:51:19+00:00</time>
      </trkpt>
      <trkpt lat="50.72701" lon="1.92257">
        <ele>118</ele>
        <time>2026-05-14T09:51:20+00:00</time>
      </trkpt>
      <trkpt lat="50.72696" lon="1.92263">
        <ele>118</ele>
        <time>2026-05-14T09:51:21+00:00</time>
      </trkpt>
      <trkpt lat="50.72707" lon="1.92272">
        <ele>118</ele>
        <time>2026-05-14T09:51:22+00:00</time>
      </trkpt>
      <trkpt lat="50.72747" lon="1.92328">
        <ele>116</ele>
        <time>2026-05-14T09:51:23+00:00</time>
      </trkpt>
      <trkpt lat="50.72786" lon="1.92434">
        <ele>114</ele>
        <time>2026-05-14T09:51:24+00:00</time>
      </trkpt>
      <trkpt lat="50.72783" lon="1.92462">
        <ele>114</ele>
        <time>2026-05-14T09:51:25+00:00</time>
      </trkpt>
      <trkpt lat="50.72766" lon="1.9252">
        <ele>113</ele>
        <time>2026-05-14T09:51:26+00:00</time>
      </trkpt>
      <trkpt lat="50.72778" lon="1.92526">
        <ele>113</ele>
        <time>2026-05-14T09:51:27+00:00</time>
      </trkpt>
      <trkpt lat="50.72765" lon="1.92564">
        <ele>113</ele>
        <time>2026-05-14T09:51:28+00:00</time>
      </trkpt>
      <trkpt lat="50.72719" lon="1.92655">
        <ele>113</ele>
        <time>2026-05-14T09:51:29+00:00</time>
      </trkpt>
      <trkpt lat="50.72683" lon="1.92744">
        <ele>116</ele>
        <time>2026-05-14T09:51:30+00:00</time>
      </trkpt>
      <trkpt lat="50.72626" lon="1.92833">
        <ele>121</ele>
        <time>2026-05-14T09:51:31+00:00</time>
      </trkpt>
      <trkpt lat="50.72666" lon="1.9295">
        <ele>126</ele>
        <time>2026-05-14T09:51:32+00:00</time>
      </trkpt>
      <trkpt lat="50.72682" lon="1.92977">
        <ele>127</ele>
        <time>2026-05-14T09:51:33+00:00</time>
      </trkpt>
      <trkpt lat="50.7267" lon="1.93001">
        <ele>130</ele>
        <time>2026-05-14T09:51:34+00:00</time>
      </trkpt>
      <trkpt lat="50.7267" lon="1.93006">
        <ele>130</ele>
        <time>2026-05-14T09:51:35+00:00</time>
      </trkpt>
      <trkpt lat="50.72687" lon="1.93022">
        <ele>130</ele>
        <time>2026-05-14T09:51:36+00:00</time>
      </trkpt>
      <trkpt lat="50.72713" lon="1.93075">
        <ele>133</ele>
        <time>2026-05-14T09:51:37+00:00</time>
      </trkpt>
      <trkpt lat="50.72734" lon="1.93101">
        <ele>134</ele>
        <time>2026-05-14T09:51:38+00:00</time>
      </trkpt>
      <trkpt lat="50.72745" lon="1.93106">
        <ele>134</ele>
        <time>2026-05-14T09:51:39+00:00</time>
      </trkpt>
      <trkpt lat="50.72755" lon="1.93104">
        <ele>133</ele>
        <time>2026-05-14T09:51:40+00:00</time>
      </trkpt>
      <trkpt lat="50.72748" lon="1.93114">
        <ele>134</ele>
        <time>2026-05-14T09:51:41+00:00</time>
      </trkpt>
      <trkpt lat="50.72694" lon="1.9315">
        <ele>140</ele>
        <time>2026-05-14T09:51:42+00:00</time>
      </trkpt>
      <trkpt lat="50.72679" lon="1.93165">
        <ele>142</ele>
        <time>2026-05-14T09:51:43+00:00</time>
      </trkpt>
      <trkpt lat="50.72645" lon="1.93187">
        <ele>145</ele>
        <time>2026-05-14T09:51:44+00:00</time>
      </trkpt>
      <trkpt lat="50.72579" lon="1.93236">
        <ele>151</ele>
        <time>2026-05-14T09:51:45+00:00</time>
      </trkpt>
      <trkpt lat="50.72517" lon="1.93267">
        <ele>157</ele>
        <time>2026-05-14T09:51:46+00:00</time>
      </trkpt>
      <trkpt lat="50.72504" lon="1.93247">
        <ele>156</ele>
        <time>2026-05-14T09:51:47+00:00</time>
      </trkpt>
      <trkpt lat="50.72479" lon="1.93264">
        <ele>156</ele>
        <time>2026-05-14T09:51:48+00:00</time>
      </trkpt>
      <trkpt lat="50.72447" lon="1.93293">
        <ele>157</ele>
        <time>2026-05-14T09:51:49+00:00</time>
      </trkpt>
      <trkpt lat="50.72418" lon="1.93323">
        <ele>157</ele>
        <time>2026-05-14T09:51:50+00:00</time>
      </trkpt>
      <trkpt lat="50.72399" lon="1.93353">
        <ele>156</ele>
        <time>2026-05-14T09:51:51+00:00</time>
      </trkpt>
      <trkpt lat="50.7234" lon="1.93473">
        <ele>159</ele>
        <time>2026-05-14T09:51:52+00:00</time>
      </trkpt>
      <trkpt lat="50.72323" lon="1.935">
        <ele>158</ele>
        <time>2026-05-14T09:51:53+00:00</time>
      </trkpt>
      <trkpt lat="50.72319" lon="1.93591">
        <ele>163</ele>
        <time>2026-05-14T09:51:54+00:00</time>
      </trkpt>
      <trkpt lat="50.7232" lon="1.93607">
        <ele>164</ele>
        <time>2026-05-14T09:51:55+00:00</time>
      </trkpt>
      <trkpt lat="50.72323" lon="1.93613">
        <ele>165</ele>
        <time>2026-05-14T09:51:56+00:00</time>
      </trkpt>
      <trkpt lat="50.72326" lon="1.93612">
        <ele>166</ele>
        <time>2026-05-14T09:51:57+00:00</time>
      </trkpt>
      <trkpt lat="50.72328" lon="1.93603">
        <ele>166</ele>
        <time>2026-05-14T09:51:58+00:00</time>
      </trkpt>
      <trkpt lat="50.72345" lon="1.9359">
        <ele>168</ele>
        <time>2026-05-14T09:51:59+00:00</time>
      </trkpt>
      <trkpt lat="50.72354" lon="1.93589">
        <ele>170</ele>
        <time>2026-05-14T09:52:00+00:00</time>
      </trkpt>
      <trkpt lat="50.72386" lon="1.93595">
        <ele>177</ele>
        <time>2026-05-14T09:52:01+00:00</time>
      </trkpt>
      <trkpt lat="50.72417" lon="1.93585">
        <ele>183</ele>
        <time>2026-05-14T09:52:02+00:00</time>
      </trkpt>
      <trkpt lat="50.72423" lon="1.93638">
        <ele>182</ele>
        <time>2026-05-14T09:52:03+00:00</time>
      </trkpt>
      <trkpt lat="50.72414" lon="1.93685">
        <ele>183</ele>
        <time>2026-05-14T09:52:04+00:00</time>
      </trkpt>
      <trkpt lat="50.72345" lon="1.93803">
        <ele>178</ele>
        <time>2026-05-14T09:52:05+00:00</time>
      </trkpt>
      <trkpt lat="50.72338" lon="1.9382">
        <ele>178</ele>
        <time>2026-05-14T09:52:06+00:00</time>
      </trkpt>
      <trkpt lat="50.72329" lon="1.93882">
        <ele>181</ele>
        <time>2026-05-14T09:52:07+00:00</time>
      </trkpt>
      <trkpt lat="50.72314" lon="1.93901">
        <ele>181</ele>
        <time>2026-05-14T09:52:08+00:00</time>
      </trkpt>
      <trkpt lat="50.72222" lon="1.94225">
        <ele>203</ele>
        <time>2026-05-14T09:52:09+00:00</time>
      </trkpt>
      <trkpt lat="50.72184" lon="1.94385">
        <ele>210</ele>
        <time>2026-05-14T09:52:10+00:00</time>
      </trkpt>
      <trkpt lat="50.72152" lon="1.94461">
        <ele>208</ele>
        <time>2026-05-14T09:52:11+00:00</time>
      </trkpt>
      <trkpt lat="50.72135" lon="1.9454">
        <ele>207</ele>
        <time>2026-05-14T09:52:12+00:00</time>
      </trkpt>
      <trkpt lat="50.72092" lon="1.9499">
        <ele>211</ele>
        <time>2026-05-14T09:52:13+00:00</time>
      </trkpt>
      <trkpt lat="50.7208" lon="1.95065">
        <ele>212</ele>
        <time>2026-05-14T09:52:14+00:00</time>
      </trkpt>
      <trkpt lat="50.72081" lon="1.95127">
        <ele>212</ele>
        <time>2026-05-14T09:52:15+00:00</time>
      </trkpt>
      <trkpt lat="50.72068" lon="1.95174">
        <ele>211</ele>
        <time>2026-05-14T09:52:16+00:00</time>
      </trkpt>
      <trkpt lat="50.72058" lon="1.95275">
        <ele>209</ele>
        <time>2026-05-14T09:52:17+00:00</time>
      </trkpt>
      <trkpt lat="50.722" lon="1.95298">
        <ele>210</ele>
        <time>2026-05-14T09:52:18+00:00</time>
      </trkpt>
      <trkpt lat="50.72192" lon="1.95422">
        <ele>211</ele>
        <time>2026-05-14T09:52:19+00:00</time>
      </trkpt>
      <trkpt lat="50.72178" lon="1.95552">
        <ele>214</ele>
        <time>2026-05-14T09:52:20+00:00</time>
      </trkpt>
      <trkpt lat="50.72179" lon="1.95646">
        <ele>215</ele>
        <time>2026-05-14T09:52:21+00:00</time>
      </trkpt>
      <trkpt lat="50.72092" lon="1.96118">
        <ele>214</ele>
        <time>2026-05-14T09:52:22+00:00</time>
      </trkpt>
      <trkpt lat="50.72026" lon="1.96265">
        <ele>213</ele>
        <time>2026-05-14T09:52:23+00:00</time>
      </trkpt>
      <trkpt lat="50.72028" lon="1.96503">
        <ele>211</ele>
        <time>2026-05-14T09:52:24+00:00</time>
      </trkpt>
      <trkpt lat="50.71997" lon="1.96562">
        <ele>210</ele>
        <time>2026-05-14T09:52:25+00:00</time>
      </trkpt>
      <trkpt lat="50.71964" lon="1.96655">
        <ele>208</ele>
        <time>2026-05-14T09:52:26+00:00</time>
      </trkpt>
      <trkpt lat="50.71988" lon="1.96683">
        <ele>208</ele>
        <time>2026-05-14T09:52:27+00:00</time>
      </trkpt>
      <trkpt lat="50.72002" lon="1.96722">
        <ele>207</ele>
        <time>2026-05-14T09:52:28+00:00</time>
      </trkpt>
      <trkpt lat="50.72" lon="1.96754">
        <ele>207</ele>
        <time>2026-05-14T09:52:29+00:00</time>
      </trkpt>
      <trkpt lat="50.72002" lon="1.96786">
        <ele>207</ele>
        <time>2026-05-14T09:52:30+00:00</time>
      </trkpt>
      <trkpt lat="50.71994" lon="1.96855">
        <ele>207</ele>
        <time>2026-05-14T09:52:31+00:00</time>
      </trkpt>
      <trkpt lat="50.71995" lon="1.96903">
        <ele>209</ele>
        <time>2026-05-14T09:52:32+00:00</time>
      </trkpt>
      <trkpt lat="50.72022" lon="1.96918">
        <ele>210</ele>
        <time>2026-05-14T09:52:33+00:00</time>
      </trkpt>
      <trkpt lat="50.72071" lon="1.9702">
        <ele>211</ele>
        <time>2026-05-14T09:52:34+00:00</time>
      </trkpt>
      <trkpt lat="50.72088" lon="1.97078">
        <ele>212</ele>
        <time>2026-05-14T09:52:35+00:00</time>
      </trkpt>
      <trkpt lat="50.72102" lon="1.97115">
        <ele>211</ele>
        <time>2026-05-14T09:52:36+00:00</time>
      </trkpt>
      <trkpt lat="50.72151" lon="1.9723">
        <ele>209</ele>
        <time>2026-05-14T09:52:37+00:00</time>
      </trkpt>
      <trkpt lat="50.7224" lon="1.97366">
        <ele>203</ele>
        <time>2026-05-14T09:52:38+00:00</time>
      </trkpt>
      <trkpt lat="50.72298" lon="1.97424">
        <ele>203</ele>
        <time>2026-05-14T09:52:39+00:00</time>
      </trkpt>
      <trkpt lat="50.72325" lon="1.97437">
        <ele>204</ele>
        <time>2026-05-14T09:52:40+00:00</time>
      </trkpt>
      <trkpt lat="50.72374" lon="1.97446">
        <ele>206</ele>
        <time>2026-05-14T09:52:41+00:00</time>
      </trkpt>
      <trkpt lat="50.72399" lon="1.97444">
        <ele>208</ele>
        <time>2026-05-14T09:52:42+00:00</time>
      </trkpt>
      <trkpt lat="50.72442" lon="1.97483">
        <ele>208</ele>
        <time>2026-05-14T09:52:43+00:00</time>
      </trkpt>
      <trkpt lat="50.7258" lon="1.9762">
        <ele>208</ele>
        <time>2026-05-14T09:52:44+00:00</time>
      </trkpt>
      <trkpt lat="50.72615" lon="1.97646">
        <ele>208</ele>
        <time>2026-05-14T09:52:45+00:00</time>
      </trkpt>
      <trkpt lat="50.72663" lon="1.97662">
        <ele>205</ele>
        <time>2026-05-14T09:52:46+00:00</time>
      </trkpt>
      <trkpt lat="50.72701" lon="1.97709">
        <ele>203</ele>
        <time>2026-05-14T09:52:47+00:00</time>
      </trkpt>
      <trkpt lat="50.72838" lon="1.97836">
        <ele>199</ele>
        <time>2026-05-14T09:52:48+00:00</time>
      </trkpt>
      <trkpt lat="50.72901" lon="1.979">
        <ele>193</ele>
        <time>2026-05-14T09:52:49+00:00</time>
      </trkpt>
      <trkpt lat="50.73007" lon="1.97969">
        <ele>180</ele>
        <time>2026-05-14T09:52:50+00:00</time>
      </trkpt>
      <trkpt lat="50.73037" lon="1.98013">
        <ele>173</ele>
        <time>2026-05-14T09:52:51+00:00</time>
      </trkpt>
      <trkpt lat="50.73152" lon="1.98042">
        <ele>150</ele>
        <time>2026-05-14T09:52:52+00:00</time>
      </trkpt>
      <trkpt lat="50.73172" lon="1.98058">
        <ele>148</ele>
        <time>2026-05-14T09:52:53+00:00</time>
      </trkpt>
      <trkpt lat="50.73189" lon="1.98105">
        <ele>146</ele>
        <time>2026-05-14T09:52:54+00:00</time>
      </trkpt>
      <trkpt lat="50.73237" lon="1.98175">
        <ele>143</ele>
        <time>2026-05-14T09:52:55+00:00</time>
      </trkpt>
      <trkpt lat="50.7333" lon="1.98262">
        <ele>141</ele>
        <time>2026-05-14T09:52:56+00:00</time>
      </trkpt>
      <trkpt lat="50.73396" lon="1.98354">
        <ele>141</ele>
        <time>2026-05-14T09:52:57+00:00</time>
      </trkpt>
      <trkpt lat="50.73473" lon="1.98419">
        <ele>139</ele>
        <time>2026-05-14T09:52:58+00:00</time>
      </trkpt>
      <trkpt lat="50.73518" lon="1.98464">
        <ele>137</ele>
        <time>2026-05-14T09:52:59+00:00</time>
      </trkpt>
      <trkpt lat="50.73573" lon="1.98541">
        <ele>134</ele>
        <time>2026-05-14T09:53:00+00:00</time>
      </trkpt>
      <trkpt lat="50.73583" lon="1.98569">
        <ele>134</ele>
        <time>2026-05-14T09:53:01+00:00</time>
      </trkpt>
      <trkpt lat="50.73582" lon="1.98603">
        <ele>133</ele>
        <time>2026-05-14T09:53:02+00:00</time>
      </trkpt>
      <trkpt lat="50.73574" lon="1.98635">
        <ele>132</ele>
        <time>2026-05-14T09:53:03+00:00</time>
      </trkpt>
      <trkpt lat="50.73567" lon="1.98701">
        <ele>130</ele>
        <time>2026-05-14T09:53:04+00:00</time>
      </trkpt>
      <trkpt lat="50.7357" lon="1.98819">
        <ele>126</ele>
        <time>2026-05-14T09:53:05+00:00</time>
      </trkpt>
      <trkpt lat="50.73462" lon="1.98709">
        <ele>130</ele>
        <time>2026-05-14T09:53:06+00:00</time>
      </trkpt>
      <trkpt lat="50.73327" lon="1.99092">
        <ele>116</ele>
        <time>2026-05-14T09:53:07+00:00</time>
      </trkpt>
      <trkpt lat="50.73315" lon="1.99163">
        <ele>116</ele>
        <time>2026-05-14T09:53:08+00:00</time>
      </trkpt>
      <trkpt lat="50.73312" lon="1.99229">
        <ele>118</ele>
        <time>2026-05-14T09:53:09+00:00</time>
      </trkpt>
      <trkpt lat="50.73303" lon="1.99284">
        <ele>120</ele>
        <time>2026-05-14T09:53:10+00:00</time>
      </trkpt>
      <trkpt lat="50.73283" lon="1.99358">
        <ele>123</ele>
        <time>2026-05-14T09:53:11+00:00</time>
      </trkpt>
      <trkpt lat="50.73274" lon="1.99373">
        <ele>124</ele>
        <time>2026-05-14T09:53:12+00:00</time>
      </trkpt>
      <trkpt lat="50.73214" lon="1.99317">
        <ele>133</ele>
        <time>2026-05-14T09:53:13+00:00</time>
      </trkpt>
      <trkpt lat="50.73201" lon="1.99317">
        <ele>135</ele>
        <time>2026-05-14T09:53:14+00:00</time>
      </trkpt>
      <trkpt lat="50.73168" lon="1.99327">
        <ele>141</ele>
        <time>2026-05-14T09:53:15+00:00</time>
      </trkpt>
      <trkpt lat="50.73132" lon="1.99351">
        <ele>144</ele>
        <time>2026-05-14T09:53:16+00:00</time>
      </trkpt>
      <trkpt lat="50.73119" lon="1.9935">
        <ele>146</ele>
        <time>2026-05-14T09:53:17+00:00</time>
      </trkpt>
      <trkpt lat="50.731" lon="1.99314">
        <ele>149</ele>
        <time>2026-05-14T09:53:18+00:00</time>
      </trkpt>
      <trkpt lat="50.72765" lon="1.99128">
        <ele>189</ele>
        <time>2026-05-14T09:53:19+00:00</time>
      </trkpt>
      <trkpt lat="50.72715" lon="1.99076">
        <ele>192</ele>
        <time>2026-05-14T09:53:20+00:00</time>
      </trkpt>
      <trkpt lat="50.72656" lon="1.99062">
        <ele>192</ele>
        <time>2026-05-14T09:53:21+00:00</time>
      </trkpt>
      <trkpt lat="50.7262" lon="1.99046">
        <ele>193</ele>
        <time>2026-05-14T09:53:22+00:00</time>
      </trkpt>
      <trkpt lat="50.72605" lon="1.99069">
        <ele>193</ele>
        <time>2026-05-14T09:53:23+00:00</time>
      </trkpt>
      <trkpt lat="50.72583" lon="1.99139">
        <ele>194</ele>
        <time>2026-05-14T09:53:24+00:00</time>
      </trkpt>
      <trkpt lat="50.7254" lon="1.99228">
        <ele>197</ele>
        <time>2026-05-14T09:53:25+00:00</time>
      </trkpt>
      <trkpt lat="50.72464" lon="1.99346">
        <ele>199</ele>
        <time>2026-05-14T09:53:26+00:00</time>
      </trkpt>
      <trkpt lat="50.72395" lon="1.99474">
        <ele>198</ele>
        <time>2026-05-14T09:53:27+00:00</time>
      </trkpt>
      <trkpt lat="50.7239" lon="1.99489">
        <ele>198</ele>
        <time>2026-05-14T09:53:28+00:00</time>
      </trkpt>
      <trkpt lat="50.72346" lon="1.99577">
        <ele>198</ele>
        <time>2026-05-14T09:53:29+00:00</time>
      </trkpt>
      <trkpt lat="50.72357" lon="1.99592">
        <ele>198</ele>
        <time>2026-05-14T09:53:30+00:00</time>
      </trkpt>
      <trkpt lat="50.72424" lon="1.99665">
        <ele>196</ele>
        <time>2026-05-14T09:53:31+00:00</time>
      </trkpt>
      <trkpt lat="50.72462" lon="1.99684">
        <ele>195</ele>
        <time>2026-05-14T09:53:32+00:00</time>
      </trkpt>
      <trkpt lat="50.72493" lon="1.99727">
        <ele>194</ele>
        <time>2026-05-14T09:53:33+00:00</time>
      </trkpt>
      <trkpt lat="50.72585" lon="1.99866">
        <ele>191</ele>
        <time>2026-05-14T09:53:34+00:00</time>
      </trkpt>
      <trkpt lat="50.72682" lon="2.00038">
        <ele>187</ele>
        <time>2026-05-14T09:53:35+00:00</time>
      </trkpt>
      <trkpt lat="50.72704" lon="2.00049">
        <ele>186</ele>
        <time>2026-05-14T09:53:36+00:00</time>
      </trkpt>
      <trkpt lat="50.72725" lon="2.00071">
        <ele>185</ele>
        <time>2026-05-14T09:53:37+00:00</time>
      </trkpt>
      <trkpt lat="50.72889" lon="2.00365">
        <ele>181</ele>
        <time>2026-05-14T09:53:38+00:00</time>
      </trkpt>
      <trkpt lat="50.72915" lon="2.00447">
        <ele>177</ele>
        <time>2026-05-14T09:53:39+00:00</time>
      </trkpt>
      <trkpt lat="50.72941" lon="2.00564">
        <ele>176</ele>
        <time>2026-05-14T09:53:40+00:00</time>
      </trkpt>
      <trkpt lat="50.72966" lon="2.00716">
        <ele>175</ele>
        <time>2026-05-14T09:53:41+00:00</time>
      </trkpt>
      <trkpt lat="50.72995" lon="2.00834">
        <ele>171</ele>
        <time>2026-05-14T09:53:42+00:00</time>
      </trkpt>
      <trkpt lat="50.73042" lon="2.01008">
        <ele>168</ele>
        <time>2026-05-14T09:53:43+00:00</time>
      </trkpt>
      <trkpt lat="50.73103" lon="2.01341">
        <ele>157</ele>
        <time>2026-05-14T09:53:44+00:00</time>
      </trkpt>
      <trkpt lat="50.73126" lon="2.01443">
        <ele>157</ele>
        <time>2026-05-14T09:53:45+00:00</time>
      </trkpt>
      <trkpt lat="50.73136" lon="2.0146">
        <ele>158</ele>
        <time>2026-05-14T09:53:46+00:00</time>
      </trkpt>
      <trkpt lat="50.73137" lon="2.01476">
        <ele>158</ele>
        <time>2026-05-14T09:53:47+00:00</time>
      </trkpt>
      <trkpt lat="50.73124" lon="2.01496">
        <ele>157</ele>
        <time>2026-05-14T09:53:48+00:00</time>
      </trkpt>
      <trkpt lat="50.73109" lon="2.0151">
        <ele>158</ele>
        <time>2026-05-14T09:53:49+00:00</time>
      </trkpt>
      <trkpt lat="50.73062" lon="2.01518">
        <ele>160</ele>
        <time>2026-05-14T09:53:50+00:00</time>
      </trkpt>
      <trkpt lat="50.73086" lon="2.01541">
        <ele>160</ele>
        <time>2026-05-14T09:53:51+00:00</time>
      </trkpt>
      <trkpt lat="50.731" lon="2.01558">
        <ele>161</ele>
        <time>2026-05-14T09:53:52+00:00</time>
      </trkpt>
      <trkpt lat="50.73112" lon="2.01578">
        <ele>162</ele>
        <time>2026-05-14T09:53:53+00:00</time>
      </trkpt>
      <trkpt lat="50.73158" lon="2.01674">
        <ele>162</ele>
        <time>2026-05-14T09:53:54+00:00</time>
      </trkpt>
      <trkpt lat="50.73188" lon="2.01765">
        <ele>165</ele>
        <time>2026-05-14T09:53:55+00:00</time>
      </trkpt>
      <trkpt lat="50.73216" lon="2.0187">
        <ele>161</ele>
        <time>2026-05-14T09:53:56+00:00</time>
      </trkpt>
      <trkpt lat="50.73229" lon="2.01942">
        <ele>156</ele>
        <time>2026-05-14T09:53:57+00:00</time>
      </trkpt>
      <trkpt lat="50.73228" lon="2.01957">
        <ele>155</ele>
        <time>2026-05-14T09:53:58+00:00</time>
      </trkpt>
      <trkpt lat="50.73219" lon="2.01996">
        <ele>155</ele>
        <time>2026-05-14T09:53:59+00:00</time>
      </trkpt>
      <trkpt lat="50.7322" lon="2.02018">
        <ele>155</ele>
        <time>2026-05-14T09:54:00+00:00</time>
      </trkpt>
      <trkpt lat="50.73242" lon="2.02106">
        <ele>157</ele>
        <time>2026-05-14T09:54:01+00:00</time>
      </trkpt>
      <trkpt lat="50.73276" lon="2.02108">
        <ele>154</ele>
        <time>2026-05-14T09:54:02+00:00</time>
      </trkpt>
      <trkpt lat="50.7329" lon="2.02104">
        <ele>152</ele>
        <time>2026-05-14T09:54:03+00:00</time>
      </trkpt>
      <trkpt lat="50.73301" lon="2.02108">
        <ele>151</ele>
        <time>2026-05-14T09:54:04+00:00</time>
      </trkpt>
      <trkpt lat="50.73308" lon="2.02116">
        <ele>151</ele>
        <time>2026-05-14T09:54:05+00:00</time>
      </trkpt>
      <trkpt lat="50.73363" lon="2.02239">
        <ele>150</ele>
        <time>2026-05-14T09:54:06+00:00</time>
      </trkpt>
      <trkpt lat="50.73411" lon="2.0238">
        <ele>144</ele>
        <time>2026-05-14T09:54:07+00:00</time>
      </trkpt>
      <trkpt lat="50.73439" lon="2.02472">
        <ele>145</ele>
        <time>2026-05-14T09:54:08+00:00</time>
      </trkpt>
      <trkpt lat="50.73493" lon="2.02584">
        <ele>144</ele>
        <time>2026-05-14T09:54:09+00:00</time>
      </trkpt>
      <trkpt lat="50.73522" lon="2.0267">
        <ele>144</ele>
        <time>2026-05-14T09:54:10+00:00</time>
      </trkpt>
      <trkpt lat="50.73542" lon="2.02779">
        <ele>140</ele>
        <time>2026-05-14T09:54:11+00:00</time>
      </trkpt>
      <trkpt lat="50.73563" lon="2.02842">
        <ele>138</ele>
        <time>2026-05-14T09:54:12+00:00</time>
      </trkpt>
      <trkpt lat="50.73572" lon="2.02851">
        <ele>136</ele>
        <time>2026-05-14T09:54:13+00:00</time>
      </trkpt>
      <trkpt lat="50.73578" lon="2.02851">
        <ele>135</ele>
        <time>2026-05-14T09:54:14+00:00</time>
      </trkpt>
      <trkpt lat="50.73628" lon="2.02807">
        <ele>133</ele>
        <time>2026-05-14T09:54:15+00:00</time>
      </trkpt>
      <trkpt lat="50.73643" lon="2.02802">
        <ele>133</ele>
        <time>2026-05-14T09:54:16+00:00</time>
      </trkpt>
      <trkpt lat="50.73619" lon="2.02822">
        <ele>133</ele>
        <time>2026-05-14T09:54:17+00:00</time>
      </trkpt>
      <trkpt lat="50.73607" lon="2.02839">
        <ele>133</ele>
        <time>2026-05-14T09:54:18+00:00</time>
      </trkpt>
      <trkpt lat="50.73573" lon="2.02869">
        <ele>135</ele>
        <time>2026-05-14T09:54:19+00:00</time>
      </trkpt>
      <trkpt lat="50.73555" lon="2.02877">
        <ele>139</ele>
        <time>2026-05-14T09:54:20+00:00</time>
      </trkpt>
      <trkpt lat="50.73535" lon="2.02872">
        <ele>143</ele>
        <time>2026-05-14T09:54:21+00:00</time>
      </trkpt>
      <trkpt lat="50.73527" lon="2.02861">
        <ele>144</ele>
        <time>2026-05-14T09:54:22+00:00</time>
      </trkpt>
      <trkpt lat="50.735" lon="2.02804">
        <ele>148</ele>
        <time>2026-05-14T09:54:23+00:00</time>
      </trkpt>
      <trkpt lat="50.73457" lon="2.02723">
        <ele>151</ele>
        <time>2026-05-14T09:54:24+00:00</time>
      </trkpt>
      <trkpt lat="50.7344" lon="2.02705">
        <ele>153</ele>
        <time>2026-05-14T09:54:25+00:00</time>
      </trkpt>
      <trkpt lat="50.73425" lon="2.02711">
        <ele>155</ele>
        <time>2026-05-14T09:54:26+00:00</time>
      </trkpt>
      <trkpt lat="50.7342" lon="2.02726">
        <ele>156</ele>
        <time>2026-05-14T09:54:27+00:00</time>
      </trkpt>
      <trkpt lat="50.7342" lon="2.02771">
        <ele>159</ele>
        <time>2026-05-14T09:54:28+00:00</time>
      </trkpt>
      <trkpt lat="50.73449" lon="2.03054">
        <ele>164</ele>
        <time>2026-05-14T09:54:29+00:00</time>
      </trkpt>
      <trkpt lat="50.73443" lon="2.03087">
        <ele>166</ele>
        <time>2026-05-14T09:54:30+00:00</time>
      </trkpt>
      <trkpt lat="50.73369" lon="2.03174">
        <ele>174</ele>
        <time>2026-05-14T09:54:31+00:00</time>
      </trkpt>
      <trkpt lat="50.73365" lon="2.03176">
        <ele>175</ele>
        <time>2026-05-14T09:54:32+00:00</time>
      </trkpt>
      <trkpt lat="50.73387" lon="2.03225">
        <ele>174</ele>
        <time>2026-05-14T09:54:33+00:00</time>
      </trkpt>
      <trkpt lat="50.73403" lon="2.03284">
        <ele>174</ele>
        <time>2026-05-14T09:54:34+00:00</time>
      </trkpt>
      <trkpt lat="50.7342" lon="2.03404">
        <ele>173</ele>
        <time>2026-05-14T09:54:35+00:00</time>
      </trkpt>
      <trkpt lat="50.73422" lon="2.03455">
        <ele>172</ele>
        <time>2026-05-14T09:54:36+00:00</time>
      </trkpt>
      <trkpt lat="50.73437" lon="2.03526">
        <ele>170</ele>
        <time>2026-05-14T09:54:37+00:00</time>
      </trkpt>
      <trkpt lat="50.73482" lon="2.03638">
        <ele>163</ele>
        <time>2026-05-14T09:54:38+00:00</time>
      </trkpt>
      <trkpt lat="50.73535" lon="2.03749">
        <ele>156</ele>
        <time>2026-05-14T09:54:39+00:00</time>
      </trkpt>
      <trkpt lat="50.73484" lon="2.03815">
        <ele>161</ele>
        <time>2026-05-14T09:54:40+00:00</time>
      </trkpt>
      <trkpt lat="50.73416" lon="2.03909">
        <ele>166</ele>
        <time>2026-05-14T09:54:41+00:00</time>
      </trkpt>
      <trkpt lat="50.73408" lon="2.03934">
        <ele>166</ele>
        <time>2026-05-14T09:54:42+00:00</time>
      </trkpt>
      <trkpt lat="50.73406" lon="2.03973">
        <ele>166</ele>
        <time>2026-05-14T09:54:43+00:00</time>
      </trkpt>
      <trkpt lat="50.73387" lon="2.03976">
        <ele>166</ele>
        <time>2026-05-14T09:54:44+00:00</time>
      </trkpt>
      <trkpt lat="50.73368" lon="2.03989">
        <ele>167</ele>
        <time>2026-05-14T09:54:45+00:00</time>
      </trkpt>
      <trkpt lat="50.73339" lon="2.03986">
        <ele>168</ele>
        <time>2026-05-14T09:54:46+00:00</time>
      </trkpt>
      <trkpt lat="50.73311" lon="2.03942">
        <ele>167</ele>
        <time>2026-05-14T09:54:47+00:00</time>
      </trkpt>
      <trkpt lat="50.73215" lon="2.03857">
        <ele>163</ele>
        <time>2026-05-14T09:54:48+00:00</time>
      </trkpt>
      <trkpt lat="50.73197" lon="2.0382">
        <ele>163</ele>
        <time>2026-05-14T09:54:49+00:00</time>
      </trkpt>
      <trkpt lat="50.73193" lon="2.03805">
        <ele>164</ele>
        <time>2026-05-14T09:54:50+00:00</time>
      </trkpt>
      <trkpt lat="50.73167" lon="2.03768">
        <ele>165</ele>
        <time>2026-05-14T09:54:51+00:00</time>
      </trkpt>
      <trkpt lat="50.73144" lon="2.03719">
        <ele>163</ele>
        <time>2026-05-14T09:54:52+00:00</time>
      </trkpt>
      <trkpt lat="50.73119" lon="2.03696">
        <ele>160</ele>
        <time>2026-05-14T09:54:53+00:00</time>
      </trkpt>
      <trkpt lat="50.73082" lon="2.03643">
        <ele>158</ele>
        <time>2026-05-14T09:54:54+00:00</time>
      </trkpt>
      <trkpt lat="50.73071" lon="2.0362">
        <ele>157</ele>
        <time>2026-05-14T09:54:55+00:00</time>
      </trkpt>
      <trkpt lat="50.73043" lon="2.03589">
        <ele>153</ele>
        <time>2026-05-14T09:54:56+00:00</time>
      </trkpt>
      <trkpt lat="50.7303" lon="2.03561">
        <ele>151</ele>
        <time>2026-05-14T09:54:57+00:00</time>
      </trkpt>
      <trkpt lat="50.7302" lon="2.0353">
        <ele>151</ele>
        <time>2026-05-14T09:54:58+00:00</time>
      </trkpt>
      <trkpt lat="50.73011" lon="2.03461">
        <ele>151</ele>
        <time>2026-05-14T09:54:59+00:00</time>
      </trkpt>
      <trkpt lat="50.73011" lon="2.03373">
        <ele>153</ele>
        <time>2026-05-14T09:55:00+00:00</time>
      </trkpt>
      <trkpt lat="50.73004" lon="2.03308">
        <ele>154</ele>
        <time>2026-05-14T09:55:01+00:00</time>
      </trkpt>
      <trkpt lat="50.7299" lon="2.03266">
        <ele>156</ele>
        <time>2026-05-14T09:55:02+00:00</time>
      </trkpt>
      <trkpt lat="50.7297" lon="2.03274">
        <ele>155</ele>
        <time>2026-05-14T09:55:03+00:00</time>
      </trkpt>
      <trkpt lat="50.7288" lon="2.03301">
        <ele>154</ele>
        <time>2026-05-14T09:55:04+00:00</time>
      </trkpt>
      <trkpt lat="50.72868" lon="2.033">
        <ele>155</ele>
        <time>2026-05-14T09:55:05+00:00</time>
      </trkpt>
      <trkpt lat="50.72876" lon="2.0333">
        <ele>151</ele>
        <time>2026-05-14T09:55:06+00:00</time>
      </trkpt>
      <trkpt lat="50.72901" lon="2.03387">
        <ele>145</ele>
        <time>2026-05-14T09:55:07+00:00</time>
      </trkpt>
      <trkpt lat="50.72913" lon="2.03427">
        <ele>141</ele>
        <time>2026-05-14T09:55:08+00:00</time>
      </trkpt>
      <trkpt lat="50.72968" lon="2.03714">
        <ele>142</ele>
        <time>2026-05-14T09:55:09+00:00</time>
      </trkpt>
      <trkpt lat="50.72987" lon="2.03781">
        <ele>137</ele>
        <time>2026-05-14T09:55:10+00:00</time>
      </trkpt>
      <trkpt lat="50.73051" lon="2.03964">
        <ele>133</ele>
        <time>2026-05-14T09:55:11+00:00</time>
      </trkpt>
      <trkpt lat="50.73206" lon="2.04425">
        <ele>125</ele>
        <time>2026-05-14T09:55:12+00:00</time>
      </trkpt>
      <trkpt lat="50.73279" lon="2.04658">
        <ele>123</ele>
        <time>2026-05-14T09:55:13+00:00</time>
      </trkpt>
      <trkpt lat="50.73294" lon="2.04738">
        <ele>122</ele>
        <time>2026-05-14T09:55:14+00:00</time>
      </trkpt>
      <trkpt lat="50.73302" lon="2.04812">
        <ele>121</ele>
        <time>2026-05-14T09:55:15+00:00</time>
      </trkpt>
      <trkpt lat="50.73299" lon="2.05013">
        <ele>118</ele>
        <time>2026-05-14T09:55:16+00:00</time>
      </trkpt>
      <trkpt lat="50.73287" lon="2.05145">
        <ele>117</ele>
        <time>2026-05-14T09:55:17+00:00</time>
      </trkpt>
      <trkpt lat="50.73283" lon="2.05176">
        <ele>117</ele>
        <time>2026-05-14T09:55:18+00:00</time>
      </trkpt>
      <trkpt lat="50.7327" lon="2.05221">
        <ele>115</ele>
        <time>2026-05-14T09:55:19+00:00</time>
      </trkpt>
      <trkpt lat="50.73248" lon="2.0526">
        <ele>115</ele>
        <time>2026-05-14T09:55:20+00:00</time>
      </trkpt>
      <trkpt lat="50.73168" lon="2.05119">
        <ele>123</ele>
        <time>2026-05-14T09:55:21+00:00</time>
      </trkpt>
      <trkpt lat="50.73118" lon="2.04996">
        <ele>130</ele>
        <time>2026-05-14T09:55:22+00:00</time>
      </trkpt>
      <trkpt lat="50.73106" lon="2.04984">
        <ele>131</ele>
        <time>2026-05-14T09:55:23+00:00</time>
      </trkpt>
      <trkpt lat="50.72962" lon="2.04988">
        <ele>150</ele>
        <time>2026-05-14T09:55:24+00:00</time>
      </trkpt>
      <trkpt lat="50.7282" lon="2.04995">
        <ele>166</ele>
        <time>2026-05-14T09:55:25+00:00</time>
      </trkpt>
      <trkpt lat="50.72827" lon="2.05034">
        <ele>165</ele>
        <time>2026-05-14T09:55:26+00:00</time>
      </trkpt>
      <trkpt lat="50.72871" lon="2.05176">
        <ele>161</ele>
        <time>2026-05-14T09:55:27+00:00</time>
      </trkpt>
      <trkpt lat="50.72888" lon="2.05216">
        <ele>160</ele>
        <time>2026-05-14T09:55:28+00:00</time>
      </trkpt>
      <trkpt lat="50.72923" lon="2.05253">
        <ele>157</ele>
        <time>2026-05-14T09:55:29+00:00</time>
      </trkpt>
      <trkpt lat="50.72943" lon="2.05282">
        <ele>154</ele>
        <time>2026-05-14T09:55:30+00:00</time>
      </trkpt>
      <trkpt lat="50.72961" lon="2.05358">
        <ele>151</ele>
        <time>2026-05-14T09:55:31+00:00</time>
      </trkpt>
      <trkpt lat="50.72964" lon="2.0543">
        <ele>149</ele>
        <time>2026-05-14T09:55:32+00:00</time>
      </trkpt>
      <trkpt lat="50.72962" lon="2.05487">
        <ele>147</ele>
        <time>2026-05-14T09:55:33+00:00</time>
      </trkpt>
      <trkpt lat="50.72952" lon="2.0554">
        <ele>146</ele>
        <time>2026-05-14T09:55:34+00:00</time>
      </trkpt>
      <trkpt lat="50.72944" lon="2.05712">
        <ele>140</ele>
        <time>2026-05-14T09:55:35+00:00</time>
      </trkpt>
      <trkpt lat="50.72953" lon="2.05817">
        <ele>135</ele>
        <time>2026-05-14T09:55:36+00:00</time>
      </trkpt>
      <trkpt lat="50.72968" lon="2.05895">
        <ele>133</ele>
        <time>2026-05-14T09:55:37+00:00</time>
      </trkpt>
      <trkpt lat="50.72981" lon="2.05938">
        <ele>131</ele>
        <time>2026-05-14T09:55:38+00:00</time>
      </trkpt>
      <trkpt lat="50.72968" lon="2.0596">
        <ele>131</ele>
        <time>2026-05-14T09:55:39+00:00</time>
      </trkpt>
      <trkpt lat="50.72818" lon="2.06012">
        <ele>126</ele>
        <time>2026-05-14T09:55:40+00:00</time>
      </trkpt>
      <trkpt lat="50.72797" lon="2.05997">
        <ele>122</ele>
        <time>2026-05-14T09:55:41+00:00</time>
      </trkpt>
      <trkpt lat="50.72779" lon="2.05964">
        <ele>120</ele>
        <time>2026-05-14T09:55:42+00:00</time>
      </trkpt>
      <trkpt lat="50.7268" lon="2.05804">
        <ele>109</ele>
        <time>2026-05-14T09:55:43+00:00</time>
      </trkpt>
      <trkpt lat="50.72638" lon="2.05785">
        <ele>107</ele>
        <time>2026-05-14T09:55:44+00:00</time>
      </trkpt>
      <trkpt lat="50.72607" lon="2.05789">
        <ele>106</ele>
        <time>2026-05-14T09:55:45+00:00</time>
      </trkpt>
      <trkpt lat="50.72575" lon="2.05808">
        <ele>107</ele>
        <time>2026-05-14T09:55:46+00:00</time>
      </trkpt>
      <trkpt lat="50.72548" lon="2.05834">
        <ele>112</ele>
        <time>2026-05-14T09:55:47+00:00</time>
      </trkpt>
      <trkpt lat="50.72543" lon="2.05759">
        <ele>110</ele>
        <time>2026-05-14T09:55:48+00:00</time>
      </trkpt>
      <trkpt lat="50.72533" lon="2.05668">
        <ele>110</ele>
        <time>2026-05-14T09:55:49+00:00</time>
      </trkpt>
      <trkpt lat="50.72521" lon="2.05598">
        <ele>111</ele>
        <time>2026-05-14T09:55:50+00:00</time>
      </trkpt>
      <trkpt lat="50.72509" lon="2.0548">
        <ele>111</ele>
        <time>2026-05-14T09:55:51+00:00</time>
      </trkpt>
      <trkpt lat="50.72484" lon="2.05334">
        <ele>114</ele>
        <time>2026-05-14T09:55:52+00:00</time>
      </trkpt>
      <trkpt lat="50.72497" lon="2.0526">
        <ele>114</ele>
        <time>2026-05-14T09:55:53+00:00</time>
      </trkpt>
      <trkpt lat="50.72509" lon="2.05236">
        <ele>115</ele>
        <time>2026-05-14T09:55:54+00:00</time>
      </trkpt>
      <trkpt lat="50.72515" lon="2.05194">
        <ele>117</ele>
        <time>2026-05-14T09:55:55+00:00</time>
      </trkpt>
      <trkpt lat="50.72514" lon="2.04967">
        <ele>123</ele>
        <time>2026-05-14T09:55:56+00:00</time>
      </trkpt>
      <trkpt lat="50.7247" lon="2.04768">
        <ele>124</ele>
        <time>2026-05-14T09:55:57+00:00</time>
      </trkpt>
      <trkpt lat="50.72442" lon="2.0459">
        <ele>125</ele>
        <time>2026-05-14T09:55:58+00:00</time>
      </trkpt>
      <trkpt lat="50.72432" lon="2.04442">
        <ele>126</ele>
        <time>2026-05-14T09:55:59+00:00</time>
      </trkpt>
      <trkpt lat="50.72408" lon="2.04254">
        <ele>131</ele>
        <time>2026-05-14T09:56:00+00:00</time>
      </trkpt>
      <trkpt lat="50.72349" lon="2.04267">
        <ele>135</ele>
        <time>2026-05-14T09:56:01+00:00</time>
      </trkpt>
      <trkpt lat="50.72324" lon="2.04265">
        <ele>139</ele>
        <time>2026-05-14T09:56:02+00:00</time>
      </trkpt>
      <trkpt lat="50.72284" lon="2.04174">
        <ele>144</ele>
        <time>2026-05-14T09:56:03+00:00</time>
      </trkpt>
      <trkpt lat="50.72236" lon="2.04119">
        <ele>146</ele>
        <time>2026-05-14T09:56:04+00:00</time>
      </trkpt>
      <trkpt lat="50.7212" lon="2.04032">
        <ele>157</ele>
        <time>2026-05-14T09:56:05+00:00</time>
      </trkpt>
      <trkpt lat="50.72053" lon="2.04001">
        <ele>164</ele>
        <time>2026-05-14T09:56:06+00:00</time>
      </trkpt>
      <trkpt lat="50.71952" lon="2.03917">
        <ele>174</ele>
        <time>2026-05-14T09:56:07+00:00</time>
      </trkpt>
      <trkpt lat="50.71906" lon="2.03865">
        <ele>181</ele>
        <time>2026-05-14T09:56:08+00:00</time>
      </trkpt>
      <trkpt lat="50.71704" lon="2.03596">
        <ele>193</ele>
        <time>2026-05-14T09:56:09+00:00</time>
      </trkpt>
      <trkpt lat="50.71589" lon="2.03284">
        <ele>192</ele>
        <time>2026-05-14T09:56:10+00:00</time>
      </trkpt>
      <trkpt lat="50.71388" lon="2.03207">
        <ele>196</ele>
        <time>2026-05-14T09:56:11+00:00</time>
      </trkpt>
      <trkpt lat="50.71317" lon="2.03101">
        <ele>197</ele>
        <time>2026-05-14T09:56:12+00:00</time>
      </trkpt>
      <trkpt lat="50.71269" lon="2.03022">
        <ele>197</ele>
        <time>2026-05-14T09:56:13+00:00</time>
      </trkpt>
      <trkpt lat="50.7124" lon="2.02987">
        <ele>197</ele>
        <time>2026-05-14T09:56:14+00:00</time>
      </trkpt>
      <trkpt lat="50.71211" lon="2.02968">
        <ele>196</ele>
        <time>2026-05-14T09:56:15+00:00</time>
      </trkpt>
      <trkpt lat="50.71129" lon="2.02959">
        <ele>195</ele>
        <time>2026-05-14T09:56:16+00:00</time>
      </trkpt>
      <trkpt lat="50.71168" lon="2.02673">
        <ele>198</ele>
        <time>2026-05-14T09:56:17+00:00</time>
      </trkpt>
      <trkpt lat="50.71037" lon="2.02527">
        <ele>186</ele>
        <time>2026-05-14T09:56:18+00:00</time>
      </trkpt>
      <trkpt lat="50.7103" lon="2.02522">
        <ele>184</ele>
        <time>2026-05-14T09:56:19+00:00</time>
      </trkpt>
      <trkpt lat="50.71029" lon="2.02543">
        <ele>184</ele>
        <time>2026-05-14T09:56:20+00:00</time>
      </trkpt>
      <trkpt lat="50.71032" lon="2.02568">
        <ele>184</ele>
        <time>2026-05-14T09:56:21+00:00</time>
      </trkpt>
      <trkpt lat="50.71055" lon="2.02651">
        <ele>187</ele>
        <time>2026-05-14T09:56:22+00:00</time>
      </trkpt>
      <trkpt lat="50.71059" lon="2.02688">
        <ele>188</ele>
        <time>2026-05-14T09:56:23+00:00</time>
      </trkpt>
      <trkpt lat="50.71059" lon="2.02752">
        <ele>189</ele>
        <time>2026-05-14T09:56:24+00:00</time>
      </trkpt>
      <trkpt lat="50.71053" lon="2.02824">
        <ele>189</ele>
        <time>2026-05-14T09:56:25+00:00</time>
      </trkpt>
      <trkpt lat="50.71046" lon="2.02874">
        <ele>189</ele>
        <time>2026-05-14T09:56:26+00:00</time>
      </trkpt>
      <trkpt lat="50.71028" lon="2.02975">
        <ele>190</ele>
        <time>2026-05-14T09:56:27+00:00</time>
      </trkpt>
      <trkpt lat="50.71018" lon="2.03006">
        <ele>189</ele>
        <time>2026-05-14T09:56:28+00:00</time>
      </trkpt>
      <trkpt lat="50.70998" lon="2.03013">
        <ele>188</ele>
        <time>2026-05-14T09:56:29+00:00</time>
      </trkpt>
      <trkpt lat="50.70942" lon="2.03022">
        <ele>176</ele>
        <time>2026-05-14T09:56:30+00:00</time>
      </trkpt>
      <trkpt lat="50.70906" lon="2.03037">
        <ele>169</ele>
        <time>2026-05-14T09:56:31+00:00</time>
      </trkpt>
      <trkpt lat="50.70879" lon="2.03059">
        <ele>165</ele>
        <time>2026-05-14T09:56:32+00:00</time>
      </trkpt>
      <trkpt lat="50.7085" lon="2.03089">
        <ele>160</ele>
        <time>2026-05-14T09:56:33+00:00</time>
      </trkpt>
      <trkpt lat="50.70821" lon="2.03124">
        <ele>156</ele>
        <time>2026-05-14T09:56:34+00:00</time>
      </trkpt>
      <trkpt lat="50.70798" lon="2.03134">
        <ele>152</ele>
        <time>2026-05-14T09:56:35+00:00</time>
      </trkpt>
      <trkpt lat="50.70723" lon="2.03115">
        <ele>137</ele>
        <time>2026-05-14T09:56:36+00:00</time>
      </trkpt>
      <trkpt lat="50.70686" lon="2.03114">
        <ele>132</ele>
        <time>2026-05-14T09:56:37+00:00</time>
      </trkpt>
      <trkpt lat="50.70603" lon="2.0313">
        <ele>123</ele>
        <time>2026-05-14T09:56:38+00:00</time>
      </trkpt>
      <trkpt lat="50.70566" lon="2.03156">
        <ele>119</ele>
        <time>2026-05-14T09:56:39+00:00</time>
      </trkpt>
      <trkpt lat="50.70535" lon="2.03166">
        <ele>115</ele>
        <time>2026-05-14T09:56:40+00:00</time>
      </trkpt>
      <trkpt lat="50.70503" lon="2.0317">
        <ele>110</ele>
        <time>2026-05-14T09:56:41+00:00</time>
      </trkpt>
      <trkpt lat="50.70482" lon="2.03183">
        <ele>108</ele>
        <time>2026-05-14T09:56:42+00:00</time>
      </trkpt>
      <trkpt lat="50.70465" lon="2.03205">
        <ele>106</ele>
        <time>2026-05-14T09:56:43+00:00</time>
      </trkpt>
      <trkpt lat="50.70447" lon="2.0324">
        <ele>104</ele>
        <time>2026-05-14T09:56:44+00:00</time>
      </trkpt>
      <trkpt lat="50.70431" lon="2.03247">
        <ele>102</ele>
        <time>2026-05-14T09:56:45+00:00</time>
      </trkpt>
      <trkpt lat="50.70377" lon="2.03251">
        <ele>98</ele>
        <time>2026-05-14T09:56:46+00:00</time>
      </trkpt>
      <trkpt lat="50.70324" lon="2.03271">
        <ele>95</ele>
        <time>2026-05-14T09:56:47+00:00</time>
      </trkpt>
      <trkpt lat="50.70292" lon="2.03274">
        <ele>95</ele>
        <time>2026-05-14T09:56:48+00:00</time>
      </trkpt>
      <trkpt lat="50.70239" lon="2.03488">
        <ele>93</ele>
        <time>2026-05-14T09:56:49+00:00</time>
      </trkpt>
      <trkpt lat="50.70228" lon="2.03566">
        <ele>93</ele>
        <time>2026-05-14T09:56:50+00:00</time>
      </trkpt>
      <trkpt lat="50.70227" lon="2.03588">
        <ele>93</ele>
        <time>2026-05-14T09:56:51+00:00</time>
      </trkpt>
      <trkpt lat="50.70242" lon="2.03623">
        <ele>92</ele>
        <time>2026-05-14T09:56:52+00:00</time>
      </trkpt>
      <trkpt lat="50.70243" lon="2.0364">
        <ele>92</ele>
        <time>2026-05-14T09:56:53+00:00</time>
      </trkpt>
      <trkpt lat="50.70239" lon="2.03656">
        <ele>92</ele>
        <time>2026-05-14T09:56:54+00:00</time>
      </trkpt>
      <trkpt lat="50.7023" lon="2.03668">
        <ele>91</ele>
        <time>2026-05-14T09:56:55+00:00</time>
      </trkpt>
      <trkpt lat="50.70208" lon="2.03686">
        <ele>92</ele>
        <time>2026-05-14T09:56:56+00:00</time>
      </trkpt>
      <trkpt lat="50.70194" lon="2.03739">
        <ele>91</ele>
        <time>2026-05-14T09:56:57+00:00</time>
      </trkpt>
      <trkpt lat="50.70157" lon="2.0371">
        <ele>93</ele>
        <time>2026-05-14T09:56:58+00:00</time>
      </trkpt>
      <trkpt lat="50.70101" lon="2.03693">
        <ele>95</ele>
        <time>2026-05-14T09:56:59+00:00</time>
      </trkpt>
      <trkpt lat="50.70081" lon="2.03682">
        <ele>96</ele>
        <time>2026-05-14T09:57:00+00:00</time>
      </trkpt>
    </trkseg>
  </trk>
</gpx>
