<?xml version="1.0" encoding="UTF-8"?>
<gpx xmlns="http://www.topografix.com/GPX/1/1" xmlns:xsi="http://www.w3.org/2001/XMLSchema-instance" version="1.1" creator="phpGPX/1.3.0" xsi:schemaLocation="http://www.topografix.com/GPX/1/1 http://www.topografix.com/GPX/1/1/gpx.xsd">
  <metadata>
    <time>2026-05-14T09:51:37+00:00</time>
  </metadata>
  <trk>
    <name>Spé D+</name>
    <trkseg>
      <trkpt lat="48.59408" lon="-0.65099">
        <ele>207</ele>
        <time>2026-05-14T09:51:38+00:00</time>
      </trkpt>
      <trkpt lat="48.59406" lon="-0.65105">
        <ele>206</ele>
        <time>2026-05-14T09:51:39+00:00</time>
      </trkpt>
      <trkpt lat="48.59391" lon="-0.65013">
        <ele>209</ele>
        <time>2026-05-14T09:51:40+00:00</time>
      </trkpt>
      <trkpt lat="48.5936" lon="-0.64878">
        <ele>213</ele>
        <time>2026-05-14T09:51:41+00:00</time>
      </trkpt>
      <trkpt lat="48.59345" lon="-0.64823">
        <ele>216</ele>
        <time>2026-05-14T09:51:42+00:00</time>
      </trkpt>
      <trkpt lat="48.59329" lon="-0.64814">
        <ele>218</ele>
        <time>2026-05-14T09:51:43+00:00</time>
      </trkpt>
      <trkpt lat="48.59311" lon="-0.64731">
        <ele>214</ele>
        <time>2026-05-14T09:51:44+00:00</time>
      </trkpt>
      <trkpt lat="48.5929" lon="-0.64559">
        <ele>208</ele>
        <time>2026-05-14T09:51:45+00:00</time>
      </trkpt>
      <trkpt lat="48.59306" lon="-0.64563">
        <ele>208</ele>
        <time>2026-05-14T09:51:46+00:00</time>
      </trkpt>
      <trkpt lat="48.59309" lon="-0.64557">
        <ele>208</ele>
        <time>2026-05-14T09:51:47+00:00</time>
      </trkpt>
      <trkpt lat="48.59317" lon="-0.64554">
        <ele>208</ele>
        <time>2026-05-14T09:51:48+00:00</time>
      </trkpt>
      <trkpt lat="48.59346" lon="-0.64564">
        <ele>205</ele>
        <time>2026-05-14T09:51:49+00:00</time>
      </trkpt>
      <trkpt lat="48.59347" lon="-0.64529">
        <ele>205</ele>
        <time>2026-05-14T09:51:50+00:00</time>
      </trkpt>
      <trkpt lat="48.59343" lon="-0.64494">
        <ele>206</ele>
        <time>2026-05-14T09:51:51+00:00</time>
      </trkpt>
      <trkpt lat="48.59321" lon="-0.64493">
        <ele>208</ele>
        <time>2026-05-14T09:51:52+00:00</time>
      </trkpt>
      <trkpt lat="48.59311" lon="-0.64484">
        <ele>209</ele>
        <time>2026-05-14T09:51:53+00:00</time>
      </trkpt>
      <trkpt lat="48.59292" lon="-0.64443">
        <ele>209</ele>
        <time>2026-05-14T09:51:54+00:00</time>
      </trkpt>
      <trkpt lat="48.59278" lon="-0.64445">
        <ele>210</ele>
        <time>2026-05-14T09:51:55+00:00</time>
      </trkpt>
      <trkpt lat="48.59271" lon="-0.64437">
        <ele>211</ele>
        <time>2026-05-14T09:51:56+00:00</time>
      </trkpt>
      <trkpt lat="48.5926" lon="-0.64444">
        <ele>212</ele>
        <time>2026-05-14T09:51:57+00:00</time>
      </trkpt>
      <trkpt lat="48.59244" lon="-0.64444">
        <ele>212</ele>
        <time>2026-05-14T09:51:58+00:00</time>
      </trkpt>
      <trkpt lat="48.59234" lon="-0.64368">
        <ele>211</ele>
        <time>2026-05-14T09:51:59+00:00</time>
      </trkpt>
      <trkpt lat="48.59241" lon="-0.64358">
        <ele>212</ele>
        <time>2026-05-14T09:52:00+00:00</time>
      </trkpt>
      <trkpt lat="48.59231" lon="-0.64325">
        <ele>211</ele>
        <time>2026-05-14T09:52:01+00:00</time>
      </trkpt>
      <trkpt lat="48.59215" lon="-0.64317">
        <ele>210</ele>
        <time>2026-05-14T09:52:02+00:00</time>
      </trkpt>
      <trkpt lat="48.59202" lon="-0.64324">
        <ele>208</ele>
        <time>2026-05-14T09:52:03+00:00</time>
      </trkpt>
      <trkpt lat="48.59193" lon="-0.64319">
        <ele>207</ele>
        <time>2026-05-14T09:52:04+00:00</time>
      </trkpt>
      <trkpt lat="48.59197" lon="-0.64305">
        <ele>208</ele>
        <time>2026-05-14T09:52:05+00:00</time>
      </trkpt>
      <trkpt lat="48.59212" lon="-0.643">
        <ele>210</ele>
        <time>2026-05-14T09:52:06+00:00</time>
      </trkpt>
      <trkpt lat="48.59196" lon="-0.64167">
        <ele>209</ele>
        <time>2026-05-14T09:52:07+00:00</time>
      </trkpt>
      <trkpt lat="48.59155" lon="-0.64175">
        <ele>204</ele>
        <time>2026-05-14T09:52:08+00:00</time>
      </trkpt>
      <trkpt lat="48.59151" lon="-0.64178">
        <ele>204</ele>
        <time>2026-05-14T09:52:09+00:00</time>
      </trkpt>
      <trkpt lat="48.59152" lon="-0.6419">
        <ele>204</ele>
        <time>2026-05-14T09:52:10+00:00</time>
      </trkpt>
      <trkpt lat="48.59148" lon="-0.64195">
        <ele>203</ele>
        <time>2026-05-14T09:52:11+00:00</time>
      </trkpt>
      <trkpt lat="48.59149" lon="-0.64357">
        <ele>201</ele>
        <time>2026-05-14T09:52:12+00:00</time>
      </trkpt>
      <trkpt lat="48.59153" lon="-0.64369">
        <ele>202</ele>
        <time>2026-05-14T09:52:13+00:00</time>
      </trkpt>
      <trkpt lat="48.59189" lon="-0.64356">
        <ele>206</ele>
        <time>2026-05-14T09:52:14+00:00</time>
      </trkpt>
      <trkpt lat="48.59202" lon="-0.64354">
        <ele>208</ele>
        <time>2026-05-14T09:52:15+00:00</time>
      </trkpt>
      <trkpt lat="48.59207" lon="-0.64373">
        <ele>208</ele>
        <time>2026-05-14T09:52:16+00:00</time>
      </trkpt>
      <trkpt lat="48.59211" lon="-0.64415">
        <ele>208</ele>
        <time>2026-05-14T09:52:17+00:00</time>
      </trkpt>
      <trkpt lat="48.59208" lon="-0.64451">
        <ele>207</ele>
        <time>2026-05-14T09:52:18+00:00</time>
      </trkpt>
      <trkpt lat="48.59199" lon="-0.64481">
        <ele>206</ele>
        <time>2026-05-14T09:52:19+00:00</time>
      </trkpt>
      <trkpt lat="48.59192" lon="-0.64493">
        <ele>205</ele>
        <time>2026-05-14T09:52:20+00:00</time>
      </trkpt>
      <trkpt lat="48.59184" lon="-0.64499">
        <ele>204</ele>
        <time>2026-05-14T09:52:21+00:00</time>
      </trkpt>
      <trkpt lat="48.59174" lon="-0.64495">
        <ele>203</ele>
        <time>2026-05-14T09:52:22+00:00</time>
      </trkpt>
      <trkpt lat="48.59157" lon="-0.64499">
        <ele>201</ele>
        <time>2026-05-14T09:52:23+00:00</time>
      </trkpt>
      <trkpt lat="48.59149" lon="-0.64509">
        <ele>199</ele>
        <time>2026-05-14T09:52:24+00:00</time>
      </trkpt>
      <trkpt lat="48.59145" lon="-0.64523">
        <ele>198</ele>
        <time>2026-05-14T09:52:25+00:00</time>
      </trkpt>
      <trkpt lat="48.59146" lon="-0.64541">
        <ele>198</ele>
        <time>2026-05-14T09:52:26+00:00</time>
      </trkpt>
      <trkpt lat="48.59142" lon="-0.64552">
        <ele>197</ele>
        <time>2026-05-14T09:52:27+00:00</time>
      </trkpt>
      <trkpt lat="48.59098" lon="-0.64568">
        <ele>192</ele>
        <time>2026-05-14T09:52:28+00:00</time>
      </trkpt>
      <trkpt lat="48.59035" lon="-0.64595">
        <ele>185</ele>
        <time>2026-05-14T09:52:29+00:00</time>
      </trkpt>
      <trkpt lat="48.59026" lon="-0.64604">
        <ele>184</ele>
        <time>2026-05-14T09:52:30+00:00</time>
      </trkpt>
      <trkpt lat="48.59019" lon="-0.64604">
        <ele>183</ele>
        <time>2026-05-14T09:52:31+00:00</time>
      </trkpt>
      <trkpt lat="48.58954" lon="-0.64643">
        <ele>175</ele>
        <time>2026-05-14T09:52:32+00:00</time>
      </trkpt>
      <trkpt lat="48.58929" lon="-0.64651">
        <ele>172</ele>
        <time>2026-05-14T09:52:33+00:00</time>
      </trkpt>
      <trkpt lat="48.58885" lon="-0.64642">
        <ele>168</ele>
        <time>2026-05-14T09:52:34+00:00</time>
      </trkpt>
      <trkpt lat="48.58861" lon="-0.64643">
        <ele>165</ele>
        <time>2026-05-14T09:52:35+00:00</time>
      </trkpt>
      <trkpt lat="48.58807" lon="-0.64623">
        <ele>160</ele>
        <time>2026-05-14T09:52:36+00:00</time>
      </trkpt>
      <trkpt lat="48.58784" lon="-0.64635">
        <ele>157</ele>
        <time>2026-05-14T09:52:37+00:00</time>
      </trkpt>
      <trkpt lat="48.58776" lon="-0.6467">
        <ele>155</ele>
        <time>2026-05-14T09:52:38+00:00</time>
      </trkpt>
      <trkpt lat="48.58773" lon="-0.64701">
        <ele>154</ele>
        <time>2026-05-14T09:52:39+00:00</time>
      </trkpt>
      <trkpt lat="48.58767" lon="-0.64714">
        <ele>153</ele>
        <time>2026-05-14T09:52:40+00:00</time>
      </trkpt>
      <trkpt lat="48.58716" lon="-0.64757">
        <ele>148</ele>
        <time>2026-05-14T09:52:41+00:00</time>
      </trkpt>
      <trkpt lat="48.58675" lon="-0.64637">
        <ele>149</ele>
        <time>2026-05-14T09:52:42+00:00</time>
      </trkpt>
      <trkpt lat="48.58605" lon="-0.64657">
        <ele>144</ele>
        <time>2026-05-14T09:52:43+00:00</time>
      </trkpt>
      <trkpt lat="48.586" lon="-0.64681">
        <ele>143</ele>
        <time>2026-05-14T09:52:44+00:00</time>
      </trkpt>
      <trkpt lat="48.58598" lon="-0.64711">
        <ele>143</ele>
        <time>2026-05-14T09:52:45+00:00</time>
      </trkpt>
      <trkpt lat="48.58608" lon="-0.64751">
        <ele>142</ele>
        <time>2026-05-14T09:52:46+00:00</time>
      </trkpt>
      <trkpt lat="48.58606" lon="-0.64768">
        <ele>142</ele>
        <time>2026-05-14T09:52:47+00:00</time>
      </trkpt>
      <trkpt lat="48.58593" lon="-0.64777">
        <ele>141</ele>
        <time>2026-05-14T09:52:48+00:00</time>
      </trkpt>
      <trkpt lat="48.58586" lon="-0.64791">
        <ele>141</ele>
        <time>2026-05-14T09:52:49+00:00</time>
      </trkpt>
      <trkpt lat="48.58584" lon="-0.64838">
        <ele>140</ele>
        <time>2026-05-14T09:52:50+00:00</time>
      </trkpt>
      <trkpt lat="48.58575" lon="-0.64885">
        <ele>139</ele>
        <time>2026-05-14T09:52:51+00:00</time>
      </trkpt>
      <trkpt lat="48.58563" lon="-0.64915">
        <ele>138</ele>
        <time>2026-05-14T09:52:52+00:00</time>
      </trkpt>
      <trkpt lat="48.58563" lon="-0.64963">
        <ele>138</ele>
        <time>2026-05-14T09:52:53+00:00</time>
      </trkpt>
      <trkpt lat="48.58554" lon="-0.6497">
        <ele>138</ele>
        <time>2026-05-14T09:52:54+00:00</time>
      </trkpt>
      <trkpt lat="48.5855" lon="-0.64986">
        <ele>138</ele>
        <time>2026-05-14T09:52:55+00:00</time>
      </trkpt>
      <trkpt lat="48.58552" lon="-0.65025">
        <ele>138</ele>
        <time>2026-05-14T09:52:56+00:00</time>
      </trkpt>
      <trkpt lat="48.58551" lon="-0.6512">
        <ele>137</ele>
        <time>2026-05-14T09:52:57+00:00</time>
      </trkpt>
      <trkpt lat="48.58558" lon="-0.65153">
        <ele>136</ele>
        <time>2026-05-14T09:52:58+00:00</time>
      </trkpt>
      <trkpt lat="48.58612" lon="-0.65134">
        <ele>138</ele>
        <time>2026-05-14T09:52:59+00:00</time>
      </trkpt>
      <trkpt lat="48.58638" lon="-0.65129">
        <ele>140</ele>
        <time>2026-05-14T09:53:00+00:00</time>
      </trkpt>
      <trkpt lat="48.58656" lon="-0.65145">
        <ele>140</ele>
        <time>2026-05-14T09:53:01+00:00</time>
      </trkpt>
      <trkpt lat="48.58667" lon="-0.65174">
        <ele>141</ele>
        <time>2026-05-14T09:53:02+00:00</time>
      </trkpt>
      <trkpt lat="48.58692" lon="-0.65172">
        <ele>142</ele>
        <time>2026-05-14T09:53:03+00:00</time>
      </trkpt>
      <trkpt lat="48.5873" lon="-0.65157">
        <ele>143</ele>
        <time>2026-05-14T09:53:04+00:00</time>
      </trkpt>
      <trkpt lat="48.58762" lon="-0.65114">
        <ele>146</ele>
        <time>2026-05-14T09:53:05+00:00</time>
      </trkpt>
      <trkpt lat="48.58794" lon="-0.65091">
        <ele>149</ele>
        <time>2026-05-14T09:53:06+00:00</time>
      </trkpt>
      <trkpt lat="48.58839" lon="-0.65081">
        <ele>153</ele>
        <time>2026-05-14T09:53:07+00:00</time>
      </trkpt>
      <trkpt lat="48.58862" lon="-0.65069">
        <ele>156</ele>
        <time>2026-05-14T09:53:08+00:00</time>
      </trkpt>
      <trkpt lat="48.58883" lon="-0.65042">
        <ele>159</ele>
        <time>2026-05-14T09:53:09+00:00</time>
      </trkpt>
      <trkpt lat="48.58896" lon="-0.65017">
        <ele>161</ele>
        <time>2026-05-14T09:53:10+00:00</time>
      </trkpt>
      <trkpt lat="48.58896" lon="-0.64997">
        <ele>161</ele>
        <time>2026-05-14T09:53:11+00:00</time>
      </trkpt>
      <trkpt lat="48.58901" lon="-0.64981">
        <ele>162</ele>
        <time>2026-05-14T09:53:12+00:00</time>
      </trkpt>
      <trkpt lat="48.58907" lon="-0.64908">
        <ele>162</ele>
        <time>2026-05-14T09:53:13+00:00</time>
      </trkpt>
      <trkpt lat="48.58906" lon="-0.64883">
        <ele>163</ele>
        <time>2026-05-14T09:53:14+00:00</time>
      </trkpt>
      <trkpt lat="48.58896" lon="-0.6483">
        <ele>163</ele>
        <time>2026-05-14T09:53:15+00:00</time>
      </trkpt>
      <trkpt lat="48.58892" lon="-0.64779">
        <ele>164</ele>
        <time>2026-05-14T09:53:16+00:00</time>
      </trkpt>
      <trkpt lat="48.58899" lon="-0.64769">
        <ele>165</ele>
        <time>2026-05-14T09:53:17+00:00</time>
      </trkpt>
      <trkpt lat="48.5893" lon="-0.6476">
        <ele>168</ele>
        <time>2026-05-14T09:53:18+00:00</time>
      </trkpt>
      <trkpt lat="48.58943" lon="-0.64765">
        <ele>170</ele>
        <time>2026-05-14T09:53:19+00:00</time>
      </trkpt>
      <trkpt lat="48.58965" lon="-0.64812">
        <ele>171</ele>
        <time>2026-05-14T09:53:20+00:00</time>
      </trkpt>
      <trkpt lat="48.58975" lon="-0.64827">
        <ele>172</ele>
        <time>2026-05-14T09:53:21+00:00</time>
      </trkpt>
      <trkpt lat="48.58995" lon="-0.64841">
        <ele>173</ele>
        <time>2026-05-14T09:53:22+00:00</time>
      </trkpt>
      <trkpt lat="48.59017" lon="-0.64848">
        <ele>176</ele>
        <time>2026-05-14T09:53:23+00:00</time>
      </trkpt>
      <trkpt lat="48.59067" lon="-0.64835">
        <ele>182</ele>
        <time>2026-05-14T09:53:24+00:00</time>
      </trkpt>
      <trkpt lat="48.59072" lon="-0.64839">
        <ele>183</ele>
        <time>2026-05-14T09:53:25+00:00</time>
      </trkpt>
      <trkpt lat="48.59081" lon="-0.64864">
        <ele>184</ele>
        <time>2026-05-14T09:53:26+00:00</time>
      </trkpt>
      <trkpt lat="48.59091" lon="-0.64936">
        <ele>184</ele>
        <time>2026-05-14T09:53:27+00:00</time>
      </trkpt>
      <trkpt lat="48.59095" lon="-0.64951">
        <ele>184</ele>
        <time>2026-05-14T09:53:28+00:00</time>
      </trkpt>
      <trkpt lat="48.59104" lon="-0.6496">
        <ele>184</ele>
        <time>2026-05-14T09:53:29+00:00</time>
      </trkpt>
      <trkpt lat="48.59158" lon="-0.64967">
        <ele>188</ele>
        <time>2026-05-14T09:53:30+00:00</time>
      </trkpt>
      <trkpt lat="48.59178" lon="-0.64955">
        <ele>190</ele>
        <time>2026-05-14T09:53:31+00:00</time>
      </trkpt>
      <trkpt lat="48.5918" lon="-0.64944">
        <ele>191</ele>
        <time>2026-05-14T09:53:32+00:00</time>
      </trkpt>
      <trkpt lat="48.59171" lon="-0.64905">
        <ele>191</ele>
        <time>2026-05-14T09:53:33+00:00</time>
      </trkpt>
      <trkpt lat="48.59178" lon="-0.64894">
        <ele>193</ele>
        <time>2026-05-14T09:53:34+00:00</time>
      </trkpt>
      <trkpt lat="48.59164" lon="-0.64817">
        <ele>193</ele>
        <time>2026-05-14T09:53:35+00:00</time>
      </trkpt>
      <trkpt lat="48.59165" lon="-0.648">
        <ele>194</ele>
        <time>2026-05-14T09:53:36+00:00</time>
      </trkpt>
      <trkpt lat="48.5917" lon="-0.64796">
        <ele>195</ele>
        <time>2026-05-14T09:53:37+00:00</time>
      </trkpt>
      <trkpt lat="48.59195" lon="-0.64786">
        <ele>199</ele>
        <time>2026-05-14T09:53:38+00:00</time>
      </trkpt>
      <trkpt lat="48.59231" lon="-0.64777">
        <ele>206</ele>
        <time>2026-05-14T09:53:39+00:00</time>
      </trkpt>
      <trkpt lat="48.59282" lon="-0.6476">
        <ele>212</ele>
        <time>2026-05-14T09:53:40+00:00</time>
      </trkpt>
      <trkpt lat="48.59288" lon="-0.6479">
        <ele>213</ele>
        <time>2026-05-14T09:53:41+00:00</time>
      </trkpt>
      <trkpt lat="48.59263" lon="-0.64808">
        <ele>210</ele>
        <time>2026-05-14T09:53:42+00:00</time>
      </trkpt>
      <trkpt lat="48.59263" lon="-0.64814">
        <ele>210</ele>
        <time>2026-05-14T09:53:43+00:00</time>
      </trkpt>
      <trkpt lat="48.59249" lon="-0.64822">
        <ele>209</ele>
        <time>2026-05-14T09:53:44+00:00</time>
      </trkpt>
      <trkpt lat="48.59243" lon="-0.64807">
        <ele>208</ele>
        <time>2026-05-14T09:53:45+00:00</time>
      </trkpt>
      <trkpt lat="48.59238" lon="-0.64813">
        <ele>207</ele>
        <time>2026-05-14T09:53:46+00:00</time>
      </trkpt>
      <trkpt lat="48.59241" lon="-0.64829">
        <ele>207</ele>
        <time>2026-05-14T09:53:47+00:00</time>
      </trkpt>
      <trkpt lat="48.59235" lon="-0.64851">
        <ele>205</ele>
        <time>2026-05-14T09:53:48+00:00</time>
      </trkpt>
      <trkpt lat="48.59243" lon="-0.64901">
        <ele>202</ele>
        <time>2026-05-14T09:53:49+00:00</time>
      </trkpt>
      <trkpt lat="48.59253" lon="-0.64914">
        <ele>203</ele>
        <time>2026-05-14T09:53:50+00:00</time>
      </trkpt>
      <trkpt lat="48.59261" lon="-0.64934">
        <ele>203</ele>
        <time>2026-05-14T09:53:51+00:00</time>
      </trkpt>
      <trkpt lat="48.5927" lon="-0.64972">
        <ele>202</ele>
        <time>2026-05-14T09:53:52+00:00</time>
      </trkpt>
      <trkpt lat="48.59307" lon="-0.65045">
        <ele>203</ele>
        <time>2026-05-14T09:53:53+00:00</time>
      </trkpt>
      <trkpt lat="48.5931" lon="-0.65058">
        <ele>202</ele>
        <time>2026-05-14T09:53:54+00:00</time>
      </trkpt>
      <trkpt lat="48.593" lon="-0.65055">
        <ele>201</ele>
        <time>2026-05-14T09:53:55+00:00</time>
      </trkpt>
      <trkpt lat="48.59294" lon="-0.65058">
        <ele>200</ele>
        <time>2026-05-14T09:53:56+00:00</time>
      </trkpt>
      <trkpt lat="48.59239" lon="-0.65099">
        <ele>189</ele>
        <time>2026-05-14T09:53:57+00:00</time>
      </trkpt>
      <trkpt lat="48.59253" lon="-0.65171">
        <ele>184</ele>
        <time>2026-05-14T09:53:58+00:00</time>
      </trkpt>
      <trkpt lat="48.5927" lon="-0.65242">
        <ele>180</ele>
        <time>2026-05-14T09:53:59+00:00</time>
      </trkpt>
      <trkpt lat="48.59279" lon="-0.65306">
        <ele>174</ele>
        <time>2026-05-14T09:54:00+00:00</time>
      </trkpt>
      <trkpt lat="48.59279" lon="-0.65326">
        <ele>171</ele>
        <time>2026-05-14T09:54:01+00:00</time>
      </trkpt>
      <trkpt lat="48.59273" lon="-0.65349">
        <ele>168</ele>
        <time>2026-05-14T09:54:02+00:00</time>
      </trkpt>
      <trkpt lat="48.59241" lon="-0.65407">
        <ele>159</ele>
        <time>2026-05-14T09:54:03+00:00</time>
      </trkpt>
      <trkpt lat="48.59222" lon="-0.65447">
        <ele>154</ele>
        <time>2026-05-14T09:54:04+00:00</time>
      </trkpt>
      <trkpt lat="48.59221" lon="-0.65457">
        <ele>152</ele>
        <time>2026-05-14T09:54:05+00:00</time>
      </trkpt>
      <trkpt lat="48.59239" lon="-0.65466">
        <ele>150</ele>
        <time>2026-05-14T09:54:06+00:00</time>
      </trkpt>
      <trkpt lat="48.59325" lon="-0.6547">
        <ele>146</ele>
        <time>2026-05-14T09:54:07+00:00</time>
      </trkpt>
      <trkpt lat="48.59335" lon="-0.65473">
        <ele>145</ele>
        <time>2026-05-14T09:54:08+00:00</time>
      </trkpt>
      <trkpt lat="48.59337" lon="-0.65481">
        <ele>143</ele>
        <time>2026-05-14T09:54:09+00:00</time>
      </trkpt>
      <trkpt lat="48.59285" lon="-0.65497">
        <ele>142</ele>
        <time>2026-05-14T09:54:10+00:00</time>
      </trkpt>
      <trkpt lat="48.59233" lon="-0.65518">
        <ele>143</ele>
        <time>2026-05-14T09:54:11+00:00</time>
      </trkpt>
      <trkpt lat="48.59163" lon="-0.65557">
        <ele>142</ele>
        <time>2026-05-14T09:54:12+00:00</time>
      </trkpt>
      <trkpt lat="48.59162" lon="-0.6554">
        <ele>144</ele>
        <time>2026-05-14T09:54:13+00:00</time>
      </trkpt>
      <trkpt lat="48.59165" lon="-0.65525">
        <ele>146</ele>
        <time>2026-05-14T09:54:14+00:00</time>
      </trkpt>
      <trkpt lat="48.59174" lon="-0.65505">
        <ele>148</ele>
        <time>2026-05-14T09:54:15+00:00</time>
      </trkpt>
      <trkpt lat="48.59184" lon="-0.65494">
        <ele>149</ele>
        <time>2026-05-14T09:54:16+00:00</time>
      </trkpt>
      <trkpt lat="48.59179" lon="-0.65492">
        <ele>149</ele>
        <time>2026-05-14T09:54:17+00:00</time>
      </trkpt>
      <trkpt lat="48.59107" lon="-0.65551">
        <ele>143</ele>
        <time>2026-05-14T09:54:18+00:00</time>
      </trkpt>
      <trkpt lat="48.59102" lon="-0.65546">
        <ele>144</ele>
        <time>2026-05-14T09:54:19+00:00</time>
      </trkpt>
      <trkpt lat="48.59104" lon="-0.65525">
        <ele>146</ele>
        <time>2026-05-14T09:54:20+00:00</time>
      </trkpt>
      <trkpt lat="48.59098" lon="-0.65494">
        <ele>151</ele>
        <time>2026-05-14T09:54:21+00:00</time>
      </trkpt>
      <trkpt lat="48.59087" lon="-0.65461">
        <ele>155</ele>
        <time>2026-05-14T09:54:22+00:00</time>
      </trkpt>
      <trkpt lat="48.59082" lon="-0.6543">
        <ele>159</ele>
        <time>2026-05-14T09:54:23+00:00</time>
      </trkpt>
      <trkpt lat="48.59084" lon="-0.65381">
        <ele>164</ele>
        <time>2026-05-14T09:54:24+00:00</time>
      </trkpt>
      <trkpt lat="48.59062" lon="-0.65323">
        <ele>169</ele>
        <time>2026-05-14T09:54:25+00:00</time>
      </trkpt>
      <trkpt lat="48.59053" lon="-0.6529">
        <ele>170</ele>
        <time>2026-05-14T09:54:26+00:00</time>
      </trkpt>
      <trkpt lat="48.59035" lon="-0.65295">
        <ele>169</ele>
        <time>2026-05-14T09:54:27+00:00</time>
      </trkpt>
      <trkpt lat="48.5902" lon="-0.65309">
        <ele>168</ele>
        <time>2026-05-14T09:54:28+00:00</time>
      </trkpt>
      <trkpt lat="48.58987" lon="-0.65328">
        <ele>165</ele>
        <time>2026-05-14T09:54:29+00:00</time>
      </trkpt>
      <trkpt lat="48.58958" lon="-0.65356">
        <ele>160</ele>
        <time>2026-05-14T09:54:30+00:00</time>
      </trkpt>
      <trkpt lat="48.58967" lon="-0.65396">
        <ele>158</ele>
        <time>2026-05-14T09:54:31+00:00</time>
      </trkpt>
      <trkpt lat="48.59005" lon="-0.65505">
        <ele>150</ele>
        <time>2026-05-14T09:54:32+00:00</time>
      </trkpt>
      <trkpt lat="48.59023" lon="-0.65526">
        <ele>147</ele>
        <time>2026-05-14T09:54:33+00:00</time>
      </trkpt>
      <trkpt lat="48.59013" lon="-0.65531">
        <ele>147</ele>
        <time>2026-05-14T09:54:34+00:00</time>
      </trkpt>
      <trkpt lat="48.5899" lon="-0.65552">
        <ele>144</ele>
        <time>2026-05-14T09:54:35+00:00</time>
      </trkpt>
      <trkpt lat="48.59047" lon="-0.6557">
        <ele>141</ele>
        <time>2026-05-14T09:54:36+00:00</time>
      </trkpt>
      <trkpt lat="48.59068" lon="-0.65589">
        <ele>139</ele>
        <time>2026-05-14T09:54:37+00:00</time>
      </trkpt>
      <trkpt lat="48.59074" lon="-0.65614">
        <ele>138</ele>
        <time>2026-05-14T09:54:38+00:00</time>
      </trkpt>
      <trkpt lat="48.59077" lon="-0.65647">
        <ele>136</ele>
        <time>2026-05-14T09:54:39+00:00</time>
      </trkpt>
      <trkpt lat="48.59083" lon="-0.65655">
        <ele>136</ele>
        <time>2026-05-14T09:54:40+00:00</time>
      </trkpt>
      <trkpt lat="48.59085" lon="-0.65664">
        <ele>135</ele>
        <time>2026-05-14T09:54:41+00:00</time>
      </trkpt>
      <trkpt lat="48.59076" lon="-0.6569">
        <ele>135</ele>
        <time>2026-05-14T09:54:42+00:00</time>
      </trkpt>
      <trkpt lat="48.59079" lon="-0.65725">
        <ele>134</ele>
        <time>2026-05-14T09:54:43+00:00</time>
      </trkpt>
      <trkpt lat="48.59077" lon="-0.65768">
        <ele>134</ele>
        <time>2026-05-14T09:54:44+00:00</time>
      </trkpt>
      <trkpt lat="48.5908" lon="-0.65777">
        <ele>134</ele>
        <time>2026-05-14T09:54:45+00:00</time>
      </trkpt>
      <trkpt lat="48.59106" lon="-0.65775">
        <ele>134</ele>
        <time>2026-05-14T09:54:46+00:00</time>
      </trkpt>
      <trkpt lat="48.59134" lon="-0.65786">
        <ele>134</ele>
        <time>2026-05-14T09:54:47+00:00</time>
      </trkpt>
      <trkpt lat="48.59185" lon="-0.65794">
        <ele>135</ele>
        <time>2026-05-14T09:54:48+00:00</time>
      </trkpt>
      <trkpt lat="48.59242" lon="-0.65784">
        <ele>136</ele>
        <time>2026-05-14T09:54:49+00:00</time>
      </trkpt>
      <trkpt lat="48.59245" lon="-0.65801">
        <ele>136</ele>
        <time>2026-05-14T09:54:50+00:00</time>
      </trkpt>
      <trkpt lat="48.59276" lon="-0.65816">
        <ele>141</ele>
        <time>2026-05-14T09:54:51+00:00</time>
      </trkpt>
      <trkpt lat="48.59298" lon="-0.6586">
        <ele>145</ele>
        <time>2026-05-14T09:54:52+00:00</time>
      </trkpt>
      <trkpt lat="48.59319" lon="-0.65916">
        <ele>149</ele>
        <time>2026-05-14T09:54:53+00:00</time>
      </trkpt>
      <trkpt lat="48.59325" lon="-0.6594">
        <ele>151</ele>
        <time>2026-05-14T09:54:54+00:00</time>
      </trkpt>
      <trkpt lat="48.59289" lon="-0.66108">
        <ele>153</ele>
        <time>2026-05-14T09:54:55+00:00</time>
      </trkpt>
      <trkpt lat="48.59234" lon="-0.6622">
        <ele>152</ele>
        <time>2026-05-14T09:54:56+00:00</time>
      </trkpt>
      <trkpt lat="48.59235" lon="-0.66231">
        <ele>152</ele>
        <time>2026-05-14T09:54:57+00:00</time>
      </trkpt>
      <trkpt lat="48.59281" lon="-0.66247">
        <ele>155</ele>
        <time>2026-05-14T09:54:58+00:00</time>
      </trkpt>
      <trkpt lat="48.59327" lon="-0.66254">
        <ele>158</ele>
        <time>2026-05-14T09:54:59+00:00</time>
      </trkpt>
      <trkpt lat="48.59368" lon="-0.66243">
        <ele>162</ele>
        <time>2026-05-14T09:55:00+00:00</time>
      </trkpt>
      <trkpt lat="48.59425" lon="-0.66223">
        <ele>168</ele>
        <time>2026-05-14T09:55:01+00:00</time>
      </trkpt>
      <trkpt lat="48.59466" lon="-0.66204">
        <ele>176</ele>
        <time>2026-05-14T09:55:02+00:00</time>
      </trkpt>
      <trkpt lat="48.59511" lon="-0.66174">
        <ele>185</ele>
        <time>2026-05-14T09:55:03+00:00</time>
      </trkpt>
      <trkpt lat="48.59529" lon="-0.6621">
        <ele>188</ele>
        <time>2026-05-14T09:55:04+00:00</time>
      </trkpt>
      <trkpt lat="48.59539" lon="-0.66263">
        <ele>187</ele>
        <time>2026-05-14T09:55:05+00:00</time>
      </trkpt>
      <trkpt lat="48.5959" lon="-0.66094">
        <ele>202</ele>
        <time>2026-05-14T09:55:06+00:00</time>
      </trkpt>
      <trkpt lat="48.59586" lon="-0.66084">
        <ele>202</ele>
        <time>2026-05-14T09:55:07+00:00</time>
      </trkpt>
      <trkpt lat="48.59573" lon="-0.66096">
        <ele>200</ele>
        <time>2026-05-14T09:55:08+00:00</time>
      </trkpt>
      <trkpt lat="48.59559" lon="-0.66099">
        <ele>197</ele>
        <time>2026-05-14T09:55:09+00:00</time>
      </trkpt>
      <trkpt lat="48.59521" lon="-0.66082">
        <ele>190</ele>
        <time>2026-05-14T09:55:10+00:00</time>
      </trkpt>
      <trkpt lat="48.59502" lon="-0.66065">
        <ele>187</ele>
        <time>2026-05-14T09:55:11+00:00</time>
      </trkpt>
      <trkpt lat="48.59483" lon="-0.65998">
        <ele>185</ele>
        <time>2026-05-14T09:55:12+00:00</time>
      </trkpt>
      <trkpt lat="48.59472" lon="-0.65928">
        <ele>182</ele>
        <time>2026-05-14T09:55:13+00:00</time>
      </trkpt>
      <trkpt lat="48.59451" lon="-0.65845">
        <ele>177</ele>
        <time>2026-05-14T09:55:14+00:00</time>
      </trkpt>
      <trkpt lat="48.59454" lon="-0.65827">
        <ele>178</ele>
        <time>2026-05-14T09:55:15+00:00</time>
      </trkpt>
      <trkpt lat="48.59449" lon="-0.6582">
        <ele>177</ele>
        <time>2026-05-14T09:55:16+00:00</time>
      </trkpt>
      <trkpt lat="48.59443" lon="-0.65822">
        <ele>175</ele>
        <time>2026-05-14T09:55:17+00:00</time>
      </trkpt>
      <trkpt lat="48.59427" lon="-0.65784">
        <ele>171</ele>
        <time>2026-05-14T09:55:18+00:00</time>
      </trkpt>
      <trkpt lat="48.59409" lon="-0.65783">
        <ele>167</ele>
        <time>2026-05-14T09:55:19+00:00</time>
      </trkpt>
      <trkpt lat="48.59328" lon="-0.65806">
        <ele>149</ele>
        <time>2026-05-14T09:55:20+00:00</time>
      </trkpt>
      <trkpt lat="48.5932" lon="-0.65803">
        <ele>148</ele>
        <time>2026-05-14T09:55:21+00:00</time>
      </trkpt>
      <trkpt lat="48.59323" lon="-0.65772">
        <ele>147</ele>
        <time>2026-05-14T09:55:22+00:00</time>
      </trkpt>
      <trkpt lat="48.59331" lon="-0.65728">
        <ele>146</ele>
        <time>2026-05-14T09:55:23+00:00</time>
      </trkpt>
      <trkpt lat="48.59353" lon="-0.65698">
        <ele>147</ele>
        <time>2026-05-14T09:55:24+00:00</time>
      </trkpt>
      <trkpt lat="48.59368" lon="-0.65689">
        <ele>149</ele>
        <time>2026-05-14T09:55:25+00:00</time>
      </trkpt>
      <trkpt lat="48.59364" lon="-0.65701">
        <ele>150</ele>
        <time>2026-05-14T09:55:26+00:00</time>
      </trkpt>
      <trkpt lat="48.59367" lon="-0.65727">
        <ele>154</ele>
        <time>2026-05-14T09:55:27+00:00</time>
      </trkpt>
      <trkpt lat="48.59372" lon="-0.65726">
        <ele>155</ele>
        <time>2026-05-14T09:55:28+00:00</time>
      </trkpt>
      <trkpt lat="48.59379" lon="-0.65735">
        <ele>158</ele>
        <time>2026-05-14T09:55:29+00:00</time>
      </trkpt>
      <trkpt lat="48.59414" lon="-0.65701">
        <ele>161</ele>
        <time>2026-05-14T09:55:30+00:00</time>
      </trkpt>
      <trkpt lat="48.5943" lon="-0.6569">
        <ele>163</ele>
        <time>2026-05-14T09:55:31+00:00</time>
      </trkpt>
      <trkpt lat="48.5943" lon="-0.65673">
        <ele>160</ele>
        <time>2026-05-14T09:55:32+00:00</time>
      </trkpt>
      <trkpt lat="48.59423" lon="-0.65663">
        <ele>157</ele>
        <time>2026-05-14T09:55:33+00:00</time>
      </trkpt>
      <trkpt lat="48.59423" lon="-0.65635">
        <ele>151</ele>
        <time>2026-05-14T09:55:34+00:00</time>
      </trkpt>
      <trkpt lat="48.59453" lon="-0.6561">
        <ele>150</ele>
        <time>2026-05-14T09:55:35+00:00</time>
      </trkpt>
      <trkpt lat="48.59469" lon="-0.65609">
        <ele>152</ele>
        <time>2026-05-14T09:55:36+00:00</time>
      </trkpt>
      <trkpt lat="48.59486" lon="-0.65598">
        <ele>151</ele>
        <time>2026-05-14T09:55:37+00:00</time>
      </trkpt>
      <trkpt lat="48.59501" lon="-0.65584">
        <ele>147</ele>
        <time>2026-05-14T09:55:38+00:00</time>
      </trkpt>
      <trkpt lat="48.59548" lon="-0.65569">
        <ele>150</ele>
        <time>2026-05-14T09:55:39+00:00</time>
      </trkpt>
      <trkpt lat="48.59561" lon="-0.65559">
        <ele>149</ele>
        <time>2026-05-14T09:55:40+00:00</time>
      </trkpt>
      <trkpt lat="48.59563" lon="-0.65574">
        <ele>151</ele>
        <time>2026-05-14T09:55:41+00:00</time>
      </trkpt>
      <trkpt lat="48.59568" lon="-0.65575">
        <ele>152</ele>
        <time>2026-05-14T09:55:42+00:00</time>
      </trkpt>
      <trkpt lat="48.5957" lon="-0.65581">
        <ele>153</ele>
        <time>2026-05-14T09:55:43+00:00</time>
      </trkpt>
      <trkpt lat="48.59566" lon="-0.65601">
        <ele>158</ele>
        <time>2026-05-14T09:55:44+00:00</time>
      </trkpt>
      <trkpt lat="48.59563" lon="-0.65607">
        <ele>160</ele>
        <time>2026-05-14T09:55:45+00:00</time>
      </trkpt>
      <trkpt lat="48.59558" lon="-0.65608">
        <ele>160</ele>
        <time>2026-05-14T09:55:46+00:00</time>
      </trkpt>
      <trkpt lat="48.59551" lon="-0.656">
        <ele>157</ele>
        <time>2026-05-14T09:55:47+00:00</time>
      </trkpt>
      <trkpt lat="48.5955" lon="-0.6559">
        <ele>153</ele>
        <time>2026-05-14T09:55:48+00:00</time>
      </trkpt>
      <trkpt lat="48.59548" lon="-0.65604">
        <ele>158</ele>
        <time>2026-05-14T09:55:49+00:00</time>
      </trkpt>
      <trkpt lat="48.59543" lon="-0.65592">
        <ele>154</ele>
        <time>2026-05-14T09:55:50+00:00</time>
      </trkpt>
      <trkpt lat="48.5954" lon="-0.65593">
        <ele>154</ele>
        <time>2026-05-14T09:55:51+00:00</time>
      </trkpt>
      <trkpt lat="48.59538" lon="-0.65615">
        <ele>161</ele>
        <time>2026-05-14T09:55:52+00:00</time>
      </trkpt>
      <trkpt lat="48.59543" lon="-0.65629">
        <ele>166</ele>
        <time>2026-05-14T09:55:53+00:00</time>
      </trkpt>
      <trkpt lat="48.5955" lon="-0.65634">
        <ele>168</ele>
        <time>2026-05-14T09:55:54+00:00</time>
      </trkpt>
      <trkpt lat="48.59543" lon="-0.65644">
        <ele>171</ele>
        <time>2026-05-14T09:55:55+00:00</time>
      </trkpt>
      <trkpt lat="48.59535" lon="-0.65644">
        <ele>171</ele>
        <time>2026-05-14T09:55:56+00:00</time>
      </trkpt>
      <trkpt lat="48.59531" lon="-0.65638">
        <ele>169</ele>
        <time>2026-05-14T09:55:57+00:00</time>
      </trkpt>
      <trkpt lat="48.59531" lon="-0.65644">
        <ele>171</ele>
        <time>2026-05-14T09:55:58+00:00</time>
      </trkpt>
      <trkpt lat="48.59545" lon="-0.65651">
        <ele>174</ele>
        <time>2026-05-14T09:55:59+00:00</time>
      </trkpt>
      <trkpt lat="48.59548" lon="-0.65655">
        <ele>175</ele>
        <time>2026-05-14T09:56:00+00:00</time>
      </trkpt>
      <trkpt lat="48.59545" lon="-0.65658">
        <ele>176</ele>
        <time>2026-05-14T09:56:01+00:00</time>
      </trkpt>
      <trkpt lat="48.5954" lon="-0.65654">
        <ele>175</ele>
        <time>2026-05-14T09:56:02+00:00</time>
      </trkpt>
      <trkpt lat="48.59525" lon="-0.65653">
        <ele>174</ele>
        <time>2026-05-14T09:56:03+00:00</time>
      </trkpt>
      <trkpt lat="48.59521" lon="-0.65667">
        <ele>179</ele>
        <time>2026-05-14T09:56:04+00:00</time>
      </trkpt>
      <trkpt lat="48.59516" lon="-0.65666">
        <ele>178</ele>
        <time>2026-05-14T09:56:05+00:00</time>
      </trkpt>
      <trkpt lat="48.59508" lon="-0.65658">
        <ele>175</ele>
        <time>2026-05-14T09:56:06+00:00</time>
      </trkpt>
      <trkpt lat="48.59507" lon="-0.65648">
        <ele>171</ele>
        <time>2026-05-14T09:56:07+00:00</time>
      </trkpt>
      <trkpt lat="48.59493" lon="-0.65631">
        <ele>163</ele>
        <time>2026-05-14T09:56:08+00:00</time>
      </trkpt>
      <trkpt lat="48.59494" lon="-0.65642">
        <ele>168</ele>
        <time>2026-05-14T09:56:09+00:00</time>
      </trkpt>
      <trkpt lat="48.59499" lon="-0.65645">
        <ele>170</ele>
        <time>2026-05-14T09:56:10+00:00</time>
      </trkpt>
      <trkpt lat="48.59493" lon="-0.65649">
        <ele>170</ele>
        <time>2026-05-14T09:56:11+00:00</time>
      </trkpt>
      <trkpt lat="48.59492" lon="-0.65657">
        <ele>172</ele>
        <time>2026-05-14T09:56:12+00:00</time>
      </trkpt>
      <trkpt lat="48.59488" lon="-0.65661">
        <ele>173</ele>
        <time>2026-05-14T09:56:13+00:00</time>
      </trkpt>
      <trkpt lat="48.59487" lon="-0.65683">
        <ele>177</ele>
        <time>2026-05-14T09:56:14+00:00</time>
      </trkpt>
      <trkpt lat="48.59515" lon="-0.65689">
        <ele>181</ele>
        <time>2026-05-14T09:56:15+00:00</time>
      </trkpt>
      <trkpt lat="48.59533" lon="-0.65701">
        <ele>183</ele>
        <time>2026-05-14T09:56:16+00:00</time>
      </trkpt>
      <trkpt lat="48.59563" lon="-0.65701">
        <ele>184</ele>
        <time>2026-05-14T09:56:17+00:00</time>
      </trkpt>
      <trkpt lat="48.59595" lon="-0.65725">
        <ele>186</ele>
        <time>2026-05-14T09:56:18+00:00</time>
      </trkpt>
      <trkpt lat="48.59613" lon="-0.65728">
        <ele>185</ele>
        <time>2026-05-14T09:56:19+00:00</time>
      </trkpt>
      <trkpt lat="48.59622" lon="-0.65722">
        <ele>183</ele>
        <time>2026-05-14T09:56:20+00:00</time>
      </trkpt>
      <trkpt lat="48.5962" lon="-0.65696">
        <ele>181</ele>
        <time>2026-05-14T09:56:21+00:00</time>
      </trkpt>
      <trkpt lat="48.59625" lon="-0.65685">
        <ele>179</ele>
        <time>2026-05-14T09:56:22+00:00</time>
      </trkpt>
      <trkpt lat="48.59621" lon="-0.65676">
        <ele>179</ele>
        <time>2026-05-14T09:56:23+00:00</time>
      </trkpt>
      <trkpt lat="48.59631" lon="-0.65642">
        <ele>171</ele>
        <time>2026-05-14T09:56:24+00:00</time>
      </trkpt>
      <trkpt lat="48.5964" lon="-0.65631">
        <ele>168</ele>
        <time>2026-05-14T09:56:25+00:00</time>
      </trkpt>
      <trkpt lat="48.59637" lon="-0.65619">
        <ele>165</ele>
        <time>2026-05-14T09:56:26+00:00</time>
      </trkpt>
      <trkpt lat="48.59642" lon="-0.65608">
        <ele>163</ele>
        <time>2026-05-14T09:56:27+00:00</time>
      </trkpt>
      <trkpt lat="48.5965" lon="-0.65604">
        <ele>162</ele>
        <time>2026-05-14T09:56:28+00:00</time>
      </trkpt>
      <trkpt lat="48.59654" lon="-0.65598">
        <ele>161</ele>
        <time>2026-05-14T09:56:29+00:00</time>
      </trkpt>
      <trkpt lat="48.59654" lon="-0.65593">
        <ele>160</ele>
        <time>2026-05-14T09:56:30+00:00</time>
      </trkpt>
      <trkpt lat="48.59648" lon="-0.6559">
        <ele>159</ele>
        <time>2026-05-14T09:56:31+00:00</time>
      </trkpt>
      <trkpt lat="48.59658" lon="-0.65573">
        <ele>156</ele>
        <time>2026-05-14T09:56:32+00:00</time>
      </trkpt>
      <trkpt lat="48.59655" lon="-0.65567">
        <ele>155</ele>
        <time>2026-05-14T09:56:33+00:00</time>
      </trkpt>
      <trkpt lat="48.59615" lon="-0.6556">
        <ele>152</ele>
        <time>2026-05-14T09:56:34+00:00</time>
      </trkpt>
      <trkpt lat="48.59597" lon="-0.65549">
        <ele>149</ele>
        <time>2026-05-14T09:56:35+00:00</time>
      </trkpt>
      <trkpt lat="48.596" lon="-0.65535">
        <ele>147</ele>
        <time>2026-05-14T09:56:36+00:00</time>
      </trkpt>
      <trkpt lat="48.59616" lon="-0.65522">
        <ele>146</ele>
        <time>2026-05-14T09:56:37+00:00</time>
      </trkpt>
      <trkpt lat="48.59643" lon="-0.65485">
        <ele>144</ele>
        <time>2026-05-14T09:56:38+00:00</time>
      </trkpt>
      <trkpt lat="48.59671" lon="-0.65429">
        <ele>142</ele>
        <time>2026-05-14T09:56:39+00:00</time>
      </trkpt>
      <trkpt lat="48.59674" lon="-0.65408">
        <ele>142</ele>
        <time>2026-05-14T09:56:40+00:00</time>
      </trkpt>
      <trkpt lat="48.59684" lon="-0.65372">
        <ele>142</ele>
        <time>2026-05-14T09:56:41+00:00</time>
      </trkpt>
      <trkpt lat="48.59743" lon="-0.65255">
        <ele>144</ele>
        <time>2026-05-14T09:56:42+00:00</time>
      </trkpt>
      <trkpt lat="48.59774" lon="-0.65217">
        <ele>144</ele>
        <time>2026-05-14T09:56:43+00:00</time>
      </trkpt>
      <trkpt lat="48.59785" lon="-0.65209">
        <ele>144</ele>
        <time>2026-05-14T09:56:44+00:00</time>
      </trkpt>
      <trkpt lat="48.59788" lon="-0.65229">
        <ele>147</ele>
        <time>2026-05-14T09:56:45+00:00</time>
      </trkpt>
      <trkpt lat="48.59761" lon="-0.65277">
        <ele>148</ele>
        <time>2026-05-14T09:56:46+00:00</time>
      </trkpt>
      <trkpt lat="48.59711" lon="-0.65402">
        <ele>147</ele>
        <time>2026-05-14T09:56:47+00:00</time>
      </trkpt>
      <trkpt lat="48.59698" lon="-0.65418">
        <ele>146</ele>
        <time>2026-05-14T09:56:48+00:00</time>
      </trkpt>
      <trkpt lat="48.5969" lon="-0.65436">
        <ele>146</ele>
        <time>2026-05-14T09:56:49+00:00</time>
      </trkpt>
      <trkpt lat="48.59689" lon="-0.65447">
        <ele>146</ele>
        <time>2026-05-14T09:56:50+00:00</time>
      </trkpt>
      <trkpt lat="48.59693" lon="-0.65467">
        <ele>148</ele>
        <time>2026-05-14T09:56:51+00:00</time>
      </trkpt>
      <trkpt lat="48.59691" lon="-0.65486">
        <ele>148</ele>
        <time>2026-05-14T09:56:52+00:00</time>
      </trkpt>
      <trkpt lat="48.59677" lon="-0.65522">
        <ele>150</ele>
        <time>2026-05-14T09:56:53+00:00</time>
      </trkpt>
      <trkpt lat="48.5968" lon="-0.65528">
        <ele>151</ele>
        <time>2026-05-14T09:56:54+00:00</time>
      </trkpt>
      <trkpt lat="48.59679" lon="-0.65552">
        <ele>154</ele>
        <time>2026-05-14T09:56:55+00:00</time>
      </trkpt>
      <trkpt lat="48.59682" lon="-0.65568">
        <ele>157</ele>
        <time>2026-05-14T09:56:56+00:00</time>
      </trkpt>
      <trkpt lat="48.59679" lon="-0.65577">
        <ele>158</ele>
        <time>2026-05-14T09:56:57+00:00</time>
      </trkpt>
      <trkpt lat="48.59674" lon="-0.6558">
        <ele>158</ele>
        <time>2026-05-14T09:56:58+00:00</time>
      </trkpt>
      <trkpt lat="48.59673" lon="-0.65585">
        <ele>159</ele>
        <time>2026-05-14T09:56:59+00:00</time>
      </trkpt>
      <trkpt lat="48.59674" lon="-0.6559">
        <ele>160</ele>
        <time>2026-05-14T09:57:00+00:00</time>
      </trkpt>
      <trkpt lat="48.59683" lon="-0.65588">
        <ele>160</ele>
        <time>2026-05-14T09:57:01+00:00</time>
      </trkpt>
      <trkpt lat="48.59678" lon="-0.65598">
        <ele>161</ele>
        <time>2026-05-14T09:57:02+00:00</time>
      </trkpt>
      <trkpt lat="48.59678" lon="-0.65611">
        <ele>164</ele>
        <time>2026-05-14T09:57:03+00:00</time>
      </trkpt>
      <trkpt lat="48.59684" lon="-0.65615">
        <ele>165</ele>
        <time>2026-05-14T09:57:04+00:00</time>
      </trkpt>
      <trkpt lat="48.59693" lon="-0.65609">
        <ele>164</ele>
        <time>2026-05-14T09:57:05+00:00</time>
      </trkpt>
      <trkpt lat="48.59696" lon="-0.6561">
        <ele>164</ele>
        <time>2026-05-14T09:57:06+00:00</time>
      </trkpt>
      <trkpt lat="48.59693" lon="-0.65622">
        <ele>166</ele>
        <time>2026-05-14T09:57:07+00:00</time>
      </trkpt>
      <trkpt lat="48.59689" lon="-0.65626">
        <ele>167</ele>
        <time>2026-05-14T09:57:08+00:00</time>
      </trkpt>
      <trkpt lat="48.59688" lon="-0.65642">
        <ele>170</ele>
        <time>2026-05-14T09:57:09+00:00</time>
      </trkpt>
      <trkpt lat="48.59684" lon="-0.65647">
        <ele>171</ele>
        <time>2026-05-14T09:57:10+00:00</time>
      </trkpt>
      <trkpt lat="48.59673" lon="-0.65651">
        <ele>172</ele>
        <time>2026-05-14T09:57:11+00:00</time>
      </trkpt>
      <trkpt lat="48.59674" lon="-0.65663">
        <ele>174</ele>
        <time>2026-05-14T09:57:12+00:00</time>
      </trkpt>
      <trkpt lat="48.59683" lon="-0.65663">
        <ele>174</ele>
        <time>2026-05-14T09:57:13+00:00</time>
      </trkpt>
      <trkpt lat="48.5969" lon="-0.65673">
        <ele>174</ele>
        <time>2026-05-14T09:57:14+00:00</time>
      </trkpt>
      <trkpt lat="48.59699" lon="-0.65669">
        <ele>174</ele>
        <time>2026-05-14T09:57:15+00:00</time>
      </trkpt>
      <trkpt lat="48.59713" lon="-0.65681">
        <ele>174</ele>
        <time>2026-05-14T09:57:16+00:00</time>
      </trkpt>
      <trkpt lat="48.59713" lon="-0.65693">
        <ele>175</ele>
        <time>2026-05-14T09:57:17+00:00</time>
      </trkpt>
      <trkpt lat="48.59705" lon="-0.65704">
        <ele>176</ele>
        <time>2026-05-14T09:57:18+00:00</time>
      </trkpt>
      <trkpt lat="48.59705" lon="-0.65729">
        <ele>178</ele>
        <time>2026-05-14T09:57:19+00:00</time>
      </trkpt>
      <trkpt lat="48.59702" lon="-0.65744">
        <ele>179</ele>
        <time>2026-05-14T09:57:20+00:00</time>
      </trkpt>
      <trkpt lat="48.59671" lon="-0.65755">
        <ele>182</ele>
        <time>2026-05-14T09:57:21+00:00</time>
      </trkpt>
      <trkpt lat="48.59653" lon="-0.65777">
        <ele>185</ele>
        <time>2026-05-14T09:57:22+00:00</time>
      </trkpt>
      <trkpt lat="48.59636" lon="-0.65784">
        <ele>188</ele>
        <time>2026-05-14T09:57:23+00:00</time>
      </trkpt>
      <trkpt lat="48.59614" lon="-0.65802">
        <ele>192</ele>
        <time>2026-05-14T09:57:24+00:00</time>
      </trkpt>
      <trkpt lat="48.5961" lon="-0.6581">
        <ele>193</ele>
        <time>2026-05-14T09:57:25+00:00</time>
      </trkpt>
      <trkpt lat="48.5961" lon="-0.65826">
        <ele>195</ele>
        <time>2026-05-14T09:57:26+00:00</time>
      </trkpt>
      <trkpt lat="48.59599" lon="-0.65815">
        <ele>196</ele>
        <time>2026-05-14T09:57:27+00:00</time>
      </trkpt>
      <trkpt lat="48.59594" lon="-0.65799">
        <ele>194</ele>
        <time>2026-05-14T09:57:28+00:00</time>
      </trkpt>
      <trkpt lat="48.59585" lon="-0.65793">
        <ele>195</ele>
        <time>2026-05-14T09:57:29+00:00</time>
      </trkpt>
      <trkpt lat="48.59571" lon="-0.65774">
        <ele>192</ele>
        <time>2026-05-14T09:57:30+00:00</time>
      </trkpt>
      <trkpt lat="48.59563" lon="-0.6577">
        <ele>191</ele>
        <time>2026-05-14T09:57:31+00:00</time>
      </trkpt>
      <trkpt lat="48.59556" lon="-0.65762">
        <ele>190</ele>
        <time>2026-05-14T09:57:32+00:00</time>
      </trkpt>
      <trkpt lat="48.59548" lon="-0.6576">
        <ele>190</ele>
        <time>2026-05-14T09:57:33+00:00</time>
      </trkpt>
      <trkpt lat="48.59542" lon="-0.65754">
        <ele>189</ele>
        <time>2026-05-14T09:57:34+00:00</time>
      </trkpt>
      <trkpt lat="48.59531" lon="-0.65752">
        <ele>189</ele>
        <time>2026-05-14T09:57:35+00:00</time>
      </trkpt>
      <trkpt lat="48.59526" lon="-0.65747">
        <ele>188</ele>
        <time>2026-05-14T09:57:36+00:00</time>
      </trkpt>
      <trkpt lat="48.5952" lon="-0.65747">
        <ele>188</ele>
        <time>2026-05-14T09:57:37+00:00</time>
      </trkpt>
      <trkpt lat="48.59511" lon="-0.65736">
        <ele>187</ele>
        <time>2026-05-14T09:57:38+00:00</time>
      </trkpt>
      <trkpt lat="48.59507" lon="-0.65717">
        <ele>184</ele>
        <time>2026-05-14T09:57:39+00:00</time>
      </trkpt>
      <trkpt lat="48.59492" lon="-0.65731">
        <ele>184</ele>
        <time>2026-05-14T09:57:40+00:00</time>
      </trkpt>
      <trkpt lat="48.59493" lon="-0.65761">
        <ele>187</ele>
        <time>2026-05-14T09:57:41+00:00</time>
      </trkpt>
      <trkpt lat="48.59524" lon="-0.65827">
        <ele>192</ele>
        <time>2026-05-14T09:57:42+00:00</time>
      </trkpt>
      <trkpt lat="48.59533" lon="-0.65823">
        <ele>193</ele>
        <time>2026-05-14T09:57:43+00:00</time>
      </trkpt>
      <trkpt lat="48.59538" lon="-0.65816">
        <ele>193</ele>
        <time>2026-05-14T09:57:44+00:00</time>
      </trkpt>
      <trkpt lat="48.59543" lon="-0.65818">
        <ele>194</ele>
        <time>2026-05-14T09:57:45+00:00</time>
      </trkpt>
      <trkpt lat="48.59549" lon="-0.65849">
        <ele>196</ele>
        <time>2026-05-14T09:57:46+00:00</time>
      </trkpt>
      <trkpt lat="48.59565" lon="-0.659">
        <ele>199</ele>
        <time>2026-05-14T09:57:47+00:00</time>
      </trkpt>
      <trkpt lat="48.5957" lon="-0.65935">
        <ele>200</ele>
        <time>2026-05-14T09:57:48+00:00</time>
      </trkpt>
      <trkpt lat="48.59567" lon="-0.65951">
        <ele>199</ele>
        <time>2026-05-14T09:57:49+00:00</time>
      </trkpt>
      <trkpt lat="48.59571" lon="-0.65965">
        <ele>200</ele>
        <time>2026-05-14T09:57:50+00:00</time>
      </trkpt>
      <trkpt lat="48.59578" lon="-0.65974">
        <ele>201</ele>
        <time>2026-05-14T09:57:51+00:00</time>
      </trkpt>
      <trkpt lat="48.5958" lon="-0.65992">
        <ele>201</ele>
        <time>2026-05-14T09:57:52+00:00</time>
      </trkpt>
      <trkpt lat="48.59588" lon="-0.66005">
        <ele>201</ele>
        <time>2026-05-14T09:57:53+00:00</time>
      </trkpt>
      <trkpt lat="48.59593" lon="-0.66004">
        <ele>201</ele>
        <time>2026-05-14T09:57:54+00:00</time>
      </trkpt>
      <trkpt lat="48.59595" lon="-0.66019">
        <ele>201</ele>
        <time>2026-05-14T09:57:55+00:00</time>
      </trkpt>
      <trkpt lat="48.59593" lon="-0.66037">
        <ele>201</ele>
        <time>2026-05-14T09:57:56+00:00</time>
      </trkpt>
      <trkpt lat="48.596" lon="-0.66062">
        <ele>202</ele>
        <time>2026-05-14T09:57:57+00:00</time>
      </trkpt>
      <trkpt lat="48.59638" lon="-0.65997">
        <ele>201</ele>
        <time>2026-05-14T09:57:58+00:00</time>
      </trkpt>
      <trkpt lat="48.59662" lon="-0.65972">
        <ele>200</ele>
        <time>2026-05-14T09:57:59+00:00</time>
      </trkpt>
      <trkpt lat="48.59898" lon="-0.65887">
        <ele>192</ele>
        <time>2026-05-14T09:58:00+00:00</time>
      </trkpt>
      <trkpt lat="48.5992" lon="-0.6585">
        <ele>194</ele>
        <time>2026-05-14T09:58:01+00:00</time>
      </trkpt>
      <trkpt lat="48.59971" lon="-0.65731">
        <ele>199</ele>
        <time>2026-05-14T09:58:02+00:00</time>
      </trkpt>
      <trkpt lat="48.60024" lon="-0.65707">
        <ele>205</ele>
        <time>2026-05-14T09:58:03+00:00</time>
      </trkpt>
      <trkpt lat="48.60101" lon="-0.65616">
        <ele>209</ele>
        <time>2026-05-14T09:58:04+00:00</time>
      </trkpt>
      <trkpt lat="48.60076" lon="-0.656">
        <ele>209</ele>
        <time>2026-05-14T09:58:05+00:00</time>
      </trkpt>
      <trkpt lat="48.60044" lon="-0.65557">
        <ele>207</ele>
        <time>2026-05-14T09:58:06+00:00</time>
      </trkpt>
      <trkpt lat="48.60034" lon="-0.65553">
        <ele>207</ele>
        <time>2026-05-14T09:58:07+00:00</time>
      </trkpt>
      <trkpt lat="48.60012" lon="-0.65535">
        <ele>205</ele>
        <time>2026-05-14T09:58:08+00:00</time>
      </trkpt>
      <trkpt lat="48.59997" lon="-0.65509">
        <ele>204</ele>
        <time>2026-05-14T09:58:09+00:00</time>
      </trkpt>
      <trkpt lat="48.59981" lon="-0.65436">
        <ele>199</ele>
        <time>2026-05-14T09:58:10+00:00</time>
      </trkpt>
      <trkpt lat="48.5997" lon="-0.65291">
        <ele>183</ele>
        <time>2026-05-14T09:58:11+00:00</time>
      </trkpt>
      <trkpt lat="48.59962" lon="-0.6527">
        <ele>178</ele>
        <time>2026-05-14T09:58:12+00:00</time>
      </trkpt>
      <trkpt lat="48.59951" lon="-0.65258">
        <ele>175</ele>
        <time>2026-05-14T09:58:13+00:00</time>
      </trkpt>
      <trkpt lat="48.59934" lon="-0.65258">
        <ele>172</ele>
        <time>2026-05-14T09:58:14+00:00</time>
      </trkpt>
      <trkpt lat="48.59905" lon="-0.65268">
        <ele>169</ele>
        <time>2026-05-14T09:58:15+00:00</time>
      </trkpt>
      <trkpt lat="48.59879" lon="-0.65264">
        <ele>164</ele>
        <time>2026-05-14T09:58:16+00:00</time>
      </trkpt>
      <trkpt lat="48.59816" lon="-0.65233">
        <ele>151</ele>
        <time>2026-05-14T09:58:17+00:00</time>
      </trkpt>
      <trkpt lat="48.59815" lon="-0.65223">
        <ele>149</ele>
        <time>2026-05-14T09:58:18+00:00</time>
      </trkpt>
      <trkpt lat="48.59822" lon="-0.6521">
        <ele>148</ele>
        <time>2026-05-14T09:58:19+00:00</time>
      </trkpt>
      <trkpt lat="48.59836" lon="-0.65195">
        <ele>146</ele>
        <time>2026-05-14T09:58:20+00:00</time>
      </trkpt>
      <trkpt lat="48.59861" lon="-0.65204">
        <ele>151</ele>
        <time>2026-05-14T09:58:21+00:00</time>
      </trkpt>
      <trkpt lat="48.59882" lon="-0.652">
        <ele>153</ele>
        <time>2026-05-14T09:58:22+00:00</time>
      </trkpt>
      <trkpt lat="48.59925" lon="-0.65182">
        <ele>153</ele>
        <time>2026-05-14T09:58:23+00:00</time>
      </trkpt>
      <trkpt lat="48.59976" lon="-0.65182">
        <ele>156</ele>
        <time>2026-05-14T09:58:24+00:00</time>
      </trkpt>
      <trkpt lat="48.60016" lon="-0.65188">
        <ele>161</ele>
        <time>2026-05-14T09:58:25+00:00</time>
      </trkpt>
      <trkpt lat="48.60009" lon="-0.65208">
        <ele>167</ele>
        <time>2026-05-14T09:58:26+00:00</time>
      </trkpt>
      <trkpt lat="48.59999" lon="-0.6521">
        <ele>167</ele>
        <time>2026-05-14T09:58:27+00:00</time>
      </trkpt>
      <trkpt lat="48.59993" lon="-0.65222">
        <ele>171</ele>
        <time>2026-05-14T09:58:28+00:00</time>
      </trkpt>
      <trkpt lat="48.59989" lon="-0.65225">
        <ele>171</ele>
        <time>2026-05-14T09:58:29+00:00</time>
      </trkpt>
      <trkpt lat="48.59975" lon="-0.65261">
        <ele>179</ele>
        <time>2026-05-14T09:58:30+00:00</time>
      </trkpt>
      <trkpt lat="48.59975" lon="-0.65274">
        <ele>181</ele>
        <time>2026-05-14T09:58:31+00:00</time>
      </trkpt>
      <trkpt lat="48.59979" lon="-0.65282">
        <ele>183</ele>
        <time>2026-05-14T09:58:32+00:00</time>
      </trkpt>
      <trkpt lat="48.59987" lon="-0.65273">
        <ele>183</ele>
        <time>2026-05-14T09:58:33+00:00</time>
      </trkpt>
      <trkpt lat="48.5999" lon="-0.65276">
        <ele>184</ele>
        <time>2026-05-14T09:58:34+00:00</time>
      </trkpt>
      <trkpt lat="48.59986" lon="-0.65289">
        <ele>186</ele>
        <time>2026-05-14T09:58:35+00:00</time>
      </trkpt>
      <trkpt lat="48.5999" lon="-0.65309">
        <ele>190</ele>
        <time>2026-05-14T09:58:36+00:00</time>
      </trkpt>
      <trkpt lat="48.59998" lon="-0.65326">
        <ele>195</ele>
        <time>2026-05-14T09:58:37+00:00</time>
      </trkpt>
      <trkpt lat="48.60004" lon="-0.65333">
        <ele>197</ele>
        <time>2026-05-14T09:58:38+00:00</time>
      </trkpt>
      <trkpt lat="48.60005" lon="-0.65322">
        <ele>195</ele>
        <time>2026-05-14T09:58:39+00:00</time>
      </trkpt>
      <trkpt lat="48.60011" lon="-0.65307">
        <ele>193</ele>
        <time>2026-05-14T09:58:40+00:00</time>
      </trkpt>
      <trkpt lat="48.60019" lon="-0.6532">
        <ele>196</ele>
        <time>2026-05-14T09:58:41+00:00</time>
      </trkpt>
      <trkpt lat="48.60024" lon="-0.65337">
        <ele>199</ele>
        <time>2026-05-14T09:58:42+00:00</time>
      </trkpt>
      <trkpt lat="48.60031" lon="-0.65349">
        <ele>201</ele>
        <time>2026-05-14T09:58:43+00:00</time>
      </trkpt>
      <trkpt lat="48.60038" lon="-0.65342">
        <ele>201</ele>
        <time>2026-05-14T09:58:44+00:00</time>
      </trkpt>
      <trkpt lat="48.60038" lon="-0.65323">
        <ele>198</ele>
        <time>2026-05-14T09:58:45+00:00</time>
      </trkpt>
      <trkpt lat="48.60032" lon="-0.65306">
        <ele>195</ele>
        <time>2026-05-14T09:58:46+00:00</time>
      </trkpt>
      <trkpt lat="48.60031" lon="-0.65292">
        <ele>192</ele>
        <time>2026-05-14T09:58:47+00:00</time>
      </trkpt>
      <trkpt lat="48.60027" lon="-0.65292">
        <ele>192</ele>
        <time>2026-05-14T09:58:48+00:00</time>
      </trkpt>
      <trkpt lat="48.60031" lon="-0.65285">
        <ele>191</ele>
        <time>2026-05-14T09:58:49+00:00</time>
      </trkpt>
      <trkpt lat="48.60032" lon="-0.65287">
        <ele>191</ele>
        <time>2026-05-14T09:58:50+00:00</time>
      </trkpt>
      <trkpt lat="48.60036" lon="-0.65285">
        <ele>191</ele>
        <time>2026-05-14T09:58:51+00:00</time>
      </trkpt>
      <trkpt lat="48.6004" lon="-0.65308">
        <ele>196</ele>
        <time>2026-05-14T09:58:52+00:00</time>
      </trkpt>
      <trkpt lat="48.60046" lon="-0.65321">
        <ele>199</ele>
        <time>2026-05-14T09:58:53+00:00</time>
      </trkpt>
      <trkpt lat="48.60056" lon="-0.65319">
        <ele>199</ele>
        <time>2026-05-14T09:58:54+00:00</time>
      </trkpt>
      <trkpt lat="48.6006" lon="-0.653">
        <ele>196</ele>
        <time>2026-05-14T09:58:55+00:00</time>
      </trkpt>
      <trkpt lat="48.6009" lon="-0.65297">
        <ele>197</ele>
        <time>2026-05-14T09:58:56+00:00</time>
      </trkpt>
      <trkpt lat="48.60092" lon="-0.65287">
        <ele>195</ele>
        <time>2026-05-14T09:58:57+00:00</time>
      </trkpt>
      <trkpt lat="48.60091" lon="-0.65276">
        <ele>194</ele>
        <time>2026-05-14T09:58:58+00:00</time>
      </trkpt>
      <trkpt lat="48.60094" lon="-0.65271">
        <ele>193</ele>
        <time>2026-05-14T09:58:59+00:00</time>
      </trkpt>
      <trkpt lat="48.60108" lon="-0.65268">
        <ele>192</ele>
        <time>2026-05-14T09:59:00+00:00</time>
      </trkpt>
      <trkpt lat="48.60107" lon="-0.65255">
        <ele>190</ele>
        <time>2026-05-14T09:59:01+00:00</time>
      </trkpt>
      <trkpt lat="48.60113" lon="-0.65247">
        <ele>188</ele>
        <time>2026-05-14T09:59:02+00:00</time>
      </trkpt>
      <trkpt lat="48.60128" lon="-0.65258">
        <ele>189</ele>
        <time>2026-05-14T09:59:03+00:00</time>
      </trkpt>
      <trkpt lat="48.60099" lon="-0.6534">
        <ele>202</ele>
        <time>2026-05-14T09:59:04+00:00</time>
      </trkpt>
      <trkpt lat="48.60099" lon="-0.65377">
        <ele>204</ele>
        <time>2026-05-14T09:59:05+00:00</time>
      </trkpt>
      <trkpt lat="48.60092" lon="-0.65404">
        <ele>207</ele>
        <time>2026-05-14T09:59:06+00:00</time>
      </trkpt>
      <trkpt lat="48.60093" lon="-0.65425">
        <ele>207</ele>
        <time>2026-05-14T09:59:07+00:00</time>
      </trkpt>
      <trkpt lat="48.60087" lon="-0.65442">
        <ele>208</ele>
        <time>2026-05-14T09:59:08+00:00</time>
      </trkpt>
      <trkpt lat="48.60092" lon="-0.65483">
        <ele>208</ele>
        <time>2026-05-14T09:59:09+00:00</time>
      </trkpt>
      <trkpt lat="48.60104" lon="-0.65548">
        <ele>207</ele>
        <time>2026-05-14T09:59:10+00:00</time>
      </trkpt>
      <trkpt lat="48.60123" lon="-0.65598">
        <ele>206</ele>
        <time>2026-05-14T09:59:11+00:00</time>
      </trkpt>
      <trkpt lat="48.60134" lon="-0.6562">
        <ele>206</ele>
        <time>2026-05-14T09:59:12+00:00</time>
      </trkpt>
      <trkpt lat="48.60147" lon="-0.6564">
        <ele>206</ele>
        <time>2026-05-14T09:59:13+00:00</time>
      </trkpt>
      <trkpt lat="48.60161" lon="-0.65656">
        <ele>206</ele>
        <time>2026-05-14T09:59:14+00:00</time>
      </trkpt>
      <trkpt lat="48.60174" lon="-0.65664">
        <ele>205</ele>
        <time>2026-05-14T09:59:15+00:00</time>
      </trkpt>
      <trkpt lat="48.60187" lon="-0.65666">
        <ele>203</ele>
        <time>2026-05-14T09:59:16+00:00</time>
      </trkpt>
      <trkpt lat="48.60255" lon="-0.6563">
        <ele>194</ele>
        <time>2026-05-14T09:59:17+00:00</time>
      </trkpt>
      <trkpt lat="48.60304" lon="-0.65572">
        <ele>190</ele>
        <time>2026-05-14T09:59:18+00:00</time>
      </trkpt>
      <trkpt lat="48.60355" lon="-0.65525">
        <ele>187</ele>
        <time>2026-05-14T09:59:19+00:00</time>
      </trkpt>
      <trkpt lat="48.60338" lon="-0.65443">
        <ele>185</ele>
        <time>2026-05-14T09:59:20+00:00</time>
      </trkpt>
      <trkpt lat="48.60325" lon="-0.65267">
        <ele>179</ele>
        <time>2026-05-14T09:59:21+00:00</time>
      </trkpt>
      <trkpt lat="48.60306" lon="-0.65136">
        <ele>170</ele>
        <time>2026-05-14T09:59:22+00:00</time>
      </trkpt>
      <trkpt lat="48.60305" lon="-0.65085">
        <ele>165</ele>
        <time>2026-05-14T09:59:23+00:00</time>
      </trkpt>
      <trkpt lat="48.60299" lon="-0.65049">
        <ele>163</ele>
        <time>2026-05-14T09:59:24+00:00</time>
      </trkpt>
      <trkpt lat="48.60288" lon="-0.65034">
        <ele>162</ele>
        <time>2026-05-14T09:59:25+00:00</time>
      </trkpt>
      <trkpt lat="48.60251" lon="-0.65022">
        <ele>160</ele>
        <time>2026-05-14T09:59:26+00:00</time>
      </trkpt>
      <trkpt lat="48.60242" lon="-0.65013">
        <ele>158</ele>
        <time>2026-05-14T09:59:27+00:00</time>
      </trkpt>
      <trkpt lat="48.60237" lon="-0.64997">
        <ele>156</ele>
        <time>2026-05-14T09:59:28+00:00</time>
      </trkpt>
      <trkpt lat="48.60226" lon="-0.64859">
        <ele>148</ele>
        <time>2026-05-14T09:59:29+00:00</time>
      </trkpt>
      <trkpt lat="48.60193" lon="-0.64711">
        <ele>139</ele>
        <time>2026-05-14T09:59:30+00:00</time>
      </trkpt>
      <trkpt lat="48.60135" lon="-0.64723">
        <ele>141</ele>
        <time>2026-05-14T09:59:31+00:00</time>
      </trkpt>
      <trkpt lat="48.60136" lon="-0.64657">
        <ele>142</ele>
        <time>2026-05-14T09:59:32+00:00</time>
      </trkpt>
      <trkpt lat="48.60145" lon="-0.64521">
        <ele>143</ele>
        <time>2026-05-14T09:59:33+00:00</time>
      </trkpt>
      <trkpt lat="48.60153" lon="-0.64481">
        <ele>143</ele>
        <time>2026-05-14T09:59:34+00:00</time>
      </trkpt>
      <trkpt lat="48.60176" lon="-0.64403">
        <ele>141</ele>
        <time>2026-05-14T09:59:35+00:00</time>
      </trkpt>
      <trkpt lat="48.60197" lon="-0.64365">
        <ele>141</ele>
        <time>2026-05-14T09:59:36+00:00</time>
      </trkpt>
      <trkpt lat="48.60182" lon="-0.64324">
        <ele>139</ele>
        <time>2026-05-14T09:59:37+00:00</time>
      </trkpt>
      <trkpt lat="48.60182" lon="-0.6429">
        <ele>139</ele>
        <time>2026-05-14T09:59:38+00:00</time>
      </trkpt>
      <trkpt lat="48.60169" lon="-0.64262">
        <ele>138</ele>
        <time>2026-05-14T09:59:39+00:00</time>
      </trkpt>
      <trkpt lat="48.60158" lon="-0.64283">
        <ele>140</ele>
        <time>2026-05-14T09:59:40+00:00</time>
      </trkpt>
      <trkpt lat="48.60153" lon="-0.64322">
        <ele>141</ele>
        <time>2026-05-14T09:59:41+00:00</time>
      </trkpt>
      <trkpt lat="48.6014" lon="-0.64507">
        <ele>144</ele>
        <time>2026-05-14T09:59:42+00:00</time>
      </trkpt>
      <trkpt lat="48.60128" lon="-0.64528">
        <ele>145</ele>
        <time>2026-05-14T09:59:43+00:00</time>
      </trkpt>
      <trkpt lat="48.6012" lon="-0.64564">
        <ele>146</ele>
        <time>2026-05-14T09:59:44+00:00</time>
      </trkpt>
      <trkpt lat="48.60102" lon="-0.64614">
        <ele>148</ele>
        <time>2026-05-14T09:59:45+00:00</time>
      </trkpt>
      <trkpt lat="48.60099" lon="-0.64645">
        <ele>147</ele>
        <time>2026-05-14T09:59:46+00:00</time>
      </trkpt>
      <trkpt lat="48.60089" lon="-0.64642">
        <ele>149</ele>
        <time>2026-05-14T09:59:47+00:00</time>
      </trkpt>
      <trkpt lat="48.6008" lon="-0.64647">
        <ele>150</ele>
        <time>2026-05-14T09:59:48+00:00</time>
      </trkpt>
      <trkpt lat="48.60073" lon="-0.64661">
        <ele>151</ele>
        <time>2026-05-14T09:59:49+00:00</time>
      </trkpt>
      <trkpt lat="48.60061" lon="-0.64707">
        <ele>151</ele>
        <time>2026-05-14T09:59:50+00:00</time>
      </trkpt>
      <trkpt lat="48.60044" lon="-0.64743">
        <ele>152</ele>
        <time>2026-05-14T09:59:51+00:00</time>
      </trkpt>
      <trkpt lat="48.60033" lon="-0.64754">
        <ele>154</ele>
        <time>2026-05-14T09:59:52+00:00</time>
      </trkpt>
      <trkpt lat="48.60001" lon="-0.64763">
        <ele>158</ele>
        <time>2026-05-14T09:59:53+00:00</time>
      </trkpt>
      <trkpt lat="48.59956" lon="-0.6477">
        <ele>163</ele>
        <time>2026-05-14T09:59:54+00:00</time>
      </trkpt>
      <trkpt lat="48.59917" lon="-0.64789">
        <ele>166</ele>
        <time>2026-05-14T09:59:55+00:00</time>
      </trkpt>
      <trkpt lat="48.5989" lon="-0.64834">
        <ele>166</ele>
        <time>2026-05-14T09:59:56+00:00</time>
      </trkpt>
      <trkpt lat="48.59843" lon="-0.64848">
        <ele>166</ele>
        <time>2026-05-14T09:59:57+00:00</time>
      </trkpt>
      <trkpt lat="48.59822" lon="-0.6484">
        <ele>167</ele>
        <time>2026-05-14T09:59:58+00:00</time>
      </trkpt>
      <trkpt lat="48.59814" lon="-0.64823">
        <ele>169</ele>
        <time>2026-05-14T09:59:59+00:00</time>
      </trkpt>
      <trkpt lat="48.59808" lon="-0.64797">
        <ele>171</ele>
        <time>2026-05-14T10:00:00+00:00</time>
      </trkpt>
      <trkpt lat="48.59809" lon="-0.64777">
        <ele>174</ele>
        <time>2026-05-14T10:00:01+00:00</time>
      </trkpt>
      <trkpt lat="48.59817" lon="-0.64758">
        <ele>176</ele>
        <time>2026-05-14T10:00:02+00:00</time>
      </trkpt>
      <trkpt lat="48.59818" lon="-0.64732">
        <ele>179</ele>
        <time>2026-05-14T10:00:03+00:00</time>
      </trkpt>
      <trkpt lat="48.59814" lon="-0.64687">
        <ele>182</ele>
        <time>2026-05-14T10:00:04+00:00</time>
      </trkpt>
      <trkpt lat="48.59831" lon="-0.6453">
        <ele>191</ele>
        <time>2026-05-14T10:00:05+00:00</time>
      </trkpt>
      <trkpt lat="48.59843" lon="-0.64505">
        <ele>191</ele>
        <time>2026-05-14T10:00:06+00:00</time>
      </trkpt>
      <trkpt lat="48.5985" lon="-0.64482">
        <ele>191</ele>
        <time>2026-05-14T10:00:07+00:00</time>
      </trkpt>
      <trkpt lat="48.59853" lon="-0.6446">
        <ele>191</ele>
        <time>2026-05-14T10:00:08+00:00</time>
      </trkpt>
      <trkpt lat="48.59834" lon="-0.6436">
        <ele>196</ele>
        <time>2026-05-14T10:00:09+00:00</time>
      </trkpt>
      <trkpt lat="48.59832" lon="-0.64251">
        <ele>196</ele>
        <time>2026-05-14T10:00:10+00:00</time>
      </trkpt>
      <trkpt lat="48.59839" lon="-0.64187">
        <ele>196</ele>
        <time>2026-05-14T10:00:11+00:00</time>
      </trkpt>
      <trkpt lat="48.59839" lon="-0.64116">
        <ele>198</ele>
        <time>2026-05-14T10:00:12+00:00</time>
      </trkpt>
      <trkpt lat="48.59852" lon="-0.6396">
        <ele>204</ele>
        <time>2026-05-14T10:00:13+00:00</time>
      </trkpt>
      <trkpt lat="48.59847" lon="-0.63897">
        <ele>207</ele>
        <time>2026-05-14T10:00:14+00:00</time>
      </trkpt>
      <trkpt lat="48.59813" lon="-0.63746">
        <ele>212</ele>
        <time>2026-05-14T10:00:15+00:00</time>
      </trkpt>
      <trkpt lat="48.59778" lon="-0.63629">
        <ele>216</ele>
        <time>2026-05-14T10:00:16+00:00</time>
      </trkpt>
      <trkpt lat="48.59756" lon="-0.63574">
        <ele>217</ele>
        <time>2026-05-14T10:00:17+00:00</time>
      </trkpt>
      <trkpt lat="48.59739" lon="-0.63663">
        <ele>214</ele>
        <time>2026-05-14T10:00:18+00:00</time>
      </trkpt>
      <trkpt lat="48.59738" lon="-0.63723">
        <ele>210</ele>
        <time>2026-05-14T10:00:19+00:00</time>
      </trkpt>
      <trkpt lat="48.59721" lon="-0.63767">
        <ele>205</ele>
        <time>2026-05-14T10:00:20+00:00</time>
      </trkpt>
      <trkpt lat="48.59694" lon="-0.63812">
        <ele>200</ele>
        <time>2026-05-14T10:00:21+00:00</time>
      </trkpt>
      <trkpt lat="48.59674" lon="-0.63892">
        <ele>195</ele>
        <time>2026-05-14T10:00:22+00:00</time>
      </trkpt>
      <trkpt lat="48.59658" lon="-0.6393">
        <ele>193</ele>
        <time>2026-05-14T10:00:23+00:00</time>
      </trkpt>
      <trkpt lat="48.59632" lon="-0.63971">
        <ele>189</ele>
        <time>2026-05-14T10:00:24+00:00</time>
      </trkpt>
      <trkpt lat="48.59553" lon="-0.64039">
        <ele>183</ele>
        <time>2026-05-14T10:00:25+00:00</time>
      </trkpt>
      <trkpt lat="48.59516" lon="-0.64061">
        <ele>183</ele>
        <time>2026-05-14T10:00:26+00:00</time>
      </trkpt>
      <trkpt lat="48.59489" lon="-0.64088">
        <ele>184</ele>
        <time>2026-05-14T10:00:27+00:00</time>
      </trkpt>
      <trkpt lat="48.59474" lon="-0.64119">
        <ele>185</ele>
        <time>2026-05-14T10:00:28+00:00</time>
      </trkpt>
      <trkpt lat="48.59446" lon="-0.64292">
        <ele>186</ele>
        <time>2026-05-14T10:00:29+00:00</time>
      </trkpt>
      <trkpt lat="48.59463" lon="-0.64293">
        <ele>184</ele>
        <time>2026-05-14T10:00:30+00:00</time>
      </trkpt>
      <trkpt lat="48.59496" lon="-0.64317">
        <ele>181</ele>
        <time>2026-05-14T10:00:31+00:00</time>
      </trkpt>
      <trkpt lat="48.59534" lon="-0.64371">
        <ele>177</ele>
        <time>2026-05-14T10:00:32+00:00</time>
      </trkpt>
      <trkpt lat="48.59574" lon="-0.64434">
        <ele>173</ele>
        <time>2026-05-14T10:00:33+00:00</time>
      </trkpt>
      <trkpt lat="48.59593" lon="-0.64445">
        <ele>173</ele>
        <time>2026-05-14T10:00:34+00:00</time>
      </trkpt>
      <trkpt lat="48.59601" lon="-0.64456">
        <ele>173</ele>
        <time>2026-05-14T10:00:35+00:00</time>
      </trkpt>
      <trkpt lat="48.59607" lon="-0.6447">
        <ele>172</ele>
        <time>2026-05-14T10:00:36+00:00</time>
      </trkpt>
      <trkpt lat="48.59608" lon="-0.64502">
        <ele>172</ele>
        <time>2026-05-14T10:00:37+00:00</time>
      </trkpt>
      <trkpt lat="48.59604" lon="-0.64525">
        <ele>171</ele>
        <time>2026-05-14T10:00:38+00:00</time>
      </trkpt>
      <trkpt lat="48.5966" lon="-0.646">
        <ele>171</ele>
        <time>2026-05-14T10:00:39+00:00</time>
      </trkpt>
      <trkpt lat="48.59678" lon="-0.64643">
        <ele>170</ele>
        <time>2026-05-14T10:00:40+00:00</time>
      </trkpt>
      <trkpt lat="48.59706" lon="-0.6475">
        <ele>166</ele>
        <time>2026-05-14T10:00:41+00:00</time>
      </trkpt>
      <trkpt lat="48.59701" lon="-0.64758">
        <ele>164</ele>
        <time>2026-05-14T10:00:42+00:00</time>
      </trkpt>
      <trkpt lat="48.59683" lon="-0.64752">
        <ele>162</ele>
        <time>2026-05-14T10:00:43+00:00</time>
      </trkpt>
      <trkpt lat="48.59666" lon="-0.64752">
        <ele>159</ele>
        <time>2026-05-14T10:00:44+00:00</time>
      </trkpt>
      <trkpt lat="48.59644" lon="-0.64761">
        <ele>160</ele>
        <time>2026-05-14T10:00:45+00:00</time>
      </trkpt>
      <trkpt lat="48.5962" lon="-0.64779">
        <ele>160</ele>
        <time>2026-05-14T10:00:46+00:00</time>
      </trkpt>
      <trkpt lat="48.5958" lon="-0.64812">
        <ele>163</ele>
        <time>2026-05-14T10:00:47+00:00</time>
      </trkpt>
      <trkpt lat="48.59533" lon="-0.64888">
        <ele>172</ele>
        <time>2026-05-14T10:00:48+00:00</time>
      </trkpt>
      <trkpt lat="48.59496" lon="-0.64909">
        <ele>182</ele>
        <time>2026-05-14T10:00:49+00:00</time>
      </trkpt>
      <trkpt lat="48.59484" lon="-0.64907">
        <ele>186</ele>
        <time>2026-05-14T10:00:50+00:00</time>
      </trkpt>
      <trkpt lat="48.59429" lon="-0.64802">
        <ele>196</ele>
        <time>2026-05-14T10:00:51+00:00</time>
      </trkpt>
      <trkpt lat="48.59423" lon="-0.64796">
        <ele>198</ele>
        <time>2026-05-14T10:00:52+00:00</time>
      </trkpt>
      <trkpt lat="48.59413" lon="-0.64804">
        <ele>201</ele>
        <time>2026-05-14T10:00:53+00:00</time>
      </trkpt>
      <trkpt lat="48.5939" lon="-0.64759">
        <ele>203</ele>
        <time>2026-05-14T10:00:54+00:00</time>
      </trkpt>
      <trkpt lat="48.59383" lon="-0.64739">
        <ele>204</ele>
        <time>2026-05-14T10:00:55+00:00</time>
      </trkpt>
      <trkpt lat="48.59375" lon="-0.64737">
        <ele>206</ele>
        <time>2026-05-14T10:00:56+00:00</time>
      </trkpt>
      <trkpt lat="48.59368" lon="-0.64755">
        <ele>208</ele>
        <time>2026-05-14T10:00:57+00:00</time>
      </trkpt>
      <trkpt lat="48.59371" lon="-0.64789">
        <ele>209</ele>
        <time>2026-05-14T10:00:58+00:00</time>
      </trkpt>
      <trkpt lat="48.59365" lon="-0.64801">
        <ele>211</ele>
        <time>2026-05-14T10:00:59+00:00</time>
      </trkpt>
      <trkpt lat="48.5938" lon="-0.64828">
        <ele>209</ele>
        <time>2026-05-14T10:01:00+00:00</time>
      </trkpt>
      <trkpt lat="48.59392" lon="-0.64857">
        <ele>208</ele>
        <time>2026-05-14T10:01:01+00:00</time>
      </trkpt>
      <trkpt lat="48.5941" lon="-0.64854">
        <ele>204</ele>
        <time>2026-05-14T10:01:02+00:00</time>
      </trkpt>
      <trkpt lat="48.59419" lon="-0.64874">
        <ele>204</ele>
        <time>2026-05-14T10:01:03+00:00</time>
      </trkpt>
      <trkpt lat="48.59426" lon="-0.64907">
        <ele>204</ele>
        <time>2026-05-14T10:01:04+00:00</time>
      </trkpt>
      <trkpt lat="48.59412" lon="-0.64914">
        <ele>207</ele>
        <time>2026-05-14T10:01:05+00:00</time>
      </trkpt>
      <trkpt lat="48.59412" lon="-0.64926">
        <ele>208</ele>
        <time>2026-05-14T10:01:06+00:00</time>
      </trkpt>
      <trkpt lat="48.59401" lon="-0.64936">
        <ele>209</ele>
        <time>2026-05-14T10:01:07+00:00</time>
      </trkpt>
      <trkpt lat="48.59407" lon="-0.64985">
        <ele>208</ele>
        <time>2026-05-14T10:01:08+00:00</time>
      </trkpt>
      <trkpt lat="48.59419" lon="-0.64987">
        <ele>207</ele>
        <time>2026-05-14T10:01:09+00:00</time>
      </trkpt>
      <trkpt lat="48.59427" lon="-0.64998">
        <ele>205</ele>
        <time>2026-05-14T10:01:10+00:00</time>
      </trkpt>
      <trkpt lat="48.59438" lon="-0.65027">
        <ele>202</ele>
        <time>2026-05-14T10:01:11+00:00</time>
      </trkpt>
      <trkpt lat="48.5948" lon="-0.65015">
        <ele>190</ele>
        <time>2026-05-14T10:01:12+00:00</time>
      </trkpt>
      <trkpt lat="48.59487" lon="-0.65035">
        <ele>189</ele>
        <time>2026-05-14T10:01:13+00:00</time>
      </trkpt>
      <trkpt lat="48.59484" lon="-0.65077">
        <ele>191</ele>
        <time>2026-05-14T10:01:14+00:00</time>
      </trkpt>
      <trkpt lat="48.59472" lon="-0.65128">
        <ele>194</ele>
        <time>2026-05-14T10:01:15+00:00</time>
      </trkpt>
      <trkpt lat="48.59441" lon="-0.65163">
        <ele>199</ele>
        <time>2026-05-14T10:01:16+00:00</time>
      </trkpt>
      <trkpt lat="48.59409" lon="-0.65182">
        <ele>202</ele>
        <time>2026-05-14T10:01:17+00:00</time>
      </trkpt>
      <trkpt lat="48.59375" lon="-0.65192">
        <ele>197</ele>
        <time>2026-05-14T10:01:18+00:00</time>
      </trkpt>
      <trkpt lat="48.59369" lon="-0.65205">
        <ele>195</ele>
        <time>2026-05-14T10:01:19+00:00</time>
      </trkpt>
      <trkpt lat="48.59376" lon="-0.65232">
        <ele>194</ele>
        <time>2026-05-14T10:01:20+00:00</time>
      </trkpt>
      <trkpt lat="48.59388" lon="-0.65246">
        <ele>196</ele>
        <time>2026-05-14T10:01:21+00:00</time>
      </trkpt>
      <trkpt lat="48.59393" lon="-0.65272">
        <ele>194</ele>
        <time>2026-05-14T10:01:22+00:00</time>
      </trkpt>
      <trkpt lat="48.59393" lon="-0.65312">
        <ele>189</ele>
        <time>2026-05-14T10:01:23+00:00</time>
      </trkpt>
      <trkpt lat="48.5939" lon="-0.65328">
        <ele>187</ele>
        <time>2026-05-14T10:01:24+00:00</time>
      </trkpt>
      <trkpt lat="48.59399" lon="-0.65327">
        <ele>188</ele>
        <time>2026-05-14T10:01:25+00:00</time>
      </trkpt>
      <trkpt lat="48.59417" lon="-0.65341">
        <ele>189</ele>
        <time>2026-05-14T10:01:26+00:00</time>
      </trkpt>
      <trkpt lat="48.59438" lon="-0.65382">
        <ele>180</ele>
        <time>2026-05-14T10:01:27+00:00</time>
      </trkpt>
      <trkpt lat="48.59452" lon="-0.65374">
        <ele>181</ele>
        <time>2026-05-14T10:01:28+00:00</time>
      </trkpt>
      <trkpt lat="48.59473" lon="-0.65429">
        <ele>169</ele>
        <time>2026-05-14T10:01:29+00:00</time>
      </trkpt>
      <trkpt lat="48.59491" lon="-0.65445">
        <ele>163</ele>
        <time>2026-05-14T10:01:30+00:00</time>
      </trkpt>
      <trkpt lat="48.59474" lon="-0.6543">
        <ele>168</ele>
        <time>2026-05-14T10:01:31+00:00</time>
      </trkpt>
      <trkpt lat="48.59465" lon="-0.65406">
        <ele>175</ele>
        <time>2026-05-14T10:01:32+00:00</time>
      </trkpt>
      <trkpt lat="48.59465" lon="-0.65394">
        <ele>177</ele>
        <time>2026-05-14T10:01:33+00:00</time>
      </trkpt>
      <trkpt lat="48.59468" lon="-0.65388">
        <ele>178</ele>
        <time>2026-05-14T10:01:34+00:00</time>
      </trkpt>
      <trkpt lat="48.59473" lon="-0.65358">
        <ele>182</ele>
        <time>2026-05-14T10:01:35+00:00</time>
      </trkpt>
      <trkpt lat="48.59489" lon="-0.65321">
        <ele>186</ele>
        <time>2026-05-14T10:01:36+00:00</time>
      </trkpt>
      <trkpt lat="48.59485" lon="-0.65273">
        <ele>188</ele>
        <time>2026-05-14T10:01:37+00:00</time>
      </trkpt>
      <trkpt lat="48.59492" lon="-0.6528">
        <ele>187</ele>
        <time>2026-05-14T10:01:38+00:00</time>
      </trkpt>
      <trkpt lat="48.59495" lon="-0.65306">
        <ele>186</ele>
        <time>2026-05-14T10:01:39+00:00</time>
      </trkpt>
      <trkpt lat="48.59506" lon="-0.65327">
        <ele>182</ele>
        <time>2026-05-14T10:01:40+00:00</time>
      </trkpt>
      <trkpt lat="48.59513" lon="-0.65332">
        <ele>179</ele>
        <time>2026-05-14T10:01:41+00:00</time>
      </trkpt>
      <trkpt lat="48.59519" lon="-0.65313">
        <ele>177</ele>
        <time>2026-05-14T10:01:42+00:00</time>
      </trkpt>
      <trkpt lat="48.59521" lon="-0.65296">
        <ele>177</ele>
        <time>2026-05-14T10:01:43+00:00</time>
      </trkpt>
      <trkpt lat="48.59513" lon="-0.65277">
        <ele>181</ele>
        <time>2026-05-14T10:01:44+00:00</time>
      </trkpt>
      <trkpt lat="48.5953" lon="-0.65212">
        <ele>174</ele>
        <time>2026-05-14T10:01:45+00:00</time>
      </trkpt>
      <trkpt lat="48.59526" lon="-0.65193">
        <ele>176</ele>
        <time>2026-05-14T10:01:46+00:00</time>
      </trkpt>
      <trkpt lat="48.5953" lon="-0.65178">
        <ele>174</ele>
        <time>2026-05-14T10:01:47+00:00</time>
      </trkpt>
      <trkpt lat="48.59539" lon="-0.65197">
        <ele>170</ele>
        <time>2026-05-14T10:01:48+00:00</time>
      </trkpt>
      <trkpt lat="48.59543" lon="-0.65186">
        <ele>168</ele>
        <time>2026-05-14T10:01:49+00:00</time>
      </trkpt>
      <trkpt lat="48.59551" lon="-0.65178">
        <ele>164</ele>
        <time>2026-05-14T10:01:50+00:00</time>
      </trkpt>
      <trkpt lat="48.59552" lon="-0.65202">
        <ele>164</ele>
        <time>2026-05-14T10:01:51+00:00</time>
      </trkpt>
      <trkpt lat="48.59586" lon="-0.65397">
        <ele>150</ele>
        <time>2026-05-14T10:01:52+00:00</time>
      </trkpt>
      <trkpt lat="48.59599" lon="-0.65403">
        <ele>148</ele>
        <time>2026-05-14T10:01:53+00:00</time>
      </trkpt>
      <trkpt lat="48.59595" lon="-0.65449">
        <ele>146</ele>
        <time>2026-05-14T10:01:54+00:00</time>
      </trkpt>
      <trkpt lat="48.59591" lon="-0.65456">
        <ele>145</ele>
        <time>2026-05-14T10:01:55+00:00</time>
      </trkpt>
      <trkpt lat="48.59592" lon="-0.65463">
        <ele>145</ele>
        <time>2026-05-14T10:01:56+00:00</time>
      </trkpt>
      <trkpt lat="48.59571" lon="-0.65482">
        <ele>144</ele>
        <time>2026-05-14T10:01:57+00:00</time>
      </trkpt>
      <trkpt lat="48.59545" lon="-0.65499">
        <ele>144</ele>
        <time>2026-05-14T10:01:58+00:00</time>
      </trkpt>
      <trkpt lat="48.59509" lon="-0.65501">
        <ele>146</ele>
        <time>2026-05-14T10:01:59+00:00</time>
      </trkpt>
      <trkpt lat="48.59443" lon="-0.65488">
        <ele>148</ele>
        <time>2026-05-14T10:02:00+00:00</time>
      </trkpt>
      <trkpt lat="48.59422" lon="-0.65479">
        <ele>151</ele>
        <time>2026-05-14T10:02:01+00:00</time>
      </trkpt>
      <trkpt lat="48.59385" lon="-0.65382">
        <ele>175</ele>
        <time>2026-05-14T10:02:02+00:00</time>
      </trkpt>
      <trkpt lat="48.59382" lon="-0.6535">
        <ele>181</ele>
        <time>2026-05-14T10:02:03+00:00</time>
      </trkpt>
      <trkpt lat="48.59372" lon="-0.65329">
        <ele>183</ele>
        <time>2026-05-14T10:02:04+00:00</time>
      </trkpt>
      <trkpt lat="48.59369" lon="-0.65268">
        <ele>190</ele>
        <time>2026-05-14T10:02:05+00:00</time>
      </trkpt>
      <trkpt lat="48.59361" lon="-0.6519">
        <ele>195</ele>
        <time>2026-05-14T10:02:06+00:00</time>
      </trkpt>
      <trkpt lat="48.59362" lon="-0.65159">
        <ele>198</ele>
        <time>2026-05-14T10:02:07+00:00</time>
      </trkpt>
      <trkpt lat="48.59356" lon="-0.65142">
        <ele>199</ele>
        <time>2026-05-14T10:02:08+00:00</time>
      </trkpt>
      <trkpt lat="48.59357" lon="-0.65134">
        <ele>200</ele>
        <time>2026-05-14T10:02:09+00:00</time>
      </trkpt>
      <trkpt lat="48.59365" lon="-0.65137">
        <ele>200</ele>
        <time>2026-05-14T10:02:10+00:00</time>
      </trkpt>
      <trkpt lat="48.5937" lon="-0.65135">
        <ele>201</ele>
        <time>2026-05-14T10:02:11+00:00</time>
      </trkpt>
      <trkpt lat="48.59373" lon="-0.65122">
        <ele>202</ele>
        <time>2026-05-14T10:02:12+00:00</time>
      </trkpt>
      <trkpt lat="48.59349" lon="-0.65038">
        <ele>208</ele>
        <time>2026-05-14T10:02:13+00:00</time>
      </trkpt>
      <trkpt lat="48.59346" lon="-0.64981">
        <ele>211</ele>
        <time>2026-05-14T10:02:14+00:00</time>
      </trkpt>
      <trkpt lat="48.59351" lon="-0.64973">
        <ele>212</ele>
        <time>2026-05-14T10:02:15+00:00</time>
      </trkpt>
      <trkpt lat="48.59379" lon="-0.64952">
        <ele>210</ele>
        <time>2026-05-14T10:02:16+00:00</time>
      </trkpt>
      <trkpt lat="48.59391" lon="-0.65006">
        <ele>209</ele>
        <time>2026-05-14T10:02:17+00:00</time>
      </trkpt>
      <trkpt lat="48.59396" lon="-0.65017">
        <ele>208</ele>
        <time>2026-05-14T10:02:18+00:00</time>
      </trkpt>
    </trkseg>
  </trk>
</gpx>
