<?xml version="1.0" encoding="UTF-8" ?>
<gpx version="1.1" xmlns:xsi="http://www.w3.org/2001/XMLSchema-instance"
    xmlns="http://www.topografix.com/GPX/1/1"
    xsi:schemaLocation="http://www.topografix.com/GPX/1/1 http://www.topografix.com/GPX/1/1/gpx.xsd"
    creator="Openrunner - https://www.openrunner.com" >	<trk>
	                   <name>Strasbourg-12809722</name>
						<trkseg>
					<trkpt lat="48.592900" lon="7.725890">
						<ele>143</ele>
						<time>2026-05-01T09:41:27Z</time>
					</trkpt>
					<trkpt lat="48.592740" lon="7.725590">
						<ele>143</ele>
						<time>2026-05-01T09:42:01Z</time>
					</trkpt>
					<trkpt lat="48.592210" lon="7.725560">
						<ele>142</ele>
						<time>2026-05-01T09:43:12Z</time>
					</trkpt>
					<trkpt lat="48.591380" lon="7.727960">
						<ele>136</ele>
						<time>2026-05-01T09:47:11Z</time>
					</trkpt>
					<trkpt lat="48.590610" lon="7.729360">
						<ele>139</ele>
						<time>2026-05-01T09:49:52Z</time>
					</trkpt>
					<trkpt lat="48.590820" lon="7.730650">
						<ele>142</ele>
						<time>2026-05-01T09:51:49Z</time>
					</trkpt>
					<trkpt lat="48.591270" lon="7.731310">
						<ele>142</ele>
						<time>2026-05-01T09:53:12Z</time>
					</trkpt>
					<trkpt lat="48.592650" lon="7.732600">
						<ele>142</ele>
						<time>2026-05-01T09:56:49Z</time>
					</trkpt>
					<trkpt lat="48.591560" lon="7.734040">
						<ele>144</ele>
						<time>2026-05-01T10:00:02Z</time>
					</trkpt>
					<trkpt lat="48.590400" lon="7.735010">
						<ele>138</ele>
						<time>2026-05-01T10:02:59Z</time>
					</trkpt>
					<trkpt lat="48.591330" lon="7.737580">
						<ele>141</ele>
						<time>2026-05-01T10:07:18Z</time>
					</trkpt>
					<trkpt lat="48.591800" lon="7.739100">
						<ele>140</ele>
						<time>2026-05-01T10:09:46Z</time>
					</trkpt>
					<trkpt lat="48.592180" lon="7.741660">
						<ele>139</ele>
						<time>2026-05-01T10:13:37Z</time>
					</trkpt>
					<trkpt lat="48.591790" lon="7.741750">
						<ele>140</ele>
						<time>2026-05-01T10:14:30Z</time>
					</trkpt>
					<trkpt lat="48.591500" lon="7.742090">
						<ele>141</ele>
						<time>2026-05-01T10:15:19Z</time>
					</trkpt>
					<trkpt lat="48.591340" lon="7.742670">
						<ele>143</ele>
						<time>2026-05-01T10:16:14Z</time>
					</trkpt>
					<trkpt lat="48.591440" lon="7.743540">
						<ele>142</ele>
						<time>2026-05-01T10:17:32Z</time>
					</trkpt>
					<trkpt lat="48.590640" lon="7.744570">
						<ele>143</ele>
						<time>2026-05-01T10:19:53Z</time>
					</trkpt>
					<trkpt lat="48.589940" lon="7.744980">
						<ele>144</ele>
						<time>2026-05-01T10:21:33Z</time>
					</trkpt>
					<trkpt lat="48.587000" lon="7.746470">
						<ele>144</ele>
						<time>2026-05-01T10:28:27Z</time>
					</trkpt>
					<trkpt lat="48.586910" lon="7.746540">
						<ele>144</ele>
						<time>2026-05-01T10:28:40Z</time>
					</trkpt>
					<trkpt lat="48.587340" lon="7.748380">
						<ele>142</ele>
						<time>2026-05-01T10:31:32Z</time>
					</trkpt>
					<trkpt lat="48.587280" lon="7.749320">
						<ele>142</ele>
						<time>2026-05-01T10:32:56Z</time>
					</trkpt>
					<trkpt lat="48.587100" lon="7.750810">
						<ele>142</ele>
						<time>2026-05-01T10:35:09Z</time>
					</trkpt>
					<trkpt lat="48.586870" lon="7.751890">
						<ele>141</ele>
						<time>2026-05-01T10:36:49Z</time>
					</trkpt>
					<trkpt lat="48.586510" lon="7.753000">
						<ele>139</ele>
						<time>2026-05-01T10:38:39Z</time>
					</trkpt>
					<trkpt lat="48.586220" lon="7.753930">
						<ele>139</ele>
						<time>2026-05-01T10:40:09Z</time>
					</trkpt>
					<trkpt lat="48.585340" lon="7.755010">
						<ele>143</ele>
						<time>2026-05-01T10:42:41Z</time>
					</trkpt>
					<trkpt lat="48.585130" lon="7.754580">
						<ele>144</ele>
						<time>2026-05-01T10:43:28Z</time>
					</trkpt>
					<trkpt lat="48.583850" lon="7.756040">
						<ele>146</ele>
						<time>2026-05-01T10:47:02Z</time>
					</trkpt>
					<trkpt lat="48.583330" lon="7.754980">
						<ele>146</ele>
						<time>2026-05-01T10:48:58Z</time>
					</trkpt>
					<trkpt lat="48.583110" lon="7.754650">
						<ele>147</ele>
						<time>2026-05-01T10:49:40Z</time>
					</trkpt>
					<trkpt lat="48.583060" lon="7.754230">
						<ele>148</ele>
						<time>2026-05-01T10:50:17Z</time>
					</trkpt>
					<trkpt lat="48.583010" lon="7.753540">
						<ele>148</ele>
						<time>2026-05-01T10:51:19Z</time>
					</trkpt>
					<trkpt lat="48.582590" lon="7.753760">
						<ele>146</ele>
						<time>2026-05-01T10:52:18Z</time>
					</trkpt>
					<trkpt lat="48.582090" lon="7.754180">
						<ele>145</ele>
						<time>2026-05-01T10:53:34Z</time>
					</trkpt>
					<trkpt lat="48.581570" lon="7.754680">
						<ele>142</ele>
						<time>2026-05-01T10:54:56Z</time>
					</trkpt>
					<trkpt lat="48.581270" lon="7.754950">
						<ele>141</ele>
						<time>2026-05-01T10:55:43Z</time>
					</trkpt>
					<trkpt lat="48.580560" lon="7.753470">
						<ele>143</ele>
						<time>2026-05-01T10:58:24Z</time>
					</trkpt>
					<trkpt lat="48.579390" lon="7.750930">
						<ele>144</ele>
						<time>2026-05-01T11:02:58Z</time>
					</trkpt>
					<trkpt lat="48.579850" lon="7.750390">
						<ele>143</ele>
						<time>2026-05-01T11:04:15Z</time>
					</trkpt>
					<trkpt lat="48.580450" lon="7.749760">
						<ele>147</ele>
						<time>2026-05-01T11:05:53Z</time>
					</trkpt>
					<trkpt lat="48.580640" lon="7.749540">
						<ele>149</ele>
						<time>2026-05-01T11:06:25Z</time>
					</trkpt>
					<trkpt lat="48.580420" lon="7.748960">
						<ele>148</ele>
						<time>2026-05-01T11:07:24Z</time>
					</trkpt>
					<trkpt lat="48.581190" lon="7.748180">
						<ele>151</ele>
						<time>2026-05-01T11:09:28Z</time>
					</trkpt>
					<trkpt lat="48.581520" lon="7.747940">
						<ele>152</ele>
						<time>2026-05-01T11:10:16Z</time>
					</trkpt>
					<trkpt lat="48.581640" lon="7.748370">
						<ele>152</ele>
						<time>2026-05-01T11:10:58Z</time>
					</trkpt>
					<trkpt lat="48.582120" lon="7.747740">
						<ele>152</ele>
						<time>2026-05-01T11:12:22Z</time>
					</trkpt>
					<trkpt lat="48.582790" lon="7.747130">
						<ele>149</ele>
						<time>2026-05-01T11:14:07Z</time>
					</trkpt>
					<trkpt lat="48.583260" lon="7.746870">
						<ele>147</ele>
						<time>2026-05-01T11:15:14Z</time>
					</trkpt>
					<trkpt lat="48.583710" lon="7.744830">
						<ele>147</ele>
						<time>2026-05-01T11:18:23Z</time>
					</trkpt>
					<trkpt lat="48.583710" lon="7.744670">
						<ele>147</ele>
						<time>2026-05-01T11:18:38Z</time>
					</trkpt>
					<trkpt lat="48.583820" lon="7.744580">
						<ele>147</ele>
						<time>2026-05-01T11:18:54Z</time>
					</trkpt>
					<trkpt lat="48.583920" lon="7.744340">
						<ele>147</ele>
						<time>2026-05-01T11:19:19Z</time>
					</trkpt>
					<trkpt lat="48.584380" lon="7.744190">
						<ele>146</ele>
						<time>2026-05-01T11:20:22Z</time>
					</trkpt>
					<trkpt lat="48.584320" lon="7.743520">
						<ele>148</ele>
						<time>2026-05-01T11:21:22Z</time>
					</trkpt>
					<trkpt lat="48.584990" lon="7.742920">
						<ele>144</ele>
						<time>2026-05-01T11:23:06Z</time>
					</trkpt>
					<trkpt lat="48.584210" lon="7.741130">
						<ele>143</ele>
						<time>2026-05-01T11:26:15Z</time>
					</trkpt>
					<trkpt lat="48.584640" lon="7.740810">
						<ele>141</ele>
						<time>2026-05-01T11:27:19Z</time>
					</trkpt>
					<trkpt lat="48.585200" lon="7.740350">
						<ele>143</ele>
						<time>2026-05-01T11:28:44Z</time>
					</trkpt>
					<trkpt lat="48.587470" lon="7.738710">
						<ele>140</ele>
						<time>2026-05-01T11:34:20Z</time>
					</trkpt>
					<trkpt lat="48.587640" lon="7.738840">
						<ele>141</ele>
						<time>2026-05-01T11:34:45Z</time>
					</trkpt>
					<trkpt lat="48.587770" lon="7.738560">
						<ele>141</ele>
						<time>2026-05-01T11:35:15Z</time>
					</trkpt>
					<trkpt lat="48.588980" lon="7.736220">
						<ele>140</ele>
						<time>2026-05-01T11:39:38Z</time>
					</trkpt>
					<trkpt lat="48.589370" lon="7.735940">
						<ele>140</ele>
						<time>2026-05-01T11:40:35Z</time>
					</trkpt>
					<trkpt lat="48.589500" lon="7.735790">
						<ele>140</ele>
						<time>2026-05-01T11:40:57Z</time>
					</trkpt>
					<trkpt lat="48.589710" lon="7.735680">
						<ele>140</ele>
						<time>2026-05-01T11:41:27Z</time>
					</trkpt>
					<trkpt lat="48.591550" lon="7.734130">
						<ele>145</ele>
						<time>2026-05-01T11:46:08Z</time>
					</trkpt>
					<trkpt lat="48.592690" lon="7.732680">
						<ele>142</ele>
						<time>2026-05-01T11:49:26Z</time>
					</trkpt>
					<trkpt lat="48.591480" lon="7.731490">
						<ele>141</ele>
						<time>2026-05-01T11:52:39Z</time>
					</trkpt>
					<trkpt lat="48.592450" lon="7.730210">
						<ele>140</ele>
						<time>2026-05-01T11:55:31Z</time>
					</trkpt>
					<trkpt lat="48.595280" lon="7.728020">
						<ele>141</ele>
						<time>2026-05-01T12:02:35Z</time>
					</trkpt>
					<trkpt lat="48.595370" lon="7.726020">
						<ele>145</ele>
						<time>2026-05-01T12:05:32Z</time>
					</trkpt>
					<trkpt lat="48.593070" lon="7.725680">
						<ele>143</ele>
						<time>2026-05-01T12:10:40Z</time>
					</trkpt>
					<trkpt lat="48.593050" lon="7.725910">
						<ele>143</ele>
						<time>2026-05-01T12:11:01Z</time>
					</trkpt>
					</trkseg>
				</trk>
			</gpx>