<?xml version="1.0" encoding="UTF-8" ?>
<gpx version="1.1" xmlns:xsi="http://www.w3.org/2001/XMLSchema-instance"
    xmlns="http://www.topografix.com/GPX/1/1"
    xsi:schemaLocation="http://www.topografix.com/GPX/1/1 http://www.topografix.com/GPX/1/1/gpx.xsd"
    creator="Openrunner - https://www.openrunner.com" >	<trk>
	                   <name>Sur les pas de Frédéric Chopin à Paris (1) Paris 9-17034671</name>
						<trkseg>
					<trkpt lat="48.876260" lon="2.324730">
						<ele>42</ele>
						<time>2026-05-01T08:37:19Z</time>
					</trkpt>
					<trkpt lat="48.876400" lon="2.325040">
						<ele>44</ele>
						<time>2026-05-01T08:37:52Z</time>
					</trkpt>
					<trkpt lat="48.876430" lon="2.325380">
						<ele>44</ele>
						<time>2026-05-01T08:38:22Z</time>
					</trkpt>
					<trkpt lat="48.876490" lon="2.325720">
						<ele>46</ele>
						<time>2026-05-01T08:38:53Z</time>
					</trkpt>
					<trkpt lat="48.876520" lon="2.326060">
						<ele>46</ele>
						<time>2026-05-01T08:39:23Z</time>
					</trkpt>
					<trkpt lat="48.876300" lon="2.326120">
						<ele>45</ele>
						<time>2026-05-01T08:39:53Z</time>
					</trkpt>
					<trkpt lat="48.876140" lon="2.326390">
						<ele>43</ele>
						<time>2026-05-01T08:40:25Z</time>
					</trkpt>
					<trkpt lat="48.876120" lon="2.326740">
						<ele>44</ele>
						<time>2026-05-01T08:40:56Z</time>
					</trkpt>
					<trkpt lat="48.876320" lon="2.326900">
						<ele>46</ele>
						<time>2026-05-01T08:41:26Z</time>
					</trkpt>
					<trkpt lat="48.876550" lon="2.326960">
						<ele>48</ele>
						<time>2026-05-01T08:41:57Z</time>
					</trkpt>
					<trkpt lat="48.877010" lon="2.327000">
						<ele>48</ele>
						<time>2026-05-01T08:42:58Z</time>
					</trkpt>
					<trkpt lat="48.877250" lon="2.326980">
						<ele>48</ele>
						<time>2026-05-01T08:43:31Z</time>
					</trkpt>
					<trkpt lat="48.877450" lon="2.327130">
						<ele>47</ele>
						<time>2026-05-01T08:44:00Z</time>
					</trkpt>
					<trkpt lat="48.877620" lon="2.327370">
						<ele>48</ele>
						<time>2026-05-01T08:44:31Z</time>
					</trkpt>
					<trkpt lat="48.877610" lon="2.327540">
						<ele>48</ele>
						<time>2026-05-01T08:44:46Z</time>
					</trkpt>
					<trkpt lat="48.877550" lon="2.327700">
						<ele>48</ele>
						<time>2026-05-01T08:45:02Z</time>
					</trkpt>
					<trkpt lat="48.877460" lon="2.328030">
						<ele>48</ele>
						<time>2026-05-01T08:45:34Z</time>
					</trkpt>
					<trkpt lat="48.877340" lon="2.328340">
						<ele>47</ele>
						<time>2026-05-01T08:46:05Z</time>
					</trkpt>
					<trkpt lat="48.877250" lon="2.328670">
						<ele>48</ele>
						<time>2026-05-01T08:46:37Z</time>
					</trkpt>
					<trkpt lat="48.876910" lon="2.329640">
						<ele>48</ele>
						<time>2026-05-01T08:48:13Z</time>
					</trkpt>
					<trkpt lat="48.876590" lon="2.330670">
						<ele>46</ele>
						<time>2026-05-01T08:49:53Z</time>
					</trkpt>
					<trkpt lat="48.876670" lon="2.330820">
						<ele>46</ele>
						<time>2026-05-01T08:50:10Z</time>
					</trkpt>
					<trkpt lat="48.876730" lon="2.330970">
						<ele>46</ele>
						<time>2026-05-01T08:50:25Z</time>
					</trkpt>
					<trkpt lat="48.876600" lon="2.330980">
						<ele>46</ele>
						<time>2026-05-01T08:50:43Z</time>
					</trkpt>
					<trkpt lat="48.876540" lon="2.331160">
						<ele>45</ele>
						<time>2026-05-01T08:51:01Z</time>
					</trkpt>
					<trkpt lat="48.876500" lon="2.331520">
						<ele>44</ele>
						<time>2026-05-01T08:51:33Z</time>
					</trkpt>
					<trkpt lat="48.876520" lon="2.331690">
						<ele>44</ele>
						<time>2026-05-01T08:51:48Z</time>
					</trkpt>
					<trkpt lat="48.876640" lon="2.331950">
						<ele>44</ele>
						<time>2026-05-01T08:52:16Z</time>
					</trkpt>
					<trkpt lat="48.876880" lon="2.331580">
						<ele>45</ele>
						<time>2026-05-01T08:53:01Z</time>
					</trkpt>
					<trkpt lat="48.876660" lon="2.331970">
						<ele>44</ele>
						<time>2026-05-01T08:53:46Z</time>
					</trkpt>
					<trkpt lat="48.876870" lon="2.332170">
						<ele>45</ele>
						<time>2026-05-01T08:54:19Z</time>
					</trkpt>
					<trkpt lat="48.876540" lon="2.331740">
						<ele>44</ele>
						<time>2026-05-01T08:55:17Z</time>
					</trkpt>
					<trkpt lat="48.876650" lon="2.332040">
						<ele>44</ele>
						<time>2026-05-01T08:55:48Z</time>
					</trkpt>
					<trkpt lat="48.876840" lon="2.332210">
						<ele>45</ele>
						<time>2026-05-01T08:56:17Z</time>
					</trkpt>
					<trkpt lat="48.876950" lon="2.332220">
						<ele>46</ele>
						<time>2026-05-01T08:56:32Z</time>
					</trkpt>
					<trkpt lat="48.877080" lon="2.332200">
						<ele>47</ele>
						<time>2026-05-01T08:56:49Z</time>
					</trkpt>
					<trkpt lat="48.877750" lon="2.331910">
						<ele>50</ele>
						<time>2026-05-01T08:58:22Z</time>
					</trkpt>
					<trkpt lat="48.877760" lon="2.332180">
						<ele>51</ele>
						<time>2026-05-01T08:58:46Z</time>
					</trkpt>
					<trkpt lat="48.877700" lon="2.334340">
						<ele>47</ele>
						<time>2026-05-01T09:01:56Z</time>
					</trkpt>
					<trkpt lat="48.877880" lon="2.334390">
						<ele>49</ele>
						<time>2026-05-01T09:02:20Z</time>
					</trkpt>
					<trkpt lat="48.877640" lon="2.334360">
						<ele>47</ele>
						<time>2026-05-01T09:02:52Z</time>
					</trkpt>
					<trkpt lat="48.877390" lon="2.334300">
						<ele>46</ele>
						<time>2026-05-01T09:03:26Z</time>
					</trkpt>
					<trkpt lat="48.876950" lon="2.334270">
						<ele>46</ele>
						<time>2026-05-01T09:04:25Z</time>
					</trkpt>
					<trkpt lat="48.876870" lon="2.335320">
						<ele>46</ele>
						<time>2026-05-01T09:05:57Z</time>
					</trkpt>
					<trkpt lat="48.876880" lon="2.335520">
						<ele>46</ele>
						<time>2026-05-01T09:06:15Z</time>
					</trkpt>
					<trkpt lat="48.877000" lon="2.335530">
						<ele>46</ele>
						<time>2026-05-01T09:06:31Z</time>
					</trkpt>
					<trkpt lat="48.877100" lon="2.335550">
						<ele>47</ele>
						<time>2026-05-01T09:06:45Z</time>
					</trkpt>
					<trkpt lat="48.877120" lon="2.335820">
						<ele>47</ele>
						<time>2026-05-01T09:07:08Z</time>
					</trkpt>
					<trkpt lat="48.877390" lon="2.335940">
						<ele>47</ele>
						<time>2026-05-01T09:07:46Z</time>
					</trkpt>
					<trkpt lat="48.877490" lon="2.336270">
						<ele>47</ele>
						<time>2026-05-01T09:08:18Z</time>
					</trkpt>
					<trkpt lat="48.877510" lon="2.335910">
						<ele>48</ele>
						<time>2026-05-01T09:08:49Z</time>
					</trkpt>
					<trkpt lat="48.877110" lon="2.335850">
						<ele>47</ele>
						<time>2026-05-01T09:09:43Z</time>
					</trkpt>
					<trkpt lat="48.877150" lon="2.335570">
						<ele>47</ele>
						<time>2026-05-01T09:10:08Z</time>
					</trkpt>
					<trkpt lat="48.877290" lon="2.335540">
						<ele>47</ele>
						<time>2026-05-01T09:10:27Z</time>
					</trkpt>
					<trkpt lat="48.877520" lon="2.335570">
						<ele>48</ele>
						<time>2026-05-01T09:10:58Z</time>
					</trkpt>
					<trkpt lat="48.877880" lon="2.335660">
						<ele>50</ele>
						<time>2026-05-01T09:11:47Z</time>
					</trkpt>
					<trkpt lat="48.877990" lon="2.335660">
						<ele>51</ele>
						<time>2026-05-01T09:12:01Z</time>
					</trkpt>
					<trkpt lat="48.878230" lon="2.335730">
						<ele>53</ele>
						<time>2026-05-01T09:12:34Z</time>
					</trkpt>
					<trkpt lat="48.878120" lon="2.336000">
						<ele>52</ele>
						<time>2026-05-01T09:13:02Z</time>
					</trkpt>
					<trkpt lat="48.877690" lon="2.337250">
						<ele>49</ele>
						<time>2026-05-01T09:15:06Z</time>
					</trkpt>
					<trkpt lat="48.877820" lon="2.337350">
						<ele>50</ele>
						<time>2026-05-01T09:15:25Z</time>
					</trkpt>
					<trkpt lat="48.878010" lon="2.337400">
						<ele>51</ele>
						<time>2026-05-01T09:15:51Z</time>
					</trkpt>
					<trkpt lat="48.878240" lon="2.337430">
						<ele>52</ele>
						<time>2026-05-01T09:16:22Z</time>
					</trkpt>
					<trkpt lat="48.878200" lon="2.337570">
						<ele>52</ele>
						<time>2026-05-01T09:16:35Z</time>
					</trkpt>
					<trkpt lat="48.878200" lon="2.337710">
						<ele>52</ele>
						<time>2026-05-01T09:16:47Z</time>
					</trkpt>
					<trkpt lat="48.878460" lon="2.337720">
						<ele>54</ele>
						<time>2026-05-01T09:17:22Z</time>
					</trkpt>
					<trkpt lat="48.878310" lon="2.337780">
						<ele>53</ele>
						<time>2026-05-01T09:17:43Z</time>
					</trkpt>
					<trkpt lat="48.878190" lon="2.337790">
						<ele>52</ele>
						<time>2026-05-01T09:17:59Z</time>
					</trkpt>
					<trkpt lat="48.877920" lon="2.338120">
						<ele>52</ele>
						<time>2026-05-01T09:18:45Z</time>
					</trkpt>
					<trkpt lat="48.877830" lon="2.338180">
						<ele>51</ele>
						<time>2026-05-01T09:18:58Z</time>
					</trkpt>
					<trkpt lat="48.877250" lon="2.338760">
						<ele>50</ele>
						<time>2026-05-01T09:20:31Z</time>
					</trkpt>
					<trkpt lat="48.876900" lon="2.339160">
						<ele>48</ele>
						<time>2026-05-01T09:21:29Z</time>
					</trkpt>
					<trkpt lat="48.876650" lon="2.339350">
						<ele>47</ele>
						<time>2026-05-01T09:22:06Z</time>
					</trkpt>
					<trkpt lat="48.876500" lon="2.339570">
						<ele>47</ele>
						<time>2026-05-01T09:22:34Z</time>
					</trkpt>
					<trkpt lat="48.876400" lon="2.339690">
						<ele>47</ele>
						<time>2026-05-01T09:22:51Z</time>
					</trkpt>
					<trkpt lat="48.876170" lon="2.339880">
						<ele>47</ele>
						<time>2026-05-01T09:23:26Z</time>
					</trkpt>
					<trkpt lat="48.876130" lon="2.340310">
						<ele>48</ele>
						<time>2026-05-01T09:24:04Z</time>
					</trkpt>
					<trkpt lat="48.875860" lon="2.340430">
						<ele>48</ele>
						<time>2026-05-01T09:24:42Z</time>
					</trkpt>
					<trkpt lat="48.875640" lon="2.340560">
						<ele>48</ele>
						<time>2026-05-01T09:25:13Z</time>
					</trkpt>
					<trkpt lat="48.875450" lon="2.340760">
						<ele>48</ele>
						<time>2026-05-01T09:25:44Z</time>
					</trkpt>
					<trkpt lat="48.875240" lon="2.340930">
						<ele>48</ele>
						<time>2026-05-01T09:26:16Z</time>
					</trkpt>
					<trkpt lat="48.875200" lon="2.341020">
						<ele>48</ele>
						<time>2026-05-01T09:26:25Z</time>
					</trkpt>
					<trkpt lat="48.875210" lon="2.341120">
						<ele>47</ele>
						<time>2026-05-01T09:26:34Z</time>
					</trkpt>
					<trkpt lat="48.875050" lon="2.341170">
						<ele>47</ele>
						<time>2026-05-01T09:26:56Z</time>
					</trkpt>
					<trkpt lat="48.874940" lon="2.340950">
						<ele>48</ele>
						<time>2026-05-01T09:27:20Z</time>
					</trkpt>
					<trkpt lat="48.874390" lon="2.340830">
						<ele>47</ele>
						<time>2026-05-01T09:28:35Z</time>
					</trkpt>
					<trkpt lat="48.874270" lon="2.340820">
						<ele>47</ele>
						<time>2026-05-01T09:28:51Z</time>
					</trkpt>
					<trkpt lat="48.874120" lon="2.340910">
						<ele>47</ele>
						<time>2026-05-01T09:29:12Z</time>
					</trkpt>
					<trkpt lat="48.874080" lon="2.341030">
						<ele>47</ele>
						<time>2026-05-01T09:29:24Z</time>
					</trkpt>
					<trkpt lat="48.874070" lon="2.341450">
						<ele>47</ele>
						<time>2026-05-01T09:30:01Z</time>
					</trkpt>
					<trkpt lat="48.874040" lon="2.341800">
						<ele>47</ele>
						<time>2026-05-01T09:30:32Z</time>
					</trkpt>
					<trkpt lat="48.874080" lon="2.342830">
						<ele>45</ele>
						<time>2026-05-01T09:32:02Z</time>
					</trkpt>
					<trkpt lat="48.874060" lon="2.345190">
						<ele>46</ele>
						<time>2026-05-01T09:35:29Z</time>
					</trkpt>
					<trkpt lat="48.874070" lon="2.345830">
						<ele>47</ele>
						<time>2026-05-01T09:36:26Z</time>
					</trkpt>
					<trkpt lat="48.874060" lon="2.347070">
						<ele>49</ele>
						<time>2026-05-01T09:38:14Z</time>
					</trkpt>
					<trkpt lat="48.873140" lon="2.346910">
						<ele>49</ele>
						<time>2026-05-01T09:40:18Z</time>
					</trkpt>
					<trkpt lat="48.873110" lon="2.347170">
						<ele>49</ele>
						<time>2026-05-01T09:40:41Z</time>
					</trkpt>
					<trkpt lat="48.873120" lon="2.346910">
						<ele>49</ele>
						<time>2026-05-01T09:41:04Z</time>
					</trkpt>
					<trkpt lat="48.872930" lon="2.346880">
						<ele>49</ele>
						<time>2026-05-01T09:41:30Z</time>
					</trkpt>
					<trkpt lat="48.872780" lon="2.346880">
						<ele>49</ele>
						<time>2026-05-01T09:41:50Z</time>
					</trkpt>
					<trkpt lat="48.872750" lon="2.347020">
						<ele>49</ele>
						<time>2026-05-01T09:42:03Z</time>
					</trkpt>
					<trkpt lat="48.872750" lon="2.346880">
						<ele>50</ele>
						<time>2026-05-01T09:42:15Z</time>
					</trkpt>
					<trkpt lat="48.872440" lon="2.346840">
						<ele>50</ele>
						<time>2026-05-01T09:42:56Z</time>
					</trkpt>
					<trkpt lat="48.872210" lon="2.346780">
						<ele>50</ele>
						<time>2026-05-01T09:43:27Z</time>
					</trkpt>
					<trkpt lat="48.872280" lon="2.346090">
						<ele>49</ele>
						<time>2026-05-01T09:44:29Z</time>
					</trkpt>
					<trkpt lat="48.872370" lon="2.345600">
						<ele>48</ele>
						<time>2026-05-01T09:45:13Z</time>
					</trkpt>
					<trkpt lat="48.872370" lon="2.345460">
						<ele>48</ele>
						<time>2026-05-01T09:45:26Z</time>
					</trkpt>
					<trkpt lat="48.872320" lon="2.345460">
						<ele>48</ele>
						<time>2026-05-01T09:45:32Z</time>
					</trkpt>
					<trkpt lat="48.872410" lon="2.344880">
						<ele>48</ele>
						<time>2026-05-01T09:46:25Z</time>
					</trkpt>
					<trkpt lat="48.871800" lon="2.344720">
						<ele>49</ele>
						<time>2026-05-01T09:47:47Z</time>
					</trkpt>
					<trkpt lat="48.871840" lon="2.344520">
						<ele>49</ele>
						<time>2026-05-01T09:48:06Z</time>
					</trkpt>
					<trkpt lat="48.871880" lon="2.344180">
						<ele>48</ele>
						<time>2026-05-01T09:48:36Z</time>
					</trkpt>
					<trkpt lat="48.871810" lon="2.344160">
						<ele>49</ele>
						<time>2026-05-01T09:48:45Z</time>
					</trkpt>
					<trkpt lat="48.871880" lon="2.344160">
						<ele>48</ele>
						<time>2026-05-01T09:48:55Z</time>
					</trkpt>
					<trkpt lat="48.872000" lon="2.343300">
						<ele>47</ele>
						<time>2026-05-01T09:50:12Z</time>
					</trkpt>
					<trkpt lat="48.872010" lon="2.343090">
						<ele>47</ele>
						<time>2026-05-01T09:50:30Z</time>
					</trkpt>
					<trkpt lat="48.871800" lon="2.343070">
						<ele>47</ele>
						<time>2026-05-01T09:50:58Z</time>
					</trkpt>
					<trkpt lat="48.871360" lon="2.342910">
						<ele>48</ele>
						<time>2026-05-01T09:51:59Z</time>
					</trkpt>
					<trkpt lat="48.871260" lon="2.343670">
						<ele>48</ele>
						<time>2026-05-01T09:53:07Z</time>
					</trkpt>
					<trkpt lat="48.871250" lon="2.343570">
						<ele>48</ele>
						<time>2026-05-01T09:53:16Z</time>
					</trkpt>
					<trkpt lat="48.871240" lon="2.343700">
						<ele>48</ele>
						<time>2026-05-01T09:53:27Z</time>
					</trkpt>
					<trkpt lat="48.871360" lon="2.342890">
						<ele>48</ele>
						<time>2026-05-01T09:54:40Z</time>
					</trkpt>
					<trkpt lat="48.871640" lon="2.342980">
						<ele>48</ele>
						<time>2026-05-01T09:55:18Z</time>
					</trkpt>
					<trkpt lat="48.871740" lon="2.342460">
						<ele>49</ele>
						<time>2026-05-01T09:56:06Z</time>
					</trkpt>
					<trkpt lat="48.871740" lon="2.342350">
						<ele>49</ele>
						<time>2026-05-01T09:56:16Z</time>
					</trkpt>
					<trkpt lat="48.871780" lon="2.342240">
						<ele>49</ele>
						<time>2026-05-01T09:56:27Z</time>
					</trkpt>
					<trkpt lat="48.871790" lon="2.342110">
						<ele>49</ele>
						<time>2026-05-01T09:56:38Z</time>
					</trkpt>
					<trkpt lat="48.871830" lon="2.341910">
						<ele>49</ele>
						<time>2026-05-01T09:56:56Z</time>
					</trkpt>
					<trkpt lat="48.872250" lon="2.342110">
						<ele>48</ele>
						<time>2026-05-01T09:57:55Z</time>
					</trkpt>
					<trkpt lat="48.872600" lon="2.342220">
						<ele>48</ele>
						<time>2026-05-01T09:58:43Z</time>
					</trkpt>
					<trkpt lat="48.872620" lon="2.342080">
						<ele>47</ele>
						<time>2026-05-01T09:58:55Z</time>
					</trkpt>
					<trkpt lat="48.872890" lon="2.342180">
						<ele>47</ele>
						<time>2026-05-01T09:59:33Z</time>
					</trkpt>
					<trkpt lat="48.873750" lon="2.342390">
						<ele>46</ele>
						<time>2026-05-01T10:01:29Z</time>
					</trkpt>
					<trkpt lat="48.873840" lon="2.342670">
						<ele>46</ele>
						<time>2026-05-01T10:01:56Z</time>
					</trkpt>
					<trkpt lat="48.873650" lon="2.342860">
						<ele>46</ele>
						<time>2026-05-01T10:02:26Z</time>
					</trkpt>
					<trkpt lat="48.873440" lon="2.342990">
						<ele>46</ele>
						<time>2026-05-01T10:02:57Z</time>
					</trkpt>
					<trkpt lat="48.873160" lon="2.343130">
						<ele>46</ele>
						<time>2026-05-01T10:03:36Z</time>
					</trkpt>
					<trkpt lat="48.873110" lon="2.344620">
						<ele>47</ele>
						<time>2026-05-01T10:05:47Z</time>
					</trkpt>
					<trkpt lat="48.873130" lon="2.344750">
						<ele>47</ele>
						<time>2026-05-01T10:05:59Z</time>
					</trkpt>
					<trkpt lat="48.873210" lon="2.344740">
						<ele>47</ele>
						<time>2026-05-01T10:06:09Z</time>
					</trkpt>
					<trkpt lat="48.873330" lon="2.344760">
						<ele>47</ele>
						<time>2026-05-01T10:06:26Z</time>
					</trkpt>
					<trkpt lat="48.873710" lon="2.344890">
						<ele>46</ele>
						<time>2026-05-01T10:07:17Z</time>
					</trkpt>
					<trkpt lat="48.874080" lon="2.344960">
						<ele>45</ele>
						<time>2026-05-01T10:08:07Z</time>
					</trkpt>
					<trkpt lat="48.874110" lon="2.342310">
						<ele>46</ele>
						<time>2026-05-01T10:12:00Z</time>
					</trkpt>
					<trkpt lat="48.875150" lon="2.343190">
						<ele>44</ele>
						<time>2026-05-01T10:14:39Z</time>
					</trkpt>
					<trkpt lat="48.875970" lon="2.343810">
						<ele>47</ele>
						<time>2026-05-01T10:16:41Z</time>
					</trkpt>
					<trkpt lat="48.876150" lon="2.343910">
						<ele>47</ele>
						<time>2026-05-01T10:17:06Z</time>
					</trkpt>
					<trkpt lat="48.876200" lon="2.344060">
						<ele>47</ele>
						<time>2026-05-01T10:17:21Z</time>
					</trkpt>
					<trkpt lat="48.876340" lon="2.344160">
						<ele>47</ele>
						<time>2026-05-01T10:17:42Z</time>
					</trkpt>
					<trkpt lat="48.876560" lon="2.344390">
						<ele>48</ele>
						<time>2026-05-01T10:18:18Z</time>
					</trkpt>
					<trkpt lat="48.877760" lon="2.344790">
						<ele>54</ele>
						<time>2026-05-01T10:21:01Z</time>
					</trkpt>
					<trkpt lat="48.877030" lon="2.344500">
						<ele>51</ele>
						<time>2026-05-01T10:22:42Z</time>
					</trkpt>
					<trkpt lat="48.877060" lon="2.343760">
						<ele>52</ele>
						<time>2026-05-01T10:23:47Z</time>
					</trkpt>
					<trkpt lat="48.877120" lon="2.343030">
						<ele>53</ele>
						<time>2026-05-01T10:24:52Z</time>
					</trkpt>
					<trkpt lat="48.877250" lon="2.342890">
						<ele>54</ele>
						<time>2026-05-01T10:25:13Z</time>
					</trkpt>
					<trkpt lat="48.876630" lon="2.341580">
						<ele>52</ele>
						<time>2026-05-01T10:27:35Z</time>
					</trkpt>
					<trkpt lat="48.876500" lon="2.341610">
						<ele>51</ele>
						<time>2026-05-01T10:27:52Z</time>
					</trkpt>
					<trkpt lat="48.876510" lon="2.341440">
						<ele>51</ele>
						<time>2026-05-01T10:28:07Z</time>
					</trkpt>
					<trkpt lat="48.876420" lon="2.341090">
						<ele>50</ele>
						<time>2026-05-01T10:28:40Z</time>
					</trkpt>
					<trkpt lat="48.876500" lon="2.340990">
						<ele>50</ele>
						<time>2026-05-01T10:28:54Z</time>
					</trkpt>
					<trkpt lat="48.876540" lon="2.340830">
						<ele>50</ele>
						<time>2026-05-01T10:29:09Z</time>
					</trkpt>
					<trkpt lat="48.876620" lon="2.339640">
						<ele>47</ele>
						<time>2026-05-01T10:30:54Z</time>
					</trkpt>
					<trkpt lat="48.876800" lon="2.339360">
						<ele>48</ele>
						<time>2026-05-01T10:31:28Z</time>
					</trkpt>
					<trkpt lat="48.876920" lon="2.339320">
						<ele>48</ele>
						<time>2026-05-01T10:31:45Z</time>
					</trkpt>
					<trkpt lat="48.877140" lon="2.339400">
						<ele>49</ele>
						<time>2026-05-01T10:32:15Z</time>
					</trkpt>
					<trkpt lat="48.877850" lon="2.339570">
						<ele>52</ele>
						<time>2026-05-01T10:33:51Z</time>
					</trkpt>
					<trkpt lat="48.878900" lon="2.339870">
						<ele>58</ele>
						<time>2026-05-01T10:36:13Z</time>
					</trkpt>
					<trkpt lat="48.878980" lon="2.339280">
						<ele>57</ele>
						<time>2026-05-01T10:37:06Z</time>
					</trkpt>
					<trkpt lat="48.879280" lon="2.337400">
						<ele>59</ele>
						<time>2026-05-01T10:39:56Z</time>
					</trkpt>
					<trkpt lat="48.879370" lon="2.337480">
						<ele>60</ele>
						<time>2026-05-01T10:40:10Z</time>
					</trkpt>
					<trkpt lat="48.879670" lon="2.337330">
						<ele>62</ele>
						<time>2026-05-01T10:40:52Z</time>
					</trkpt>
					<trkpt lat="48.879850" lon="2.337290">
						<ele>63</ele>
						<time>2026-05-01T10:41:16Z</time>
					</trkpt>
					<trkpt lat="48.879970" lon="2.337400">
						<ele>65</ele>
						<time>2026-05-01T10:41:35Z</time>
					</trkpt>
					<trkpt lat="48.879380" lon="2.339880">
						<ele>62</ele>
						<time>2026-05-01T10:45:27Z</time>
					</trkpt>
					<trkpt lat="48.879450" lon="2.340020">
						<ele>63</ele>
						<time>2026-05-01T10:45:42Z</time>
					</trkpt>
					<trkpt lat="48.879510" lon="2.340070">
						<ele>64</ele>
						<time>2026-05-01T10:45:51Z</time>
					</trkpt>
					<trkpt lat="48.880390" lon="2.340450">
						<ele>69</ele>
						<time>2026-05-01T10:47:53Z</time>
					</trkpt>
					<trkpt lat="48.880500" lon="2.340120">
						<ele>69</ele>
						<time>2026-05-01T10:48:26Z</time>
					</trkpt>
					<trkpt lat="48.880890" lon="2.338010">
						<ele>69</ele>
						<time>2026-05-01T10:51:38Z</time>
					</trkpt>
					<trkpt lat="48.880930" lon="2.337930">
						<ele>69</ele>
						<time>2026-05-01T10:51:47Z</time>
					</trkpt>
					<trkpt lat="48.881040" lon="2.337950">
						<ele>69</ele>
						<time>2026-05-01T10:52:02Z</time>
					</trkpt>
					<trkpt lat="48.881000" lon="2.337890">
						<ele>69</ele>
						<time>2026-05-01T10:52:09Z</time>
					</trkpt>
					<trkpt lat="48.881040" lon="2.337740">
						<ele>68</ele>
						<time>2026-05-01T10:52:23Z</time>
					</trkpt>
					<trkpt lat="48.880980" lon="2.337600">
						<ele>68</ele>
						<time>2026-05-01T10:52:38Z</time>
					</trkpt>
					<trkpt lat="48.881040" lon="2.337140">
						<ele>67</ele>
						<time>2026-05-01T10:53:19Z</time>
					</trkpt>
					<trkpt lat="48.881220" lon="2.336390">
						<ele>66</ele>
						<time>2026-05-01T10:54:29Z</time>
					</trkpt>
					<trkpt lat="48.881290" lon="2.336220">
						<ele>66</ele>
						<time>2026-05-01T10:54:47Z</time>
					</trkpt>
					<trkpt lat="48.881180" lon="2.336030">
						<ele>66</ele>
						<time>2026-05-01T10:55:09Z</time>
					</trkpt>
					<trkpt lat="48.880520" lon="2.335130">
						<ele>63</ele>
						<time>2026-05-01T10:57:07Z</time>
					</trkpt>
					<trkpt lat="48.880580" lon="2.334990">
						<ele>63</ele>
						<time>2026-05-01T10:57:22Z</time>
					</trkpt>
					<trkpt lat="48.880540" lon="2.334900">
						<ele>63</ele>
						<time>2026-05-01T10:57:32Z</time>
					</trkpt>
					<trkpt lat="48.880560" lon="2.334710">
						<ele>63</ele>
						<time>2026-05-01T10:57:48Z</time>
					</trkpt>
					<trkpt lat="48.880880" lon="2.333260">
						<ele>60</ele>
						<time>2026-05-01T11:00:03Z</time>
					</trkpt>
					<trkpt lat="48.881400" lon="2.333580">
						<ele>64</ele>
						<time>2026-05-01T11:01:18Z</time>
					</trkpt>
					<trkpt lat="48.880890" lon="2.333240">
						<ele>61</ele>
						<time>2026-05-01T11:02:32Z</time>
					</trkpt>
					<trkpt lat="48.881200" lon="2.331780">
						<ele>62</ele>
						<time>2026-05-01T11:04:46Z</time>
					</trkpt>
					<trkpt lat="48.881250" lon="2.331650">
						<ele>62</ele>
						<time>2026-05-01T11:05:00Z</time>
					</trkpt>
					<trkpt lat="48.881360" lon="2.331630">
						<ele>63</ele>
						<time>2026-05-01T11:05:14Z</time>
					</trkpt>
					<trkpt lat="48.881590" lon="2.331670">
						<ele>64</ele>
						<time>2026-05-01T11:05:45Z</time>
					</trkpt>
					<trkpt lat="48.881820" lon="2.331660">
						<ele>65</ele>
						<time>2026-05-01T11:06:16Z</time>
					</trkpt>
					<trkpt lat="48.881990" lon="2.331740">
						<ele>66</ele>
						<time>2026-05-01T11:06:40Z</time>
					</trkpt>
					<trkpt lat="48.882150" lon="2.331850">
						<ele>68</ele>
						<time>2026-05-01T11:07:03Z</time>
					</trkpt>
					<trkpt lat="48.882760" lon="2.330080">
						<ele>68</ele>
						<time>2026-05-01T11:09:59Z</time>
					</trkpt>
					<trkpt lat="48.882870" lon="2.329890">
						<ele>68</ele>
						<time>2026-05-01T11:10:21Z</time>
					</trkpt>
					<trkpt lat="48.883290" lon="2.330420">
						<ele>71</ele>
						<time>2026-05-01T11:11:34Z</time>
					</trkpt>
					<trkpt lat="48.883430" lon="2.330140">
						<ele>71</ele>
						<time>2026-05-01T11:12:05Z</time>
					</trkpt>
					<trkpt lat="48.883430" lon="2.329920">
						<ele>71</ele>
						<time>2026-05-01T11:12:24Z</time>
					</trkpt>
					<trkpt lat="48.883280" lon="2.329670">
						<ele>70</ele>
						<time>2026-05-01T11:12:54Z</time>
					</trkpt>
					<trkpt lat="48.883190" lon="2.329900">
						<ele>70</ele>
						<time>2026-05-01T11:13:17Z</time>
					</trkpt>
					<trkpt lat="48.883110" lon="2.329550">
						<ele>70</ele>
						<time>2026-05-01T11:13:50Z</time>
					</trkpt>
					<trkpt lat="48.882870" lon="2.329710">
						<ele>68</ele>
						<time>2026-05-01T11:14:24Z</time>
					</trkpt>
					<trkpt lat="48.882700" lon="2.329530">
						<ele>68</ele>
						<time>2026-05-01T11:14:52Z</time>
					</trkpt>
					<trkpt lat="48.882060" lon="2.328610">
						<ele>66</ele>
						<time>2026-05-01T11:16:50Z</time>
					</trkpt>
					<trkpt lat="48.881890" lon="2.328400">
						<ele>66</ele>
						<time>2026-05-01T11:17:19Z</time>
					</trkpt>
					<trkpt lat="48.881830" lon="2.328160">
						<ele>66</ele>
						<time>2026-05-01T11:17:41Z</time>
					</trkpt>
					<trkpt lat="48.881690" lon="2.328240">
						<ele>65</ele>
						<time>2026-05-01T11:18:01Z</time>
					</trkpt>
					<trkpt lat="48.881230" lon="2.328460">
						<ele>63</ele>
						<time>2026-05-01T11:19:06Z</time>
					</trkpt>
					<trkpt lat="48.880950" lon="2.328540">
						<ele>62</ele>
						<time>2026-05-01T11:19:44Z</time>
					</trkpt>
					<trkpt lat="48.880910" lon="2.328210">
						<ele>62</ele>
						<time>2026-05-01T11:20:13Z</time>
					</trkpt>
					<trkpt lat="48.880940" lon="2.328560">
						<ele>62</ele>
						<time>2026-05-01T11:20:44Z</time>
					</trkpt>
					<trkpt lat="48.880730" lon="2.328660">
						<ele>61</ele>
						<time>2026-05-01T11:21:14Z</time>
					</trkpt>
					<trkpt lat="48.880490" lon="2.328750">
						<ele>60</ele>
						<time>2026-05-01T11:21:47Z</time>
					</trkpt>
					<trkpt lat="48.880050" lon="2.328990">
						<ele>59</ele>
						<time>2026-05-01T11:22:49Z</time>
					</trkpt>
					<trkpt lat="48.879630" lon="2.329170">
						<ele>56</ele>
						<time>2026-05-01T11:23:47Z</time>
					</trkpt>
					<trkpt lat="48.879190" lon="2.329390">
						<ele>54</ele>
						<time>2026-05-01T11:24:49Z</time>
					</trkpt>
					<trkpt lat="48.878170" lon="2.330040">
						<ele>52</ele>
						<time>2026-05-01T11:27:17Z</time>
					</trkpt>
					<trkpt lat="48.878090" lon="2.329280">
						<ele>53</ele>
						<time>2026-05-01T11:28:24Z</time>
					</trkpt>
					<trkpt lat="48.878000" lon="2.327930">
						<ele>52</ele>
						<time>2026-05-01T11:30:23Z</time>
					</trkpt>
					<trkpt lat="48.878010" lon="2.327780">
						<ele>52</ele>
						<time>2026-05-01T11:30:36Z</time>
					</trkpt>
					<trkpt lat="48.877950" lon="2.327210">
						<ele>51</ele>
						<time>2026-05-01T11:31:27Z</time>
					</trkpt>
					<trkpt lat="48.877570" lon="2.327220">
						<ele>48</ele>
						<time>2026-05-01T11:32:18Z</time>
					</trkpt>
					<trkpt lat="48.877340" lon="2.327290">
						<ele>47</ele>
						<time>2026-05-01T11:32:49Z</time>
					</trkpt>
					<trkpt lat="48.877140" lon="2.327310">
						<ele>48</ele>
						<time>2026-05-01T11:33:16Z</time>
					</trkpt>
					<trkpt lat="48.877070" lon="2.327250">
						<ele>48</ele>
						<time>2026-05-01T11:33:27Z</time>
					</trkpt>
					<trkpt lat="48.877040" lon="2.326860">
						<ele>48</ele>
						<time>2026-05-01T11:34:01Z</time>
					</trkpt>
					<trkpt lat="48.876700" lon="2.326840">
						<ele>48</ele>
						<time>2026-05-01T11:34:46Z</time>
					</trkpt>
					<trkpt lat="48.876700" lon="2.326550">
						<ele>48</ele>
						<time>2026-05-01T11:35:12Z</time>
					</trkpt>
					<trkpt lat="48.876610" lon="2.325760">
						<ele>46</ele>
						<time>2026-05-01T11:36:22Z</time>
					</trkpt>
					</trkseg>
				</trk>
			</gpx>