<?xml version="1.0" encoding="UTF-8"?>
<gpx xmlns="http://www.topografix.com/GPX/1/1" xmlns:xsi="http://www.w3.org/2001/XMLSchema-instance" version="1.1" creator="phpGPX/1.3.0" xsi:schemaLocation="http://www.topografix.com/GPX/1/1 http://www.topografix.com/GPX/1/1/gpx.xsd">
  <metadata>
    <time>2026-05-11T18:23:19+00:00</time>
  </metadata>
  <trk>
    <name>T'es pas CAP 2026</name>
    <trkseg>
      <trkpt lat="45.12801" lon="5.58885">
        <ele>1017</ele>
        <time>2026-05-11T18:23:20+00:00</time>
      </trkpt>
      <trkpt lat="45.12806" lon="5.58896">
        <ele>1017</ele>
        <time>2026-05-11T18:23:21+00:00</time>
      </trkpt>
      <trkpt lat="45.12807" lon="5.58902">
        <ele>1017</ele>
        <time>2026-05-11T18:23:22+00:00</time>
      </trkpt>
      <trkpt lat="45.12805" lon="5.58906">
        <ele>1017</ele>
        <time>2026-05-11T18:23:23+00:00</time>
      </trkpt>
      <trkpt lat="45.1281" lon="5.58914">
        <ele>1017</ele>
        <time>2026-05-11T18:23:24+00:00</time>
      </trkpt>
      <trkpt lat="45.12813" lon="5.58973">
        <ele>1018</ele>
        <time>2026-05-11T18:23:25+00:00</time>
      </trkpt>
      <trkpt lat="45.12805" lon="5.59033">
        <ele>1019</ele>
        <time>2026-05-11T18:23:26+00:00</time>
      </trkpt>
      <trkpt lat="45.12794" lon="5.59096">
        <ele>1020</ele>
        <time>2026-05-11T18:23:27+00:00</time>
      </trkpt>
      <trkpt lat="45.12793" lon="5.59114">
        <ele>1020</ele>
        <time>2026-05-11T18:23:28+00:00</time>
      </trkpt>
      <trkpt lat="45.12777" lon="5.59137">
        <ele>1021</ele>
        <time>2026-05-11T18:23:29+00:00</time>
      </trkpt>
      <trkpt lat="45.1277" lon="5.59164">
        <ele>1021</ele>
        <time>2026-05-11T18:23:30+00:00</time>
      </trkpt>
      <trkpt lat="45.12759" lon="5.59185">
        <ele>1021</ele>
        <time>2026-05-11T18:23:31+00:00</time>
      </trkpt>
      <trkpt lat="45.12745" lon="5.592">
        <ele>1022</ele>
        <time>2026-05-11T18:23:32+00:00</time>
      </trkpt>
      <trkpt lat="45.1274" lon="5.59211">
        <ele>1022</ele>
        <time>2026-05-11T18:23:33+00:00</time>
      </trkpt>
      <trkpt lat="45.12737" lon="5.59212">
        <ele>1022</ele>
        <time>2026-05-11T18:23:34+00:00</time>
      </trkpt>
      <trkpt lat="45.12716" lon="5.59202">
        <ele>1023</ele>
        <time>2026-05-11T18:23:35+00:00</time>
      </trkpt>
      <trkpt lat="45.12699" lon="5.59197">
        <ele>1023</ele>
        <time>2026-05-11T18:23:36+00:00</time>
      </trkpt>
      <trkpt lat="45.1267" lon="5.59185">
        <ele>1023</ele>
        <time>2026-05-11T18:23:37+00:00</time>
      </trkpt>
      <trkpt lat="45.12634" lon="5.59192">
        <ele>1023</ele>
        <time>2026-05-11T18:23:38+00:00</time>
      </trkpt>
      <trkpt lat="45.12591" lon="5.59191">
        <ele>1022</ele>
        <time>2026-05-11T18:23:39+00:00</time>
      </trkpt>
      <trkpt lat="45.12565" lon="5.59194">
        <ele>1021</ele>
        <time>2026-05-11T18:23:40+00:00</time>
      </trkpt>
      <trkpt lat="45.12547" lon="5.59199">
        <ele>1021</ele>
        <time>2026-05-11T18:23:41+00:00</time>
      </trkpt>
      <trkpt lat="45.12544" lon="5.59213">
        <ele>1021</ele>
        <time>2026-05-11T18:23:42+00:00</time>
      </trkpt>
      <trkpt lat="45.12544" lon="5.59247">
        <ele>1022</ele>
        <time>2026-05-11T18:23:43+00:00</time>
      </trkpt>
      <trkpt lat="45.12543" lon="5.59254">
        <ele>1022</ele>
        <time>2026-05-11T18:23:44+00:00</time>
      </trkpt>
      <trkpt lat="45.12539" lon="5.59257">
        <ele>1022</ele>
        <time>2026-05-11T18:23:45+00:00</time>
      </trkpt>
      <trkpt lat="45.12504" lon="5.59258">
        <ele>1020</ele>
        <time>2026-05-11T18:23:46+00:00</time>
      </trkpt>
      <trkpt lat="45.12484" lon="5.59257">
        <ele>1019</ele>
        <time>2026-05-11T18:23:47+00:00</time>
      </trkpt>
      <trkpt lat="45.12466" lon="5.59254">
        <ele>1019</ele>
        <time>2026-05-11T18:23:48+00:00</time>
      </trkpt>
      <trkpt lat="45.12455" lon="5.59255">
        <ele>1019</ele>
        <time>2026-05-11T18:23:49+00:00</time>
      </trkpt>
      <trkpt lat="45.12459" lon="5.5931">
        <ele>1021</ele>
        <time>2026-05-11T18:23:50+00:00</time>
      </trkpt>
      <trkpt lat="45.12467" lon="5.5933">
        <ele>1022</ele>
        <time>2026-05-11T18:23:51+00:00</time>
      </trkpt>
      <trkpt lat="45.1248" lon="5.59351">
        <ele>1024</ele>
        <time>2026-05-11T18:23:52+00:00</time>
      </trkpt>
      <trkpt lat="45.12491" lon="5.59362">
        <ele>1025</ele>
        <time>2026-05-11T18:23:53+00:00</time>
      </trkpt>
      <trkpt lat="45.12504" lon="5.59382">
        <ele>1026</ele>
        <time>2026-05-11T18:23:54+00:00</time>
      </trkpt>
      <trkpt lat="45.12514" lon="5.59406">
        <ele>1027</ele>
        <time>2026-05-11T18:23:55+00:00</time>
      </trkpt>
      <trkpt lat="45.12525" lon="5.59422">
        <ele>1028</ele>
        <time>2026-05-11T18:23:56+00:00</time>
      </trkpt>
      <trkpt lat="45.12535" lon="5.59443">
        <ele>1029</ele>
        <time>2026-05-11T18:23:57+00:00</time>
      </trkpt>
      <trkpt lat="45.12546" lon="5.59456">
        <ele>1030</ele>
        <time>2026-05-11T18:23:58+00:00</time>
      </trkpt>
      <trkpt lat="45.12572" lon="5.59497">
        <ele>1031</ele>
        <time>2026-05-11T18:23:59+00:00</time>
      </trkpt>
      <trkpt lat="45.12593" lon="5.59523">
        <ele>1031</ele>
        <time>2026-05-11T18:24:00+00:00</time>
      </trkpt>
      <trkpt lat="45.12631" lon="5.5955">
        <ele>1030</ele>
        <time>2026-05-11T18:24:01+00:00</time>
      </trkpt>
      <trkpt lat="45.12636" lon="5.59566">
        <ele>1030</ele>
        <time>2026-05-11T18:24:02+00:00</time>
      </trkpt>
      <trkpt lat="45.12632" lon="5.59591">
        <ele>1031</ele>
        <time>2026-05-11T18:24:03+00:00</time>
      </trkpt>
      <trkpt lat="45.12622" lon="5.59602">
        <ele>1031</ele>
        <time>2026-05-11T18:24:04+00:00</time>
      </trkpt>
      <trkpt lat="45.12611" lon="5.59608">
        <ele>1031</ele>
        <time>2026-05-11T18:24:05+00:00</time>
      </trkpt>
      <trkpt lat="45.1261" lon="5.59636">
        <ele>1032</ele>
        <time>2026-05-11T18:24:06+00:00</time>
      </trkpt>
      <trkpt lat="45.12607" lon="5.59645">
        <ele>1033</ele>
        <time>2026-05-11T18:24:07+00:00</time>
      </trkpt>
      <trkpt lat="45.12589" lon="5.59658">
        <ele>1033</ele>
        <time>2026-05-11T18:24:08+00:00</time>
      </trkpt>
      <trkpt lat="45.12571" lon="5.59667">
        <ele>1036</ele>
        <time>2026-05-11T18:24:09+00:00</time>
      </trkpt>
      <trkpt lat="45.12567" lon="5.59667">
        <ele>1037</ele>
        <time>2026-05-11T18:24:10+00:00</time>
      </trkpt>
      <trkpt lat="45.12544" lon="5.59659">
        <ele>1043</ele>
        <time>2026-05-11T18:24:11+00:00</time>
      </trkpt>
      <trkpt lat="45.12533" lon="5.59652">
        <ele>1045</ele>
        <time>2026-05-11T18:24:12+00:00</time>
      </trkpt>
      <trkpt lat="45.12524" lon="5.59642">
        <ele>1046</ele>
        <time>2026-05-11T18:24:13+00:00</time>
      </trkpt>
      <trkpt lat="45.12515" lon="5.59638">
        <ele>1048</ele>
        <time>2026-05-11T18:24:14+00:00</time>
      </trkpt>
      <trkpt lat="45.125" lon="5.59625">
        <ele>1049</ele>
        <time>2026-05-11T18:24:15+00:00</time>
      </trkpt>
      <trkpt lat="45.12494" lon="5.59623">
        <ele>1050</ele>
        <time>2026-05-11T18:24:16+00:00</time>
      </trkpt>
      <trkpt lat="45.1248" lon="5.5961">
        <ele>1050</ele>
        <time>2026-05-11T18:24:17+00:00</time>
      </trkpt>
      <trkpt lat="45.12467" lon="5.59607">
        <ele>1051</ele>
        <time>2026-05-11T18:24:18+00:00</time>
      </trkpt>
      <trkpt lat="45.12462" lon="5.59607">
        <ele>1052</ele>
        <time>2026-05-11T18:24:19+00:00</time>
      </trkpt>
      <trkpt lat="45.12458" lon="5.59612">
        <ele>1053</ele>
        <time>2026-05-11T18:24:20+00:00</time>
      </trkpt>
      <trkpt lat="45.12453" lon="5.59615">
        <ele>1055</ele>
        <time>2026-05-11T18:24:21+00:00</time>
      </trkpt>
      <trkpt lat="45.12438" lon="5.59617">
        <ele>1057</ele>
        <time>2026-05-11T18:24:22+00:00</time>
      </trkpt>
      <trkpt lat="45.12412" lon="5.59632">
        <ele>1064</ele>
        <time>2026-05-11T18:24:23+00:00</time>
      </trkpt>
      <trkpt lat="45.12397" lon="5.59632">
        <ele>1068</ele>
        <time>2026-05-11T18:24:24+00:00</time>
      </trkpt>
      <trkpt lat="45.12397" lon="5.59636">
        <ele>1069</ele>
        <time>2026-05-11T18:24:25+00:00</time>
      </trkpt>
      <trkpt lat="45.12411" lon="5.59645">
        <ele>1066</ele>
        <time>2026-05-11T18:24:26+00:00</time>
      </trkpt>
      <trkpt lat="45.1242" lon="5.59647">
        <ele>1064</ele>
        <time>2026-05-11T18:24:27+00:00</time>
      </trkpt>
      <trkpt lat="45.12431" lon="5.59647">
        <ele>1063</ele>
        <time>2026-05-11T18:24:28+00:00</time>
      </trkpt>
      <trkpt lat="45.12452" lon="5.59656">
        <ele>1061</ele>
        <time>2026-05-11T18:24:29+00:00</time>
      </trkpt>
      <trkpt lat="45.12462" lon="5.5967">
        <ele>1062</ele>
        <time>2026-05-11T18:24:30+00:00</time>
      </trkpt>
      <trkpt lat="45.12459" lon="5.59674">
        <ele>1063</ele>
        <time>2026-05-11T18:24:31+00:00</time>
      </trkpt>
      <trkpt lat="45.12444" lon="5.59675">
        <ele>1066</ele>
        <time>2026-05-11T18:24:32+00:00</time>
      </trkpt>
      <trkpt lat="45.12413" lon="5.59682">
        <ele>1074</ele>
        <time>2026-05-11T18:24:33+00:00</time>
      </trkpt>
      <trkpt lat="45.12391" lon="5.59699">
        <ele>1087</ele>
        <time>2026-05-11T18:24:34+00:00</time>
      </trkpt>
      <trkpt lat="45.12386" lon="5.59721">
        <ele>1095</ele>
        <time>2026-05-11T18:24:35+00:00</time>
      </trkpt>
      <trkpt lat="45.12385" lon="5.5974">
        <ele>1101</ele>
        <time>2026-05-11T18:24:36+00:00</time>
      </trkpt>
      <trkpt lat="45.12387" lon="5.59746">
        <ele>1102</ele>
        <time>2026-05-11T18:24:37+00:00</time>
      </trkpt>
      <trkpt lat="45.12391" lon="5.59787">
        <ele>1110</ele>
        <time>2026-05-11T18:24:38+00:00</time>
      </trkpt>
      <trkpt lat="45.12394" lon="5.59799">
        <ele>1112</ele>
        <time>2026-05-11T18:24:39+00:00</time>
      </trkpt>
      <trkpt lat="45.12392" lon="5.59815">
        <ele>1116</ele>
        <time>2026-05-11T18:24:40+00:00</time>
      </trkpt>
      <trkpt lat="45.12393" lon="5.59826">
        <ele>1118</ele>
        <time>2026-05-11T18:24:41+00:00</time>
      </trkpt>
      <trkpt lat="45.12398" lon="5.59837">
        <ele>1119</ele>
        <time>2026-05-11T18:24:42+00:00</time>
      </trkpt>
      <trkpt lat="45.12381" lon="5.59825">
        <ele>1123</ele>
        <time>2026-05-11T18:24:43+00:00</time>
      </trkpt>
      <trkpt lat="45.12368" lon="5.5982">
        <ele>1127</ele>
        <time>2026-05-11T18:24:44+00:00</time>
      </trkpt>
      <trkpt lat="45.12345" lon="5.59795">
        <ele>1131</ele>
        <time>2026-05-11T18:24:45+00:00</time>
      </trkpt>
      <trkpt lat="45.12327" lon="5.59767">
        <ele>1132</ele>
        <time>2026-05-11T18:24:46+00:00</time>
      </trkpt>
      <trkpt lat="45.12321" lon="5.59763">
        <ele>1134</ele>
        <time>2026-05-11T18:24:47+00:00</time>
      </trkpt>
      <trkpt lat="45.12314" lon="5.59749">
        <ele>1134</ele>
        <time>2026-05-11T18:24:48+00:00</time>
      </trkpt>
      <trkpt lat="45.12304" lon="5.5974">
        <ele>1137</ele>
        <time>2026-05-11T18:24:49+00:00</time>
      </trkpt>
      <trkpt lat="45.12306" lon="5.59732">
        <ele>1133</ele>
        <time>2026-05-11T18:24:50+00:00</time>
      </trkpt>
      <trkpt lat="45.12295" lon="5.59722">
        <ele>1136</ele>
        <time>2026-05-11T18:24:51+00:00</time>
      </trkpt>
      <trkpt lat="45.12284" lon="5.59706">
        <ele>1137</ele>
        <time>2026-05-11T18:24:52+00:00</time>
      </trkpt>
      <trkpt lat="45.12281" lon="5.59695">
        <ele>1136</ele>
        <time>2026-05-11T18:24:53+00:00</time>
      </trkpt>
      <trkpt lat="45.12271" lon="5.59675">
        <ele>1135</ele>
        <time>2026-05-11T18:24:54+00:00</time>
      </trkpt>
      <trkpt lat="45.1225" lon="5.59643">
        <ele>1136</ele>
        <time>2026-05-11T18:24:55+00:00</time>
      </trkpt>
      <trkpt lat="45.12228" lon="5.59624">
        <ele>1140</ele>
        <time>2026-05-11T18:24:56+00:00</time>
      </trkpt>
      <trkpt lat="45.12217" lon="5.59619">
        <ele>1143</ele>
        <time>2026-05-11T18:24:57+00:00</time>
      </trkpt>
      <trkpt lat="45.12211" lon="5.5962">
        <ele>1146</ele>
        <time>2026-05-11T18:24:58+00:00</time>
      </trkpt>
      <trkpt lat="45.12203" lon="5.59616">
        <ele>1148</ele>
        <time>2026-05-11T18:24:59+00:00</time>
      </trkpt>
      <trkpt lat="45.12195" lon="5.59615">
        <ele>1152</ele>
        <time>2026-05-11T18:25:00+00:00</time>
      </trkpt>
      <trkpt lat="45.1219" lon="5.5961">
        <ele>1153</ele>
        <time>2026-05-11T18:25:01+00:00</time>
      </trkpt>
      <trkpt lat="45.12179" lon="5.59604">
        <ele>1156</ele>
        <time>2026-05-11T18:25:02+00:00</time>
      </trkpt>
      <trkpt lat="45.12177" lon="5.59601">
        <ele>1156</ele>
        <time>2026-05-11T18:25:03+00:00</time>
      </trkpt>
      <trkpt lat="45.12159" lon="5.59592">
        <ele>1161</ele>
        <time>2026-05-11T18:25:04+00:00</time>
      </trkpt>
      <trkpt lat="45.12149" lon="5.59578">
        <ele>1162</ele>
        <time>2026-05-11T18:25:05+00:00</time>
      </trkpt>
      <trkpt lat="45.12125" lon="5.5956">
        <ele>1167</ele>
        <time>2026-05-11T18:25:06+00:00</time>
      </trkpt>
      <trkpt lat="45.12099" lon="5.59531">
        <ele>1170</ele>
        <time>2026-05-11T18:25:07+00:00</time>
      </trkpt>
      <trkpt lat="45.12092" lon="5.5951">
        <ele>1168</ele>
        <time>2026-05-11T18:25:08+00:00</time>
      </trkpt>
      <trkpt lat="45.12083" lon="5.59493">
        <ele>1167</ele>
        <time>2026-05-11T18:25:09+00:00</time>
      </trkpt>
      <trkpt lat="45.12071" lon="5.59481">
        <ele>1167</ele>
        <time>2026-05-11T18:25:10+00:00</time>
      </trkpt>
      <trkpt lat="45.12065" lon="5.59472">
        <ele>1165</ele>
        <time>2026-05-11T18:25:11+00:00</time>
      </trkpt>
      <trkpt lat="45.12057" lon="5.59476">
        <ele>1169</ele>
        <time>2026-05-11T18:25:12+00:00</time>
      </trkpt>
      <trkpt lat="45.12047" lon="5.59476">
        <ele>1172</ele>
        <time>2026-05-11T18:25:13+00:00</time>
      </trkpt>
      <trkpt lat="45.12032" lon="5.5948">
        <ele>1178</ele>
        <time>2026-05-11T18:25:14+00:00</time>
      </trkpt>
      <trkpt lat="45.12019" lon="5.59474">
        <ele>1179</ele>
        <time>2026-05-11T18:25:15+00:00</time>
      </trkpt>
      <trkpt lat="45.12009" lon="5.59476">
        <ele>1183</ele>
        <time>2026-05-11T18:25:16+00:00</time>
      </trkpt>
      <trkpt lat="45.11996" lon="5.59457">
        <ele>1180</ele>
        <time>2026-05-11T18:25:17+00:00</time>
      </trkpt>
      <trkpt lat="45.1197" lon="5.59452">
        <ele>1185</ele>
        <time>2026-05-11T18:25:18+00:00</time>
      </trkpt>
      <trkpt lat="45.11958" lon="5.59444">
        <ele>1185</ele>
        <time>2026-05-11T18:25:19+00:00</time>
      </trkpt>
      <trkpt lat="45.11953" lon="5.59443">
        <ele>1186</ele>
        <time>2026-05-11T18:25:20+00:00</time>
      </trkpt>
      <trkpt lat="45.11945" lon="5.59445">
        <ele>1189</ele>
        <time>2026-05-11T18:25:21+00:00</time>
      </trkpt>
      <trkpt lat="45.11939" lon="5.59444">
        <ele>1190</ele>
        <time>2026-05-11T18:25:22+00:00</time>
      </trkpt>
      <trkpt lat="45.11932" lon="5.59445">
        <ele>1193</ele>
        <time>2026-05-11T18:25:23+00:00</time>
      </trkpt>
      <trkpt lat="45.11915" lon="5.59443">
        <ele>1196</ele>
        <time>2026-05-11T18:25:24+00:00</time>
      </trkpt>
      <trkpt lat="45.11887" lon="5.59437">
        <ele>1197</ele>
        <time>2026-05-11T18:25:25+00:00</time>
      </trkpt>
      <trkpt lat="45.11879" lon="5.59438">
        <ele>1198</ele>
        <time>2026-05-11T18:25:26+00:00</time>
      </trkpt>
      <trkpt lat="45.11843" lon="5.5943">
        <ele>1199</ele>
        <time>2026-05-11T18:25:27+00:00</time>
      </trkpt>
      <trkpt lat="45.1183" lon="5.59424">
        <ele>1198</ele>
        <time>2026-05-11T18:25:28+00:00</time>
      </trkpt>
      <trkpt lat="45.11808" lon="5.59417">
        <ele>1197</ele>
        <time>2026-05-11T18:25:29+00:00</time>
      </trkpt>
      <trkpt lat="45.1175" lon="5.59407">
        <ele>1200</ele>
        <time>2026-05-11T18:25:30+00:00</time>
      </trkpt>
      <trkpt lat="45.11731" lon="5.59399">
        <ele>1196</ele>
        <time>2026-05-11T18:25:31+00:00</time>
      </trkpt>
      <trkpt lat="45.11683" lon="5.59392">
        <ele>1195</ele>
        <time>2026-05-11T18:25:32+00:00</time>
      </trkpt>
      <trkpt lat="45.11607" lon="5.59365">
        <ele>1184</ele>
        <time>2026-05-11T18:25:33+00:00</time>
      </trkpt>
      <trkpt lat="45.1159" lon="5.59363">
        <ele>1183</ele>
        <time>2026-05-11T18:25:34+00:00</time>
      </trkpt>
      <trkpt lat="45.11574" lon="5.59368">
        <ele>1185</ele>
        <time>2026-05-11T18:25:35+00:00</time>
      </trkpt>
      <trkpt lat="45.11538" lon="5.59366">
        <ele>1180</ele>
        <time>2026-05-11T18:25:36+00:00</time>
      </trkpt>
      <trkpt lat="45.11507" lon="5.59379">
        <ele>1182</ele>
        <time>2026-05-11T18:25:37+00:00</time>
      </trkpt>
      <trkpt lat="45.11504" lon="5.59384">
        <ele>1183</ele>
        <time>2026-05-11T18:25:38+00:00</time>
      </trkpt>
      <trkpt lat="45.11499" lon="5.59387">
        <ele>1184</ele>
        <time>2026-05-11T18:25:39+00:00</time>
      </trkpt>
      <trkpt lat="45.11486" lon="5.59389">
        <ele>1187</ele>
        <time>2026-05-11T18:25:40+00:00</time>
      </trkpt>
      <trkpt lat="45.11471" lon="5.59396">
        <ele>1191</ele>
        <time>2026-05-11T18:25:41+00:00</time>
      </trkpt>
      <trkpt lat="45.11458" lon="5.59385">
        <ele>1191</ele>
        <time>2026-05-11T18:25:42+00:00</time>
      </trkpt>
      <trkpt lat="45.11461" lon="5.5937">
        <ele>1187</ele>
        <time>2026-05-11T18:25:43+00:00</time>
      </trkpt>
      <trkpt lat="45.1146" lon="5.59346">
        <ele>1182</ele>
        <time>2026-05-11T18:25:44+00:00</time>
      </trkpt>
      <trkpt lat="45.11463" lon="5.59329">
        <ele>1177</ele>
        <time>2026-05-11T18:25:45+00:00</time>
      </trkpt>
      <trkpt lat="45.1146" lon="5.59313">
        <ele>1174</ele>
        <time>2026-05-11T18:25:46+00:00</time>
      </trkpt>
      <trkpt lat="45.11461" lon="5.59304">
        <ele>1172</ele>
        <time>2026-05-11T18:25:47+00:00</time>
      </trkpt>
      <trkpt lat="45.11457" lon="5.59297">
        <ele>1172</ele>
        <time>2026-05-11T18:25:48+00:00</time>
      </trkpt>
      <trkpt lat="45.11459" lon="5.59248">
        <ele>1159</ele>
        <time>2026-05-11T18:25:49+00:00</time>
      </trkpt>
      <trkpt lat="45.11443" lon="5.59191">
        <ele>1148</ele>
        <time>2026-05-11T18:25:50+00:00</time>
      </trkpt>
      <trkpt lat="45.11437" lon="5.59184">
        <ele>1148</ele>
        <time>2026-05-11T18:25:51+00:00</time>
      </trkpt>
      <trkpt lat="45.11428" lon="5.5916">
        <ele>1144</ele>
        <time>2026-05-11T18:25:52+00:00</time>
      </trkpt>
      <trkpt lat="45.11421" lon="5.59147">
        <ele>1144</ele>
        <time>2026-05-11T18:25:53+00:00</time>
      </trkpt>
      <trkpt lat="45.11403" lon="5.5912">
        <ele>1143</ele>
        <time>2026-05-11T18:25:54+00:00</time>
      </trkpt>
      <trkpt lat="45.11399" lon="5.59111">
        <ele>1142</ele>
        <time>2026-05-11T18:25:55+00:00</time>
      </trkpt>
      <trkpt lat="45.11393" lon="5.59108">
        <ele>1142</ele>
        <time>2026-05-11T18:25:56+00:00</time>
      </trkpt>
      <trkpt lat="45.11358" lon="5.59069">
        <ele>1140</ele>
        <time>2026-05-11T18:25:57+00:00</time>
      </trkpt>
      <trkpt lat="45.11349" lon="5.59065">
        <ele>1141</ele>
        <time>2026-05-11T18:25:58+00:00</time>
      </trkpt>
      <trkpt lat="45.11342" lon="5.59057">
        <ele>1140</ele>
        <time>2026-05-11T18:25:59+00:00</time>
      </trkpt>
      <trkpt lat="45.11331" lon="5.5905">
        <ele>1141</ele>
        <time>2026-05-11T18:26:00+00:00</time>
      </trkpt>
      <trkpt lat="45.11315" lon="5.59028">
        <ele>1138</ele>
        <time>2026-05-11T18:26:01+00:00</time>
      </trkpt>
      <trkpt lat="45.11293" lon="5.5897">
        <ele>1133</ele>
        <time>2026-05-11T18:26:02+00:00</time>
      </trkpt>
      <trkpt lat="45.11292" lon="5.58958">
        <ele>1132</ele>
        <time>2026-05-11T18:26:03+00:00</time>
      </trkpt>
      <trkpt lat="45.11288" lon="5.5896">
        <ele>1133</ele>
        <time>2026-05-11T18:26:04+00:00</time>
      </trkpt>
      <trkpt lat="45.11291" lon="5.58935">
        <ele>1132</ele>
        <time>2026-05-11T18:26:05+00:00</time>
      </trkpt>
      <trkpt lat="45.1129" lon="5.58917">
        <ele>1131</ele>
        <time>2026-05-11T18:26:06+00:00</time>
      </trkpt>
      <trkpt lat="45.11284" lon="5.58886">
        <ele>1133</ele>
        <time>2026-05-11T18:26:07+00:00</time>
      </trkpt>
      <trkpt lat="45.11265" lon="5.5886">
        <ele>1135</ele>
        <time>2026-05-11T18:26:08+00:00</time>
      </trkpt>
      <trkpt lat="45.11257" lon="5.58838">
        <ele>1136</ele>
        <time>2026-05-11T18:26:09+00:00</time>
      </trkpt>
      <trkpt lat="45.11246" lon="5.58818">
        <ele>1135</ele>
        <time>2026-05-11T18:26:10+00:00</time>
      </trkpt>
      <trkpt lat="45.11234" lon="5.58798">
        <ele>1132</ele>
        <time>2026-05-11T18:26:11+00:00</time>
      </trkpt>
      <trkpt lat="45.11208" lon="5.58777">
        <ele>1128</ele>
        <time>2026-05-11T18:26:12+00:00</time>
      </trkpt>
      <trkpt lat="45.11174" lon="5.58775">
        <ele>1128</ele>
        <time>2026-05-11T18:26:13+00:00</time>
      </trkpt>
      <trkpt lat="45.11169" lon="5.58764">
        <ele>1126</ele>
        <time>2026-05-11T18:26:14+00:00</time>
      </trkpt>
      <trkpt lat="45.11158" lon="5.5876">
        <ele>1124</ele>
        <time>2026-05-11T18:26:15+00:00</time>
      </trkpt>
      <trkpt lat="45.11135" lon="5.58745">
        <ele>1120</ele>
        <time>2026-05-11T18:26:16+00:00</time>
      </trkpt>
      <trkpt lat="45.11106" lon="5.58722">
        <ele>1113</ele>
        <time>2026-05-11T18:26:17+00:00</time>
      </trkpt>
      <trkpt lat="45.11099" lon="5.58719">
        <ele>1112</ele>
        <time>2026-05-11T18:26:18+00:00</time>
      </trkpt>
      <trkpt lat="45.11073" lon="5.58699">
        <ele>1108</ele>
        <time>2026-05-11T18:26:19+00:00</time>
      </trkpt>
      <trkpt lat="45.11056" lon="5.58689">
        <ele>1107</ele>
        <time>2026-05-11T18:26:20+00:00</time>
      </trkpt>
      <trkpt lat="45.11042" lon="5.58674">
        <ele>1104</ele>
        <time>2026-05-11T18:26:21+00:00</time>
      </trkpt>
      <trkpt lat="45.11027" lon="5.58664">
        <ele>1102</ele>
        <time>2026-05-11T18:26:22+00:00</time>
      </trkpt>
      <trkpt lat="45.11027" lon="5.5866">
        <ele>1100</ele>
        <time>2026-05-11T18:26:23+00:00</time>
      </trkpt>
      <trkpt lat="45.11032" lon="5.58654">
        <ele>1099</ele>
        <time>2026-05-11T18:26:24+00:00</time>
      </trkpt>
      <trkpt lat="45.11043" lon="5.5865">
        <ele>1097</ele>
        <time>2026-05-11T18:26:25+00:00</time>
      </trkpt>
      <trkpt lat="45.11058" lon="5.58655">
        <ele>1099</ele>
        <time>2026-05-11T18:26:26+00:00</time>
      </trkpt>
      <trkpt lat="45.11088" lon="5.58659">
        <ele>1099</ele>
        <time>2026-05-11T18:26:27+00:00</time>
      </trkpt>
      <trkpt lat="45.1111" lon="5.58658">
        <ele>1097</ele>
        <time>2026-05-11T18:26:28+00:00</time>
      </trkpt>
      <trkpt lat="45.11151" lon="5.58652">
        <ele>1092</ele>
        <time>2026-05-11T18:26:29+00:00</time>
      </trkpt>
      <trkpt lat="45.11157" lon="5.58647">
        <ele>1091</ele>
        <time>2026-05-11T18:26:30+00:00</time>
      </trkpt>
      <trkpt lat="45.11164" lon="5.58644">
        <ele>1089</ele>
        <time>2026-05-11T18:26:31+00:00</time>
      </trkpt>
      <trkpt lat="45.11181" lon="5.58644">
        <ele>1089</ele>
        <time>2026-05-11T18:26:32+00:00</time>
      </trkpt>
      <trkpt lat="45.11202" lon="5.58634">
        <ele>1085</ele>
        <time>2026-05-11T18:26:33+00:00</time>
      </trkpt>
      <trkpt lat="45.11213" lon="5.58627">
        <ele>1083</ele>
        <time>2026-05-11T18:26:34+00:00</time>
      </trkpt>
      <trkpt lat="45.11229" lon="5.58625">
        <ele>1082</ele>
        <time>2026-05-11T18:26:35+00:00</time>
      </trkpt>
      <trkpt lat="45.11251" lon="5.58618">
        <ele>1078</ele>
        <time>2026-05-11T18:26:36+00:00</time>
      </trkpt>
      <trkpt lat="45.11276" lon="5.58619">
        <ele>1075</ele>
        <time>2026-05-11T18:26:37+00:00</time>
      </trkpt>
      <trkpt lat="45.11284" lon="5.58618">
        <ele>1073</ele>
        <time>2026-05-11T18:26:38+00:00</time>
      </trkpt>
      <trkpt lat="45.11301" lon="5.58625">
        <ele>1073</ele>
        <time>2026-05-11T18:26:39+00:00</time>
      </trkpt>
      <trkpt lat="45.1131" lon="5.58636">
        <ele>1075</ele>
        <time>2026-05-11T18:26:40+00:00</time>
      </trkpt>
      <trkpt lat="45.11324" lon="5.58648">
        <ele>1076</ele>
        <time>2026-05-11T18:26:41+00:00</time>
      </trkpt>
      <trkpt lat="45.1133" lon="5.58658">
        <ele>1079</ele>
        <time>2026-05-11T18:26:42+00:00</time>
      </trkpt>
      <trkpt lat="45.11347" lon="5.58671">
        <ele>1080</ele>
        <time>2026-05-11T18:26:43+00:00</time>
      </trkpt>
      <trkpt lat="45.11357" lon="5.58697">
        <ele>1088</ele>
        <time>2026-05-11T18:26:44+00:00</time>
      </trkpt>
      <trkpt lat="45.11378" lon="5.58726">
        <ele>1095</ele>
        <time>2026-05-11T18:26:45+00:00</time>
      </trkpt>
      <trkpt lat="45.11382" lon="5.58735">
        <ele>1097</ele>
        <time>2026-05-11T18:26:46+00:00</time>
      </trkpt>
      <trkpt lat="45.11382" lon="5.58742">
        <ele>1100</ele>
        <time>2026-05-11T18:26:47+00:00</time>
      </trkpt>
      <trkpt lat="45.11392" lon="5.58757">
        <ele>1102</ele>
        <time>2026-05-11T18:26:48+00:00</time>
      </trkpt>
      <trkpt lat="45.11394" lon="5.58768">
        <ele>1103</ele>
        <time>2026-05-11T18:26:49+00:00</time>
      </trkpt>
      <trkpt lat="45.11404" lon="5.58788">
        <ele>1104</ele>
        <time>2026-05-11T18:26:50+00:00</time>
      </trkpt>
      <trkpt lat="45.11404" lon="5.58807">
        <ele>1107</ele>
        <time>2026-05-11T18:26:51+00:00</time>
      </trkpt>
      <trkpt lat="45.11406" lon="5.58815">
        <ele>1108</ele>
        <time>2026-05-11T18:26:52+00:00</time>
      </trkpt>
      <trkpt lat="45.11421" lon="5.58848">
        <ele>1108</ele>
        <time>2026-05-11T18:26:53+00:00</time>
      </trkpt>
      <trkpt lat="45.11422" lon="5.58854">
        <ele>1108</ele>
        <time>2026-05-11T18:26:54+00:00</time>
      </trkpt>
      <trkpt lat="45.11429" lon="5.58863">
        <ele>1108</ele>
        <time>2026-05-11T18:26:55+00:00</time>
      </trkpt>
      <trkpt lat="45.11439" lon="5.58869">
        <ele>1107</ele>
        <time>2026-05-11T18:26:56+00:00</time>
      </trkpt>
      <trkpt lat="45.11447" lon="5.58869">
        <ele>1107</ele>
        <time>2026-05-11T18:26:57+00:00</time>
      </trkpt>
      <trkpt lat="45.11453" lon="5.58862">
        <ele>1106</ele>
        <time>2026-05-11T18:26:58+00:00</time>
      </trkpt>
      <trkpt lat="45.11458" lon="5.58847">
        <ele>1106</ele>
        <time>2026-05-11T18:26:59+00:00</time>
      </trkpt>
      <trkpt lat="45.11468" lon="5.58837">
        <ele>1106</ele>
        <time>2026-05-11T18:27:00+00:00</time>
      </trkpt>
      <trkpt lat="45.11475" lon="5.58819">
        <ele>1103</ele>
        <time>2026-05-11T18:27:01+00:00</time>
      </trkpt>
      <trkpt lat="45.11482" lon="5.58815">
        <ele>1102</ele>
        <time>2026-05-11T18:27:02+00:00</time>
      </trkpt>
      <trkpt lat="45.11483" lon="5.58813">
        <ele>1102</ele>
        <time>2026-05-11T18:27:03+00:00</time>
      </trkpt>
      <trkpt lat="45.11488" lon="5.58814">
        <ele>1102</ele>
        <time>2026-05-11T18:27:04+00:00</time>
      </trkpt>
      <trkpt lat="45.11497" lon="5.58806">
        <ele>1100</ele>
        <time>2026-05-11T18:27:05+00:00</time>
      </trkpt>
      <trkpt lat="45.11505" lon="5.58796">
        <ele>1097</ele>
        <time>2026-05-11T18:27:06+00:00</time>
      </trkpt>
      <trkpt lat="45.11514" lon="5.5879">
        <ele>1095</ele>
        <time>2026-05-11T18:27:07+00:00</time>
      </trkpt>
      <trkpt lat="45.11523" lon="5.58777">
        <ele>1092</ele>
        <time>2026-05-11T18:27:08+00:00</time>
      </trkpt>
      <trkpt lat="45.11546" lon="5.58755">
        <ele>1085</ele>
        <time>2026-05-11T18:27:09+00:00</time>
      </trkpt>
      <trkpt lat="45.11556" lon="5.58743">
        <ele>1081</ele>
        <time>2026-05-11T18:27:10+00:00</time>
      </trkpt>
      <trkpt lat="45.11596" lon="5.58722">
        <ele>1070</ele>
        <time>2026-05-11T18:27:11+00:00</time>
      </trkpt>
      <trkpt lat="45.11597" lon="5.58725">
        <ele>1070</ele>
        <time>2026-05-11T18:27:12+00:00</time>
      </trkpt>
      <trkpt lat="45.11602" lon="5.58728">
        <ele>1069</ele>
        <time>2026-05-11T18:27:13+00:00</time>
      </trkpt>
      <trkpt lat="45.11608" lon="5.58743">
        <ele>1070</ele>
        <time>2026-05-11T18:27:14+00:00</time>
      </trkpt>
      <trkpt lat="45.1161" lon="5.5876">
        <ele>1071</ele>
        <time>2026-05-11T18:27:15+00:00</time>
      </trkpt>
      <trkpt lat="45.11623" lon="5.58795">
        <ele>1071</ele>
        <time>2026-05-11T18:27:16+00:00</time>
      </trkpt>
      <trkpt lat="45.11633" lon="5.58815">
        <ele>1070</ele>
        <time>2026-05-11T18:27:17+00:00</time>
      </trkpt>
      <trkpt lat="45.11641" lon="5.58842">
        <ele>1071</ele>
        <time>2026-05-11T18:27:18+00:00</time>
      </trkpt>
      <trkpt lat="45.11657" lon="5.58872">
        <ele>1068</ele>
        <time>2026-05-11T18:27:19+00:00</time>
      </trkpt>
      <trkpt lat="45.11675" lon="5.58889">
        <ele>1065</ele>
        <time>2026-05-11T18:27:20+00:00</time>
      </trkpt>
      <trkpt lat="45.11706" lon="5.58911">
        <ele>1062</ele>
        <time>2026-05-11T18:27:21+00:00</time>
      </trkpt>
      <trkpt lat="45.1172" lon="5.58929">
        <ele>1061</ele>
        <time>2026-05-11T18:27:22+00:00</time>
      </trkpt>
      <trkpt lat="45.11725" lon="5.58939">
        <ele>1060</ele>
        <time>2026-05-11T18:27:23+00:00</time>
      </trkpt>
      <trkpt lat="45.1174" lon="5.58957">
        <ele>1058</ele>
        <time>2026-05-11T18:27:24+00:00</time>
      </trkpt>
      <trkpt lat="45.11739" lon="5.58968">
        <ele>1058</ele>
        <time>2026-05-11T18:27:25+00:00</time>
      </trkpt>
      <trkpt lat="45.11731" lon="5.58996">
        <ele>1059</ele>
        <time>2026-05-11T18:27:26+00:00</time>
      </trkpt>
      <trkpt lat="45.11695" lon="5.59068">
        <ele>1070</ele>
        <time>2026-05-11T18:27:27+00:00</time>
      </trkpt>
      <trkpt lat="45.11684" lon="5.59079">
        <ele>1073</ele>
        <time>2026-05-11T18:27:28+00:00</time>
      </trkpt>
      <trkpt lat="45.11683" lon="5.59084">
        <ele>1074</ele>
        <time>2026-05-11T18:27:29+00:00</time>
      </trkpt>
      <trkpt lat="45.11692" lon="5.5909">
        <ele>1074</ele>
        <time>2026-05-11T18:27:30+00:00</time>
      </trkpt>
      <trkpt lat="45.11721" lon="5.59101">
        <ele>1073</ele>
        <time>2026-05-11T18:27:31+00:00</time>
      </trkpt>
      <trkpt lat="45.11737" lon="5.59111">
        <ele>1074</ele>
        <time>2026-05-11T18:27:32+00:00</time>
      </trkpt>
      <trkpt lat="45.11831" lon="5.59177">
        <ele>1087</ele>
        <time>2026-05-11T18:27:33+00:00</time>
      </trkpt>
      <trkpt lat="45.1186" lon="5.59188">
        <ele>1090</ele>
        <time>2026-05-11T18:27:34+00:00</time>
      </trkpt>
      <trkpt lat="45.11888" lon="5.59206">
        <ele>1095</ele>
        <time>2026-05-11T18:27:35+00:00</time>
      </trkpt>
      <trkpt lat="45.11912" lon="5.59207">
        <ele>1094</ele>
        <time>2026-05-11T18:27:36+00:00</time>
      </trkpt>
      <trkpt lat="45.11936" lon="5.59221">
        <ele>1098</ele>
        <time>2026-05-11T18:27:37+00:00</time>
      </trkpt>
      <trkpt lat="45.11954" lon="5.59225">
        <ele>1099</ele>
        <time>2026-05-11T18:27:38+00:00</time>
      </trkpt>
      <trkpt lat="45.11982" lon="5.59221">
        <ele>1097</ele>
        <time>2026-05-11T18:27:39+00:00</time>
      </trkpt>
      <trkpt lat="45.11997" lon="5.59214">
        <ele>1095</ele>
        <time>2026-05-11T18:27:40+00:00</time>
      </trkpt>
      <trkpt lat="45.12014" lon="5.59211">
        <ele>1093</ele>
        <time>2026-05-11T18:27:41+00:00</time>
      </trkpt>
      <trkpt lat="45.12017" lon="5.59212">
        <ele>1093</ele>
        <time>2026-05-11T18:27:42+00:00</time>
      </trkpt>
      <trkpt lat="45.12023" lon="5.59218">
        <ele>1094</ele>
        <time>2026-05-11T18:27:43+00:00</time>
      </trkpt>
      <trkpt lat="45.12054" lon="5.5922">
        <ele>1092</ele>
        <time>2026-05-11T18:27:44+00:00</time>
      </trkpt>
      <trkpt lat="45.12074" lon="5.59228">
        <ele>1093</ele>
        <time>2026-05-11T18:27:45+00:00</time>
      </trkpt>
      <trkpt lat="45.1209" lon="5.5924">
        <ele>1092</ele>
        <time>2026-05-11T18:27:46+00:00</time>
      </trkpt>
      <trkpt lat="45.1211" lon="5.59207">
        <ele>1080</ele>
        <time>2026-05-11T18:27:47+00:00</time>
      </trkpt>
      <trkpt lat="45.12124" lon="5.5919">
        <ele>1074</ele>
        <time>2026-05-11T18:27:48+00:00</time>
      </trkpt>
      <trkpt lat="45.12156" lon="5.59169">
        <ele>1064</ele>
        <time>2026-05-11T18:27:49+00:00</time>
      </trkpt>
      <trkpt lat="45.12208" lon="5.5915">
        <ele>1044</ele>
        <time>2026-05-11T18:27:50+00:00</time>
      </trkpt>
      <trkpt lat="45.12232" lon="5.59149">
        <ele>1035</ele>
        <time>2026-05-11T18:27:51+00:00</time>
      </trkpt>
      <trkpt lat="45.12266" lon="5.59151">
        <ele>1026</ele>
        <time>2026-05-11T18:27:52+00:00</time>
      </trkpt>
      <trkpt lat="45.12285" lon="5.59149">
        <ele>1023</ele>
        <time>2026-05-11T18:27:53+00:00</time>
      </trkpt>
      <trkpt lat="45.12302" lon="5.59143">
        <ele>1020</ele>
        <time>2026-05-11T18:27:54+00:00</time>
      </trkpt>
      <trkpt lat="45.12329" lon="5.59128">
        <ele>1015</ele>
        <time>2026-05-11T18:27:55+00:00</time>
      </trkpt>
      <trkpt lat="45.12346" lon="5.59122">
        <ele>1015</ele>
        <time>2026-05-11T18:27:56+00:00</time>
      </trkpt>
      <trkpt lat="45.12366" lon="5.59111">
        <ele>1014</ele>
        <time>2026-05-11T18:27:57+00:00</time>
      </trkpt>
      <trkpt lat="45.1238" lon="5.59108">
        <ele>1014</ele>
        <time>2026-05-11T18:27:58+00:00</time>
      </trkpt>
      <trkpt lat="45.12384" lon="5.59109">
        <ele>1014</ele>
        <time>2026-05-11T18:27:59+00:00</time>
      </trkpt>
      <trkpt lat="45.12388" lon="5.59113">
        <ele>1014</ele>
        <time>2026-05-11T18:28:00+00:00</time>
      </trkpt>
      <trkpt lat="45.12393" lon="5.59106">
        <ele>1014</ele>
        <time>2026-05-11T18:28:01+00:00</time>
      </trkpt>
      <trkpt lat="45.12406" lon="5.59095">
        <ele>1014</ele>
        <time>2026-05-11T18:28:02+00:00</time>
      </trkpt>
      <trkpt lat="45.12416" lon="5.59083">
        <ele>1013</ele>
        <time>2026-05-11T18:28:03+00:00</time>
      </trkpt>
      <trkpt lat="45.12422" lon="5.59068">
        <ele>1013</ele>
        <time>2026-05-11T18:28:04+00:00</time>
      </trkpt>
      <trkpt lat="45.1243" lon="5.59062">
        <ele>1013</ele>
        <time>2026-05-11T18:28:05+00:00</time>
      </trkpt>
      <trkpt lat="45.1246" lon="5.59053">
        <ele>1015</ele>
        <time>2026-05-11T18:28:06+00:00</time>
      </trkpt>
      <trkpt lat="45.12483" lon="5.59035">
        <ele>1016</ele>
        <time>2026-05-11T18:28:07+00:00</time>
      </trkpt>
      <trkpt lat="45.12498" lon="5.59026">
        <ele>1017</ele>
        <time>2026-05-11T18:28:08+00:00</time>
      </trkpt>
      <trkpt lat="45.12527" lon="5.59017">
        <ele>1018</ele>
        <time>2026-05-11T18:28:09+00:00</time>
      </trkpt>
      <trkpt lat="45.12608" lon="5.59007">
        <ele>1020</ele>
        <time>2026-05-11T18:28:10+00:00</time>
      </trkpt>
      <trkpt lat="45.12625" lon="5.58999">
        <ele>1020</ele>
        <time>2026-05-11T18:28:11+00:00</time>
      </trkpt>
      <trkpt lat="45.12642" lon="5.58985">
        <ele>1020</ele>
        <time>2026-05-11T18:28:12+00:00</time>
      </trkpt>
      <trkpt lat="45.12644" lon="5.58985">
        <ele>1020</ele>
        <time>2026-05-11T18:28:13+00:00</time>
      </trkpt>
      <trkpt lat="45.12652" lon="5.58974">
        <ele>1020</ele>
        <time>2026-05-11T18:28:14+00:00</time>
      </trkpt>
      <trkpt lat="45.12664" lon="5.58963">
        <ele>1020</ele>
        <time>2026-05-11T18:28:15+00:00</time>
      </trkpt>
      <trkpt lat="45.12719" lon="5.58919">
        <ele>1020</ele>
        <time>2026-05-11T18:28:16+00:00</time>
      </trkpt>
      <trkpt lat="45.12737" lon="5.5891">
        <ele>1020</ele>
        <time>2026-05-11T18:28:17+00:00</time>
      </trkpt>
      <trkpt lat="45.12765" lon="5.58903">
        <ele>1019</ele>
        <time>2026-05-11T18:28:18+00:00</time>
      </trkpt>
    </trkseg>
  </trk>
</gpx>
