<?xml version="1.0" encoding="UTF-8"?>
<gpx xmlns="http://www.topografix.com/GPX/1/1" xmlns:xsi="http://www.w3.org/2001/XMLSchema-instance" version="1.1" creator="phpGPX/1.3.0" xsi:schemaLocation="http://www.topografix.com/GPX/1/1 http://www.topografix.com/GPX/1/1/gpx.xsd">
  <metadata>
    <time>2026-05-11T18:38:43+00:00</time>
  </metadata>
  <trk>
    <name>Tour des Pistes</name>
    <trkseg>
      <trkpt lat="48.05945" lon="6.89275">
        <ele>855</ele>
        <time>2026-05-11T18:38:44+00:00</time>
      </trkpt>
      <trkpt lat="48.05914" lon="6.89299">
        <ele>857</ele>
        <time>2026-05-11T18:38:45+00:00</time>
      </trkpt>
      <trkpt lat="48.05902" lon="6.89321">
        <ele>858</ele>
        <time>2026-05-11T18:38:46+00:00</time>
      </trkpt>
      <trkpt lat="48.05877" lon="6.89377">
        <ele>858</ele>
        <time>2026-05-11T18:38:47+00:00</time>
      </trkpt>
      <trkpt lat="48.05865" lon="6.894">
        <ele>858</ele>
        <time>2026-05-11T18:38:48+00:00</time>
      </trkpt>
      <trkpt lat="48.05846" lon="6.89426">
        <ele>858</ele>
        <time>2026-05-11T18:38:49+00:00</time>
      </trkpt>
      <trkpt lat="48.05817" lon="6.8945">
        <ele>862</ele>
        <time>2026-05-11T18:38:50+00:00</time>
      </trkpt>
      <trkpt lat="48.05796" lon="6.89473">
        <ele>867</ele>
        <time>2026-05-11T18:38:51+00:00</time>
      </trkpt>
      <trkpt lat="48.0578" lon="6.89562">
        <ele>872</ele>
        <time>2026-05-11T18:38:52+00:00</time>
      </trkpt>
      <trkpt lat="48.05778" lon="6.89584">
        <ele>872</ele>
        <time>2026-05-11T18:38:53+00:00</time>
      </trkpt>
      <trkpt lat="48.05793" lon="6.89651">
        <ele>873</ele>
        <time>2026-05-11T18:38:54+00:00</time>
      </trkpt>
      <trkpt lat="48.05797" lon="6.89687">
        <ele>877</ele>
        <time>2026-05-11T18:38:55+00:00</time>
      </trkpt>
      <trkpt lat="48.058" lon="6.89695">
        <ele>878</ele>
        <time>2026-05-11T18:38:56+00:00</time>
      </trkpt>
      <trkpt lat="48.05845" lon="6.8973">
        <ele>875</ele>
        <time>2026-05-11T18:38:57+00:00</time>
      </trkpt>
      <trkpt lat="48.05852" lon="6.89745">
        <ele>876</ele>
        <time>2026-05-11T18:38:58+00:00</time>
      </trkpt>
      <trkpt lat="48.05849" lon="6.89761">
        <ele>879</ele>
        <time>2026-05-11T18:38:59+00:00</time>
      </trkpt>
      <trkpt lat="48.05833" lon="6.89799">
        <ele>889</ele>
        <time>2026-05-11T18:39:00+00:00</time>
      </trkpt>
      <trkpt lat="48.05826" lon="6.89861">
        <ele>899</ele>
        <time>2026-05-11T18:39:01+00:00</time>
      </trkpt>
      <trkpt lat="48.05863" lon="6.90077">
        <ele>914</ele>
        <time>2026-05-11T18:39:02+00:00</time>
      </trkpt>
      <trkpt lat="48.0586" lon="6.90114">
        <ele>916</ele>
        <time>2026-05-11T18:39:03+00:00</time>
      </trkpt>
      <trkpt lat="48.05854" lon="6.90143">
        <ele>919</ele>
        <time>2026-05-11T18:39:04+00:00</time>
      </trkpt>
      <trkpt lat="48.05837" lon="6.90184">
        <ele>925</ele>
        <time>2026-05-11T18:39:05+00:00</time>
      </trkpt>
      <trkpt lat="48.05807" lon="6.90241">
        <ele>931</ele>
        <time>2026-05-11T18:39:06+00:00</time>
      </trkpt>
      <trkpt lat="48.05771" lon="6.90298">
        <ele>936</ele>
        <time>2026-05-11T18:39:07+00:00</time>
      </trkpt>
      <trkpt lat="48.05734" lon="6.90325">
        <ele>943</ele>
        <time>2026-05-11T18:39:08+00:00</time>
      </trkpt>
      <trkpt lat="48.05685" lon="6.90351">
        <ele>956</ele>
        <time>2026-05-11T18:39:09+00:00</time>
      </trkpt>
      <trkpt lat="48.05671" lon="6.90364">
        <ele>960</ele>
        <time>2026-05-11T18:39:10+00:00</time>
      </trkpt>
      <trkpt lat="48.05669" lon="6.90372">
        <ele>960</ele>
        <time>2026-05-11T18:39:11+00:00</time>
      </trkpt>
      <trkpt lat="48.0567" lon="6.90446">
        <ele>961</ele>
        <time>2026-05-11T18:39:12+00:00</time>
      </trkpt>
      <trkpt lat="48.05649" lon="6.90535">
        <ele>972</ele>
        <time>2026-05-11T18:39:13+00:00</time>
      </trkpt>
      <trkpt lat="48.05645" lon="6.9054">
        <ele>974</ele>
        <time>2026-05-11T18:39:14+00:00</time>
      </trkpt>
      <trkpt lat="48.05641" lon="6.90541">
        <ele>975</ele>
        <time>2026-05-11T18:39:15+00:00</time>
      </trkpt>
      <trkpt lat="48.05611" lon="6.90523">
        <ele>979</ele>
        <time>2026-05-11T18:39:16+00:00</time>
      </trkpt>
      <trkpt lat="48.05604" lon="6.90522">
        <ele>980</ele>
        <time>2026-05-11T18:39:17+00:00</time>
      </trkpt>
      <trkpt lat="48.05596" lon="6.90524">
        <ele>982</ele>
        <time>2026-05-11T18:39:18+00:00</time>
      </trkpt>
      <trkpt lat="48.05593" lon="6.90529">
        <ele>983</ele>
        <time>2026-05-11T18:39:19+00:00</time>
      </trkpt>
      <trkpt lat="48.05579" lon="6.90673">
        <ele>996</ele>
        <time>2026-05-11T18:39:20+00:00</time>
      </trkpt>
      <trkpt lat="48.05573" lon="6.90701">
        <ele>995</ele>
        <time>2026-05-11T18:39:21+00:00</time>
      </trkpt>
      <trkpt lat="48.05568" lon="6.9071">
        <ele>995</ele>
        <time>2026-05-11T18:39:22+00:00</time>
      </trkpt>
      <trkpt lat="48.05557" lon="6.90724">
        <ele>996</ele>
        <time>2026-05-11T18:39:23+00:00</time>
      </trkpt>
      <trkpt lat="48.05546" lon="6.9073">
        <ele>998</ele>
        <time>2026-05-11T18:39:24+00:00</time>
      </trkpt>
      <trkpt lat="48.05535" lon="6.90731">
        <ele>999</ele>
        <time>2026-05-11T18:39:25+00:00</time>
      </trkpt>
      <trkpt lat="48.05463" lon="6.90725">
        <ele>1004</ele>
        <time>2026-05-11T18:39:26+00:00</time>
      </trkpt>
      <trkpt lat="48.0545" lon="6.90723">
        <ele>1004</ele>
        <time>2026-05-11T18:39:27+00:00</time>
      </trkpt>
      <trkpt lat="48.05422" lon="6.90724">
        <ele>1004</ele>
        <time>2026-05-11T18:39:28+00:00</time>
      </trkpt>
      <trkpt lat="48.05409" lon="6.90719">
        <ele>1005</ele>
        <time>2026-05-11T18:39:29+00:00</time>
      </trkpt>
      <trkpt lat="48.05389" lon="6.90706">
        <ele>1006</ele>
        <time>2026-05-11T18:39:30+00:00</time>
      </trkpt>
      <trkpt lat="48.05371" lon="6.90698">
        <ele>1008</ele>
        <time>2026-05-11T18:39:31+00:00</time>
      </trkpt>
      <trkpt lat="48.05325" lon="6.90687">
        <ele>1013</ele>
        <time>2026-05-11T18:39:32+00:00</time>
      </trkpt>
      <trkpt lat="48.05303" lon="6.90696">
        <ele>1016</ele>
        <time>2026-05-11T18:39:33+00:00</time>
      </trkpt>
      <trkpt lat="48.05276" lon="6.9071">
        <ele>1019</ele>
        <time>2026-05-11T18:39:34+00:00</time>
      </trkpt>
      <trkpt lat="48.05195" lon="6.90702">
        <ele>1037</ele>
        <time>2026-05-11T18:39:35+00:00</time>
      </trkpt>
      <trkpt lat="48.0515" lon="6.90704">
        <ele>1039</ele>
        <time>2026-05-11T18:39:36+00:00</time>
      </trkpt>
      <trkpt lat="48.05108" lon="6.90728">
        <ele>1040</ele>
        <time>2026-05-11T18:39:37+00:00</time>
      </trkpt>
      <trkpt lat="48.05069" lon="6.90758">
        <ele>1044</ele>
        <time>2026-05-11T18:39:38+00:00</time>
      </trkpt>
      <trkpt lat="48.05066" lon="6.9077">
        <ele>1045</ele>
        <time>2026-05-11T18:39:39+00:00</time>
      </trkpt>
      <trkpt lat="48.05065" lon="6.90782">
        <ele>1045</ele>
        <time>2026-05-11T18:39:40+00:00</time>
      </trkpt>
      <trkpt lat="48.05067" lon="6.90814">
        <ele>1044</ele>
        <time>2026-05-11T18:39:41+00:00</time>
      </trkpt>
      <trkpt lat="48.05076" lon="6.90867">
        <ele>1041</ele>
        <time>2026-05-11T18:39:42+00:00</time>
      </trkpt>
      <trkpt lat="48.0509" lon="6.90923">
        <ele>1037</ele>
        <time>2026-05-11T18:39:43+00:00</time>
      </trkpt>
      <trkpt lat="48.05108" lon="6.90976">
        <ele>1035</ele>
        <time>2026-05-11T18:39:44+00:00</time>
      </trkpt>
      <trkpt lat="48.05133" lon="6.91094">
        <ele>1039</ele>
        <time>2026-05-11T18:39:45+00:00</time>
      </trkpt>
      <trkpt lat="48.05136" lon="6.9111">
        <ele>1039</ele>
        <time>2026-05-11T18:39:46+00:00</time>
      </trkpt>
      <trkpt lat="48.05138" lon="6.91162">
        <ele>1043</ele>
        <time>2026-05-11T18:39:47+00:00</time>
      </trkpt>
      <trkpt lat="48.05139" lon="6.9118">
        <ele>1044</ele>
        <time>2026-05-11T18:39:48+00:00</time>
      </trkpt>
      <trkpt lat="48.05133" lon="6.91228">
        <ele>1048</ele>
        <time>2026-05-11T18:39:49+00:00</time>
      </trkpt>
      <trkpt lat="48.05113" lon="6.91316">
        <ele>1053</ele>
        <time>2026-05-11T18:39:50+00:00</time>
      </trkpt>
      <trkpt lat="48.051" lon="6.91362">
        <ele>1054</ele>
        <time>2026-05-11T18:39:51+00:00</time>
      </trkpt>
      <trkpt lat="48.05078" lon="6.91399">
        <ele>1057</ele>
        <time>2026-05-11T18:39:52+00:00</time>
      </trkpt>
      <trkpt lat="48.05035" lon="6.91425">
        <ele>1066</ele>
        <time>2026-05-11T18:39:53+00:00</time>
      </trkpt>
      <trkpt lat="48.04996" lon="6.9147">
        <ele>1067</ele>
        <time>2026-05-11T18:39:54+00:00</time>
      </trkpt>
      <trkpt lat="48.0494" lon="6.9154">
        <ele>1069</ele>
        <time>2026-05-11T18:39:55+00:00</time>
      </trkpt>
      <trkpt lat="48.04921" lon="6.91586">
        <ele>1064</ele>
        <time>2026-05-11T18:39:56+00:00</time>
      </trkpt>
      <trkpt lat="48.04913" lon="6.91619">
        <ele>1064</ele>
        <time>2026-05-11T18:39:57+00:00</time>
      </trkpt>
      <trkpt lat="48.04907" lon="6.9166">
        <ele>1064</ele>
        <time>2026-05-11T18:39:58+00:00</time>
      </trkpt>
      <trkpt lat="48.04904" lon="6.91675">
        <ele>1064</ele>
        <time>2026-05-11T18:39:59+00:00</time>
      </trkpt>
      <trkpt lat="48.04893" lon="6.91703">
        <ele>1068</ele>
        <time>2026-05-11T18:40:00+00:00</time>
      </trkpt>
      <trkpt lat="48.04871" lon="6.91801">
        <ele>1069</ele>
        <time>2026-05-11T18:40:01+00:00</time>
      </trkpt>
      <trkpt lat="48.04869" lon="6.91815">
        <ele>1068</ele>
        <time>2026-05-11T18:40:02+00:00</time>
      </trkpt>
      <trkpt lat="48.04869" lon="6.91845">
        <ele>1066</ele>
        <time>2026-05-11T18:40:03+00:00</time>
      </trkpt>
      <trkpt lat="48.04872" lon="6.91866">
        <ele>1064</ele>
        <time>2026-05-11T18:40:04+00:00</time>
      </trkpt>
      <trkpt lat="48.04875" lon="6.91944">
        <ele>1059</ele>
        <time>2026-05-11T18:40:05+00:00</time>
      </trkpt>
      <trkpt lat="48.04872" lon="6.92">
        <ele>1059</ele>
        <time>2026-05-11T18:40:06+00:00</time>
      </trkpt>
      <trkpt lat="48.04867" lon="6.92032">
        <ele>1060</ele>
        <time>2026-05-11T18:40:07+00:00</time>
      </trkpt>
      <trkpt lat="48.04862" lon="6.92046">
        <ele>1061</ele>
        <time>2026-05-11T18:40:08+00:00</time>
      </trkpt>
      <trkpt lat="48.04851" lon="6.92056">
        <ele>1063</ele>
        <time>2026-05-11T18:40:09+00:00</time>
      </trkpt>
      <trkpt lat="48.0483" lon="6.92061">
        <ele>1066</ele>
        <time>2026-05-11T18:40:10+00:00</time>
      </trkpt>
      <trkpt lat="48.04814" lon="6.92019">
        <ele>1069</ele>
        <time>2026-05-11T18:40:11+00:00</time>
      </trkpt>
      <trkpt lat="48.04804" lon="6.91986">
        <ele>1073</ele>
        <time>2026-05-11T18:40:12+00:00</time>
      </trkpt>
      <trkpt lat="48.04799" lon="6.91964">
        <ele>1075</ele>
        <time>2026-05-11T18:40:13+00:00</time>
      </trkpt>
      <trkpt lat="48.04789" lon="6.91943">
        <ele>1078</ele>
        <time>2026-05-11T18:40:14+00:00</time>
      </trkpt>
      <trkpt lat="48.04784" lon="6.91924">
        <ele>1081</ele>
        <time>2026-05-11T18:40:15+00:00</time>
      </trkpt>
      <trkpt lat="48.04783" lon="6.91885">
        <ele>1084</ele>
        <time>2026-05-11T18:40:16+00:00</time>
      </trkpt>
      <trkpt lat="48.04785" lon="6.91859">
        <ele>1086</ele>
        <time>2026-05-11T18:40:17+00:00</time>
      </trkpt>
      <trkpt lat="48.04784" lon="6.91846">
        <ele>1088</ele>
        <time>2026-05-11T18:40:18+00:00</time>
      </trkpt>
      <trkpt lat="48.04781" lon="6.9184">
        <ele>1089</ele>
        <time>2026-05-11T18:40:19+00:00</time>
      </trkpt>
      <trkpt lat="48.04775" lon="6.91838">
        <ele>1091</ele>
        <time>2026-05-11T18:40:20+00:00</time>
      </trkpt>
      <trkpt lat="48.04766" lon="6.91842">
        <ele>1092</ele>
        <time>2026-05-11T18:40:21+00:00</time>
      </trkpt>
      <trkpt lat="48.04747" lon="6.9186">
        <ele>1095</ele>
        <time>2026-05-11T18:40:22+00:00</time>
      </trkpt>
      <trkpt lat="48.04739" lon="6.91869">
        <ele>1096</ele>
        <time>2026-05-11T18:40:23+00:00</time>
      </trkpt>
      <trkpt lat="48.04717" lon="6.91902">
        <ele>1098</ele>
        <time>2026-05-11T18:40:24+00:00</time>
      </trkpt>
      <trkpt lat="48.04709" lon="6.9191">
        <ele>1099</ele>
        <time>2026-05-11T18:40:25+00:00</time>
      </trkpt>
      <trkpt lat="48.04697" lon="6.91916">
        <ele>1101</ele>
        <time>2026-05-11T18:40:26+00:00</time>
      </trkpt>
      <trkpt lat="48.0467" lon="6.91926">
        <ele>1104</ele>
        <time>2026-05-11T18:40:27+00:00</time>
      </trkpt>
      <trkpt lat="48.04647" lon="6.91923">
        <ele>1107</ele>
        <time>2026-05-11T18:40:28+00:00</time>
      </trkpt>
      <trkpt lat="48.04623" lon="6.91925">
        <ele>1109</ele>
        <time>2026-05-11T18:40:29+00:00</time>
      </trkpt>
      <trkpt lat="48.04609" lon="6.91922">
        <ele>1112</ele>
        <time>2026-05-11T18:40:30+00:00</time>
      </trkpt>
      <trkpt lat="48.04542" lon="6.91929">
        <ele>1114</ele>
        <time>2026-05-11T18:40:31+00:00</time>
      </trkpt>
      <trkpt lat="48.04523" lon="6.91935">
        <ele>1114</ele>
        <time>2026-05-11T18:40:32+00:00</time>
      </trkpt>
      <trkpt lat="48.045" lon="6.91929">
        <ele>1116</ele>
        <time>2026-05-11T18:40:33+00:00</time>
      </trkpt>
      <trkpt lat="48.04486" lon="6.91921">
        <ele>1117</ele>
        <time>2026-05-11T18:40:34+00:00</time>
      </trkpt>
      <trkpt lat="48.04481" lon="6.91912">
        <ele>1118</ele>
        <time>2026-05-11T18:40:35+00:00</time>
      </trkpt>
      <trkpt lat="48.04479" lon="6.91904">
        <ele>1118</ele>
        <time>2026-05-11T18:40:36+00:00</time>
      </trkpt>
      <trkpt lat="48.04484" lon="6.91895">
        <ele>1118</ele>
        <time>2026-05-11T18:40:37+00:00</time>
      </trkpt>
      <trkpt lat="48.04501" lon="6.91888">
        <ele>1120</ele>
        <time>2026-05-11T18:40:38+00:00</time>
      </trkpt>
      <trkpt lat="48.04513" lon="6.91876">
        <ele>1120</ele>
        <time>2026-05-11T18:40:39+00:00</time>
      </trkpt>
      <trkpt lat="48.04559" lon="6.9184">
        <ele>1124</ele>
        <time>2026-05-11T18:40:40+00:00</time>
      </trkpt>
      <trkpt lat="48.04573" lon="6.9182">
        <ele>1126</ele>
        <time>2026-05-11T18:40:41+00:00</time>
      </trkpt>
      <trkpt lat="48.04581" lon="6.91801">
        <ele>1126</ele>
        <time>2026-05-11T18:40:42+00:00</time>
      </trkpt>
      <trkpt lat="48.04579" lon="6.91776">
        <ele>1126</ele>
        <time>2026-05-11T18:40:43+00:00</time>
      </trkpt>
      <trkpt lat="48.04644" lon="6.91694">
        <ele>1126</ele>
        <time>2026-05-11T18:40:44+00:00</time>
      </trkpt>
      <trkpt lat="48.04653" lon="6.91689">
        <ele>1127</ele>
        <time>2026-05-11T18:40:45+00:00</time>
      </trkpt>
      <trkpt lat="48.04661" lon="6.91681">
        <ele>1128</ele>
        <time>2026-05-11T18:40:46+00:00</time>
      </trkpt>
      <trkpt lat="48.04684" lon="6.91681">
        <ele>1129</ele>
        <time>2026-05-11T18:40:47+00:00</time>
      </trkpt>
      <trkpt lat="48.04688" lon="6.91676">
        <ele>1129</ele>
        <time>2026-05-11T18:40:48+00:00</time>
      </trkpt>
      <trkpt lat="48.0469" lon="6.91669">
        <ele>1129</ele>
        <time>2026-05-11T18:40:49+00:00</time>
      </trkpt>
      <trkpt lat="48.04714" lon="6.91643">
        <ele>1126</ele>
        <time>2026-05-11T18:40:50+00:00</time>
      </trkpt>
      <trkpt lat="48.04717" lon="6.9163">
        <ele>1125</ele>
        <time>2026-05-11T18:40:51+00:00</time>
      </trkpt>
      <trkpt lat="48.04711" lon="6.91623">
        <ele>1126</ele>
        <time>2026-05-11T18:40:52+00:00</time>
      </trkpt>
      <trkpt lat="48.04696" lon="6.91612">
        <ele>1126</ele>
        <time>2026-05-11T18:40:53+00:00</time>
      </trkpt>
      <trkpt lat="48.04687" lon="6.91599">
        <ele>1126</ele>
        <time>2026-05-11T18:40:54+00:00</time>
      </trkpt>
      <trkpt lat="48.04665" lon="6.91598">
        <ele>1126</ele>
        <time>2026-05-11T18:40:55+00:00</time>
      </trkpt>
      <trkpt lat="48.0465" lon="6.9159">
        <ele>1125</ele>
        <time>2026-05-11T18:40:56+00:00</time>
      </trkpt>
      <trkpt lat="48.04657" lon="6.91576">
        <ele>1124</ele>
        <time>2026-05-11T18:40:57+00:00</time>
      </trkpt>
      <trkpt lat="48.04672" lon="6.91538">
        <ele>1122</ele>
        <time>2026-05-11T18:40:58+00:00</time>
      </trkpt>
      <trkpt lat="48.04718" lon="6.91455">
        <ele>1115</ele>
        <time>2026-05-11T18:40:59+00:00</time>
      </trkpt>
      <trkpt lat="48.04764" lon="6.91384">
        <ele>1111</ele>
        <time>2026-05-11T18:41:00+00:00</time>
      </trkpt>
      <trkpt lat="48.04811" lon="6.91325">
        <ele>1112</ele>
        <time>2026-05-11T18:41:01+00:00</time>
      </trkpt>
      <trkpt lat="48.04824" lon="6.913">
        <ele>1111</ele>
        <time>2026-05-11T18:41:02+00:00</time>
      </trkpt>
      <trkpt lat="48.04827" lon="6.91278">
        <ele>1111</ele>
        <time>2026-05-11T18:41:03+00:00</time>
      </trkpt>
      <trkpt lat="48.04825" lon="6.9123">
        <ele>1110</ele>
        <time>2026-05-11T18:41:04+00:00</time>
      </trkpt>
      <trkpt lat="48.04826" lon="6.91211">
        <ele>1109</ele>
        <time>2026-05-11T18:41:05+00:00</time>
      </trkpt>
      <trkpt lat="48.04841" lon="6.91171">
        <ele>1107</ele>
        <time>2026-05-11T18:41:06+00:00</time>
      </trkpt>
      <trkpt lat="48.0485" lon="6.91135">
        <ele>1105</ele>
        <time>2026-05-11T18:41:07+00:00</time>
      </trkpt>
      <trkpt lat="48.0489" lon="6.90821">
        <ele>1087</ele>
        <time>2026-05-11T18:41:08+00:00</time>
      </trkpt>
      <trkpt lat="48.04897" lon="6.908">
        <ele>1089</ele>
        <time>2026-05-11T18:41:09+00:00</time>
      </trkpt>
      <trkpt lat="48.04911" lon="6.90736">
        <ele>1086</ele>
        <time>2026-05-11T18:41:10+00:00</time>
      </trkpt>
      <trkpt lat="48.04922" lon="6.90666">
        <ele>1087</ele>
        <time>2026-05-11T18:41:11+00:00</time>
      </trkpt>
      <trkpt lat="48.04937" lon="6.90595">
        <ele>1086</ele>
        <time>2026-05-11T18:41:12+00:00</time>
      </trkpt>
      <trkpt lat="48.04942" lon="6.90577">
        <ele>1086</ele>
        <time>2026-05-11T18:41:13+00:00</time>
      </trkpt>
      <trkpt lat="48.05006" lon="6.90458">
        <ele>1093</ele>
        <time>2026-05-11T18:41:14+00:00</time>
      </trkpt>
      <trkpt lat="48.05013" lon="6.90444">
        <ele>1093</ele>
        <time>2026-05-11T18:41:15+00:00</time>
      </trkpt>
      <trkpt lat="48.05081" lon="6.90342">
        <ele>1100</ele>
        <time>2026-05-11T18:41:16+00:00</time>
      </trkpt>
      <trkpt lat="48.05124" lon="6.90277">
        <ele>1099</ele>
        <time>2026-05-11T18:41:17+00:00</time>
      </trkpt>
      <trkpt lat="48.05151" lon="6.90227">
        <ele>1099</ele>
        <time>2026-05-11T18:41:18+00:00</time>
      </trkpt>
      <trkpt lat="48.05158" lon="6.90122">
        <ele>1097</ele>
        <time>2026-05-11T18:41:19+00:00</time>
      </trkpt>
      <trkpt lat="48.05172" lon="6.90013">
        <ele>1089</ele>
        <time>2026-05-11T18:41:20+00:00</time>
      </trkpt>
      <trkpt lat="48.05178" lon="6.89973">
        <ele>1086</ele>
        <time>2026-05-11T18:41:21+00:00</time>
      </trkpt>
      <trkpt lat="48.05193" lon="6.89911">
        <ele>1081</ele>
        <time>2026-05-11T18:41:22+00:00</time>
      </trkpt>
      <trkpt lat="48.05194" lon="6.89903">
        <ele>1080</ele>
        <time>2026-05-11T18:41:23+00:00</time>
      </trkpt>
      <trkpt lat="48.05218" lon="6.89874">
        <ele>1075</ele>
        <time>2026-05-11T18:41:24+00:00</time>
      </trkpt>
      <trkpt lat="48.05228" lon="6.89858">
        <ele>1074</ele>
        <time>2026-05-11T18:41:25+00:00</time>
      </trkpt>
      <trkpt lat="48.05247" lon="6.8982">
        <ele>1071</ele>
        <time>2026-05-11T18:41:26+00:00</time>
      </trkpt>
      <trkpt lat="48.05253" lon="6.89798">
        <ele>1069</ele>
        <time>2026-05-11T18:41:27+00:00</time>
      </trkpt>
      <trkpt lat="48.05256" lon="6.89784">
        <ele>1069</ele>
        <time>2026-05-11T18:41:28+00:00</time>
      </trkpt>
      <trkpt lat="48.05264" lon="6.89694">
        <ele>1061</ele>
        <time>2026-05-11T18:41:29+00:00</time>
      </trkpt>
      <trkpt lat="48.05277" lon="6.89581">
        <ele>1051</ele>
        <time>2026-05-11T18:41:30+00:00</time>
      </trkpt>
      <trkpt lat="48.05284" lon="6.89493">
        <ele>1042</ele>
        <time>2026-05-11T18:41:31+00:00</time>
      </trkpt>
      <trkpt lat="48.05286" lon="6.89464">
        <ele>1040</ele>
        <time>2026-05-11T18:41:32+00:00</time>
      </trkpt>
      <trkpt lat="48.05297" lon="6.89435">
        <ele>1039</ele>
        <time>2026-05-11T18:41:33+00:00</time>
      </trkpt>
      <trkpt lat="48.05312" lon="6.89411">
        <ele>1038</ele>
        <time>2026-05-11T18:41:34+00:00</time>
      </trkpt>
      <trkpt lat="48.05331" lon="6.89346">
        <ele>1035</ele>
        <time>2026-05-11T18:41:35+00:00</time>
      </trkpt>
      <trkpt lat="48.05355" lon="6.89307">
        <ele>1028</ele>
        <time>2026-05-11T18:41:36+00:00</time>
      </trkpt>
      <trkpt lat="48.05375" lon="6.89262">
        <ele>1019</ele>
        <time>2026-05-11T18:41:37+00:00</time>
      </trkpt>
      <trkpt lat="48.05382" lon="6.89228">
        <ele>1019</ele>
        <time>2026-05-11T18:41:38+00:00</time>
      </trkpt>
      <trkpt lat="48.05405" lon="6.8922">
        <ele>1013</ele>
        <time>2026-05-11T18:41:39+00:00</time>
      </trkpt>
      <trkpt lat="48.05437" lon="6.89225">
        <ele>1004</ele>
        <time>2026-05-11T18:41:40+00:00</time>
      </trkpt>
      <trkpt lat="48.0547" lon="6.89243">
        <ele>996</ele>
        <time>2026-05-11T18:41:41+00:00</time>
      </trkpt>
      <trkpt lat="48.05503" lon="6.89257">
        <ele>991</ele>
        <time>2026-05-11T18:41:42+00:00</time>
      </trkpt>
      <trkpt lat="48.05525" lon="6.89276">
        <ele>990</ele>
        <time>2026-05-11T18:41:43+00:00</time>
      </trkpt>
      <trkpt lat="48.05566" lon="6.89317">
        <ele>982</ele>
        <time>2026-05-11T18:41:44+00:00</time>
      </trkpt>
      <trkpt lat="48.05579" lon="6.89318">
        <ele>977</ele>
        <time>2026-05-11T18:41:45+00:00</time>
      </trkpt>
      <trkpt lat="48.05595" lon="6.89308">
        <ele>969</ele>
        <time>2026-05-11T18:41:46+00:00</time>
      </trkpt>
      <trkpt lat="48.056" lon="6.89301">
        <ele>966</ele>
        <time>2026-05-11T18:41:47+00:00</time>
      </trkpt>
      <trkpt lat="48.05601" lon="6.89287">
        <ele>964</ele>
        <time>2026-05-11T18:41:48+00:00</time>
      </trkpt>
      <trkpt lat="48.05606" lon="6.89217">
        <ele>955</ele>
        <time>2026-05-11T18:41:49+00:00</time>
      </trkpt>
      <trkpt lat="48.05605" lon="6.89116">
        <ele>946</ele>
        <time>2026-05-11T18:41:50+00:00</time>
      </trkpt>
      <trkpt lat="48.05606" lon="6.89097">
        <ele>944</ele>
        <time>2026-05-11T18:41:51+00:00</time>
      </trkpt>
      <trkpt lat="48.0561" lon="6.89078">
        <ele>940</ele>
        <time>2026-05-11T18:41:52+00:00</time>
      </trkpt>
      <trkpt lat="48.05622" lon="6.89081">
        <ele>932</ele>
        <time>2026-05-11T18:41:53+00:00</time>
      </trkpt>
      <trkpt lat="48.0563" lon="6.89088">
        <ele>929</ele>
        <time>2026-05-11T18:41:54+00:00</time>
      </trkpt>
      <trkpt lat="48.05653" lon="6.89117">
        <ele>922</ele>
        <time>2026-05-11T18:41:55+00:00</time>
      </trkpt>
      <trkpt lat="48.05676" lon="6.89152">
        <ele>917</ele>
        <time>2026-05-11T18:41:56+00:00</time>
      </trkpt>
      <trkpt lat="48.05689" lon="6.89175">
        <ele>914</ele>
        <time>2026-05-11T18:41:57+00:00</time>
      </trkpt>
      <trkpt lat="48.05694" lon="6.89187">
        <ele>913</ele>
        <time>2026-05-11T18:41:58+00:00</time>
      </trkpt>
      <trkpt lat="48.05699" lon="6.89229">
        <ele>913</ele>
        <time>2026-05-11T18:41:59+00:00</time>
      </trkpt>
      <trkpt lat="48.05703" lon="6.89287">
        <ele>911</ele>
        <time>2026-05-11T18:42:00+00:00</time>
      </trkpt>
      <trkpt lat="48.05702" lon="6.89322">
        <ele>911</ele>
        <time>2026-05-11T18:42:01+00:00</time>
      </trkpt>
      <trkpt lat="48.05703" lon="6.8936">
        <ele>912</ele>
        <time>2026-05-11T18:42:02+00:00</time>
      </trkpt>
      <trkpt lat="48.05717" lon="6.89448">
        <ele>902</ele>
        <time>2026-05-11T18:42:03+00:00</time>
      </trkpt>
      <trkpt lat="48.05736" lon="6.89462">
        <ele>894</ele>
        <time>2026-05-11T18:42:04+00:00</time>
      </trkpt>
      <trkpt lat="48.05783" lon="6.89434">
        <ele>873</ele>
        <time>2026-05-11T18:42:05+00:00</time>
      </trkpt>
      <trkpt lat="48.05816" lon="6.8942">
        <ele>866</ele>
        <time>2026-05-11T18:42:06+00:00</time>
      </trkpt>
      <trkpt lat="48.05874" lon="6.89384">
        <ele>862</ele>
        <time>2026-05-11T18:42:07+00:00</time>
      </trkpt>
      <trkpt lat="48.05894" lon="6.89329">
        <ele>860</ele>
        <time>2026-05-11T18:42:08+00:00</time>
      </trkpt>
      <trkpt lat="48.05914" lon="6.89297">
        <ele>858</ele>
        <time>2026-05-11T18:42:09+00:00</time>
      </trkpt>
      <trkpt lat="48.05947" lon="6.89271">
        <ele>856</ele>
        <time>2026-05-11T18:42:10+00:00</time>
      </trkpt>
    </trkseg>
  </trk>
</gpx>
