<?xml version="1.0" encoding="UTF-8"?>
<gpx xmlns="http://www.topografix.com/GPX/1/1" xmlns:xsi="http://www.w3.org/2001/XMLSchema-instance" version="1.1" creator="phpGPX/1.3.0" xsi:schemaLocation="http://www.topografix.com/GPX/1/1 http://www.topografix.com/GPX/1/1/gpx.xsd">
  <metadata>
    <time>2026-05-11T18:30:12+00:00</time>
  </metadata>
  <trk>
    <name>Trail la Bambée 2026 - 20KM</name>
    <trkseg>
      <trkpt lat="45.76119" lon="6.53309">
        <ele>1657</ele>
        <time>2026-05-11T18:30:13+00:00</time>
      </trkpt>
      <trkpt lat="45.7615" lon="6.53307">
        <ele>1657</ele>
        <time>2026-05-11T18:30:14+00:00</time>
      </trkpt>
      <trkpt lat="45.76244" lon="6.53317">
        <ele>1655</ele>
        <time>2026-05-11T18:30:15+00:00</time>
      </trkpt>
      <trkpt lat="45.76373" lon="6.53412">
        <ele>1662</ele>
        <time>2026-05-11T18:30:16+00:00</time>
      </trkpt>
      <trkpt lat="45.76378" lon="6.53437">
        <ele>1666</ele>
        <time>2026-05-11T18:30:17+00:00</time>
      </trkpt>
      <trkpt lat="45.76348" lon="6.53467">
        <ele>1669</ele>
        <time>2026-05-11T18:30:18+00:00</time>
      </trkpt>
      <trkpt lat="45.76352" lon="6.53474">
        <ele>1671</ele>
        <time>2026-05-11T18:30:19+00:00</time>
      </trkpt>
      <trkpt lat="45.76366" lon="6.53481">
        <ele>1673</ele>
        <time>2026-05-11T18:30:20+00:00</time>
      </trkpt>
      <trkpt lat="45.76371" lon="6.53492">
        <ele>1675</ele>
        <time>2026-05-11T18:30:21+00:00</time>
      </trkpt>
      <trkpt lat="45.76348" lon="6.53545">
        <ele>1681</ele>
        <time>2026-05-11T18:30:22+00:00</time>
      </trkpt>
      <trkpt lat="45.76328" lon="6.53569">
        <ele>1683</ele>
        <time>2026-05-11T18:30:23+00:00</time>
      </trkpt>
      <trkpt lat="45.76325" lon="6.536">
        <ele>1688</ele>
        <time>2026-05-11T18:30:24+00:00</time>
      </trkpt>
      <trkpt lat="45.7632" lon="6.53618">
        <ele>1690</ele>
        <time>2026-05-11T18:30:25+00:00</time>
      </trkpt>
      <trkpt lat="45.76341" lon="6.53595">
        <ele>1688</ele>
        <time>2026-05-11T18:30:26+00:00</time>
      </trkpt>
      <trkpt lat="45.76354" lon="6.53591">
        <ele>1689</ele>
        <time>2026-05-11T18:30:27+00:00</time>
      </trkpt>
      <trkpt lat="45.76397" lon="6.53612">
        <ele>1699</ele>
        <time>2026-05-11T18:30:28+00:00</time>
      </trkpt>
      <trkpt lat="45.76435" lon="6.5365">
        <ele>1709</ele>
        <time>2026-05-11T18:30:29+00:00</time>
      </trkpt>
      <trkpt lat="45.76463" lon="6.53666">
        <ele>1711</ele>
        <time>2026-05-11T18:30:30+00:00</time>
      </trkpt>
      <trkpt lat="45.76475" lon="6.53679">
        <ele>1714</ele>
        <time>2026-05-11T18:30:31+00:00</time>
      </trkpt>
      <trkpt lat="45.76499" lon="6.53695">
        <ele>1717</ele>
        <time>2026-05-11T18:30:32+00:00</time>
      </trkpt>
      <trkpt lat="45.76518" lon="6.53746">
        <ele>1726</ele>
        <time>2026-05-11T18:30:33+00:00</time>
      </trkpt>
      <trkpt lat="45.76541" lon="6.53783">
        <ele>1731</ele>
        <time>2026-05-11T18:30:34+00:00</time>
      </trkpt>
      <trkpt lat="45.76553" lon="6.53815">
        <ele>1734</ele>
        <time>2026-05-11T18:30:35+00:00</time>
      </trkpt>
      <trkpt lat="45.76584" lon="6.53863">
        <ele>1737</ele>
        <time>2026-05-11T18:30:36+00:00</time>
      </trkpt>
      <trkpt lat="45.76594" lon="6.53867">
        <ele>1740</ele>
        <time>2026-05-11T18:30:37+00:00</time>
      </trkpt>
      <trkpt lat="45.76597" lon="6.53841">
        <ele>1736</ele>
        <time>2026-05-11T18:30:38+00:00</time>
      </trkpt>
      <trkpt lat="45.76602" lon="6.53833">
        <ele>1735</ele>
        <time>2026-05-11T18:30:39+00:00</time>
      </trkpt>
      <trkpt lat="45.76611" lon="6.5384">
        <ele>1739</ele>
        <time>2026-05-11T18:30:40+00:00</time>
      </trkpt>
      <trkpt lat="45.76617" lon="6.53838">
        <ele>1740</ele>
        <time>2026-05-11T18:30:41+00:00</time>
      </trkpt>
      <trkpt lat="45.76628" lon="6.53827">
        <ele>1740</ele>
        <time>2026-05-11T18:30:42+00:00</time>
      </trkpt>
      <trkpt lat="45.76651" lon="6.53776">
        <ele>1741</ele>
        <time>2026-05-11T18:30:43+00:00</time>
      </trkpt>
      <trkpt lat="45.7666" lon="6.53745">
        <ele>1739</ele>
        <time>2026-05-11T18:30:44+00:00</time>
      </trkpt>
      <trkpt lat="45.7667" lon="6.53735">
        <ele>1740</ele>
        <time>2026-05-11T18:30:45+00:00</time>
      </trkpt>
      <trkpt lat="45.76707" lon="6.53714">
        <ele>1744</ele>
        <time>2026-05-11T18:30:46+00:00</time>
      </trkpt>
      <trkpt lat="45.76721" lon="6.53712">
        <ele>1746</ele>
        <time>2026-05-11T18:30:47+00:00</time>
      </trkpt>
      <trkpt lat="45.76735" lon="6.53725">
        <ele>1751</ele>
        <time>2026-05-11T18:30:48+00:00</time>
      </trkpt>
      <trkpt lat="45.76748" lon="6.5373">
        <ele>1754</ele>
        <time>2026-05-11T18:30:49+00:00</time>
      </trkpt>
      <trkpt lat="45.76763" lon="6.53746">
        <ele>1757</ele>
        <time>2026-05-11T18:30:50+00:00</time>
      </trkpt>
      <trkpt lat="45.76781" lon="6.53746">
        <ele>1759</ele>
        <time>2026-05-11T18:30:51+00:00</time>
      </trkpt>
      <trkpt lat="45.76808" lon="6.53757">
        <ele>1762</ele>
        <time>2026-05-11T18:30:52+00:00</time>
      </trkpt>
      <trkpt lat="45.76828" lon="6.53751">
        <ele>1763</ele>
        <time>2026-05-11T18:30:53+00:00</time>
      </trkpt>
      <trkpt lat="45.76844" lon="6.53755">
        <ele>1763</ele>
        <time>2026-05-11T18:30:54+00:00</time>
      </trkpt>
      <trkpt lat="45.76865" lon="6.53772">
        <ele>1764</ele>
        <time>2026-05-11T18:30:55+00:00</time>
      </trkpt>
      <trkpt lat="45.76894" lon="6.53778">
        <ele>1763</ele>
        <time>2026-05-11T18:30:56+00:00</time>
      </trkpt>
      <trkpt lat="45.76901" lon="6.53782">
        <ele>1764</ele>
        <time>2026-05-11T18:30:57+00:00</time>
      </trkpt>
      <trkpt lat="45.76927" lon="6.53813">
        <ele>1765</ele>
        <time>2026-05-11T18:30:58+00:00</time>
      </trkpt>
      <trkpt lat="45.76946" lon="6.53841">
        <ele>1761</ele>
        <time>2026-05-11T18:30:59+00:00</time>
      </trkpt>
      <trkpt lat="45.76957" lon="6.53864">
        <ele>1759</ele>
        <time>2026-05-11T18:31:00+00:00</time>
      </trkpt>
      <trkpt lat="45.76955" lon="6.53894">
        <ele>1765</ele>
        <time>2026-05-11T18:31:01+00:00</time>
      </trkpt>
      <trkpt lat="45.76972" lon="6.53925">
        <ele>1760</ele>
        <time>2026-05-11T18:31:02+00:00</time>
      </trkpt>
      <trkpt lat="45.76976" lon="6.53949">
        <ele>1760</ele>
        <time>2026-05-11T18:31:03+00:00</time>
      </trkpt>
      <trkpt lat="45.77004" lon="6.53992">
        <ele>1747</ele>
        <time>2026-05-11T18:31:04+00:00</time>
      </trkpt>
      <trkpt lat="45.77007" lon="6.54003">
        <ele>1747</ele>
        <time>2026-05-11T18:31:05+00:00</time>
      </trkpt>
      <trkpt lat="45.77006" lon="6.54049">
        <ele>1751</ele>
        <time>2026-05-11T18:31:06+00:00</time>
      </trkpt>
      <trkpt lat="45.76997" lon="6.54095">
        <ele>1758</ele>
        <time>2026-05-11T18:31:07+00:00</time>
      </trkpt>
      <trkpt lat="45.76992" lon="6.54149">
        <ele>1765</ele>
        <time>2026-05-11T18:31:08+00:00</time>
      </trkpt>
      <trkpt lat="45.76977" lon="6.54195">
        <ele>1772</ele>
        <time>2026-05-11T18:31:09+00:00</time>
      </trkpt>
      <trkpt lat="45.76971" lon="6.54221">
        <ele>1773</ele>
        <time>2026-05-11T18:31:10+00:00</time>
      </trkpt>
      <trkpt lat="45.76971" lon="6.54264">
        <ele>1775</ele>
        <time>2026-05-11T18:31:11+00:00</time>
      </trkpt>
      <trkpt lat="45.76986" lon="6.54299">
        <ele>1778</ele>
        <time>2026-05-11T18:31:12+00:00</time>
      </trkpt>
      <trkpt lat="45.76998" lon="6.54316">
        <ele>1779</ele>
        <time>2026-05-11T18:31:13+00:00</time>
      </trkpt>
      <trkpt lat="45.77013" lon="6.54319">
        <ele>1782</ele>
        <time>2026-05-11T18:31:14+00:00</time>
      </trkpt>
      <trkpt lat="45.7703" lon="6.54312">
        <ele>1784</ele>
        <time>2026-05-11T18:31:15+00:00</time>
      </trkpt>
      <trkpt lat="45.77061" lon="6.54286">
        <ele>1785</ele>
        <time>2026-05-11T18:31:16+00:00</time>
      </trkpt>
      <trkpt lat="45.7708" lon="6.54249">
        <ele>1779</ele>
        <time>2026-05-11T18:31:17+00:00</time>
      </trkpt>
      <trkpt lat="45.77094" lon="6.54236">
        <ele>1777</ele>
        <time>2026-05-11T18:31:18+00:00</time>
      </trkpt>
      <trkpt lat="45.77097" lon="6.54229">
        <ele>1776</ele>
        <time>2026-05-11T18:31:19+00:00</time>
      </trkpt>
      <trkpt lat="45.77118" lon="6.54221">
        <ele>1776</ele>
        <time>2026-05-11T18:31:20+00:00</time>
      </trkpt>
      <trkpt lat="45.77123" lon="6.54211">
        <ele>1774</ele>
        <time>2026-05-11T18:31:21+00:00</time>
      </trkpt>
      <trkpt lat="45.77116" lon="6.54157">
        <ele>1760</ele>
        <time>2026-05-11T18:31:22+00:00</time>
      </trkpt>
      <trkpt lat="45.77118" lon="6.54144">
        <ele>1757</ele>
        <time>2026-05-11T18:31:23+00:00</time>
      </trkpt>
      <trkpt lat="45.77123" lon="6.54136">
        <ele>1756</ele>
        <time>2026-05-11T18:31:24+00:00</time>
      </trkpt>
      <trkpt lat="45.77128" lon="6.54117">
        <ele>1752</ele>
        <time>2026-05-11T18:31:25+00:00</time>
      </trkpt>
      <trkpt lat="45.77135" lon="6.54078">
        <ele>1744</ele>
        <time>2026-05-11T18:31:26+00:00</time>
      </trkpt>
      <trkpt lat="45.77176" lon="6.54055">
        <ele>1740</ele>
        <time>2026-05-11T18:31:27+00:00</time>
      </trkpt>
      <trkpt lat="45.77195" lon="6.54065">
        <ele>1740</ele>
        <time>2026-05-11T18:31:28+00:00</time>
      </trkpt>
      <trkpt lat="45.7721" lon="6.54064">
        <ele>1738</ele>
        <time>2026-05-11T18:31:29+00:00</time>
      </trkpt>
      <trkpt lat="45.77248" lon="6.54082">
        <ele>1738</ele>
        <time>2026-05-11T18:31:30+00:00</time>
      </trkpt>
      <trkpt lat="45.77293" lon="6.54099">
        <ele>1737</ele>
        <time>2026-05-11T18:31:31+00:00</time>
      </trkpt>
      <trkpt lat="45.77313" lon="6.54099">
        <ele>1735</ele>
        <time>2026-05-11T18:31:32+00:00</time>
      </trkpt>
      <trkpt lat="45.77334" lon="6.54079">
        <ele>1728</ele>
        <time>2026-05-11T18:31:33+00:00</time>
      </trkpt>
      <trkpt lat="45.77347" lon="6.54075">
        <ele>1728</ele>
        <time>2026-05-11T18:31:34+00:00</time>
      </trkpt>
      <trkpt lat="45.77384" lon="6.54092">
        <ele>1735</ele>
        <time>2026-05-11T18:31:35+00:00</time>
      </trkpt>
      <trkpt lat="45.77406" lon="6.54096">
        <ele>1738</ele>
        <time>2026-05-11T18:31:36+00:00</time>
      </trkpt>
      <trkpt lat="45.7743" lon="6.54092">
        <ele>1740</ele>
        <time>2026-05-11T18:31:37+00:00</time>
      </trkpt>
      <trkpt lat="45.77481" lon="6.54077">
        <ele>1744</ele>
        <time>2026-05-11T18:31:38+00:00</time>
      </trkpt>
      <trkpt lat="45.77519" lon="6.54034">
        <ele>1735</ele>
        <time>2026-05-11T18:31:39+00:00</time>
      </trkpt>
      <trkpt lat="45.77551" lon="6.54022">
        <ele>1733</ele>
        <time>2026-05-11T18:31:40+00:00</time>
      </trkpt>
      <trkpt lat="45.7756" lon="6.54026">
        <ele>1734</ele>
        <time>2026-05-11T18:31:41+00:00</time>
      </trkpt>
      <trkpt lat="45.77543" lon="6.54041">
        <ele>1737</ele>
        <time>2026-05-11T18:31:42+00:00</time>
      </trkpt>
      <trkpt lat="45.77526" lon="6.54073">
        <ele>1745</ele>
        <time>2026-05-11T18:31:43+00:00</time>
      </trkpt>
      <trkpt lat="45.77526" lon="6.54102">
        <ele>1750</ele>
        <time>2026-05-11T18:31:44+00:00</time>
      </trkpt>
      <trkpt lat="45.77522" lon="6.54119">
        <ele>1754</ele>
        <time>2026-05-11T18:31:45+00:00</time>
      </trkpt>
      <trkpt lat="45.77496" lon="6.54163">
        <ele>1764</ele>
        <time>2026-05-11T18:31:46+00:00</time>
      </trkpt>
      <trkpt lat="45.7745" lon="6.54208">
        <ele>1765</ele>
        <time>2026-05-11T18:31:47+00:00</time>
      </trkpt>
      <trkpt lat="45.77417" lon="6.54255">
        <ele>1771</ele>
        <time>2026-05-11T18:31:48+00:00</time>
      </trkpt>
      <trkpt lat="45.77362" lon="6.54319">
        <ele>1784</ele>
        <time>2026-05-11T18:31:49+00:00</time>
      </trkpt>
      <trkpt lat="45.77343" lon="6.54334">
        <ele>1788</ele>
        <time>2026-05-11T18:31:50+00:00</time>
      </trkpt>
      <trkpt lat="45.77331" lon="6.54338">
        <ele>1789</ele>
        <time>2026-05-11T18:31:51+00:00</time>
      </trkpt>
      <trkpt lat="45.77322" lon="6.54345">
        <ele>1792</ele>
        <time>2026-05-11T18:31:52+00:00</time>
      </trkpt>
      <trkpt lat="45.77287" lon="6.54353">
        <ele>1800</ele>
        <time>2026-05-11T18:31:53+00:00</time>
      </trkpt>
      <trkpt lat="45.77248" lon="6.54348">
        <ele>1806</ele>
        <time>2026-05-11T18:31:54+00:00</time>
      </trkpt>
      <trkpt lat="45.77179" lon="6.54348">
        <ele>1815</ele>
        <time>2026-05-11T18:31:55+00:00</time>
      </trkpt>
      <trkpt lat="45.77148" lon="6.54364">
        <ele>1817</ele>
        <time>2026-05-11T18:31:56+00:00</time>
      </trkpt>
      <trkpt lat="45.77119" lon="6.54402">
        <ele>1821</ele>
        <time>2026-05-11T18:31:57+00:00</time>
      </trkpt>
      <trkpt lat="45.77114" lon="6.54416">
        <ele>1824</ele>
        <time>2026-05-11T18:31:58+00:00</time>
      </trkpt>
      <trkpt lat="45.77122" lon="6.54424">
        <ele>1826</ele>
        <time>2026-05-11T18:31:59+00:00</time>
      </trkpt>
      <trkpt lat="45.77124" lon="6.54437">
        <ele>1828</ele>
        <time>2026-05-11T18:32:00+00:00</time>
      </trkpt>
      <trkpt lat="45.77133" lon="6.54461">
        <ele>1833</ele>
        <time>2026-05-11T18:32:01+00:00</time>
      </trkpt>
      <trkpt lat="45.7715" lon="6.54478">
        <ele>1837</ele>
        <time>2026-05-11T18:32:02+00:00</time>
      </trkpt>
      <trkpt lat="45.77155" lon="6.54486">
        <ele>1838</ele>
        <time>2026-05-11T18:32:03+00:00</time>
      </trkpt>
      <trkpt lat="45.77156" lon="6.54493">
        <ele>1839</ele>
        <time>2026-05-11T18:32:04+00:00</time>
      </trkpt>
      <trkpt lat="45.77139" lon="6.54501">
        <ele>1839</ele>
        <time>2026-05-11T18:32:05+00:00</time>
      </trkpt>
      <trkpt lat="45.77131" lon="6.54512">
        <ele>1838</ele>
        <time>2026-05-11T18:32:06+00:00</time>
      </trkpt>
      <trkpt lat="45.77124" lon="6.54539">
        <ele>1837</ele>
        <time>2026-05-11T18:32:07+00:00</time>
      </trkpt>
      <trkpt lat="45.77123" lon="6.54584">
        <ele>1836</ele>
        <time>2026-05-11T18:32:08+00:00</time>
      </trkpt>
      <trkpt lat="45.77116" lon="6.54597">
        <ele>1835</ele>
        <time>2026-05-11T18:32:09+00:00</time>
      </trkpt>
      <trkpt lat="45.77108" lon="6.54606">
        <ele>1836</ele>
        <time>2026-05-11T18:32:10+00:00</time>
      </trkpt>
      <trkpt lat="45.77061" lon="6.54603">
        <ele>1846</ele>
        <time>2026-05-11T18:32:11+00:00</time>
      </trkpt>
      <trkpt lat="45.77007" lon="6.54632">
        <ele>1859</ele>
        <time>2026-05-11T18:32:12+00:00</time>
      </trkpt>
      <trkpt lat="45.76997" lon="6.54634">
        <ele>1861</ele>
        <time>2026-05-11T18:32:13+00:00</time>
      </trkpt>
      <trkpt lat="45.77025" lon="6.54638">
        <ele>1856</ele>
        <time>2026-05-11T18:32:14+00:00</time>
      </trkpt>
      <trkpt lat="45.77037" lon="6.54643">
        <ele>1853</ele>
        <time>2026-05-11T18:32:15+00:00</time>
      </trkpt>
      <trkpt lat="45.77043" lon="6.54651">
        <ele>1852</ele>
        <time>2026-05-11T18:32:16+00:00</time>
      </trkpt>
      <trkpt lat="45.7704" lon="6.54657">
        <ele>1854</ele>
        <time>2026-05-11T18:32:17+00:00</time>
      </trkpt>
      <trkpt lat="45.7703" lon="6.54655">
        <ele>1857</ele>
        <time>2026-05-11T18:32:18+00:00</time>
      </trkpt>
      <trkpt lat="45.76993" lon="6.54672">
        <ele>1872</ele>
        <time>2026-05-11T18:32:19+00:00</time>
      </trkpt>
      <trkpt lat="45.76993" lon="6.5468">
        <ele>1872</ele>
        <time>2026-05-11T18:32:20+00:00</time>
      </trkpt>
      <trkpt lat="45.77011" lon="6.547">
        <ele>1866</ele>
        <time>2026-05-11T18:32:21+00:00</time>
      </trkpt>
      <trkpt lat="45.76999" lon="6.54721">
        <ele>1871</ele>
        <time>2026-05-11T18:32:22+00:00</time>
      </trkpt>
      <trkpt lat="45.76998" lon="6.54727">
        <ele>1871</ele>
        <time>2026-05-11T18:32:23+00:00</time>
      </trkpt>
      <trkpt lat="45.76999" lon="6.54721">
        <ele>1871</ele>
        <time>2026-05-11T18:32:24+00:00</time>
      </trkpt>
      <trkpt lat="45.76982" lon="6.54724">
        <ele>1873</ele>
        <time>2026-05-11T18:32:25+00:00</time>
      </trkpt>
      <trkpt lat="45.7696" lon="6.54717">
        <ele>1875</ele>
        <time>2026-05-11T18:32:26+00:00</time>
      </trkpt>
      <trkpt lat="45.76944" lon="6.54722">
        <ele>1877</ele>
        <time>2026-05-11T18:32:27+00:00</time>
      </trkpt>
      <trkpt lat="45.76933" lon="6.54718">
        <ele>1878</ele>
        <time>2026-05-11T18:32:28+00:00</time>
      </trkpt>
      <trkpt lat="45.76927" lon="6.54699">
        <ele>1878</ele>
        <time>2026-05-11T18:32:29+00:00</time>
      </trkpt>
      <trkpt lat="45.76918" lon="6.54681">
        <ele>1878</ele>
        <time>2026-05-11T18:32:30+00:00</time>
      </trkpt>
      <trkpt lat="45.76883" lon="6.54666">
        <ele>1876</ele>
        <time>2026-05-11T18:32:31+00:00</time>
      </trkpt>
      <trkpt lat="45.76863" lon="6.54653">
        <ele>1873</ele>
        <time>2026-05-11T18:32:32+00:00</time>
      </trkpt>
      <trkpt lat="45.76826" lon="6.54611">
        <ele>1869</ele>
        <time>2026-05-11T18:32:33+00:00</time>
      </trkpt>
      <trkpt lat="45.76818" lon="6.54616">
        <ele>1869</ele>
        <time>2026-05-11T18:32:34+00:00</time>
      </trkpt>
      <trkpt lat="45.76812" lon="6.54634">
        <ele>1869</ele>
        <time>2026-05-11T18:32:35+00:00</time>
      </trkpt>
      <trkpt lat="45.768" lon="6.54727">
        <ele>1865</ele>
        <time>2026-05-11T18:32:36+00:00</time>
      </trkpt>
      <trkpt lat="45.76795" lon="6.54738">
        <ele>1863</ele>
        <time>2026-05-11T18:32:37+00:00</time>
      </trkpt>
      <trkpt lat="45.76773" lon="6.54744">
        <ele>1858</ele>
        <time>2026-05-11T18:32:38+00:00</time>
      </trkpt>
      <trkpt lat="45.76761" lon="6.54751">
        <ele>1855</ele>
        <time>2026-05-11T18:32:39+00:00</time>
      </trkpt>
      <trkpt lat="45.76745" lon="6.54768">
        <ele>1851</ele>
        <time>2026-05-11T18:32:40+00:00</time>
      </trkpt>
      <trkpt lat="45.76737" lon="6.54773">
        <ele>1850</ele>
        <time>2026-05-11T18:32:41+00:00</time>
      </trkpt>
      <trkpt lat="45.76714" lon="6.54777">
        <ele>1846</ele>
        <time>2026-05-11T18:32:42+00:00</time>
      </trkpt>
      <trkpt lat="45.76691" lon="6.54786">
        <ele>1843</ele>
        <time>2026-05-11T18:32:43+00:00</time>
      </trkpt>
      <trkpt lat="45.76622" lon="6.54849">
        <ele>1836</ele>
        <time>2026-05-11T18:32:44+00:00</time>
      </trkpt>
      <trkpt lat="45.76607" lon="6.54854">
        <ele>1834</ele>
        <time>2026-05-11T18:32:45+00:00</time>
      </trkpt>
      <trkpt lat="45.76576" lon="6.54855">
        <ele>1830</ele>
        <time>2026-05-11T18:32:46+00:00</time>
      </trkpt>
      <trkpt lat="45.76543" lon="6.54841">
        <ele>1826</ele>
        <time>2026-05-11T18:32:47+00:00</time>
      </trkpt>
      <trkpt lat="45.76499" lon="6.54817">
        <ele>1821</ele>
        <time>2026-05-11T18:32:48+00:00</time>
      </trkpt>
      <trkpt lat="45.76369" lon="6.54771">
        <ele>1812</ele>
        <time>2026-05-11T18:32:49+00:00</time>
      </trkpt>
      <trkpt lat="45.76349" lon="6.54758">
        <ele>1811</ele>
        <time>2026-05-11T18:32:50+00:00</time>
      </trkpt>
      <trkpt lat="45.76287" lon="6.54739">
        <ele>1807</ele>
        <time>2026-05-11T18:32:51+00:00</time>
      </trkpt>
      <trkpt lat="45.76268" lon="6.54767">
        <ele>1807</ele>
        <time>2026-05-11T18:32:52+00:00</time>
      </trkpt>
      <trkpt lat="45.76245" lon="6.54823">
        <ele>1804</ele>
        <time>2026-05-11T18:32:53+00:00</time>
      </trkpt>
      <trkpt lat="45.76219" lon="6.54925">
        <ele>1799</ele>
        <time>2026-05-11T18:32:54+00:00</time>
      </trkpt>
      <trkpt lat="45.76199" lon="6.54991">
        <ele>1795</ele>
        <time>2026-05-11T18:32:55+00:00</time>
      </trkpt>
      <trkpt lat="45.7617" lon="6.55061">
        <ele>1791</ele>
        <time>2026-05-11T18:32:56+00:00</time>
      </trkpt>
      <trkpt lat="45.76157" lon="6.55076">
        <ele>1790</ele>
        <time>2026-05-11T18:32:57+00:00</time>
      </trkpt>
      <trkpt lat="45.76125" lon="6.551">
        <ele>1787</ele>
        <time>2026-05-11T18:32:58+00:00</time>
      </trkpt>
      <trkpt lat="45.76109" lon="6.55127">
        <ele>1786</ele>
        <time>2026-05-11T18:32:59+00:00</time>
      </trkpt>
      <trkpt lat="45.76088" lon="6.55196">
        <ele>1786</ele>
        <time>2026-05-11T18:33:00+00:00</time>
      </trkpt>
      <trkpt lat="45.76066" lon="6.55236">
        <ele>1786</ele>
        <time>2026-05-11T18:33:01+00:00</time>
      </trkpt>
      <trkpt lat="45.76061" lon="6.55272">
        <ele>1786</ele>
        <time>2026-05-11T18:33:02+00:00</time>
      </trkpt>
      <trkpt lat="45.76055" lon="6.55296">
        <ele>1786</ele>
        <time>2026-05-11T18:33:03+00:00</time>
      </trkpt>
      <trkpt lat="45.76044" lon="6.55321">
        <ele>1786</ele>
        <time>2026-05-11T18:33:04+00:00</time>
      </trkpt>
      <trkpt lat="45.76037" lon="6.55348">
        <ele>1787</ele>
        <time>2026-05-11T18:33:05+00:00</time>
      </trkpt>
      <trkpt lat="45.76036" lon="6.55389">
        <ele>1786</ele>
        <time>2026-05-11T18:33:06+00:00</time>
      </trkpt>
      <trkpt lat="45.76041" lon="6.55425">
        <ele>1784</ele>
        <time>2026-05-11T18:33:07+00:00</time>
      </trkpt>
      <trkpt lat="45.76037" lon="6.55444">
        <ele>1784</ele>
        <time>2026-05-11T18:33:08+00:00</time>
      </trkpt>
      <trkpt lat="45.76003" lon="6.55474">
        <ele>1787</ele>
        <time>2026-05-11T18:33:09+00:00</time>
      </trkpt>
      <trkpt lat="45.76001" lon="6.55485">
        <ele>1787</ele>
        <time>2026-05-11T18:33:10+00:00</time>
      </trkpt>
      <trkpt lat="45.76002" lon="6.55572">
        <ele>1785</ele>
        <time>2026-05-11T18:33:11+00:00</time>
      </trkpt>
      <trkpt lat="45.76007" lon="6.55604">
        <ele>1783</ele>
        <time>2026-05-11T18:33:12+00:00</time>
      </trkpt>
      <trkpt lat="45.76008" lon="6.55693">
        <ele>1780</ele>
        <time>2026-05-11T18:33:13+00:00</time>
      </trkpt>
      <trkpt lat="45.76004" lon="6.55711">
        <ele>1780</ele>
        <time>2026-05-11T18:33:14+00:00</time>
      </trkpt>
      <trkpt lat="45.75957" lon="6.55778">
        <ele>1784</ele>
        <time>2026-05-11T18:33:15+00:00</time>
      </trkpt>
      <trkpt lat="45.75923" lon="6.55851">
        <ele>1785</ele>
        <time>2026-05-11T18:33:16+00:00</time>
      </trkpt>
      <trkpt lat="45.75907" lon="6.5592">
        <ele>1784</ele>
        <time>2026-05-11T18:33:17+00:00</time>
      </trkpt>
      <trkpt lat="45.75908" lon="6.55954">
        <ele>1782</ele>
        <time>2026-05-11T18:33:18+00:00</time>
      </trkpt>
      <trkpt lat="45.75952" lon="6.56107">
        <ele>1771</ele>
        <time>2026-05-11T18:33:19+00:00</time>
      </trkpt>
      <trkpt lat="45.75958" lon="6.5611">
        <ele>1770</ele>
        <time>2026-05-11T18:33:20+00:00</time>
      </trkpt>
      <trkpt lat="45.75964" lon="6.56128">
        <ele>1770</ele>
        <time>2026-05-11T18:33:21+00:00</time>
      </trkpt>
      <trkpt lat="45.75968" lon="6.56181">
        <ele>1771</ele>
        <time>2026-05-11T18:33:22+00:00</time>
      </trkpt>
      <trkpt lat="45.75973" lon="6.562">
        <ele>1772</ele>
        <time>2026-05-11T18:33:23+00:00</time>
      </trkpt>
      <trkpt lat="45.75981" lon="6.56216">
        <ele>1773</ele>
        <time>2026-05-11T18:33:24+00:00</time>
      </trkpt>
      <trkpt lat="45.75986" lon="6.56247">
        <ele>1775</ele>
        <time>2026-05-11T18:33:25+00:00</time>
      </trkpt>
      <trkpt lat="45.75996" lon="6.5626">
        <ele>1778</ele>
        <time>2026-05-11T18:33:26+00:00</time>
      </trkpt>
      <trkpt lat="45.76015" lon="6.563">
        <ele>1781</ele>
        <time>2026-05-11T18:33:27+00:00</time>
      </trkpt>
      <trkpt lat="45.76024" lon="6.56305">
        <ele>1782</ele>
        <time>2026-05-11T18:33:28+00:00</time>
      </trkpt>
      <trkpt lat="45.76031" lon="6.56315">
        <ele>1783</ele>
        <time>2026-05-11T18:33:29+00:00</time>
      </trkpt>
      <trkpt lat="45.76034" lon="6.56338">
        <ele>1785</ele>
        <time>2026-05-11T18:33:30+00:00</time>
      </trkpt>
      <trkpt lat="45.76047" lon="6.56354">
        <ele>1788</ele>
        <time>2026-05-11T18:33:31+00:00</time>
      </trkpt>
      <trkpt lat="45.76056" lon="6.56372">
        <ele>1790</ele>
        <time>2026-05-11T18:33:32+00:00</time>
      </trkpt>
      <trkpt lat="45.76082" lon="6.5641">
        <ele>1799</ele>
        <time>2026-05-11T18:33:33+00:00</time>
      </trkpt>
      <trkpt lat="45.76094" lon="6.56421">
        <ele>1801</ele>
        <time>2026-05-11T18:33:34+00:00</time>
      </trkpt>
      <trkpt lat="45.76121" lon="6.56429">
        <ele>1805</ele>
        <time>2026-05-11T18:33:35+00:00</time>
      </trkpt>
      <trkpt lat="45.76141" lon="6.56443">
        <ele>1808</ele>
        <time>2026-05-11T18:33:36+00:00</time>
      </trkpt>
      <trkpt lat="45.76149" lon="6.56436">
        <ele>1810</ele>
        <time>2026-05-11T18:33:37+00:00</time>
      </trkpt>
      <trkpt lat="45.76156" lon="6.56437">
        <ele>1812</ele>
        <time>2026-05-11T18:33:38+00:00</time>
      </trkpt>
      <trkpt lat="45.76166" lon="6.56455">
        <ele>1813</ele>
        <time>2026-05-11T18:33:39+00:00</time>
      </trkpt>
      <trkpt lat="45.76186" lon="6.56458">
        <ele>1809</ele>
        <time>2026-05-11T18:33:40+00:00</time>
      </trkpt>
      <trkpt lat="45.76215" lon="6.56506">
        <ele>1805</ele>
        <time>2026-05-11T18:33:41+00:00</time>
      </trkpt>
      <trkpt lat="45.76227" lon="6.56515">
        <ele>1804</ele>
        <time>2026-05-11T18:33:42+00:00</time>
      </trkpt>
      <trkpt lat="45.76234" lon="6.56536">
        <ele>1804</ele>
        <time>2026-05-11T18:33:43+00:00</time>
      </trkpt>
      <trkpt lat="45.76239" lon="6.56542">
        <ele>1804</ele>
        <time>2026-05-11T18:33:44+00:00</time>
      </trkpt>
      <trkpt lat="45.76243" lon="6.56559">
        <ele>1804</ele>
        <time>2026-05-11T18:33:45+00:00</time>
      </trkpt>
      <trkpt lat="45.7625" lon="6.56567">
        <ele>1805</ele>
        <time>2026-05-11T18:33:46+00:00</time>
      </trkpt>
      <trkpt lat="45.76255" lon="6.56595">
        <ele>1804</ele>
        <time>2026-05-11T18:33:47+00:00</time>
      </trkpt>
      <trkpt lat="45.76273" lon="6.56637">
        <ele>1802</ele>
        <time>2026-05-11T18:33:48+00:00</time>
      </trkpt>
      <trkpt lat="45.76285" lon="6.56642">
        <ele>1801</ele>
        <time>2026-05-11T18:33:49+00:00</time>
      </trkpt>
      <trkpt lat="45.7631" lon="6.56675">
        <ele>1803</ele>
        <time>2026-05-11T18:33:50+00:00</time>
      </trkpt>
      <trkpt lat="45.76342" lon="6.56741">
        <ele>1804</ele>
        <time>2026-05-11T18:33:51+00:00</time>
      </trkpt>
      <trkpt lat="45.76362" lon="6.56787">
        <ele>1796</ele>
        <time>2026-05-11T18:33:52+00:00</time>
      </trkpt>
      <trkpt lat="45.76365" lon="6.56828">
        <ele>1792</ele>
        <time>2026-05-11T18:33:53+00:00</time>
      </trkpt>
      <trkpt lat="45.76368" lon="6.56836">
        <ele>1791</ele>
        <time>2026-05-11T18:33:54+00:00</time>
      </trkpt>
      <trkpt lat="45.76377" lon="6.56844">
        <ele>1789</ele>
        <time>2026-05-11T18:33:55+00:00</time>
      </trkpt>
      <trkpt lat="45.76382" lon="6.56858">
        <ele>1787</ele>
        <time>2026-05-11T18:33:56+00:00</time>
      </trkpt>
      <trkpt lat="45.76393" lon="6.5687">
        <ele>1786</ele>
        <time>2026-05-11T18:33:57+00:00</time>
      </trkpt>
      <trkpt lat="45.7641" lon="6.56899">
        <ele>1784</ele>
        <time>2026-05-11T18:33:58+00:00</time>
      </trkpt>
      <trkpt lat="45.76443" lon="6.56924">
        <ele>1780</ele>
        <time>2026-05-11T18:33:59+00:00</time>
      </trkpt>
      <trkpt lat="45.76475" lon="6.56958">
        <ele>1778</ele>
        <time>2026-05-11T18:34:00+00:00</time>
      </trkpt>
      <trkpt lat="45.76488" lon="6.56967">
        <ele>1778</ele>
        <time>2026-05-11T18:34:01+00:00</time>
      </trkpt>
      <trkpt lat="45.76492" lon="6.56978">
        <ele>1779</ele>
        <time>2026-05-11T18:34:02+00:00</time>
      </trkpt>
      <trkpt lat="45.76507" lon="6.56986">
        <ele>1779</ele>
        <time>2026-05-11T18:34:03+00:00</time>
      </trkpt>
      <trkpt lat="45.76545" lon="6.57041">
        <ele>1779</ele>
        <time>2026-05-11T18:34:04+00:00</time>
      </trkpt>
      <trkpt lat="45.76562" lon="6.57073">
        <ele>1784</ele>
        <time>2026-05-11T18:34:05+00:00</time>
      </trkpt>
      <trkpt lat="45.76577" lon="6.5711">
        <ele>1787</ele>
        <time>2026-05-11T18:34:06+00:00</time>
      </trkpt>
      <trkpt lat="45.7661" lon="6.57164">
        <ele>1795</ele>
        <time>2026-05-11T18:34:07+00:00</time>
      </trkpt>
      <trkpt lat="45.7663" lon="6.57258">
        <ele>1805</ele>
        <time>2026-05-11T18:34:08+00:00</time>
      </trkpt>
      <trkpt lat="45.7663" lon="6.57298">
        <ele>1808</ele>
        <time>2026-05-11T18:34:09+00:00</time>
      </trkpt>
      <trkpt lat="45.76635" lon="6.57334">
        <ele>1812</ele>
        <time>2026-05-11T18:34:10+00:00</time>
      </trkpt>
      <trkpt lat="45.7663" lon="6.57349">
        <ele>1812</ele>
        <time>2026-05-11T18:34:11+00:00</time>
      </trkpt>
      <trkpt lat="45.76619" lon="6.57348">
        <ele>1809</ele>
        <time>2026-05-11T18:34:12+00:00</time>
      </trkpt>
      <trkpt lat="45.76613" lon="6.57359">
        <ele>1808</ele>
        <time>2026-05-11T18:34:13+00:00</time>
      </trkpt>
      <trkpt lat="45.76609" lon="6.57382">
        <ele>1809</ele>
        <time>2026-05-11T18:34:14+00:00</time>
      </trkpt>
      <trkpt lat="45.766" lon="6.5738">
        <ele>1806</ele>
        <time>2026-05-11T18:34:15+00:00</time>
      </trkpt>
      <trkpt lat="45.766" lon="6.57359">
        <ele>1804</ele>
        <time>2026-05-11T18:34:16+00:00</time>
      </trkpt>
      <trkpt lat="45.76596" lon="6.57349">
        <ele>1802</ele>
        <time>2026-05-11T18:34:17+00:00</time>
      </trkpt>
      <trkpt lat="45.7659" lon="6.57349">
        <ele>1800</ele>
        <time>2026-05-11T18:34:18+00:00</time>
      </trkpt>
      <trkpt lat="45.76558" lon="6.57369">
        <ele>1792</ele>
        <time>2026-05-11T18:34:19+00:00</time>
      </trkpt>
      <trkpt lat="45.7655" lon="6.57378">
        <ele>1790</ele>
        <time>2026-05-11T18:34:20+00:00</time>
      </trkpt>
      <trkpt lat="45.76544" lon="6.57376">
        <ele>1788</ele>
        <time>2026-05-11T18:34:21+00:00</time>
      </trkpt>
      <trkpt lat="45.76544" lon="6.57366">
        <ele>1787</ele>
        <time>2026-05-11T18:34:22+00:00</time>
      </trkpt>
      <trkpt lat="45.76552" lon="6.57339">
        <ele>1787</ele>
        <time>2026-05-11T18:34:23+00:00</time>
      </trkpt>
      <trkpt lat="45.76575" lon="6.57307">
        <ele>1792</ele>
        <time>2026-05-11T18:34:24+00:00</time>
      </trkpt>
      <trkpt lat="45.76571" lon="6.57298">
        <ele>1790</ele>
        <time>2026-05-11T18:34:25+00:00</time>
      </trkpt>
      <trkpt lat="45.7656" lon="6.57301">
        <ele>1786</ele>
        <time>2026-05-11T18:34:26+00:00</time>
      </trkpt>
      <trkpt lat="45.76542" lon="6.57315">
        <ele>1781</ele>
        <time>2026-05-11T18:34:27+00:00</time>
      </trkpt>
      <trkpt lat="45.76527" lon="6.57343">
        <ele>1778</ele>
        <time>2026-05-11T18:34:28+00:00</time>
      </trkpt>
      <trkpt lat="45.7652" lon="6.57368">
        <ele>1779</ele>
        <time>2026-05-11T18:34:29+00:00</time>
      </trkpt>
      <trkpt lat="45.76513" lon="6.5741">
        <ele>1781</ele>
        <time>2026-05-11T18:34:30+00:00</time>
      </trkpt>
      <trkpt lat="45.76513" lon="6.57426">
        <ele>1782</ele>
        <time>2026-05-11T18:34:31+00:00</time>
      </trkpt>
      <trkpt lat="45.7652" lon="6.57457">
        <ele>1783</ele>
        <time>2026-05-11T18:34:32+00:00</time>
      </trkpt>
      <trkpt lat="45.76516" lon="6.57486">
        <ele>1780</ele>
        <time>2026-05-11T18:34:33+00:00</time>
      </trkpt>
      <trkpt lat="45.76513" lon="6.57541">
        <ele>1778</ele>
        <time>2026-05-11T18:34:34+00:00</time>
      </trkpt>
      <trkpt lat="45.76495" lon="6.57621">
        <ele>1771</ele>
        <time>2026-05-11T18:34:35+00:00</time>
      </trkpt>
      <trkpt lat="45.76473" lon="6.57654">
        <ele>1763</ele>
        <time>2026-05-11T18:34:36+00:00</time>
      </trkpt>
      <trkpt lat="45.76465" lon="6.57683">
        <ele>1760</ele>
        <time>2026-05-11T18:34:37+00:00</time>
      </trkpt>
      <trkpt lat="45.7646" lon="6.57687">
        <ele>1758</ele>
        <time>2026-05-11T18:34:38+00:00</time>
      </trkpt>
      <trkpt lat="45.76435" lon="6.57694">
        <ele>1750</ele>
        <time>2026-05-11T18:34:39+00:00</time>
      </trkpt>
      <trkpt lat="45.76383" lon="6.5769">
        <ele>1735</ele>
        <time>2026-05-11T18:34:40+00:00</time>
      </trkpt>
      <trkpt lat="45.76365" lon="6.57704">
        <ele>1730</ele>
        <time>2026-05-11T18:34:41+00:00</time>
      </trkpt>
      <trkpt lat="45.76349" lon="6.57724">
        <ele>1727</ele>
        <time>2026-05-11T18:34:42+00:00</time>
      </trkpt>
      <trkpt lat="45.76314" lon="6.57747">
        <ele>1717</ele>
        <time>2026-05-11T18:34:43+00:00</time>
      </trkpt>
      <trkpt lat="45.76299" lon="6.57749">
        <ele>1712</ele>
        <time>2026-05-11T18:34:44+00:00</time>
      </trkpt>
      <trkpt lat="45.7628" lon="6.57759">
        <ele>1703</ele>
        <time>2026-05-11T18:34:45+00:00</time>
      </trkpt>
      <trkpt lat="45.76269" lon="6.57768">
        <ele>1698</ele>
        <time>2026-05-11T18:34:46+00:00</time>
      </trkpt>
      <trkpt lat="45.76226" lon="6.57788">
        <ele>1677</ele>
        <time>2026-05-11T18:34:47+00:00</time>
      </trkpt>
      <trkpt lat="45.7622" lon="6.57786">
        <ele>1674</ele>
        <time>2026-05-11T18:34:48+00:00</time>
      </trkpt>
      <trkpt lat="45.76221" lon="6.57771">
        <ele>1678</ele>
        <time>2026-05-11T18:34:49+00:00</time>
      </trkpt>
      <trkpt lat="45.76217" lon="6.57766">
        <ele>1677</ele>
        <time>2026-05-11T18:34:50+00:00</time>
      </trkpt>
      <trkpt lat="45.76217" lon="6.5774">
        <ele>1678</ele>
        <time>2026-05-11T18:34:51+00:00</time>
      </trkpt>
      <trkpt lat="45.76212" lon="6.57735">
        <ele>1674</ele>
        <time>2026-05-11T18:34:52+00:00</time>
      </trkpt>
      <trkpt lat="45.76203" lon="6.57738">
        <ele>1670</ele>
        <time>2026-05-11T18:34:53+00:00</time>
      </trkpt>
      <trkpt lat="45.76193" lon="6.57758">
        <ele>1666</ele>
        <time>2026-05-11T18:34:54+00:00</time>
      </trkpt>
      <trkpt lat="45.76187" lon="6.57759">
        <ele>1663</ele>
        <time>2026-05-11T18:34:55+00:00</time>
      </trkpt>
      <trkpt lat="45.7617" lon="6.57785">
        <ele>1650</ele>
        <time>2026-05-11T18:34:56+00:00</time>
      </trkpt>
      <trkpt lat="45.76163" lon="6.57788">
        <ele>1646</ele>
        <time>2026-05-11T18:34:57+00:00</time>
      </trkpt>
      <trkpt lat="45.76156" lon="6.57773">
        <ele>1645</ele>
        <time>2026-05-11T18:34:58+00:00</time>
      </trkpt>
      <trkpt lat="45.7616" lon="6.57762">
        <ele>1649</ele>
        <time>2026-05-11T18:34:59+00:00</time>
      </trkpt>
      <trkpt lat="45.76165" lon="6.57729">
        <ele>1649</ele>
        <time>2026-05-11T18:35:00+00:00</time>
      </trkpt>
      <trkpt lat="45.76164" lon="6.57709">
        <ele>1643</ele>
        <time>2026-05-11T18:35:01+00:00</time>
      </trkpt>
      <trkpt lat="45.76171" lon="6.57682">
        <ele>1640</ele>
        <time>2026-05-11T18:35:02+00:00</time>
      </trkpt>
      <trkpt lat="45.76168" lon="6.57679">
        <ele>1637</ele>
        <time>2026-05-11T18:35:03+00:00</time>
      </trkpt>
      <trkpt lat="45.76162" lon="6.57684">
        <ele>1635</ele>
        <time>2026-05-11T18:35:04+00:00</time>
      </trkpt>
      <trkpt lat="45.76158" lon="6.57678">
        <ele>1631</ele>
        <time>2026-05-11T18:35:05+00:00</time>
      </trkpt>
      <trkpt lat="45.76162" lon="6.57659">
        <ele>1628</ele>
        <time>2026-05-11T18:35:06+00:00</time>
      </trkpt>
      <trkpt lat="45.76159" lon="6.57652">
        <ele>1624</ele>
        <time>2026-05-11T18:35:07+00:00</time>
      </trkpt>
      <trkpt lat="45.76151" lon="6.57656">
        <ele>1621</ele>
        <time>2026-05-11T18:35:08+00:00</time>
      </trkpt>
      <trkpt lat="45.76114" lon="6.57704">
        <ele>1614</ele>
        <time>2026-05-11T18:35:09+00:00</time>
      </trkpt>
      <trkpt lat="45.76104" lon="6.57713">
        <ele>1610</ele>
        <time>2026-05-11T18:35:10+00:00</time>
      </trkpt>
      <trkpt lat="45.76082" lon="6.57755">
        <ele>1605</ele>
        <time>2026-05-11T18:35:11+00:00</time>
      </trkpt>
      <trkpt lat="45.76075" lon="6.57783">
        <ele>1599</ele>
        <time>2026-05-11T18:35:12+00:00</time>
      </trkpt>
      <trkpt lat="45.76059" lon="6.57806">
        <ele>1588</ele>
        <time>2026-05-11T18:35:13+00:00</time>
      </trkpt>
      <trkpt lat="45.76055" lon="6.57816">
        <ele>1585</ele>
        <time>2026-05-11T18:35:14+00:00</time>
      </trkpt>
      <trkpt lat="45.76056" lon="6.57823">
        <ele>1585</ele>
        <time>2026-05-11T18:35:15+00:00</time>
      </trkpt>
      <trkpt lat="45.76045" lon="6.57863">
        <ele>1571</ele>
        <time>2026-05-11T18:35:16+00:00</time>
      </trkpt>
      <trkpt lat="45.76043" lon="6.57891">
        <ele>1564</ele>
        <time>2026-05-11T18:35:17+00:00</time>
      </trkpt>
      <trkpt lat="45.76039" lon="6.57893">
        <ele>1562</ele>
        <time>2026-05-11T18:35:18+00:00</time>
      </trkpt>
      <trkpt lat="45.7603" lon="6.57874">
        <ele>1560</ele>
        <time>2026-05-11T18:35:19+00:00</time>
      </trkpt>
      <trkpt lat="45.76022" lon="6.57873">
        <ele>1556</ele>
        <time>2026-05-11T18:35:20+00:00</time>
      </trkpt>
      <trkpt lat="45.76019" lon="6.57882">
        <ele>1553</ele>
        <time>2026-05-11T18:35:21+00:00</time>
      </trkpt>
      <trkpt lat="45.7602" lon="6.57891">
        <ele>1552</ele>
        <time>2026-05-11T18:35:22+00:00</time>
      </trkpt>
      <trkpt lat="45.76015" lon="6.579">
        <ele>1549</ele>
        <time>2026-05-11T18:35:23+00:00</time>
      </trkpt>
      <trkpt lat="45.76009" lon="6.57889">
        <ele>1547</ele>
        <time>2026-05-11T18:35:24+00:00</time>
      </trkpt>
      <trkpt lat="45.76002" lon="6.57887">
        <ele>1544</ele>
        <time>2026-05-11T18:35:25+00:00</time>
      </trkpt>
      <trkpt lat="45.75993" lon="6.57876">
        <ele>1539</ele>
        <time>2026-05-11T18:35:26+00:00</time>
      </trkpt>
      <trkpt lat="45.75985" lon="6.57862">
        <ele>1536</ele>
        <time>2026-05-11T18:35:27+00:00</time>
      </trkpt>
      <trkpt lat="45.75985" lon="6.57854">
        <ele>1536</ele>
        <time>2026-05-11T18:35:28+00:00</time>
      </trkpt>
      <trkpt lat="45.75978" lon="6.57834">
        <ele>1533</ele>
        <time>2026-05-11T18:35:29+00:00</time>
      </trkpt>
      <trkpt lat="45.75973" lon="6.57833">
        <ele>1530</ele>
        <time>2026-05-11T18:35:30+00:00</time>
      </trkpt>
      <trkpt lat="45.75968" lon="6.5784">
        <ele>1527</ele>
        <time>2026-05-11T18:35:31+00:00</time>
      </trkpt>
      <trkpt lat="45.7595" lon="6.57855">
        <ele>1515</ele>
        <time>2026-05-11T18:35:32+00:00</time>
      </trkpt>
      <trkpt lat="45.75943" lon="6.57868">
        <ele>1510</ele>
        <time>2026-05-11T18:35:33+00:00</time>
      </trkpt>
      <trkpt lat="45.75941" lon="6.57886">
        <ele>1508</ele>
        <time>2026-05-11T18:35:34+00:00</time>
      </trkpt>
      <trkpt lat="45.75925" lon="6.57933">
        <ele>1493</ele>
        <time>2026-05-11T18:35:35+00:00</time>
      </trkpt>
      <trkpt lat="45.75897" lon="6.57963">
        <ele>1474</ele>
        <time>2026-05-11T18:35:36+00:00</time>
      </trkpt>
      <trkpt lat="45.7588" lon="6.57966">
        <ele>1468</ele>
        <time>2026-05-11T18:35:37+00:00</time>
      </trkpt>
      <trkpt lat="45.75846" lon="6.57943">
        <ele>1458</ele>
        <time>2026-05-11T18:35:38+00:00</time>
      </trkpt>
      <trkpt lat="45.75825" lon="6.57922">
        <ele>1450</ele>
        <time>2026-05-11T18:35:39+00:00</time>
      </trkpt>
      <trkpt lat="45.75818" lon="6.57926">
        <ele>1447</ele>
        <time>2026-05-11T18:35:40+00:00</time>
      </trkpt>
      <trkpt lat="45.75812" lon="6.57934">
        <ele>1444</ele>
        <time>2026-05-11T18:35:41+00:00</time>
      </trkpt>
      <trkpt lat="45.75804" lon="6.5795">
        <ele>1441</ele>
        <time>2026-05-11T18:35:42+00:00</time>
      </trkpt>
      <trkpt lat="45.75793" lon="6.5799">
        <ele>1437</ele>
        <time>2026-05-11T18:35:43+00:00</time>
      </trkpt>
      <trkpt lat="45.75788" lon="6.57999">
        <ele>1436</ele>
        <time>2026-05-11T18:35:44+00:00</time>
      </trkpt>
      <trkpt lat="45.75781" lon="6.58004">
        <ele>1432</ele>
        <time>2026-05-11T18:35:45+00:00</time>
      </trkpt>
      <trkpt lat="45.75768" lon="6.58028">
        <ele>1424</ele>
        <time>2026-05-11T18:35:46+00:00</time>
      </trkpt>
      <trkpt lat="45.75758" lon="6.58037">
        <ele>1420</ele>
        <time>2026-05-11T18:35:47+00:00</time>
      </trkpt>
      <trkpt lat="45.75746" lon="6.58034">
        <ele>1417</ele>
        <time>2026-05-11T18:35:48+00:00</time>
      </trkpt>
      <trkpt lat="45.75727" lon="6.57974">
        <ele>1412</ele>
        <time>2026-05-11T18:35:49+00:00</time>
      </trkpt>
      <trkpt lat="45.75726" lon="6.57949">
        <ele>1410</ele>
        <time>2026-05-11T18:35:50+00:00</time>
      </trkpt>
      <trkpt lat="45.75722" lon="6.57946">
        <ele>1409</ele>
        <time>2026-05-11T18:35:51+00:00</time>
      </trkpt>
      <trkpt lat="45.75699" lon="6.58001">
        <ele>1403</ele>
        <time>2026-05-11T18:35:52+00:00</time>
      </trkpt>
      <trkpt lat="45.757" lon="6.58091">
        <ele>1398</ele>
        <time>2026-05-11T18:35:53+00:00</time>
      </trkpt>
      <trkpt lat="45.75696" lon="6.58094">
        <ele>1397</ele>
        <time>2026-05-11T18:35:54+00:00</time>
      </trkpt>
      <trkpt lat="45.75691" lon="6.58091">
        <ele>1395</ele>
        <time>2026-05-11T18:35:55+00:00</time>
      </trkpt>
      <trkpt lat="45.75685" lon="6.58049">
        <ele>1396</ele>
        <time>2026-05-11T18:35:56+00:00</time>
      </trkpt>
      <trkpt lat="45.75679" lon="6.58046">
        <ele>1394</ele>
        <time>2026-05-11T18:35:57+00:00</time>
      </trkpt>
      <trkpt lat="45.75674" lon="6.58051">
        <ele>1392</ele>
        <time>2026-05-11T18:35:58+00:00</time>
      </trkpt>
      <trkpt lat="45.75673" lon="6.5809">
        <ele>1390</ele>
        <time>2026-05-11T18:35:59+00:00</time>
      </trkpt>
      <trkpt lat="45.75666" lon="6.58119">
        <ele>1387</ele>
        <time>2026-05-11T18:36:00+00:00</time>
      </trkpt>
      <trkpt lat="45.75666" lon="6.58132">
        <ele>1386</ele>
        <time>2026-05-11T18:36:01+00:00</time>
      </trkpt>
      <trkpt lat="45.75652" lon="6.58117">
        <ele>1382</ele>
        <time>2026-05-11T18:36:02+00:00</time>
      </trkpt>
      <trkpt lat="45.75607" lon="6.58101">
        <ele>1367</ele>
        <time>2026-05-11T18:36:03+00:00</time>
      </trkpt>
      <trkpt lat="45.75567" lon="6.58077">
        <ele>1354</ele>
        <time>2026-05-11T18:36:04+00:00</time>
      </trkpt>
      <trkpt lat="45.75559" lon="6.58108">
        <ele>1351</ele>
        <time>2026-05-11T18:36:05+00:00</time>
      </trkpt>
      <trkpt lat="45.75572" lon="6.58191">
        <ele>1351</ele>
        <time>2026-05-11T18:36:06+00:00</time>
      </trkpt>
      <trkpt lat="45.75573" lon="6.58227">
        <ele>1349</ele>
        <time>2026-05-11T18:36:07+00:00</time>
      </trkpt>
      <trkpt lat="45.75571" lon="6.58261">
        <ele>1345</ele>
        <time>2026-05-11T18:36:08+00:00</time>
      </trkpt>
      <trkpt lat="45.75585" lon="6.58348">
        <ele>1340</ele>
        <time>2026-05-11T18:36:09+00:00</time>
      </trkpt>
      <trkpt lat="45.756" lon="6.58366">
        <ele>1340</ele>
        <time>2026-05-11T18:36:10+00:00</time>
      </trkpt>
      <trkpt lat="45.7567" lon="6.58436">
        <ele>1338</ele>
        <time>2026-05-11T18:36:11+00:00</time>
      </trkpt>
      <trkpt lat="45.75678" lon="6.58453">
        <ele>1334</ele>
        <time>2026-05-11T18:36:12+00:00</time>
      </trkpt>
      <trkpt lat="45.75677" lon="6.58472">
        <ele>1330</ele>
        <time>2026-05-11T18:36:13+00:00</time>
      </trkpt>
      <trkpt lat="45.75672" lon="6.58485">
        <ele>1328</ele>
        <time>2026-05-11T18:36:14+00:00</time>
      </trkpt>
      <trkpt lat="45.75664" lon="6.58495">
        <ele>1327</ele>
        <time>2026-05-11T18:36:15+00:00</time>
      </trkpt>
      <trkpt lat="45.75644" lon="6.58506">
        <ele>1322</ele>
        <time>2026-05-11T18:36:16+00:00</time>
      </trkpt>
      <trkpt lat="45.75623" lon="6.585">
        <ele>1321</ele>
        <time>2026-05-11T18:36:17+00:00</time>
      </trkpt>
      <trkpt lat="45.75585" lon="6.58454">
        <ele>1322</ele>
        <time>2026-05-11T18:36:18+00:00</time>
      </trkpt>
      <trkpt lat="45.75538" lon="6.58414">
        <ele>1314</ele>
        <time>2026-05-11T18:36:19+00:00</time>
      </trkpt>
      <trkpt lat="45.75513" lon="6.58386">
        <ele>1310</ele>
        <time>2026-05-11T18:36:20+00:00</time>
      </trkpt>
      <trkpt lat="45.7545" lon="6.58291">
        <ele>1302</ele>
        <time>2026-05-11T18:36:21+00:00</time>
      </trkpt>
      <trkpt lat="45.75419" lon="6.58208">
        <ele>1300</ele>
        <time>2026-05-11T18:36:22+00:00</time>
      </trkpt>
      <trkpt lat="45.75384" lon="6.5816">
        <ele>1293</ele>
        <time>2026-05-11T18:36:23+00:00</time>
      </trkpt>
      <trkpt lat="45.75359" lon="6.58081">
        <ele>1289</ele>
        <time>2026-05-11T18:36:24+00:00</time>
      </trkpt>
      <trkpt lat="45.75354" lon="6.58074">
        <ele>1287</ele>
        <time>2026-05-11T18:36:25+00:00</time>
      </trkpt>
      <trkpt lat="45.75347" lon="6.58076">
        <ele>1285</ele>
        <time>2026-05-11T18:36:26+00:00</time>
      </trkpt>
      <trkpt lat="45.75345" lon="6.58085">
        <ele>1285</ele>
        <time>2026-05-11T18:36:27+00:00</time>
      </trkpt>
      <trkpt lat="45.75345" lon="6.58164">
        <ele>1282</ele>
        <time>2026-05-11T18:36:28+00:00</time>
      </trkpt>
      <trkpt lat="45.75351" lon="6.58215">
        <ele>1280</ele>
        <time>2026-05-11T18:36:29+00:00</time>
      </trkpt>
      <trkpt lat="45.75353" lon="6.58283">
        <ele>1274</ele>
        <time>2026-05-11T18:36:30+00:00</time>
      </trkpt>
      <trkpt lat="45.7536" lon="6.58326">
        <ele>1271</ele>
        <time>2026-05-11T18:36:31+00:00</time>
      </trkpt>
      <trkpt lat="45.75404" lon="6.58406">
        <ele>1268</ele>
        <time>2026-05-11T18:36:32+00:00</time>
      </trkpt>
      <trkpt lat="45.75429" lon="6.58501">
        <ele>1259</ele>
        <time>2026-05-11T18:36:33+00:00</time>
      </trkpt>
      <trkpt lat="45.75452" lon="6.58549">
        <ele>1260</ele>
        <time>2026-05-11T18:36:34+00:00</time>
      </trkpt>
      <trkpt lat="45.75482" lon="6.58596">
        <ele>1260</ele>
        <time>2026-05-11T18:36:35+00:00</time>
      </trkpt>
      <trkpt lat="45.75503" lon="6.58656">
        <ele>1253</ele>
        <time>2026-05-11T18:36:36+00:00</time>
      </trkpt>
      <trkpt lat="45.7555" lon="6.58735">
        <ele>1242</ele>
        <time>2026-05-11T18:36:37+00:00</time>
      </trkpt>
      <trkpt lat="45.75599" lon="6.58781">
        <ele>1240</ele>
        <time>2026-05-11T18:36:38+00:00</time>
      </trkpt>
      <trkpt lat="45.75626" lon="6.5885">
        <ele>1230</ele>
        <time>2026-05-11T18:36:39+00:00</time>
      </trkpt>
      <trkpt lat="45.75626" lon="6.58861">
        <ele>1227</ele>
        <time>2026-05-11T18:36:40+00:00</time>
      </trkpt>
      <trkpt lat="45.75623" lon="6.58865">
        <ele>1226</ele>
        <time>2026-05-11T18:36:41+00:00</time>
      </trkpt>
      <trkpt lat="45.7561" lon="6.58862">
        <ele>1225</ele>
        <time>2026-05-11T18:36:42+00:00</time>
      </trkpt>
      <trkpt lat="45.75585" lon="6.5882">
        <ele>1230</ele>
        <time>2026-05-11T18:36:43+00:00</time>
      </trkpt>
      <trkpt lat="45.75572" lon="6.58811">
        <ele>1230</ele>
        <time>2026-05-11T18:36:44+00:00</time>
      </trkpt>
      <trkpt lat="45.75492" lon="6.58793">
        <ele>1219</ele>
        <time>2026-05-11T18:36:45+00:00</time>
      </trkpt>
      <trkpt lat="45.75438" lon="6.58768">
        <ele>1211</ele>
        <time>2026-05-11T18:36:46+00:00</time>
      </trkpt>
      <trkpt lat="45.75397" lon="6.58741">
        <ele>1206</ele>
        <time>2026-05-11T18:36:47+00:00</time>
      </trkpt>
      <trkpt lat="45.75386" lon="6.58726">
        <ele>1206</ele>
        <time>2026-05-11T18:36:48+00:00</time>
      </trkpt>
      <trkpt lat="45.75382" lon="6.58704">
        <ele>1208</ele>
        <time>2026-05-11T18:36:49+00:00</time>
      </trkpt>
      <trkpt lat="45.75368" lon="6.5868">
        <ele>1208</ele>
        <time>2026-05-11T18:36:50+00:00</time>
      </trkpt>
      <trkpt lat="45.75311" lon="6.5862">
        <ele>1203</ele>
        <time>2026-05-11T18:36:51+00:00</time>
      </trkpt>
      <trkpt lat="45.75237" lon="6.58505">
        <ele>1200</ele>
        <time>2026-05-11T18:36:52+00:00</time>
      </trkpt>
      <trkpt lat="45.75231" lon="6.58474">
        <ele>1203</ele>
        <time>2026-05-11T18:36:53+00:00</time>
      </trkpt>
      <trkpt lat="45.75223" lon="6.58464">
        <ele>1202</ele>
        <time>2026-05-11T18:36:54+00:00</time>
      </trkpt>
      <trkpt lat="45.7522" lon="6.58472">
        <ele>1200</ele>
        <time>2026-05-11T18:36:55+00:00</time>
      </trkpt>
      <trkpt lat="45.75215" lon="6.58473">
        <ele>1198</ele>
        <time>2026-05-11T18:36:56+00:00</time>
      </trkpt>
      <trkpt lat="45.75212" lon="6.5849">
        <ele>1195</ele>
        <time>2026-05-11T18:36:57+00:00</time>
      </trkpt>
      <trkpt lat="45.75206" lon="6.58497">
        <ele>1192</ele>
        <time>2026-05-11T18:36:58+00:00</time>
      </trkpt>
      <trkpt lat="45.75203" lon="6.58506">
        <ele>1189</ele>
        <time>2026-05-11T18:36:59+00:00</time>
      </trkpt>
      <trkpt lat="45.75184" lon="6.58536">
        <ele>1179</ele>
        <time>2026-05-11T18:37:00+00:00</time>
      </trkpt>
      <trkpt lat="45.75175" lon="6.58546">
        <ele>1174</ele>
        <time>2026-05-11T18:37:01+00:00</time>
      </trkpt>
      <trkpt lat="45.75155" lon="6.58556">
        <ele>1167</ele>
        <time>2026-05-11T18:37:02+00:00</time>
      </trkpt>
      <trkpt lat="45.75137" lon="6.5854">
        <ele>1165</ele>
        <time>2026-05-11T18:37:03+00:00</time>
      </trkpt>
      <trkpt lat="45.75131" lon="6.5854">
        <ele>1163</ele>
        <time>2026-05-11T18:37:04+00:00</time>
      </trkpt>
      <trkpt lat="45.75099" lon="6.58572">
        <ele>1150</ele>
        <time>2026-05-11T18:37:05+00:00</time>
      </trkpt>
      <trkpt lat="45.75094" lon="6.58568">
        <ele>1150</ele>
        <time>2026-05-11T18:37:06+00:00</time>
      </trkpt>
      <trkpt lat="45.75082" lon="6.58543">
        <ele>1150</ele>
        <time>2026-05-11T18:37:07+00:00</time>
      </trkpt>
      <trkpt lat="45.75073" lon="6.58546">
        <ele>1147</ele>
        <time>2026-05-11T18:37:08+00:00</time>
      </trkpt>
      <trkpt lat="45.75063" lon="6.58527">
        <ele>1147</ele>
        <time>2026-05-11T18:37:09+00:00</time>
      </trkpt>
      <trkpt lat="45.75064" lon="6.5852">
        <ele>1148</ele>
        <time>2026-05-11T18:37:10+00:00</time>
      </trkpt>
      <trkpt lat="45.75048" lon="6.5848">
        <ele>1151</ele>
        <time>2026-05-11T18:37:11+00:00</time>
      </trkpt>
      <trkpt lat="45.75035" lon="6.5849">
        <ele>1146</ele>
        <time>2026-05-11T18:37:12+00:00</time>
      </trkpt>
      <trkpt lat="45.7503" lon="6.5849">
        <ele>1145</ele>
        <time>2026-05-11T18:37:13+00:00</time>
      </trkpt>
      <trkpt lat="45.74975" lon="6.58411">
        <ele>1141</ele>
        <time>2026-05-11T18:37:14+00:00</time>
      </trkpt>
      <trkpt lat="45.74974" lon="6.58394">
        <ele>1143</ele>
        <time>2026-05-11T18:37:15+00:00</time>
      </trkpt>
      <trkpt lat="45.74943" lon="6.58368">
        <ele>1140</ele>
        <time>2026-05-11T18:37:16+00:00</time>
      </trkpt>
      <trkpt lat="45.74922" lon="6.58333">
        <ele>1139</ele>
        <time>2026-05-11T18:37:17+00:00</time>
      </trkpt>
      <trkpt lat="45.74913" lon="6.58307">
        <ele>1140</ele>
        <time>2026-05-11T18:37:18+00:00</time>
      </trkpt>
      <trkpt lat="45.74894" lon="6.58233">
        <ele>1144</ele>
        <time>2026-05-11T18:37:19+00:00</time>
      </trkpt>
      <trkpt lat="45.74885" lon="6.58184">
        <ele>1145</ele>
        <time>2026-05-11T18:37:20+00:00</time>
      </trkpt>
      <trkpt lat="45.74875" lon="6.58083">
        <ele>1153</ele>
        <time>2026-05-11T18:37:21+00:00</time>
      </trkpt>
      <trkpt lat="45.74858" lon="6.58032">
        <ele>1152</ele>
        <time>2026-05-11T18:37:22+00:00</time>
      </trkpt>
      <trkpt lat="45.74862" lon="6.58028">
        <ele>1153</ele>
        <time>2026-05-11T18:37:23+00:00</time>
      </trkpt>
      <trkpt lat="45.7487" lon="6.57989">
        <ele>1157</ele>
        <time>2026-05-11T18:37:24+00:00</time>
      </trkpt>
      <trkpt lat="45.7488" lon="6.57964">
        <ele>1159</ele>
        <time>2026-05-11T18:37:25+00:00</time>
      </trkpt>
      <trkpt lat="45.74886" lon="6.57958">
        <ele>1160</ele>
        <time>2026-05-11T18:37:26+00:00</time>
      </trkpt>
      <trkpt lat="45.74898" lon="6.57952">
        <ele>1162</ele>
        <time>2026-05-11T18:37:27+00:00</time>
      </trkpt>
      <trkpt lat="45.74939" lon="6.5794">
        <ele>1171</ele>
        <time>2026-05-11T18:37:28+00:00</time>
      </trkpt>
      <trkpt lat="45.74997" lon="6.57941">
        <ele>1184</ele>
        <time>2026-05-11T18:37:29+00:00</time>
      </trkpt>
      <trkpt lat="45.75009" lon="6.57954">
        <ele>1187</ele>
        <time>2026-05-11T18:37:30+00:00</time>
      </trkpt>
      <trkpt lat="45.75028" lon="6.57956">
        <ele>1192</ele>
        <time>2026-05-11T18:37:31+00:00</time>
      </trkpt>
      <trkpt lat="45.75062" lon="6.57937">
        <ele>1201</ele>
        <time>2026-05-11T18:37:32+00:00</time>
      </trkpt>
      <trkpt lat="45.75106" lon="6.57921">
        <ele>1211</ele>
        <time>2026-05-11T18:37:33+00:00</time>
      </trkpt>
      <trkpt lat="45.75132" lon="6.57935">
        <ele>1218</ele>
        <time>2026-05-11T18:37:34+00:00</time>
      </trkpt>
      <trkpt lat="45.75171" lon="6.57908">
        <ele>1226</ele>
        <time>2026-05-11T18:37:35+00:00</time>
      </trkpt>
      <trkpt lat="45.75188" lon="6.57903">
        <ele>1230</ele>
        <time>2026-05-11T18:37:36+00:00</time>
      </trkpt>
      <trkpt lat="45.75199" lon="6.57903">
        <ele>1233</ele>
        <time>2026-05-11T18:37:37+00:00</time>
      </trkpt>
      <trkpt lat="45.75215" lon="6.57909">
        <ele>1235</ele>
        <time>2026-05-11T18:37:38+00:00</time>
      </trkpt>
      <trkpt lat="45.75247" lon="6.57928">
        <ele>1242</ele>
        <time>2026-05-11T18:37:39+00:00</time>
      </trkpt>
      <trkpt lat="45.75253" lon="6.57928">
        <ele>1243</ele>
        <time>2026-05-11T18:37:40+00:00</time>
      </trkpt>
      <trkpt lat="45.75266" lon="6.57942">
        <ele>1248</ele>
        <time>2026-05-11T18:37:41+00:00</time>
      </trkpt>
      <trkpt lat="45.75283" lon="6.57951">
        <ele>1253</ele>
        <time>2026-05-11T18:37:42+00:00</time>
      </trkpt>
      <trkpt lat="45.75291" lon="6.57951">
        <ele>1255</ele>
        <time>2026-05-11T18:37:43+00:00</time>
      </trkpt>
      <trkpt lat="45.75307" lon="6.57928">
        <ele>1256</ele>
        <time>2026-05-11T18:37:44+00:00</time>
      </trkpt>
      <trkpt lat="45.75332" lon="6.5792">
        <ele>1260</ele>
        <time>2026-05-11T18:37:45+00:00</time>
      </trkpt>
      <trkpt lat="45.75353" lon="6.57906">
        <ele>1268</ele>
        <time>2026-05-11T18:37:46+00:00</time>
      </trkpt>
      <trkpt lat="45.75372" lon="6.5788">
        <ele>1276</ele>
        <time>2026-05-11T18:37:47+00:00</time>
      </trkpt>
      <trkpt lat="45.75382" lon="6.57872">
        <ele>1279</ele>
        <time>2026-05-11T18:37:48+00:00</time>
      </trkpt>
      <trkpt lat="45.75396" lon="6.5787">
        <ele>1281</ele>
        <time>2026-05-11T18:37:49+00:00</time>
      </trkpt>
      <trkpt lat="45.75441" lon="6.57836">
        <ele>1287</ele>
        <time>2026-05-11T18:37:50+00:00</time>
      </trkpt>
      <trkpt lat="45.75472" lon="6.57801">
        <ele>1296</ele>
        <time>2026-05-11T18:37:51+00:00</time>
      </trkpt>
      <trkpt lat="45.75487" lon="6.57775">
        <ele>1301</ele>
        <time>2026-05-11T18:37:52+00:00</time>
      </trkpt>
      <trkpt lat="45.75504" lon="6.57777">
        <ele>1303</ele>
        <time>2026-05-11T18:37:53+00:00</time>
      </trkpt>
      <trkpt lat="45.7551" lon="6.57781">
        <ele>1305</ele>
        <time>2026-05-11T18:37:54+00:00</time>
      </trkpt>
      <trkpt lat="45.75514" lon="6.57788">
        <ele>1306</ele>
        <time>2026-05-11T18:37:55+00:00</time>
      </trkpt>
      <trkpt lat="45.75513" lon="6.57797">
        <ele>1305</ele>
        <time>2026-05-11T18:37:56+00:00</time>
      </trkpt>
      <trkpt lat="45.75504" lon="6.57816">
        <ele>1299</ele>
        <time>2026-05-11T18:37:57+00:00</time>
      </trkpt>
      <trkpt lat="45.75504" lon="6.57822">
        <ele>1299</ele>
        <time>2026-05-11T18:37:58+00:00</time>
      </trkpt>
      <trkpt lat="45.75527" lon="6.57817">
        <ele>1309</ele>
        <time>2026-05-11T18:37:59+00:00</time>
      </trkpt>
      <trkpt lat="45.75531" lon="6.57824">
        <ele>1311</ele>
        <time>2026-05-11T18:38:00+00:00</time>
      </trkpt>
      <trkpt lat="45.75534" lon="6.57841">
        <ele>1313</ele>
        <time>2026-05-11T18:38:01+00:00</time>
      </trkpt>
      <trkpt lat="45.75535" lon="6.57858">
        <ele>1318</ele>
        <time>2026-05-11T18:38:02+00:00</time>
      </trkpt>
      <trkpt lat="45.7553" lon="6.57875">
        <ele>1320</ele>
        <time>2026-05-11T18:38:03+00:00</time>
      </trkpt>
      <trkpt lat="45.75519" lon="6.57888">
        <ele>1318</ele>
        <time>2026-05-11T18:38:04+00:00</time>
      </trkpt>
      <trkpt lat="45.75507" lon="6.57914">
        <ele>1320</ele>
        <time>2026-05-11T18:38:05+00:00</time>
      </trkpt>
      <trkpt lat="45.75553" lon="6.57892">
        <ele>1334</ele>
        <time>2026-05-11T18:38:06+00:00</time>
      </trkpt>
      <trkpt lat="45.75571" lon="6.5786">
        <ele>1334</ele>
        <time>2026-05-11T18:38:07+00:00</time>
      </trkpt>
      <trkpt lat="45.75594" lon="6.57841">
        <ele>1340</ele>
        <time>2026-05-11T18:38:08+00:00</time>
      </trkpt>
      <trkpt lat="45.75605" lon="6.57808">
        <ele>1342</ele>
        <time>2026-05-11T18:38:09+00:00</time>
      </trkpt>
      <trkpt lat="45.75614" lon="6.57792">
        <ele>1346</ele>
        <time>2026-05-11T18:38:10+00:00</time>
      </trkpt>
      <trkpt lat="45.75616" lon="6.57782">
        <ele>1347</ele>
        <time>2026-05-11T18:38:11+00:00</time>
      </trkpt>
      <trkpt lat="45.75605" lon="6.57772">
        <ele>1343</ele>
        <time>2026-05-11T18:38:12+00:00</time>
      </trkpt>
      <trkpt lat="45.75601" lon="6.57758">
        <ele>1341</ele>
        <time>2026-05-11T18:38:13+00:00</time>
      </trkpt>
      <trkpt lat="45.75593" lon="6.57744">
        <ele>1339</ele>
        <time>2026-05-11T18:38:14+00:00</time>
      </trkpt>
      <trkpt lat="45.7559" lon="6.57701">
        <ele>1345</ele>
        <time>2026-05-11T18:38:15+00:00</time>
      </trkpt>
      <trkpt lat="45.75594" lon="6.57691">
        <ele>1348</ele>
        <time>2026-05-11T18:38:16+00:00</time>
      </trkpt>
      <trkpt lat="45.75592" lon="6.57678">
        <ele>1349</ele>
        <time>2026-05-11T18:38:17+00:00</time>
      </trkpt>
      <trkpt lat="45.75595" lon="6.57671">
        <ele>1351</ele>
        <time>2026-05-11T18:38:18+00:00</time>
      </trkpt>
      <trkpt lat="45.75605" lon="6.57669">
        <ele>1354</ele>
        <time>2026-05-11T18:38:19+00:00</time>
      </trkpt>
      <trkpt lat="45.75608" lon="6.57664">
        <ele>1355</ele>
        <time>2026-05-11T18:38:20+00:00</time>
      </trkpt>
      <trkpt lat="45.75606" lon="6.57639">
        <ele>1360</ele>
        <time>2026-05-11T18:38:21+00:00</time>
      </trkpt>
      <trkpt lat="45.7561" lon="6.57624">
        <ele>1364</ele>
        <time>2026-05-11T18:38:22+00:00</time>
      </trkpt>
      <trkpt lat="45.75622" lon="6.57631">
        <ele>1365</ele>
        <time>2026-05-11T18:38:23+00:00</time>
      </trkpt>
      <trkpt lat="45.75657" lon="6.57622">
        <ele>1371</ele>
        <time>2026-05-11T18:38:24+00:00</time>
      </trkpt>
      <trkpt lat="45.75659" lon="6.57615">
        <ele>1372</ele>
        <time>2026-05-11T18:38:25+00:00</time>
      </trkpt>
      <trkpt lat="45.75658" lon="6.57607">
        <ele>1373</ele>
        <time>2026-05-11T18:38:26+00:00</time>
      </trkpt>
      <trkpt lat="45.75663" lon="6.57587">
        <ele>1375</ele>
        <time>2026-05-11T18:38:27+00:00</time>
      </trkpt>
      <trkpt lat="45.75671" lon="6.57575">
        <ele>1380</ele>
        <time>2026-05-11T18:38:28+00:00</time>
      </trkpt>
      <trkpt lat="45.75696" lon="6.57566">
        <ele>1388</ele>
        <time>2026-05-11T18:38:29+00:00</time>
      </trkpt>
      <trkpt lat="45.75718" lon="6.5753">
        <ele>1398</ele>
        <time>2026-05-11T18:38:30+00:00</time>
      </trkpt>
      <trkpt lat="45.75718" lon="6.57521">
        <ele>1399</ele>
        <time>2026-05-11T18:38:31+00:00</time>
      </trkpt>
      <trkpt lat="45.7571" lon="6.57512">
        <ele>1400</ele>
        <time>2026-05-11T18:38:32+00:00</time>
      </trkpt>
      <trkpt lat="45.75691" lon="6.57504">
        <ele>1401</ele>
        <time>2026-05-11T18:38:33+00:00</time>
      </trkpt>
      <trkpt lat="45.75655" lon="6.57499">
        <ele>1403</ele>
        <time>2026-05-11T18:38:34+00:00</time>
      </trkpt>
      <trkpt lat="45.75648" lon="6.57489">
        <ele>1406</ele>
        <time>2026-05-11T18:38:35+00:00</time>
      </trkpt>
      <trkpt lat="45.75629" lon="6.57476">
        <ele>1411</ele>
        <time>2026-05-11T18:38:36+00:00</time>
      </trkpt>
      <trkpt lat="45.75628" lon="6.57468">
        <ele>1414</ele>
        <time>2026-05-11T18:38:37+00:00</time>
      </trkpt>
      <trkpt lat="45.75649" lon="6.57452">
        <ele>1418</ele>
        <time>2026-05-11T18:38:38+00:00</time>
      </trkpt>
      <trkpt lat="45.75646" lon="6.57446">
        <ele>1420</ele>
        <time>2026-05-11T18:38:39+00:00</time>
      </trkpt>
      <trkpt lat="45.75634" lon="6.5744">
        <ele>1422</ele>
        <time>2026-05-11T18:38:40+00:00</time>
      </trkpt>
      <trkpt lat="45.75639" lon="6.57433">
        <ele>1424</ele>
        <time>2026-05-11T18:38:41+00:00</time>
      </trkpt>
      <trkpt lat="45.75657" lon="6.57427">
        <ele>1426</ele>
        <time>2026-05-11T18:38:42+00:00</time>
      </trkpt>
      <trkpt lat="45.75699" lon="6.57421">
        <ele>1429</ele>
        <time>2026-05-11T18:38:43+00:00</time>
      </trkpt>
      <trkpt lat="45.75756" lon="6.57365">
        <ele>1451</ele>
        <time>2026-05-11T18:38:44+00:00</time>
      </trkpt>
      <trkpt lat="45.75769" lon="6.5734">
        <ele>1460</ele>
        <time>2026-05-11T18:38:45+00:00</time>
      </trkpt>
      <trkpt lat="45.75764" lon="6.57335">
        <ele>1461</ele>
        <time>2026-05-11T18:38:46+00:00</time>
      </trkpt>
      <trkpt lat="45.75755" lon="6.57341">
        <ele>1459</ele>
        <time>2026-05-11T18:38:47+00:00</time>
      </trkpt>
      <trkpt lat="45.75752" lon="6.57337">
        <ele>1461</ele>
        <time>2026-05-11T18:38:48+00:00</time>
      </trkpt>
      <trkpt lat="45.75757" lon="6.5732">
        <ele>1465</ele>
        <time>2026-05-11T18:38:49+00:00</time>
      </trkpt>
      <trkpt lat="45.75781" lon="6.57274">
        <ele>1474</ele>
        <time>2026-05-11T18:38:50+00:00</time>
      </trkpt>
      <trkpt lat="45.75783" lon="6.57264">
        <ele>1476</ele>
        <time>2026-05-11T18:38:51+00:00</time>
      </trkpt>
      <trkpt lat="45.75775" lon="6.57262">
        <ele>1477</ele>
        <time>2026-05-11T18:38:52+00:00</time>
      </trkpt>
      <trkpt lat="45.7574" lon="6.57277">
        <ele>1474</ele>
        <time>2026-05-11T18:38:53+00:00</time>
      </trkpt>
      <trkpt lat="45.75734" lon="6.57272">
        <ele>1476</ele>
        <time>2026-05-11T18:38:54+00:00</time>
      </trkpt>
      <trkpt lat="45.75728" lon="6.57256">
        <ele>1480</ele>
        <time>2026-05-11T18:38:55+00:00</time>
      </trkpt>
      <trkpt lat="45.75729" lon="6.57248">
        <ele>1482</ele>
        <time>2026-05-11T18:38:56+00:00</time>
      </trkpt>
      <trkpt lat="45.75736" lon="6.57229">
        <ele>1488</ele>
        <time>2026-05-11T18:38:57+00:00</time>
      </trkpt>
      <trkpt lat="45.7575" lon="6.57223">
        <ele>1489</ele>
        <time>2026-05-11T18:38:58+00:00</time>
      </trkpt>
      <trkpt lat="45.7577" lon="6.57221">
        <ele>1490</ele>
        <time>2026-05-11T18:38:59+00:00</time>
      </trkpt>
      <trkpt lat="45.75774" lon="6.57217">
        <ele>1491</ele>
        <time>2026-05-11T18:39:00+00:00</time>
      </trkpt>
      <trkpt lat="45.75774" lon="6.57211">
        <ele>1493</ele>
        <time>2026-05-11T18:39:01+00:00</time>
      </trkpt>
      <trkpt lat="45.75785" lon="6.57206">
        <ele>1495</ele>
        <time>2026-05-11T18:39:02+00:00</time>
      </trkpt>
      <trkpt lat="45.75778" lon="6.57197">
        <ele>1498</ele>
        <time>2026-05-11T18:39:03+00:00</time>
      </trkpt>
      <trkpt lat="45.75778" lon="6.57191">
        <ele>1501</ele>
        <time>2026-05-11T18:39:04+00:00</time>
      </trkpt>
      <trkpt lat="45.75806" lon="6.57168">
        <ele>1509</ele>
        <time>2026-05-11T18:39:05+00:00</time>
      </trkpt>
      <trkpt lat="45.75809" lon="6.57162">
        <ele>1511</ele>
        <time>2026-05-11T18:39:06+00:00</time>
      </trkpt>
      <trkpt lat="45.75808" lon="6.57153">
        <ele>1513</ele>
        <time>2026-05-11T18:39:07+00:00</time>
      </trkpt>
      <trkpt lat="45.75807" lon="6.5715">
        <ele>1514</ele>
        <time>2026-05-11T18:39:08+00:00</time>
      </trkpt>
      <trkpt lat="45.75794" lon="6.57151">
        <ele>1514</ele>
        <time>2026-05-11T18:39:09+00:00</time>
      </trkpt>
      <trkpt lat="45.75786" lon="6.57142">
        <ele>1516</ele>
        <time>2026-05-11T18:39:10+00:00</time>
      </trkpt>
      <trkpt lat="45.75765" lon="6.57098">
        <ele>1531</ele>
        <time>2026-05-11T18:39:11+00:00</time>
      </trkpt>
      <trkpt lat="45.75734" lon="6.57097">
        <ele>1533</ele>
        <time>2026-05-11T18:39:12+00:00</time>
      </trkpt>
      <trkpt lat="45.7573" lon="6.57088">
        <ele>1537</ele>
        <time>2026-05-11T18:39:13+00:00</time>
      </trkpt>
      <trkpt lat="45.75739" lon="6.5706">
        <ele>1541</ele>
        <time>2026-05-11T18:39:14+00:00</time>
      </trkpt>
      <trkpt lat="45.7574" lon="6.57042">
        <ele>1544</ele>
        <time>2026-05-11T18:39:15+00:00</time>
      </trkpt>
      <trkpt lat="45.75738" lon="6.57038">
        <ele>1545</ele>
        <time>2026-05-11T18:39:16+00:00</time>
      </trkpt>
      <trkpt lat="45.75722" lon="6.5703">
        <ele>1547</ele>
        <time>2026-05-11T18:39:17+00:00</time>
      </trkpt>
      <trkpt lat="45.75714" lon="6.5702">
        <ele>1549</ele>
        <time>2026-05-11T18:39:18+00:00</time>
      </trkpt>
      <trkpt lat="45.75707" lon="6.56994">
        <ele>1554</ele>
        <time>2026-05-11T18:39:19+00:00</time>
      </trkpt>
      <trkpt lat="45.75706" lon="6.56979">
        <ele>1556</ele>
        <time>2026-05-11T18:39:20+00:00</time>
      </trkpt>
      <trkpt lat="45.75699" lon="6.56947">
        <ele>1562</ele>
        <time>2026-05-11T18:39:21+00:00</time>
      </trkpt>
      <trkpt lat="45.75679" lon="6.56888">
        <ele>1576</ele>
        <time>2026-05-11T18:39:22+00:00</time>
      </trkpt>
      <trkpt lat="45.75663" lon="6.56853">
        <ele>1586</ele>
        <time>2026-05-11T18:39:23+00:00</time>
      </trkpt>
      <trkpt lat="45.75637" lon="6.56754">
        <ele>1604</ele>
        <time>2026-05-11T18:39:24+00:00</time>
      </trkpt>
      <trkpt lat="45.75633" lon="6.56701">
        <ele>1612</ele>
        <time>2026-05-11T18:39:25+00:00</time>
      </trkpt>
      <trkpt lat="45.75634" lon="6.56668">
        <ele>1617</ele>
        <time>2026-05-11T18:39:26+00:00</time>
      </trkpt>
      <trkpt lat="45.75617" lon="6.56635">
        <ele>1624</ele>
        <time>2026-05-11T18:39:27+00:00</time>
      </trkpt>
      <trkpt lat="45.75612" lon="6.56613">
        <ele>1629</ele>
        <time>2026-05-11T18:39:28+00:00</time>
      </trkpt>
      <trkpt lat="45.75612" lon="6.56581">
        <ele>1636</ele>
        <time>2026-05-11T18:39:29+00:00</time>
      </trkpt>
      <trkpt lat="45.75606" lon="6.56572">
        <ele>1638</ele>
        <time>2026-05-11T18:39:30+00:00</time>
      </trkpt>
      <trkpt lat="45.7559" lon="6.56559">
        <ele>1641</ele>
        <time>2026-05-11T18:39:31+00:00</time>
      </trkpt>
      <trkpt lat="45.75569" lon="6.56556">
        <ele>1642</ele>
        <time>2026-05-11T18:39:32+00:00</time>
      </trkpt>
      <trkpt lat="45.75549" lon="6.56563">
        <ele>1641</ele>
        <time>2026-05-11T18:39:33+00:00</time>
      </trkpt>
      <trkpt lat="45.75541" lon="6.56563">
        <ele>1641</ele>
        <time>2026-05-11T18:39:34+00:00</time>
      </trkpt>
      <trkpt lat="45.75538" lon="6.56542">
        <ele>1645</ele>
        <time>2026-05-11T18:39:35+00:00</time>
      </trkpt>
      <trkpt lat="45.75545" lon="6.56525">
        <ele>1648</ele>
        <time>2026-05-11T18:39:36+00:00</time>
      </trkpt>
      <trkpt lat="45.75535" lon="6.56489">
        <ele>1654</ele>
        <time>2026-05-11T18:39:37+00:00</time>
      </trkpt>
      <trkpt lat="45.75532" lon="6.56442">
        <ele>1664</ele>
        <time>2026-05-11T18:39:38+00:00</time>
      </trkpt>
      <trkpt lat="45.75534" lon="6.56433">
        <ele>1667</ele>
        <time>2026-05-11T18:39:39+00:00</time>
      </trkpt>
      <trkpt lat="45.75538" lon="6.56428">
        <ele>1668</ele>
        <time>2026-05-11T18:39:40+00:00</time>
      </trkpt>
      <trkpt lat="45.7556" lon="6.56427">
        <ele>1672</ele>
        <time>2026-05-11T18:39:41+00:00</time>
      </trkpt>
      <trkpt lat="45.75573" lon="6.56432">
        <ele>1672</ele>
        <time>2026-05-11T18:39:42+00:00</time>
      </trkpt>
      <trkpt lat="45.7559" lon="6.56432">
        <ele>1675</ele>
        <time>2026-05-11T18:39:43+00:00</time>
      </trkpt>
      <trkpt lat="45.75669" lon="6.56396">
        <ele>1700</ele>
        <time>2026-05-11T18:39:44+00:00</time>
      </trkpt>
      <trkpt lat="45.75682" lon="6.56394">
        <ele>1702</ele>
        <time>2026-05-11T18:39:45+00:00</time>
      </trkpt>
      <trkpt lat="45.75704" lon="6.56401">
        <ele>1702</ele>
        <time>2026-05-11T18:39:46+00:00</time>
      </trkpt>
      <trkpt lat="45.75714" lon="6.564">
        <ele>1703</ele>
        <time>2026-05-11T18:39:47+00:00</time>
      </trkpt>
      <trkpt lat="45.75766" lon="6.56379">
        <ele>1716</ele>
        <time>2026-05-11T18:39:48+00:00</time>
      </trkpt>
      <trkpt lat="45.75798" lon="6.56371">
        <ele>1721</ele>
        <time>2026-05-11T18:39:49+00:00</time>
      </trkpt>
      <trkpt lat="45.75783" lon="6.56361">
        <ele>1723</ele>
        <time>2026-05-11T18:39:50+00:00</time>
      </trkpt>
      <trkpt lat="45.75759" lon="6.56354">
        <ele>1724</ele>
        <time>2026-05-11T18:39:51+00:00</time>
      </trkpt>
      <trkpt lat="45.75685" lon="6.56315">
        <ele>1734</ele>
        <time>2026-05-11T18:39:52+00:00</time>
      </trkpt>
      <trkpt lat="45.75599" lon="6.5629">
        <ele>1734</ele>
        <time>2026-05-11T18:39:53+00:00</time>
      </trkpt>
      <trkpt lat="45.7551" lon="6.56242">
        <ele>1737</ele>
        <time>2026-05-11T18:39:54+00:00</time>
      </trkpt>
      <trkpt lat="45.75504" lon="6.56235">
        <ele>1738</ele>
        <time>2026-05-11T18:39:55+00:00</time>
      </trkpt>
      <trkpt lat="45.75455" lon="6.56219">
        <ele>1730</ele>
        <time>2026-05-11T18:39:56+00:00</time>
      </trkpt>
      <trkpt lat="45.75404" lon="6.5617">
        <ele>1727</ele>
        <time>2026-05-11T18:39:57+00:00</time>
      </trkpt>
      <trkpt lat="45.75396" lon="6.56155">
        <ele>1725</ele>
        <time>2026-05-11T18:39:58+00:00</time>
      </trkpt>
      <trkpt lat="45.75393" lon="6.56121">
        <ele>1724</ele>
        <time>2026-05-11T18:39:59+00:00</time>
      </trkpt>
      <trkpt lat="45.75407" lon="6.56056">
        <ele>1734</ele>
        <time>2026-05-11T18:40:00+00:00</time>
      </trkpt>
      <trkpt lat="45.75414" lon="6.55966">
        <ele>1745</ele>
        <time>2026-05-11T18:40:01+00:00</time>
      </trkpt>
      <trkpt lat="45.75399" lon="6.55937">
        <ele>1741</ele>
        <time>2026-05-11T18:40:02+00:00</time>
      </trkpt>
      <trkpt lat="45.75396" lon="6.55896">
        <ele>1747</ele>
        <time>2026-05-11T18:40:03+00:00</time>
      </trkpt>
      <trkpt lat="45.75354" lon="6.55795">
        <ele>1750</ele>
        <time>2026-05-11T18:40:04+00:00</time>
      </trkpt>
      <trkpt lat="45.75312" lon="6.55729">
        <ele>1755</ele>
        <time>2026-05-11T18:40:05+00:00</time>
      </trkpt>
      <trkpt lat="45.75283" lon="6.55695">
        <ele>1756</ele>
        <time>2026-05-11T18:40:06+00:00</time>
      </trkpt>
      <trkpt lat="45.7524" lon="6.55655">
        <ele>1759</ele>
        <time>2026-05-11T18:40:07+00:00</time>
      </trkpt>
      <trkpt lat="45.75195" lon="6.55607">
        <ele>1758</ele>
        <time>2026-05-11T18:40:08+00:00</time>
      </trkpt>
      <trkpt lat="45.75156" lon="6.55578">
        <ele>1755</ele>
        <time>2026-05-11T18:40:09+00:00</time>
      </trkpt>
      <trkpt lat="45.7512" lon="6.55544">
        <ele>1754</ele>
        <time>2026-05-11T18:40:10+00:00</time>
      </trkpt>
      <trkpt lat="45.75103" lon="6.55518">
        <ele>1755</ele>
        <time>2026-05-11T18:40:11+00:00</time>
      </trkpt>
      <trkpt lat="45.75089" lon="6.5547">
        <ele>1757</ele>
        <time>2026-05-11T18:40:12+00:00</time>
      </trkpt>
      <trkpt lat="45.75088" lon="6.55414">
        <ele>1759</ele>
        <time>2026-05-11T18:40:13+00:00</time>
      </trkpt>
      <trkpt lat="45.75118" lon="6.55361">
        <ele>1759</ele>
        <time>2026-05-11T18:40:14+00:00</time>
      </trkpt>
      <trkpt lat="45.75143" lon="6.55285">
        <ele>1749</ele>
        <time>2026-05-11T18:40:15+00:00</time>
      </trkpt>
      <trkpt lat="45.75152" lon="6.55274">
        <ele>1749</ele>
        <time>2026-05-11T18:40:16+00:00</time>
      </trkpt>
      <trkpt lat="45.75174" lon="6.55267">
        <ele>1750</ele>
        <time>2026-05-11T18:40:17+00:00</time>
      </trkpt>
      <trkpt lat="45.75206" lon="6.55269">
        <ele>1749</ele>
        <time>2026-05-11T18:40:18+00:00</time>
      </trkpt>
      <trkpt lat="45.7522" lon="6.55273">
        <ele>1750</ele>
        <time>2026-05-11T18:40:19+00:00</time>
      </trkpt>
      <trkpt lat="45.75289" lon="6.55311">
        <ele>1762</ele>
        <time>2026-05-11T18:40:20+00:00</time>
      </trkpt>
      <trkpt lat="45.75311" lon="6.55308">
        <ele>1763</ele>
        <time>2026-05-11T18:40:21+00:00</time>
      </trkpt>
      <trkpt lat="45.75362" lon="6.55284">
        <ele>1764</ele>
        <time>2026-05-11T18:40:22+00:00</time>
      </trkpt>
      <trkpt lat="45.75397" lon="6.55246">
        <ele>1761</ele>
        <time>2026-05-11T18:40:23+00:00</time>
      </trkpt>
      <trkpt lat="45.75429" lon="6.55218">
        <ele>1759</ele>
        <time>2026-05-11T18:40:24+00:00</time>
      </trkpt>
      <trkpt lat="45.75461" lon="6.5521">
        <ele>1759</ele>
        <time>2026-05-11T18:40:25+00:00</time>
      </trkpt>
      <trkpt lat="45.75499" lon="6.55217">
        <ele>1764</ele>
        <time>2026-05-11T18:40:26+00:00</time>
      </trkpt>
      <trkpt lat="45.75536" lon="6.55218">
        <ele>1761</ele>
        <time>2026-05-11T18:40:27+00:00</time>
      </trkpt>
      <trkpt lat="45.75542" lon="6.55221">
        <ele>1762</ele>
        <time>2026-05-11T18:40:28+00:00</time>
      </trkpt>
      <trkpt lat="45.75569" lon="6.5524">
        <ele>1764</ele>
        <time>2026-05-11T18:40:29+00:00</time>
      </trkpt>
      <trkpt lat="45.75602" lon="6.5527">
        <ele>1768</ele>
        <time>2026-05-11T18:40:30+00:00</time>
      </trkpt>
      <trkpt lat="45.75618" lon="6.55295">
        <ele>1771</ele>
        <time>2026-05-11T18:40:31+00:00</time>
      </trkpt>
      <trkpt lat="45.75643" lon="6.55313">
        <ele>1773</ele>
        <time>2026-05-11T18:40:32+00:00</time>
      </trkpt>
      <trkpt lat="45.75648" lon="6.55312">
        <ele>1772</ele>
        <time>2026-05-11T18:40:33+00:00</time>
      </trkpt>
      <trkpt lat="45.75661" lon="6.55322">
        <ele>1773</ele>
        <time>2026-05-11T18:40:34+00:00</time>
      </trkpt>
      <trkpt lat="45.75665" lon="6.55318">
        <ele>1772</ele>
        <time>2026-05-11T18:40:35+00:00</time>
      </trkpt>
      <trkpt lat="45.7567" lon="6.5529">
        <ele>1768</ele>
        <time>2026-05-11T18:40:36+00:00</time>
      </trkpt>
      <trkpt lat="45.75693" lon="6.5527">
        <ele>1769</ele>
        <time>2026-05-11T18:40:37+00:00</time>
      </trkpt>
      <trkpt lat="45.75726" lon="6.5525">
        <ele>1773</ele>
        <time>2026-05-11T18:40:38+00:00</time>
      </trkpt>
      <trkpt lat="45.75742" lon="6.55244">
        <ele>1776</ele>
        <time>2026-05-11T18:40:39+00:00</time>
      </trkpt>
      <trkpt lat="45.75757" lon="6.5523">
        <ele>1777</ele>
        <time>2026-05-11T18:40:40+00:00</time>
      </trkpt>
      <trkpt lat="45.75767" lon="6.55214">
        <ele>1777</ele>
        <time>2026-05-11T18:40:41+00:00</time>
      </trkpt>
      <trkpt lat="45.758" lon="6.55144">
        <ele>1773</ele>
        <time>2026-05-11T18:40:42+00:00</time>
      </trkpt>
      <trkpt lat="45.75806" lon="6.55136">
        <ele>1773</ele>
        <time>2026-05-11T18:40:43+00:00</time>
      </trkpt>
      <trkpt lat="45.7583" lon="6.55126">
        <ele>1775</ele>
        <time>2026-05-11T18:40:44+00:00</time>
      </trkpt>
      <trkpt lat="45.75846" lon="6.55108">
        <ele>1775</ele>
        <time>2026-05-11T18:40:45+00:00</time>
      </trkpt>
      <trkpt lat="45.75855" lon="6.55091">
        <ele>1774</ele>
        <time>2026-05-11T18:40:46+00:00</time>
      </trkpt>
      <trkpt lat="45.75895" lon="6.55044">
        <ele>1772</ele>
        <time>2026-05-11T18:40:47+00:00</time>
      </trkpt>
      <trkpt lat="45.75905" lon="6.55038">
        <ele>1772</ele>
        <time>2026-05-11T18:40:48+00:00</time>
      </trkpt>
      <trkpt lat="45.75918" lon="6.55034">
        <ele>1772</ele>
        <time>2026-05-11T18:40:49+00:00</time>
      </trkpt>
      <trkpt lat="45.75958" lon="6.55041">
        <ele>1774</ele>
        <time>2026-05-11T18:40:50+00:00</time>
      </trkpt>
      <trkpt lat="45.75973" lon="6.55041">
        <ele>1774</ele>
        <time>2026-05-11T18:40:51+00:00</time>
      </trkpt>
      <trkpt lat="45.75987" lon="6.5502">
        <ele>1773</ele>
        <time>2026-05-11T18:40:52+00:00</time>
      </trkpt>
      <trkpt lat="45.75992" lon="6.5502">
        <ele>1773</ele>
        <time>2026-05-11T18:40:53+00:00</time>
      </trkpt>
      <trkpt lat="45.76" lon="6.55009">
        <ele>1773</ele>
        <time>2026-05-11T18:40:54+00:00</time>
      </trkpt>
      <trkpt lat="45.76007" lon="6.54975">
        <ele>1772</ele>
        <time>2026-05-11T18:40:55+00:00</time>
      </trkpt>
      <trkpt lat="45.76009" lon="6.54936">
        <ele>1770</ele>
        <time>2026-05-11T18:40:56+00:00</time>
      </trkpt>
      <trkpt lat="45.76013" lon="6.54916">
        <ele>1769</ele>
        <time>2026-05-11T18:40:57+00:00</time>
      </trkpt>
      <trkpt lat="45.76001" lon="6.54853">
        <ele>1766</ele>
        <time>2026-05-11T18:40:58+00:00</time>
      </trkpt>
      <trkpt lat="45.75961" lon="6.54733">
        <ele>1756</ele>
        <time>2026-05-11T18:40:59+00:00</time>
      </trkpt>
      <trkpt lat="45.75956" lon="6.54709">
        <ele>1754</ele>
        <time>2026-05-11T18:41:00+00:00</time>
      </trkpt>
      <trkpt lat="45.75954" lon="6.54664">
        <ele>1752</ele>
        <time>2026-05-11T18:41:01+00:00</time>
      </trkpt>
      <trkpt lat="45.75957" lon="6.54598">
        <ele>1746</ele>
        <time>2026-05-11T18:41:02+00:00</time>
      </trkpt>
      <trkpt lat="45.75965" lon="6.54538">
        <ele>1741</ele>
        <time>2026-05-11T18:41:03+00:00</time>
      </trkpt>
      <trkpt lat="45.7596" lon="6.54465">
        <ele>1732</ele>
        <time>2026-05-11T18:41:04+00:00</time>
      </trkpt>
      <trkpt lat="45.75937" lon="6.54301">
        <ele>1714</ele>
        <time>2026-05-11T18:41:05+00:00</time>
      </trkpt>
      <trkpt lat="45.75941" lon="6.54249">
        <ele>1711</ele>
        <time>2026-05-11T18:41:06+00:00</time>
      </trkpt>
      <trkpt lat="45.7594" lon="6.5421">
        <ele>1709</ele>
        <time>2026-05-11T18:41:07+00:00</time>
      </trkpt>
      <trkpt lat="45.75936" lon="6.54182">
        <ele>1706</ele>
        <time>2026-05-11T18:41:08+00:00</time>
      </trkpt>
      <trkpt lat="45.75942" lon="6.54126">
        <ele>1704</ele>
        <time>2026-05-11T18:41:09+00:00</time>
      </trkpt>
      <trkpt lat="45.75928" lon="6.54046">
        <ele>1696</ele>
        <time>2026-05-11T18:41:10+00:00</time>
      </trkpt>
      <trkpt lat="45.75921" lon="6.54028">
        <ele>1693</ele>
        <time>2026-05-11T18:41:11+00:00</time>
      </trkpt>
      <trkpt lat="45.75922" lon="6.54005">
        <ele>1693</ele>
        <time>2026-05-11T18:41:12+00:00</time>
      </trkpt>
      <trkpt lat="45.75916" lon="6.5398">
        <ele>1689</ele>
        <time>2026-05-11T18:41:13+00:00</time>
      </trkpt>
      <trkpt lat="45.75919" lon="6.53961">
        <ele>1688</ele>
        <time>2026-05-11T18:41:14+00:00</time>
      </trkpt>
      <trkpt lat="45.75918" lon="6.53926">
        <ele>1685</ele>
        <time>2026-05-11T18:41:15+00:00</time>
      </trkpt>
      <trkpt lat="45.75943" lon="6.53829">
        <ele>1681</ele>
        <time>2026-05-11T18:41:16+00:00</time>
      </trkpt>
      <trkpt lat="45.7595" lon="6.53734">
        <ele>1674</ele>
        <time>2026-05-11T18:41:17+00:00</time>
      </trkpt>
      <trkpt lat="45.75948" lon="6.53722">
        <ele>1672</ele>
        <time>2026-05-11T18:41:18+00:00</time>
      </trkpt>
      <trkpt lat="45.7594" lon="6.53702">
        <ele>1670</ele>
        <time>2026-05-11T18:41:19+00:00</time>
      </trkpt>
      <trkpt lat="45.75938" lon="6.53662">
        <ele>1667</ele>
        <time>2026-05-11T18:41:20+00:00</time>
      </trkpt>
      <trkpt lat="45.75931" lon="6.53625">
        <ele>1663</ele>
        <time>2026-05-11T18:41:21+00:00</time>
      </trkpt>
      <trkpt lat="45.75933" lon="6.53616">
        <ele>1663</ele>
        <time>2026-05-11T18:41:22+00:00</time>
      </trkpt>
      <trkpt lat="45.75925" lon="6.53591">
        <ele>1660</ele>
        <time>2026-05-11T18:41:23+00:00</time>
      </trkpt>
      <trkpt lat="45.75849" lon="6.53468">
        <ele>1652</ele>
        <time>2026-05-11T18:41:24+00:00</time>
      </trkpt>
      <trkpt lat="45.75798" lon="6.53406">
        <ele>1644</ele>
        <time>2026-05-11T18:41:25+00:00</time>
      </trkpt>
      <trkpt lat="45.75774" lon="6.53266">
        <ele>1645</ele>
        <time>2026-05-11T18:41:26+00:00</time>
      </trkpt>
      <trkpt lat="45.75778" lon="6.53156">
        <ele>1644</ele>
        <time>2026-05-11T18:41:27+00:00</time>
      </trkpt>
      <trkpt lat="45.75821" lon="6.53069">
        <ele>1643</ele>
        <time>2026-05-11T18:41:28+00:00</time>
      </trkpt>
      <trkpt lat="45.75935" lon="6.53214">
        <ele>1655</ele>
        <time>2026-05-11T18:41:29+00:00</time>
      </trkpt>
      <trkpt lat="45.75955" lon="6.53279">
        <ele>1656</ele>
        <time>2026-05-11T18:41:30+00:00</time>
      </trkpt>
      <trkpt lat="45.76005" lon="6.53329">
        <ele>1658</ele>
        <time>2026-05-11T18:41:31+00:00</time>
      </trkpt>
      <trkpt lat="45.76018" lon="6.53323">
        <ele>1658</ele>
        <time>2026-05-11T18:41:32+00:00</time>
      </trkpt>
      <trkpt lat="45.76037" lon="6.53319">
        <ele>1658</ele>
        <time>2026-05-11T18:41:33+00:00</time>
      </trkpt>
      <trkpt lat="45.76096" lon="6.53311">
        <ele>1657</ele>
        <time>2026-05-11T18:41:34+00:00</time>
      </trkpt>
    </trkseg>
  </trk>
</gpx>
