<?xml version="1.0" encoding="UTF-8"?>
<gpx xmlns="http://www.topografix.com/GPX/1/1" xmlns:xsi="http://www.w3.org/2001/XMLSchema-instance" version="1.1" creator="phpGPX/1.3.0" xsi:schemaLocation="http://www.topografix.com/GPX/1/1 http://www.topografix.com/GPX/1/1/gpx.xsd">
  <metadata>
    <time>2026-05-11T18:35:41+00:00</time>
  </metadata>
  <trk>
    <name>Trail Urbain de Laval</name>
    <trkseg>
      <trkpt lat="48.07543" lon="-0.77124">
        <ele>50</ele>
        <time>2026-05-11T18:35:42+00:00</time>
      </trkpt>
      <trkpt lat="48.07644" lon="-0.77095">
        <ele>51</ele>
        <time>2026-05-11T18:35:43+00:00</time>
      </trkpt>
      <trkpt lat="48.07662" lon="-0.77088">
        <ele>51</ele>
        <time>2026-05-11T18:35:44+00:00</time>
      </trkpt>
      <trkpt lat="48.07671" lon="-0.7708">
        <ele>51</ele>
        <time>2026-05-11T18:35:45+00:00</time>
      </trkpt>
      <trkpt lat="48.07674" lon="-0.77052">
        <ele>49</ele>
        <time>2026-05-11T18:35:46+00:00</time>
      </trkpt>
      <trkpt lat="48.07671" lon="-0.76969">
        <ele>50</ele>
        <time>2026-05-11T18:35:47+00:00</time>
      </trkpt>
      <trkpt lat="48.07653" lon="-0.76971">
        <ele>50</ele>
        <time>2026-05-11T18:35:48+00:00</time>
      </trkpt>
      <trkpt lat="48.0757" lon="-0.77">
        <ele>51</ele>
        <time>2026-05-11T18:35:49+00:00</time>
      </trkpt>
      <trkpt lat="48.07465" lon="-0.77041">
        <ele>50</ele>
        <time>2026-05-11T18:35:50+00:00</time>
      </trkpt>
      <trkpt lat="48.07403" lon="-0.77045">
        <ele>50</ele>
        <time>2026-05-11T18:35:51+00:00</time>
      </trkpt>
      <trkpt lat="48.07377" lon="-0.77043">
        <ele>50</ele>
        <time>2026-05-11T18:35:52+00:00</time>
      </trkpt>
      <trkpt lat="48.07341" lon="-0.77038">
        <ele>50</ele>
        <time>2026-05-11T18:35:53+00:00</time>
      </trkpt>
      <trkpt lat="48.07289" lon="-0.77035">
        <ele>52</ele>
        <time>2026-05-11T18:35:54+00:00</time>
      </trkpt>
      <trkpt lat="48.07268" lon="-0.77028">
        <ele>53</ele>
        <time>2026-05-11T18:35:55+00:00</time>
      </trkpt>
      <trkpt lat="48.07246" lon="-0.77029">
        <ele>53</ele>
        <time>2026-05-11T18:35:56+00:00</time>
      </trkpt>
      <trkpt lat="48.07214" lon="-0.77021">
        <ele>52</ele>
        <time>2026-05-11T18:35:57+00:00</time>
      </trkpt>
      <trkpt lat="48.07219" lon="-0.76971">
        <ele>53</ele>
        <time>2026-05-11T18:35:58+00:00</time>
      </trkpt>
      <trkpt lat="48.07224" lon="-0.76793">
        <ele>53</ele>
        <time>2026-05-11T18:35:59+00:00</time>
      </trkpt>
      <trkpt lat="48.0723" lon="-0.76723">
        <ele>54</ele>
        <time>2026-05-11T18:36:00+00:00</time>
      </trkpt>
      <trkpt lat="48.0723" lon="-0.76685">
        <ele>54</ele>
        <time>2026-05-11T18:36:01+00:00</time>
      </trkpt>
      <trkpt lat="48.07222" lon="-0.76668">
        <ele>55</ele>
        <time>2026-05-11T18:36:02+00:00</time>
      </trkpt>
      <trkpt lat="48.07253" lon="-0.76551">
        <ele>57</ele>
        <time>2026-05-11T18:36:03+00:00</time>
      </trkpt>
      <trkpt lat="48.07321" lon="-0.76546">
        <ele>57</ele>
        <time>2026-05-11T18:36:04+00:00</time>
      </trkpt>
      <trkpt lat="48.07348" lon="-0.76536">
        <ele>57</ele>
        <time>2026-05-11T18:36:05+00:00</time>
      </trkpt>
      <trkpt lat="48.07356" lon="-0.76523">
        <ele>57</ele>
        <time>2026-05-11T18:36:06+00:00</time>
      </trkpt>
      <trkpt lat="48.07361" lon="-0.76503">
        <ele>57</ele>
        <time>2026-05-11T18:36:07+00:00</time>
      </trkpt>
      <trkpt lat="48.07371" lon="-0.76338">
        <ele>61</ele>
        <time>2026-05-11T18:36:08+00:00</time>
      </trkpt>
      <trkpt lat="48.07371" lon="-0.76297">
        <ele>62</ele>
        <time>2026-05-11T18:36:09+00:00</time>
      </trkpt>
      <trkpt lat="48.07379" lon="-0.76283">
        <ele>62</ele>
        <time>2026-05-11T18:36:10+00:00</time>
      </trkpt>
      <trkpt lat="48.07377" lon="-0.76272">
        <ele>63</ele>
        <time>2026-05-11T18:36:11+00:00</time>
      </trkpt>
      <trkpt lat="48.07422" lon="-0.76238">
        <ele>63</ele>
        <time>2026-05-11T18:36:12+00:00</time>
      </trkpt>
      <trkpt lat="48.07421" lon="-0.7622">
        <ele>63</ele>
        <time>2026-05-11T18:36:13+00:00</time>
      </trkpt>
      <trkpt lat="48.07411" lon="-0.76213">
        <ele>64</ele>
        <time>2026-05-11T18:36:14+00:00</time>
      </trkpt>
      <trkpt lat="48.07397" lon="-0.7617">
        <ele>64</ele>
        <time>2026-05-11T18:36:15+00:00</time>
      </trkpt>
      <trkpt lat="48.07372" lon="-0.76237">
        <ele>64</ele>
        <time>2026-05-11T18:36:16+00:00</time>
      </trkpt>
      <trkpt lat="48.07366" lon="-0.76244">
        <ele>64</ele>
        <time>2026-05-11T18:36:17+00:00</time>
      </trkpt>
      <trkpt lat="48.07355" lon="-0.76195">
        <ele>65</ele>
        <time>2026-05-11T18:36:18+00:00</time>
      </trkpt>
      <trkpt lat="48.07304" lon="-0.76015">
        <ele>68</ele>
        <time>2026-05-11T18:36:19+00:00</time>
      </trkpt>
      <trkpt lat="48.07287" lon="-0.75978">
        <ele>70</ele>
        <time>2026-05-11T18:36:20+00:00</time>
      </trkpt>
      <trkpt lat="48.07276" lon="-0.75969">
        <ele>70</ele>
        <time>2026-05-11T18:36:21+00:00</time>
      </trkpt>
      <trkpt lat="48.07258" lon="-0.75969">
        <ele>71</ele>
        <time>2026-05-11T18:36:22+00:00</time>
      </trkpt>
      <trkpt lat="48.07166" lon="-0.76035">
        <ele>70</ele>
        <time>2026-05-11T18:36:23+00:00</time>
      </trkpt>
      <trkpt lat="48.0715" lon="-0.76044">
        <ele>70</ele>
        <time>2026-05-11T18:36:24+00:00</time>
      </trkpt>
      <trkpt lat="48.07139" lon="-0.76044">
        <ele>70</ele>
        <time>2026-05-11T18:36:25+00:00</time>
      </trkpt>
      <trkpt lat="48.07135" lon="-0.76065">
        <ele>69</ele>
        <time>2026-05-11T18:36:26+00:00</time>
      </trkpt>
      <trkpt lat="48.07116" lon="-0.76065">
        <ele>69</ele>
        <time>2026-05-11T18:36:27+00:00</time>
      </trkpt>
      <trkpt lat="48.07101" lon="-0.76059">
        <ele>70</ele>
        <time>2026-05-11T18:36:28+00:00</time>
      </trkpt>
      <trkpt lat="48.07095" lon="-0.76067">
        <ele>69</ele>
        <time>2026-05-11T18:36:29+00:00</time>
      </trkpt>
      <trkpt lat="48.07058" lon="-0.76174">
        <ele>65</ele>
        <time>2026-05-11T18:36:30+00:00</time>
      </trkpt>
      <trkpt lat="48.07039" lon="-0.7622">
        <ele>62</ele>
        <time>2026-05-11T18:36:31+00:00</time>
      </trkpt>
      <trkpt lat="48.07001" lon="-0.76326">
        <ele>60</ele>
        <time>2026-05-11T18:36:32+00:00</time>
      </trkpt>
      <trkpt lat="48.06964" lon="-0.76476">
        <ele>56</ele>
        <time>2026-05-11T18:36:33+00:00</time>
      </trkpt>
      <trkpt lat="48.06955" lon="-0.76498">
        <ele>55</ele>
        <time>2026-05-11T18:36:34+00:00</time>
      </trkpt>
      <trkpt lat="48.06909" lon="-0.76591">
        <ele>55</ele>
        <time>2026-05-11T18:36:35+00:00</time>
      </trkpt>
      <trkpt lat="48.06904" lon="-0.7661">
        <ele>54</ele>
        <time>2026-05-11T18:36:36+00:00</time>
      </trkpt>
      <trkpt lat="48.06859" lon="-0.76586">
        <ele>53</ele>
        <time>2026-05-11T18:36:37+00:00</time>
      </trkpt>
      <trkpt lat="48.06853" lon="-0.76617">
        <ele>53</ele>
        <time>2026-05-11T18:36:38+00:00</time>
      </trkpt>
      <trkpt lat="48.06842" lon="-0.76631">
        <ele>52</ele>
        <time>2026-05-11T18:36:39+00:00</time>
      </trkpt>
      <trkpt lat="48.06839" lon="-0.76652">
        <ele>52</ele>
        <time>2026-05-11T18:36:40+00:00</time>
      </trkpt>
      <trkpt lat="48.06874" lon="-0.76681">
        <ele>52</ele>
        <time>2026-05-11T18:36:41+00:00</time>
      </trkpt>
      <trkpt lat="48.06888" lon="-0.76689">
        <ele>53</ele>
        <time>2026-05-11T18:36:42+00:00</time>
      </trkpt>
      <trkpt lat="48.06883" lon="-0.7671">
        <ele>53</ele>
        <time>2026-05-11T18:36:43+00:00</time>
      </trkpt>
      <trkpt lat="48.06863" lon="-0.76761">
        <ele>52</ele>
        <time>2026-05-11T18:36:44+00:00</time>
      </trkpt>
      <trkpt lat="48.06848" lon="-0.76828">
        <ele>52</ele>
        <time>2026-05-11T18:36:45+00:00</time>
      </trkpt>
      <trkpt lat="48.06916" lon="-0.76858">
        <ele>51</ele>
        <time>2026-05-11T18:36:46+00:00</time>
      </trkpt>
      <trkpt lat="48.06957" lon="-0.76871">
        <ele>52</ele>
        <time>2026-05-11T18:36:47+00:00</time>
      </trkpt>
      <trkpt lat="48.06951" lon="-0.76942">
        <ele>52</ele>
        <time>2026-05-11T18:36:48+00:00</time>
      </trkpt>
      <trkpt lat="48.06938" lon="-0.76947">
        <ele>52</ele>
        <time>2026-05-11T18:36:49+00:00</time>
      </trkpt>
      <trkpt lat="48.06915" lon="-0.76934">
        <ele>52</ele>
        <time>2026-05-11T18:36:50+00:00</time>
      </trkpt>
      <trkpt lat="48.06873" lon="-0.76917">
        <ele>51</ele>
        <time>2026-05-11T18:36:51+00:00</time>
      </trkpt>
      <trkpt lat="48.06835" lon="-0.76897">
        <ele>51</ele>
        <time>2026-05-11T18:36:52+00:00</time>
      </trkpt>
      <trkpt lat="48.06826" lon="-0.76924">
        <ele>51</ele>
        <time>2026-05-11T18:36:53+00:00</time>
      </trkpt>
      <trkpt lat="48.06816" lon="-0.76978">
        <ele>54</ele>
        <time>2026-05-11T18:36:54+00:00</time>
      </trkpt>
      <trkpt lat="48.06821" lon="-0.76989">
        <ele>55</ele>
        <time>2026-05-11T18:36:55+00:00</time>
      </trkpt>
      <trkpt lat="48.06972" lon="-0.77091">
        <ele>53</ele>
        <time>2026-05-11T18:36:56+00:00</time>
      </trkpt>
      <trkpt lat="48.06996" lon="-0.77111">
        <ele>52</ele>
        <time>2026-05-11T18:36:57+00:00</time>
      </trkpt>
      <trkpt lat="48.06992" lon="-0.77125">
        <ele>53</ele>
        <time>2026-05-11T18:36:58+00:00</time>
      </trkpt>
      <trkpt lat="48.06968" lon="-0.77156">
        <ele>57</ele>
        <time>2026-05-11T18:36:59+00:00</time>
      </trkpt>
      <trkpt lat="48.06956" lon="-0.77165">
        <ele>59</ele>
        <time>2026-05-11T18:37:00+00:00</time>
      </trkpt>
      <trkpt lat="48.06903" lon="-0.77095">
        <ele>59</ele>
        <time>2026-05-11T18:37:01+00:00</time>
      </trkpt>
      <trkpt lat="48.06871" lon="-0.77067">
        <ele>58</ele>
        <time>2026-05-11T18:37:02+00:00</time>
      </trkpt>
      <trkpt lat="48.06809" lon="-0.76998">
        <ele>56</ele>
        <time>2026-05-11T18:37:03+00:00</time>
      </trkpt>
      <trkpt lat="48.06748" lon="-0.76944">
        <ele>55</ele>
        <time>2026-05-11T18:37:04+00:00</time>
      </trkpt>
      <trkpt lat="48.06738" lon="-0.7698">
        <ele>61</ele>
        <time>2026-05-11T18:37:05+00:00</time>
      </trkpt>
      <trkpt lat="48.06724" lon="-0.77002">
        <ele>66</ele>
        <time>2026-05-11T18:37:06+00:00</time>
      </trkpt>
      <trkpt lat="48.06709" lon="-0.77016">
        <ele>70</ele>
        <time>2026-05-11T18:37:07+00:00</time>
      </trkpt>
      <trkpt lat="48.06699" lon="-0.77044">
        <ele>74</ele>
        <time>2026-05-11T18:37:08+00:00</time>
      </trkpt>
      <trkpt lat="48.06695" lon="-0.77124">
        <ele>80</ele>
        <time>2026-05-11T18:37:09+00:00</time>
      </trkpt>
      <trkpt lat="48.06728" lon="-0.77128">
        <ele>76</ele>
        <time>2026-05-11T18:37:10+00:00</time>
      </trkpt>
      <trkpt lat="48.0674" lon="-0.77055">
        <ele>69</ele>
        <time>2026-05-11T18:37:11+00:00</time>
      </trkpt>
      <trkpt lat="48.06764" lon="-0.7702">
        <ele>62</ele>
        <time>2026-05-11T18:37:12+00:00</time>
      </trkpt>
      <trkpt lat="48.06801" lon="-0.77028">
        <ele>59</ele>
        <time>2026-05-11T18:37:13+00:00</time>
      </trkpt>
      <trkpt lat="48.06796" lon="-0.77085">
        <ele>65</ele>
        <time>2026-05-11T18:37:14+00:00</time>
      </trkpt>
      <trkpt lat="48.06788" lon="-0.77105">
        <ele>68</ele>
        <time>2026-05-11T18:37:15+00:00</time>
      </trkpt>
      <trkpt lat="48.06756" lon="-0.77251">
        <ele>80</ele>
        <time>2026-05-11T18:37:16+00:00</time>
      </trkpt>
      <trkpt lat="48.06764" lon="-0.77335">
        <ele>83</ele>
        <time>2026-05-11T18:37:17+00:00</time>
      </trkpt>
      <trkpt lat="48.06757" lon="-0.77352">
        <ele>83</ele>
        <time>2026-05-11T18:37:18+00:00</time>
      </trkpt>
      <trkpt lat="48.06738" lon="-0.77346">
        <ele>84</ele>
        <time>2026-05-11T18:37:19+00:00</time>
      </trkpt>
      <trkpt lat="48.06724" lon="-0.77353">
        <ele>84</ele>
        <time>2026-05-11T18:37:20+00:00</time>
      </trkpt>
      <trkpt lat="48.06709" lon="-0.77391">
        <ele>85</ele>
        <time>2026-05-11T18:37:21+00:00</time>
      </trkpt>
      <trkpt lat="48.06698" lon="-0.7738">
        <ele>86</ele>
        <time>2026-05-11T18:37:22+00:00</time>
      </trkpt>
      <trkpt lat="48.06692" lon="-0.7736">
        <ele>86</ele>
        <time>2026-05-11T18:37:23+00:00</time>
      </trkpt>
      <trkpt lat="48.06681" lon="-0.77339">
        <ele>86</ele>
        <time>2026-05-11T18:37:24+00:00</time>
      </trkpt>
      <trkpt lat="48.0667" lon="-0.77308">
        <ele>86</ele>
        <time>2026-05-11T18:37:25+00:00</time>
      </trkpt>
      <trkpt lat="48.06663" lon="-0.77278">
        <ele>86</ele>
        <time>2026-05-11T18:37:26+00:00</time>
      </trkpt>
      <trkpt lat="48.06647" lon="-0.77168">
        <ele>85</ele>
        <time>2026-05-11T18:37:27+00:00</time>
      </trkpt>
      <trkpt lat="48.06648" lon="-0.77124">
        <ele>84</ele>
        <time>2026-05-11T18:37:28+00:00</time>
      </trkpt>
      <trkpt lat="48.06634" lon="-0.77124">
        <ele>85</ele>
        <time>2026-05-11T18:37:29+00:00</time>
      </trkpt>
      <trkpt lat="48.06553" lon="-0.77109">
        <ele>86</ele>
        <time>2026-05-11T18:37:30+00:00</time>
      </trkpt>
      <trkpt lat="48.06454" lon="-0.77102">
        <ele>85</ele>
        <time>2026-05-11T18:37:31+00:00</time>
      </trkpt>
      <trkpt lat="48.06438" lon="-0.77082">
        <ele>85</ele>
        <time>2026-05-11T18:37:32+00:00</time>
      </trkpt>
      <trkpt lat="48.0639" lon="-0.76997">
        <ele>80</ele>
        <time>2026-05-11T18:37:33+00:00</time>
      </trkpt>
      <trkpt lat="48.0634" lon="-0.77056">
        <ele>76</ele>
        <time>2026-05-11T18:37:34+00:00</time>
      </trkpt>
      <trkpt lat="48.06364" lon="-0.77118">
        <ele>77</ele>
        <time>2026-05-11T18:37:35+00:00</time>
      </trkpt>
      <trkpt lat="48.06354" lon="-0.77126">
        <ele>76</ele>
        <time>2026-05-11T18:37:36+00:00</time>
      </trkpt>
      <trkpt lat="48.06295" lon="-0.77152">
        <ele>68</ele>
        <time>2026-05-11T18:37:37+00:00</time>
      </trkpt>
      <trkpt lat="48.06255" lon="-0.77185">
        <ele>64</ele>
        <time>2026-05-11T18:37:38+00:00</time>
      </trkpt>
      <trkpt lat="48.06255" lon="-0.77199">
        <ele>65</ele>
        <time>2026-05-11T18:37:39+00:00</time>
      </trkpt>
      <trkpt lat="48.06288" lon="-0.7729">
        <ele>67</ele>
        <time>2026-05-11T18:37:40+00:00</time>
      </trkpt>
      <trkpt lat="48.06303" lon="-0.77292">
        <ele>67</ele>
        <time>2026-05-11T18:37:41+00:00</time>
      </trkpt>
      <trkpt lat="48.06319" lon="-0.77288">
        <ele>66</ele>
        <time>2026-05-11T18:37:42+00:00</time>
      </trkpt>
      <trkpt lat="48.06332" lon="-0.77299">
        <ele>65</ele>
        <time>2026-05-11T18:37:43+00:00</time>
      </trkpt>
      <trkpt lat="48.06372" lon="-0.77295">
        <ele>71</ele>
        <time>2026-05-11T18:37:44+00:00</time>
      </trkpt>
      <trkpt lat="48.06392" lon="-0.77286">
        <ele>74</ele>
        <time>2026-05-11T18:37:45+00:00</time>
      </trkpt>
      <trkpt lat="48.06401" lon="-0.77304">
        <ele>74</ele>
        <time>2026-05-11T18:37:46+00:00</time>
      </trkpt>
      <trkpt lat="48.06414" lon="-0.77301">
        <ele>77</ele>
        <time>2026-05-11T18:37:47+00:00</time>
      </trkpt>
      <trkpt lat="48.06424" lon="-0.77294">
        <ele>78</ele>
        <time>2026-05-11T18:37:48+00:00</time>
      </trkpt>
      <trkpt lat="48.06438" lon="-0.77293">
        <ele>79</ele>
        <time>2026-05-11T18:37:49+00:00</time>
      </trkpt>
      <trkpt lat="48.06454" lon="-0.77284">
        <ele>81</ele>
        <time>2026-05-11T18:37:50+00:00</time>
      </trkpt>
      <trkpt lat="48.06471" lon="-0.77285">
        <ele>82</ele>
        <time>2026-05-11T18:37:51+00:00</time>
      </trkpt>
      <trkpt lat="48.06488" lon="-0.77274">
        <ele>83</ele>
        <time>2026-05-11T18:37:52+00:00</time>
      </trkpt>
      <trkpt lat="48.06488" lon="-0.7726">
        <ele>83</ele>
        <time>2026-05-11T18:37:53+00:00</time>
      </trkpt>
      <trkpt lat="48.06501" lon="-0.77241">
        <ele>84</ele>
        <time>2026-05-11T18:37:54+00:00</time>
      </trkpt>
      <trkpt lat="48.06529" lon="-0.7724">
        <ele>85</ele>
        <time>2026-05-11T18:37:55+00:00</time>
      </trkpt>
      <trkpt lat="48.06539" lon="-0.77259">
        <ele>85</ele>
        <time>2026-05-11T18:37:56+00:00</time>
      </trkpt>
      <trkpt lat="48.06554" lon="-0.77338">
        <ele>86</ele>
        <time>2026-05-11T18:37:57+00:00</time>
      </trkpt>
      <trkpt lat="48.06581" lon="-0.7735">
        <ele>87</ele>
        <time>2026-05-11T18:37:58+00:00</time>
      </trkpt>
      <trkpt lat="48.066" lon="-0.77362">
        <ele>87</ele>
        <time>2026-05-11T18:37:59+00:00</time>
      </trkpt>
      <trkpt lat="48.06608" lon="-0.77463">
        <ele>86</ele>
        <time>2026-05-11T18:38:00+00:00</time>
      </trkpt>
      <trkpt lat="48.06636" lon="-0.77455">
        <ele>86</ele>
        <time>2026-05-11T18:38:01+00:00</time>
      </trkpt>
      <trkpt lat="48.06699" lon="-0.77423">
        <ele>86</ele>
        <time>2026-05-11T18:38:02+00:00</time>
      </trkpt>
      <trkpt lat="48.06722" lon="-0.77429">
        <ele>85</ele>
        <time>2026-05-11T18:38:03+00:00</time>
      </trkpt>
      <trkpt lat="48.06739" lon="-0.77439">
        <ele>85</ele>
        <time>2026-05-11T18:38:04+00:00</time>
      </trkpt>
      <trkpt lat="48.06744" lon="-0.77451">
        <ele>85</ele>
        <time>2026-05-11T18:38:05+00:00</time>
      </trkpt>
      <trkpt lat="48.06733" lon="-0.77518">
        <ele>85</ele>
        <time>2026-05-11T18:38:06+00:00</time>
      </trkpt>
      <trkpt lat="48.06723" lon="-0.77555">
        <ele>84</ele>
        <time>2026-05-11T18:38:07+00:00</time>
      </trkpt>
      <trkpt lat="48.06707" lon="-0.77595">
        <ele>84</ele>
        <time>2026-05-11T18:38:08+00:00</time>
      </trkpt>
      <trkpt lat="48.06809" lon="-0.77682">
        <ele>75</ele>
        <time>2026-05-11T18:38:09+00:00</time>
      </trkpt>
      <trkpt lat="48.06863" lon="-0.77709">
        <ele>71</ele>
        <time>2026-05-11T18:38:10+00:00</time>
      </trkpt>
      <trkpt lat="48.06884" lon="-0.77716">
        <ele>70</ele>
        <time>2026-05-11T18:38:11+00:00</time>
      </trkpt>
      <trkpt lat="48.06898" lon="-0.77717">
        <ele>69</ele>
        <time>2026-05-11T18:38:12+00:00</time>
      </trkpt>
      <trkpt lat="48.0693" lon="-0.77624">
        <ele>66</ele>
        <time>2026-05-11T18:38:13+00:00</time>
      </trkpt>
      <trkpt lat="48.06931" lon="-0.77614">
        <ele>65</ele>
        <time>2026-05-11T18:38:14+00:00</time>
      </trkpt>
      <trkpt lat="48.06915" lon="-0.77602">
        <ele>66</ele>
        <time>2026-05-11T18:38:15+00:00</time>
      </trkpt>
      <trkpt lat="48.06904" lon="-0.7759">
        <ele>67</ele>
        <time>2026-05-11T18:38:16+00:00</time>
      </trkpt>
      <trkpt lat="48.06805" lon="-0.77466">
        <ele>79</ele>
        <time>2026-05-11T18:38:17+00:00</time>
      </trkpt>
      <trkpt lat="48.06784" lon="-0.77435">
        <ele>81</ele>
        <time>2026-05-11T18:38:18+00:00</time>
      </trkpt>
      <trkpt lat="48.06812" lon="-0.77388">
        <ele>80</ele>
        <time>2026-05-11T18:38:19+00:00</time>
      </trkpt>
      <trkpt lat="48.06825" lon="-0.77398">
        <ele>79</ele>
        <time>2026-05-11T18:38:20+00:00</time>
      </trkpt>
      <trkpt lat="48.06839" lon="-0.774">
        <ele>78</ele>
        <time>2026-05-11T18:38:21+00:00</time>
      </trkpt>
      <trkpt lat="48.0686" lon="-0.77372">
        <ele>76</ele>
        <time>2026-05-11T18:38:22+00:00</time>
      </trkpt>
      <trkpt lat="48.06882" lon="-0.77405">
        <ele>73</ele>
        <time>2026-05-11T18:38:23+00:00</time>
      </trkpt>
      <trkpt lat="48.06891" lon="-0.77414">
        <ele>72</ele>
        <time>2026-05-11T18:38:24+00:00</time>
      </trkpt>
      <trkpt lat="48.06946" lon="-0.77514">
        <ele>64</ele>
        <time>2026-05-11T18:38:25+00:00</time>
      </trkpt>
      <trkpt lat="48.06959" lon="-0.77544">
        <ele>63</ele>
        <time>2026-05-11T18:38:26+00:00</time>
      </trkpt>
      <trkpt lat="48.06947" lon="-0.77563">
        <ele>64</ele>
        <time>2026-05-11T18:38:27+00:00</time>
      </trkpt>
      <trkpt lat="48.06937" lon="-0.77574">
        <ele>65</ele>
        <time>2026-05-11T18:38:28+00:00</time>
      </trkpt>
      <trkpt lat="48.0693" lon="-0.77593">
        <ele>65</ele>
        <time>2026-05-11T18:38:29+00:00</time>
      </trkpt>
      <trkpt lat="48.0694" lon="-0.77612">
        <ele>65</ele>
        <time>2026-05-11T18:38:30+00:00</time>
      </trkpt>
      <trkpt lat="48.06964" lon="-0.77608">
        <ele>63</ele>
        <time>2026-05-11T18:38:31+00:00</time>
      </trkpt>
      <trkpt lat="48.06973" lon="-0.77612">
        <ele>63</ele>
        <time>2026-05-11T18:38:32+00:00</time>
      </trkpt>
      <trkpt lat="48.07052" lon="-0.77758">
        <ele>61</ele>
        <time>2026-05-11T18:38:33+00:00</time>
      </trkpt>
      <trkpt lat="48.07062" lon="-0.77781">
        <ele>60</ele>
        <time>2026-05-11T18:38:34+00:00</time>
      </trkpt>
      <trkpt lat="48.07087" lon="-0.77824">
        <ele>60</ele>
        <time>2026-05-11T18:38:35+00:00</time>
      </trkpt>
      <trkpt lat="48.07113" lon="-0.77802">
        <ele>59</ele>
        <time>2026-05-11T18:38:36+00:00</time>
      </trkpt>
      <trkpt lat="48.07129" lon="-0.77773">
        <ele>59</ele>
        <time>2026-05-11T18:38:37+00:00</time>
      </trkpt>
      <trkpt lat="48.07166" lon="-0.77836">
        <ele>58</ele>
        <time>2026-05-11T18:38:38+00:00</time>
      </trkpt>
      <trkpt lat="48.07136" lon="-0.77887">
        <ele>60</ele>
        <time>2026-05-11T18:38:39+00:00</time>
      </trkpt>
      <trkpt lat="48.07131" lon="-0.779">
        <ele>60</ele>
        <time>2026-05-11T18:38:40+00:00</time>
      </trkpt>
      <trkpt lat="48.07133" lon="-0.77918">
        <ele>60</ele>
        <time>2026-05-11T18:38:41+00:00</time>
      </trkpt>
      <trkpt lat="48.07141" lon="-0.77937">
        <ele>61</ele>
        <time>2026-05-11T18:38:42+00:00</time>
      </trkpt>
      <trkpt lat="48.07159" lon="-0.77998">
        <ele>62</ele>
        <time>2026-05-11T18:38:43+00:00</time>
      </trkpt>
      <trkpt lat="48.07167" lon="-0.78">
        <ele>62</ele>
        <time>2026-05-11T18:38:44+00:00</time>
      </trkpt>
      <trkpt lat="48.07216" lon="-0.77976">
        <ele>61</ele>
        <time>2026-05-11T18:38:45+00:00</time>
      </trkpt>
      <trkpt lat="48.07246" lon="-0.77994">
        <ele>61</ele>
        <time>2026-05-11T18:38:46+00:00</time>
      </trkpt>
      <trkpt lat="48.07266" lon="-0.78009">
        <ele>61</ele>
        <time>2026-05-11T18:38:47+00:00</time>
      </trkpt>
      <trkpt lat="48.07279" lon="-0.78022">
        <ele>61</ele>
        <time>2026-05-11T18:38:48+00:00</time>
      </trkpt>
      <trkpt lat="48.0729" lon="-0.7804">
        <ele>62</ele>
        <time>2026-05-11T18:38:49+00:00</time>
      </trkpt>
      <trkpt lat="48.07319" lon="-0.78145">
        <ele>64</ele>
        <time>2026-05-11T18:38:50+00:00</time>
      </trkpt>
      <trkpt lat="48.07335" lon="-0.78224">
        <ele>65</ele>
        <time>2026-05-11T18:38:51+00:00</time>
      </trkpt>
      <trkpt lat="48.07361" lon="-0.78289">
        <ele>67</ele>
        <time>2026-05-11T18:38:52+00:00</time>
      </trkpt>
      <trkpt lat="48.07376" lon="-0.78275">
        <ele>67</ele>
        <time>2026-05-11T18:38:53+00:00</time>
      </trkpt>
      <trkpt lat="48.0739" lon="-0.78267">
        <ele>67</ele>
        <time>2026-05-11T18:38:54+00:00</time>
      </trkpt>
      <trkpt lat="48.07421" lon="-0.78241">
        <ele>67</ele>
        <time>2026-05-11T18:38:55+00:00</time>
      </trkpt>
      <trkpt lat="48.07435" lon="-0.78237">
        <ele>68</ele>
        <time>2026-05-11T18:38:56+00:00</time>
      </trkpt>
      <trkpt lat="48.07471" lon="-0.78188">
        <ele>71</ele>
        <time>2026-05-11T18:38:57+00:00</time>
      </trkpt>
      <trkpt lat="48.07489" lon="-0.7817">
        <ele>73</ele>
        <time>2026-05-11T18:38:58+00:00</time>
      </trkpt>
      <trkpt lat="48.07537" lon="-0.78111">
        <ele>73</ele>
        <time>2026-05-11T18:38:59+00:00</time>
      </trkpt>
      <trkpt lat="48.07554" lon="-0.78083">
        <ele>73</ele>
        <time>2026-05-11T18:39:00+00:00</time>
      </trkpt>
      <trkpt lat="48.07561" lon="-0.78062">
        <ele>74</ele>
        <time>2026-05-11T18:39:01+00:00</time>
      </trkpt>
      <trkpt lat="48.0756" lon="-0.78045">
        <ele>75</ele>
        <time>2026-05-11T18:39:02+00:00</time>
      </trkpt>
      <trkpt lat="48.07569" lon="-0.78025">
        <ele>76</ele>
        <time>2026-05-11T18:39:03+00:00</time>
      </trkpt>
      <trkpt lat="48.07573" lon="-0.78004">
        <ele>77</ele>
        <time>2026-05-11T18:39:04+00:00</time>
      </trkpt>
      <trkpt lat="48.07533" lon="-0.7791">
        <ele>79</ele>
        <time>2026-05-11T18:39:05+00:00</time>
      </trkpt>
      <trkpt lat="48.07446" lon="-0.77685">
        <ele>85</ele>
        <time>2026-05-11T18:39:06+00:00</time>
      </trkpt>
      <trkpt lat="48.07416" lon="-0.77623">
        <ele>83</ele>
        <time>2026-05-11T18:39:07+00:00</time>
      </trkpt>
      <trkpt lat="48.07408" lon="-0.77611">
        <ele>83</ele>
        <time>2026-05-11T18:39:08+00:00</time>
      </trkpt>
      <trkpt lat="48.07313" lon="-0.77642">
        <ele>76</ele>
        <time>2026-05-11T18:39:09+00:00</time>
      </trkpt>
      <trkpt lat="48.07285" lon="-0.77643">
        <ele>73</ele>
        <time>2026-05-11T18:39:10+00:00</time>
      </trkpt>
      <trkpt lat="48.07247" lon="-0.77649">
        <ele>70</ele>
        <time>2026-05-11T18:39:11+00:00</time>
      </trkpt>
      <trkpt lat="48.07267" lon="-0.77698">
        <ele>72</ele>
        <time>2026-05-11T18:39:12+00:00</time>
      </trkpt>
      <trkpt lat="48.07269" lon="-0.77717">
        <ele>72</ele>
        <time>2026-05-11T18:39:13+00:00</time>
      </trkpt>
      <trkpt lat="48.07245" lon="-0.77734">
        <ele>71</ele>
        <time>2026-05-11T18:39:14+00:00</time>
      </trkpt>
      <trkpt lat="48.0721" lon="-0.77751">
        <ele>66</ele>
        <time>2026-05-11T18:39:15+00:00</time>
      </trkpt>
      <trkpt lat="48.07191" lon="-0.77754">
        <ele>63</ele>
        <time>2026-05-11T18:39:16+00:00</time>
      </trkpt>
      <trkpt lat="48.07156" lon="-0.77745">
        <ele>59</ele>
        <time>2026-05-11T18:39:17+00:00</time>
      </trkpt>
      <trkpt lat="48.07137" lon="-0.7777">
        <ele>59</ele>
        <time>2026-05-11T18:39:18+00:00</time>
      </trkpt>
      <trkpt lat="48.07097" lon="-0.77712">
        <ele>58</ele>
        <time>2026-05-11T18:39:19+00:00</time>
      </trkpt>
      <trkpt lat="48.07091" lon="-0.77693">
        <ele>58</ele>
        <time>2026-05-11T18:39:20+00:00</time>
      </trkpt>
      <trkpt lat="48.07114" lon="-0.77677">
        <ele>59</ele>
        <time>2026-05-11T18:39:21+00:00</time>
      </trkpt>
      <trkpt lat="48.07115" lon="-0.77625">
        <ele>58</ele>
        <time>2026-05-11T18:39:22+00:00</time>
      </trkpt>
      <trkpt lat="48.0719" lon="-0.77611">
        <ele>63</ele>
        <time>2026-05-11T18:39:23+00:00</time>
      </trkpt>
      <trkpt lat="48.07194" lon="-0.77637">
        <ele>64</ele>
        <time>2026-05-11T18:39:24+00:00</time>
      </trkpt>
      <trkpt lat="48.07237" lon="-0.77623">
        <ele>69</ele>
        <time>2026-05-11T18:39:25+00:00</time>
      </trkpt>
      <trkpt lat="48.07228" lon="-0.77567">
        <ele>68</ele>
        <time>2026-05-11T18:39:26+00:00</time>
      </trkpt>
      <trkpt lat="48.07234" lon="-0.77559">
        <ele>69</ele>
        <time>2026-05-11T18:39:27+00:00</time>
      </trkpt>
      <trkpt lat="48.07231" lon="-0.7753">
        <ele>68</ele>
        <time>2026-05-11T18:39:28+00:00</time>
      </trkpt>
      <trkpt lat="48.07253" lon="-0.77522">
        <ele>71</ele>
        <time>2026-05-11T18:39:29+00:00</time>
      </trkpt>
      <trkpt lat="48.07254" lon="-0.77498">
        <ele>71</ele>
        <time>2026-05-11T18:39:30+00:00</time>
      </trkpt>
      <trkpt lat="48.07246" lon="-0.77484">
        <ele>69</ele>
        <time>2026-05-11T18:39:31+00:00</time>
      </trkpt>
      <trkpt lat="48.07214" lon="-0.77484">
        <ele>65</ele>
        <time>2026-05-11T18:39:32+00:00</time>
      </trkpt>
      <trkpt lat="48.07208" lon="-0.77435">
        <ele>62</ele>
        <time>2026-05-11T18:39:33+00:00</time>
      </trkpt>
      <trkpt lat="48.07186" lon="-0.77434">
        <ele>59</ele>
        <time>2026-05-11T18:39:34+00:00</time>
      </trkpt>
      <trkpt lat="48.07143" lon="-0.7745">
        <ele>56</ele>
        <time>2026-05-11T18:39:35+00:00</time>
      </trkpt>
      <trkpt lat="48.07117" lon="-0.77471">
        <ele>56</ele>
        <time>2026-05-11T18:39:36+00:00</time>
      </trkpt>
      <trkpt lat="48.07078" lon="-0.77469">
        <ele>55</ele>
        <time>2026-05-11T18:39:37+00:00</time>
      </trkpt>
      <trkpt lat="48.07072" lon="-0.77454">
        <ele>55</ele>
        <time>2026-05-11T18:39:38+00:00</time>
      </trkpt>
      <trkpt lat="48.07063" lon="-0.77455">
        <ele>56</ele>
        <time>2026-05-11T18:39:39+00:00</time>
      </trkpt>
      <trkpt lat="48.07052" lon="-0.77552">
        <ele>57</ele>
        <time>2026-05-11T18:39:40+00:00</time>
      </trkpt>
      <trkpt lat="48.07013" lon="-0.77569">
        <ele>59</ele>
        <time>2026-05-11T18:39:41+00:00</time>
      </trkpt>
      <trkpt lat="48.06981" lon="-0.77566">
        <ele>61</ele>
        <time>2026-05-11T18:39:42+00:00</time>
      </trkpt>
      <trkpt lat="48.06966" lon="-0.77548">
        <ele>63</ele>
        <time>2026-05-11T18:39:43+00:00</time>
      </trkpt>
      <trkpt lat="48.0698" lon="-0.7753">
        <ele>62</ele>
        <time>2026-05-11T18:39:44+00:00</time>
      </trkpt>
      <trkpt lat="48.07002" lon="-0.77462">
        <ele>60</ele>
        <time>2026-05-11T18:39:45+00:00</time>
      </trkpt>
      <trkpt lat="48.07012" lon="-0.77419">
        <ele>60</ele>
        <time>2026-05-11T18:39:46+00:00</time>
      </trkpt>
      <trkpt lat="48.07032" lon="-0.77404">
        <ele>58</ele>
        <time>2026-05-11T18:39:47+00:00</time>
      </trkpt>
      <trkpt lat="48.07046" lon="-0.7733">
        <ele>57</ele>
        <time>2026-05-11T18:39:48+00:00</time>
      </trkpt>
      <trkpt lat="48.07026" lon="-0.7732">
        <ele>59</ele>
        <time>2026-05-11T18:39:49+00:00</time>
      </trkpt>
      <trkpt lat="48.07016" lon="-0.77331">
        <ele>61</ele>
        <time>2026-05-11T18:39:50+00:00</time>
      </trkpt>
      <trkpt lat="48.06986" lon="-0.77331">
        <ele>64</ele>
        <time>2026-05-11T18:39:51+00:00</time>
      </trkpt>
      <trkpt lat="48.0698" lon="-0.77351">
        <ele>64</ele>
        <time>2026-05-11T18:39:52+00:00</time>
      </trkpt>
      <trkpt lat="48.0697" lon="-0.77355">
        <ele>65</ele>
        <time>2026-05-11T18:39:53+00:00</time>
      </trkpt>
      <trkpt lat="48.06963" lon="-0.77377">
        <ele>65</ele>
        <time>2026-05-11T18:39:54+00:00</time>
      </trkpt>
      <trkpt lat="48.0694" lon="-0.77368">
        <ele>68</ele>
        <time>2026-05-11T18:39:55+00:00</time>
      </trkpt>
      <trkpt lat="48.06889" lon="-0.77269">
        <ele>71</ele>
        <time>2026-05-11T18:39:56+00:00</time>
      </trkpt>
      <trkpt lat="48.06879" lon="-0.77242">
        <ele>71</ele>
        <time>2026-05-11T18:39:57+00:00</time>
      </trkpt>
      <trkpt lat="48.06869" lon="-0.77243">
        <ele>72</ele>
        <time>2026-05-11T18:39:58+00:00</time>
      </trkpt>
      <trkpt lat="48.06831" lon="-0.77329">
        <ele>80</ele>
        <time>2026-05-11T18:39:59+00:00</time>
      </trkpt>
      <trkpt lat="48.06812" lon="-0.77322">
        <ele>80</ele>
        <time>2026-05-11T18:40:00+00:00</time>
      </trkpt>
      <trkpt lat="48.068" lon="-0.77311">
        <ele>80</ele>
        <time>2026-05-11T18:40:01+00:00</time>
      </trkpt>
      <trkpt lat="48.0679" lon="-0.77277">
        <ele>80</ele>
        <time>2026-05-11T18:40:02+00:00</time>
      </trkpt>
      <trkpt lat="48.0679" lon="-0.7725">
        <ele>79</ele>
        <time>2026-05-11T18:40:03+00:00</time>
      </trkpt>
      <trkpt lat="48.06806" lon="-0.77217">
        <ele>76</ele>
        <time>2026-05-11T18:40:04+00:00</time>
      </trkpt>
      <trkpt lat="48.06863" lon="-0.77208">
        <ele>70</ele>
        <time>2026-05-11T18:40:05+00:00</time>
      </trkpt>
      <trkpt lat="48.06877" lon="-0.77187">
        <ele>68</ele>
        <time>2026-05-11T18:40:06+00:00</time>
      </trkpt>
      <trkpt lat="48.06892" lon="-0.77216">
        <ele>68</ele>
        <time>2026-05-11T18:40:07+00:00</time>
      </trkpt>
      <trkpt lat="48.06915" lon="-0.77199">
        <ele>65</ele>
        <time>2026-05-11T18:40:08+00:00</time>
      </trkpt>
      <trkpt lat="48.0693" lon="-0.77199">
        <ele>63</ele>
        <time>2026-05-11T18:40:09+00:00</time>
      </trkpt>
      <trkpt lat="48.0694" lon="-0.77235">
        <ele>64</ele>
        <time>2026-05-11T18:40:10+00:00</time>
      </trkpt>
      <trkpt lat="48.06922" lon="-0.77258">
        <ele>67</ele>
        <time>2026-05-11T18:40:11+00:00</time>
      </trkpt>
      <trkpt lat="48.06977" lon="-0.77287">
        <ele>63</ele>
        <time>2026-05-11T18:40:12+00:00</time>
      </trkpt>
      <trkpt lat="48.06948" lon="-0.77182">
        <ele>60</ele>
        <time>2026-05-11T18:40:13+00:00</time>
      </trkpt>
      <trkpt lat="48.06951" lon="-0.77172">
        <ele>60</ele>
        <time>2026-05-11T18:40:14+00:00</time>
      </trkpt>
      <trkpt lat="48.06973" lon="-0.77203">
        <ele>59</ele>
        <time>2026-05-11T18:40:15+00:00</time>
      </trkpt>
      <trkpt lat="48.07016" lon="-0.7724">
        <ele>57</ele>
        <time>2026-05-11T18:40:16+00:00</time>
      </trkpt>
      <trkpt lat="48.07036" lon="-0.77268">
        <ele>57</ele>
        <time>2026-05-11T18:40:17+00:00</time>
      </trkpt>
      <trkpt lat="48.07052" lon="-0.77298">
        <ele>56</ele>
        <time>2026-05-11T18:40:18+00:00</time>
      </trkpt>
      <trkpt lat="48.07057" lon="-0.77303">
        <ele>55</ele>
        <time>2026-05-11T18:40:19+00:00</time>
      </trkpt>
      <trkpt lat="48.07063" lon="-0.77303">
        <ele>55</ele>
        <time>2026-05-11T18:40:20+00:00</time>
      </trkpt>
      <trkpt lat="48.07071" lon="-0.77281">
        <ele>54</ele>
        <time>2026-05-11T18:40:21+00:00</time>
      </trkpt>
      <trkpt lat="48.07074" lon="-0.77194">
        <ele>53</ele>
        <time>2026-05-11T18:40:22+00:00</time>
      </trkpt>
      <trkpt lat="48.0708" lon="-0.77183">
        <ele>53</ele>
        <time>2026-05-11T18:40:23+00:00</time>
      </trkpt>
      <trkpt lat="48.07094" lon="-0.77186">
        <ele>53</ele>
        <time>2026-05-11T18:40:24+00:00</time>
      </trkpt>
      <trkpt lat="48.07122" lon="-0.77221">
        <ele>53</ele>
        <time>2026-05-11T18:40:25+00:00</time>
      </trkpt>
      <trkpt lat="48.07117" lon="-0.77249">
        <ele>53</ele>
        <time>2026-05-11T18:40:26+00:00</time>
      </trkpt>
      <trkpt lat="48.07116" lon="-0.77274">
        <ele>53</ele>
        <time>2026-05-11T18:40:27+00:00</time>
      </trkpt>
      <trkpt lat="48.0713" lon="-0.7731">
        <ele>53</ele>
        <time>2026-05-11T18:40:28+00:00</time>
      </trkpt>
      <trkpt lat="48.07131" lon="-0.77336">
        <ele>53</ele>
        <time>2026-05-11T18:40:29+00:00</time>
      </trkpt>
      <trkpt lat="48.07119" lon="-0.77363">
        <ele>53</ele>
        <time>2026-05-11T18:40:30+00:00</time>
      </trkpt>
      <trkpt lat="48.07157" lon="-0.77388">
        <ele>55</ele>
        <time>2026-05-11T18:40:31+00:00</time>
      </trkpt>
      <trkpt lat="48.07185" lon="-0.7741">
        <ele>59</ele>
        <time>2026-05-11T18:40:32+00:00</time>
      </trkpt>
      <trkpt lat="48.07211" lon="-0.77417">
        <ele>62</ele>
        <time>2026-05-11T18:40:33+00:00</time>
      </trkpt>
      <trkpt lat="48.07264" lon="-0.77416">
        <ele>67</ele>
        <time>2026-05-11T18:40:34+00:00</time>
      </trkpt>
      <trkpt lat="48.07281" lon="-0.77413">
        <ele>68</ele>
        <time>2026-05-11T18:40:35+00:00</time>
      </trkpt>
      <trkpt lat="48.07352" lon="-0.77409">
        <ele>72</ele>
        <time>2026-05-11T18:40:36+00:00</time>
      </trkpt>
      <trkpt lat="48.07405" lon="-0.77415">
        <ele>78</ele>
        <time>2026-05-11T18:40:37+00:00</time>
      </trkpt>
      <trkpt lat="48.07414" lon="-0.774">
        <ele>77</ele>
        <time>2026-05-11T18:40:38+00:00</time>
      </trkpt>
      <trkpt lat="48.07427" lon="-0.77385">
        <ele>75</ele>
        <time>2026-05-11T18:40:39+00:00</time>
      </trkpt>
      <trkpt lat="48.07452" lon="-0.77368">
        <ele>74</ele>
        <time>2026-05-11T18:40:40+00:00</time>
      </trkpt>
      <trkpt lat="48.07574" lon="-0.77368">
        <ele>78</ele>
        <time>2026-05-11T18:40:41+00:00</time>
      </trkpt>
      <trkpt lat="48.07582" lon="-0.77311">
        <ele>73</ele>
        <time>2026-05-11T18:40:42+00:00</time>
      </trkpt>
      <trkpt lat="48.07592" lon="-0.77275">
        <ele>69</ele>
        <time>2026-05-11T18:40:43+00:00</time>
      </trkpt>
      <trkpt lat="48.07594" lon="-0.77255">
        <ele>67</ele>
        <time>2026-05-11T18:40:44+00:00</time>
      </trkpt>
      <trkpt lat="48.07565" lon="-0.77246">
        <ele>65</ele>
        <time>2026-05-11T18:40:45+00:00</time>
      </trkpt>
      <trkpt lat="48.07552" lon="-0.77245">
        <ele>64</ele>
        <time>2026-05-11T18:40:46+00:00</time>
      </trkpt>
      <trkpt lat="48.0753" lon="-0.77248">
        <ele>64</ele>
        <time>2026-05-11T18:40:47+00:00</time>
      </trkpt>
      <trkpt lat="48.07486" lon="-0.7726">
        <ele>63</ele>
        <time>2026-05-11T18:40:48+00:00</time>
      </trkpt>
      <trkpt lat="48.07459" lon="-0.77263">
        <ele>61</ele>
        <time>2026-05-11T18:40:49+00:00</time>
      </trkpt>
      <trkpt lat="48.07444" lon="-0.7727">
        <ele>61</ele>
        <time>2026-05-11T18:40:50+00:00</time>
      </trkpt>
      <trkpt lat="48.07391" lon="-0.77274">
        <ele>58</ele>
        <time>2026-05-11T18:40:51+00:00</time>
      </trkpt>
      <trkpt lat="48.07385" lon="-0.77236">
        <ele>54</ele>
        <time>2026-05-11T18:40:52+00:00</time>
      </trkpt>
      <trkpt lat="48.07486" lon="-0.77148">
        <ele>51</ele>
        <time>2026-05-11T18:40:53+00:00</time>
      </trkpt>
      <trkpt lat="48.07535" lon="-0.77126">
        <ele>50</ele>
        <time>2026-05-11T18:40:54+00:00</time>
      </trkpt>
    </trkseg>
  </trk>
</gpx>
