<?xml version="1.0" encoding="UTF-8"?>
<gpx xmlns="http://www.topografix.com/GPX/1/1" xmlns:xsi="http://www.w3.org/2001/XMLSchema-instance" version="1.1" creator="phpGPX/1.3.0" xsi:schemaLocation="http://www.topografix.com/GPX/1/1 http://www.topografix.com/GPX/1/1/gpx.xsd">
  <metadata>
    <time>2026-05-11T18:33:05+00:00</time>
  </metadata>
  <trk>
    <name>Trail de la Chapelle</name>
    <trkseg>
      <trkpt lat="46.87051" lon="-1.01063">
        <ele>102</ele>
        <time>2026-05-11T18:33:06+00:00</time>
      </trkpt>
      <trkpt lat="46.87077" lon="-1.01056">
        <ele>102</ele>
        <time>2026-05-11T18:33:07+00:00</time>
      </trkpt>
      <trkpt lat="46.87114" lon="-1.01046">
        <ele>102</ele>
        <time>2026-05-11T18:33:08+00:00</time>
      </trkpt>
      <trkpt lat="46.87143" lon="-1.01017">
        <ele>102</ele>
        <time>2026-05-11T18:33:09+00:00</time>
      </trkpt>
      <trkpt lat="46.87169" lon="-1.01012">
        <ele>102</ele>
        <time>2026-05-11T18:33:10+00:00</time>
      </trkpt>
      <trkpt lat="46.87195" lon="-1.01009">
        <ele>105</ele>
        <time>2026-05-11T18:33:11+00:00</time>
      </trkpt>
      <trkpt lat="46.87221" lon="-1.01007">
        <ele>107</ele>
        <time>2026-05-11T18:33:12+00:00</time>
      </trkpt>
      <trkpt lat="46.87229" lon="-1.01008">
        <ele>108</ele>
        <time>2026-05-11T18:33:13+00:00</time>
      </trkpt>
      <trkpt lat="46.87237" lon="-1.01012">
        <ele>109</ele>
        <time>2026-05-11T18:33:14+00:00</time>
      </trkpt>
      <trkpt lat="46.87253" lon="-1.01011">
        <ele>110</ele>
        <time>2026-05-11T18:33:15+00:00</time>
      </trkpt>
      <trkpt lat="46.87266" lon="-1.0101">
        <ele>111</ele>
        <time>2026-05-11T18:33:16+00:00</time>
      </trkpt>
      <trkpt lat="46.87277" lon="-1.0101">
        <ele>112</ele>
        <time>2026-05-11T18:33:17+00:00</time>
      </trkpt>
      <trkpt lat="46.87282" lon="-1.00996">
        <ele>113</ele>
        <time>2026-05-11T18:33:18+00:00</time>
      </trkpt>
      <trkpt lat="46.87286" lon="-1.00988">
        <ele>114</ele>
        <time>2026-05-11T18:33:19+00:00</time>
      </trkpt>
      <trkpt lat="46.8729" lon="-1.00987">
        <ele>114</ele>
        <time>2026-05-11T18:33:20+00:00</time>
      </trkpt>
      <trkpt lat="46.87308" lon="-1.00978">
        <ele>116</ele>
        <time>2026-05-11T18:33:21+00:00</time>
      </trkpt>
      <trkpt lat="46.87333" lon="-1.00964">
        <ele>120</ele>
        <time>2026-05-11T18:33:22+00:00</time>
      </trkpt>
      <trkpt lat="46.87352" lon="-1.00952">
        <ele>123</ele>
        <time>2026-05-11T18:33:23+00:00</time>
      </trkpt>
      <trkpt lat="46.87402" lon="-1.00941">
        <ele>127</ele>
        <time>2026-05-11T18:33:24+00:00</time>
      </trkpt>
      <trkpt lat="46.87428" lon="-1.00929">
        <ele>130</ele>
        <time>2026-05-11T18:33:25+00:00</time>
      </trkpt>
      <trkpt lat="46.87453" lon="-1.00916">
        <ele>132</ele>
        <time>2026-05-11T18:33:26+00:00</time>
      </trkpt>
      <trkpt lat="46.87469" lon="-1.00908">
        <ele>134</ele>
        <time>2026-05-11T18:33:27+00:00</time>
      </trkpt>
      <trkpt lat="46.8749" lon="-1.00905">
        <ele>135</ele>
        <time>2026-05-11T18:33:28+00:00</time>
      </trkpt>
      <trkpt lat="46.87502" lon="-1.00906">
        <ele>136</ele>
        <time>2026-05-11T18:33:29+00:00</time>
      </trkpt>
      <trkpt lat="46.87527" lon="-1.00982">
        <ele>133</ele>
        <time>2026-05-11T18:33:30+00:00</time>
      </trkpt>
      <trkpt lat="46.87534" lon="-1.01002">
        <ele>132</ele>
        <time>2026-05-11T18:33:31+00:00</time>
      </trkpt>
      <trkpt lat="46.87541" lon="-1.01007">
        <ele>132</ele>
        <time>2026-05-11T18:33:32+00:00</time>
      </trkpt>
      <trkpt lat="46.87547" lon="-1.01005">
        <ele>132</ele>
        <time>2026-05-11T18:33:33+00:00</time>
      </trkpt>
      <trkpt lat="46.87554" lon="-1.01004">
        <ele>132</ele>
        <time>2026-05-11T18:33:34+00:00</time>
      </trkpt>
      <trkpt lat="46.87565" lon="-1.00999">
        <ele>133</ele>
        <time>2026-05-11T18:33:35+00:00</time>
      </trkpt>
      <trkpt lat="46.87573" lon="-1.00996">
        <ele>134</ele>
        <time>2026-05-11T18:33:36+00:00</time>
      </trkpt>
      <trkpt lat="46.8758" lon="-1.00992">
        <ele>135</ele>
        <time>2026-05-11T18:33:37+00:00</time>
      </trkpt>
      <trkpt lat="46.87605" lon="-1.00976">
        <ele>136</ele>
        <time>2026-05-11T18:33:38+00:00</time>
      </trkpt>
      <trkpt lat="46.87625" lon="-1.00961">
        <ele>137</ele>
        <time>2026-05-11T18:33:39+00:00</time>
      </trkpt>
      <trkpt lat="46.87633" lon="-1.00954">
        <ele>137</ele>
        <time>2026-05-11T18:33:40+00:00</time>
      </trkpt>
      <trkpt lat="46.87636" lon="-1.00956">
        <ele>137</ele>
        <time>2026-05-11T18:33:41+00:00</time>
      </trkpt>
      <trkpt lat="46.87637" lon="-1.0096">
        <ele>136</ele>
        <time>2026-05-11T18:33:42+00:00</time>
      </trkpt>
      <trkpt lat="46.87638" lon="-1.00966">
        <ele>136</ele>
        <time>2026-05-11T18:33:43+00:00</time>
      </trkpt>
      <trkpt lat="46.8764" lon="-1.00973">
        <ele>135</ele>
        <time>2026-05-11T18:33:44+00:00</time>
      </trkpt>
      <trkpt lat="46.87648" lon="-1.00988">
        <ele>133</ele>
        <time>2026-05-11T18:33:45+00:00</time>
      </trkpt>
      <trkpt lat="46.87652" lon="-1.00997">
        <ele>133</ele>
        <time>2026-05-11T18:33:46+00:00</time>
      </trkpt>
      <trkpt lat="46.87659" lon="-1.01033">
        <ele>131</ele>
        <time>2026-05-11T18:33:47+00:00</time>
      </trkpt>
      <trkpt lat="46.87677" lon="-1.011">
        <ele>129</ele>
        <time>2026-05-11T18:33:48+00:00</time>
      </trkpt>
      <trkpt lat="46.87684" lon="-1.01123">
        <ele>128</ele>
        <time>2026-05-11T18:33:49+00:00</time>
      </trkpt>
      <trkpt lat="46.87688" lon="-1.01143">
        <ele>128</ele>
        <time>2026-05-11T18:33:50+00:00</time>
      </trkpt>
      <trkpt lat="46.87707" lon="-1.01209">
        <ele>127</ele>
        <time>2026-05-11T18:33:51+00:00</time>
      </trkpt>
      <trkpt lat="46.8771" lon="-1.01226">
        <ele>127</ele>
        <time>2026-05-11T18:33:52+00:00</time>
      </trkpt>
      <trkpt lat="46.8772" lon="-1.01266">
        <ele>126</ele>
        <time>2026-05-11T18:33:53+00:00</time>
      </trkpt>
      <trkpt lat="46.87721" lon="-1.01283">
        <ele>126</ele>
        <time>2026-05-11T18:33:54+00:00</time>
      </trkpt>
      <trkpt lat="46.87726" lon="-1.01289">
        <ele>126</ele>
        <time>2026-05-11T18:33:55+00:00</time>
      </trkpt>
      <trkpt lat="46.87726" lon="-1.01299">
        <ele>126</ele>
        <time>2026-05-11T18:33:56+00:00</time>
      </trkpt>
      <trkpt lat="46.87724" lon="-1.0131">
        <ele>126</ele>
        <time>2026-05-11T18:33:57+00:00</time>
      </trkpt>
      <trkpt lat="46.87732" lon="-1.01314">
        <ele>125</ele>
        <time>2026-05-11T18:33:58+00:00</time>
      </trkpt>
      <trkpt lat="46.87736" lon="-1.01325">
        <ele>125</ele>
        <time>2026-05-11T18:33:59+00:00</time>
      </trkpt>
      <trkpt lat="46.87742" lon="-1.01335">
        <ele>125</ele>
        <time>2026-05-11T18:34:00+00:00</time>
      </trkpt>
      <trkpt lat="46.87744" lon="-1.01349">
        <ele>125</ele>
        <time>2026-05-11T18:34:01+00:00</time>
      </trkpt>
      <trkpt lat="46.87753" lon="-1.01347">
        <ele>125</ele>
        <time>2026-05-11T18:34:02+00:00</time>
      </trkpt>
      <trkpt lat="46.87758" lon="-1.01351">
        <ele>125</ele>
        <time>2026-05-11T18:34:03+00:00</time>
      </trkpt>
      <trkpt lat="46.8776" lon="-1.01365">
        <ele>124</ele>
        <time>2026-05-11T18:34:04+00:00</time>
      </trkpt>
      <trkpt lat="46.87769" lon="-1.01424">
        <ele>123</ele>
        <time>2026-05-11T18:34:05+00:00</time>
      </trkpt>
      <trkpt lat="46.87774" lon="-1.01494">
        <ele>122</ele>
        <time>2026-05-11T18:34:06+00:00</time>
      </trkpt>
      <trkpt lat="46.87772" lon="-1.01505">
        <ele>121</ele>
        <time>2026-05-11T18:34:07+00:00</time>
      </trkpt>
      <trkpt lat="46.87779" lon="-1.01531">
        <ele>121</ele>
        <time>2026-05-11T18:34:08+00:00</time>
      </trkpt>
      <trkpt lat="46.87785" lon="-1.01536">
        <ele>122</ele>
        <time>2026-05-11T18:34:09+00:00</time>
      </trkpt>
      <trkpt lat="46.87824" lon="-1.01546">
        <ele>123</ele>
        <time>2026-05-11T18:34:10+00:00</time>
      </trkpt>
      <trkpt lat="46.8785" lon="-1.01553">
        <ele>124</ele>
        <time>2026-05-11T18:34:11+00:00</time>
      </trkpt>
      <trkpt lat="46.87879" lon="-1.0156">
        <ele>126</ele>
        <time>2026-05-11T18:34:12+00:00</time>
      </trkpt>
      <trkpt lat="46.8788" lon="-1.01554">
        <ele>126</ele>
        <time>2026-05-11T18:34:13+00:00</time>
      </trkpt>
      <trkpt lat="46.87877" lon="-1.01544">
        <ele>125</ele>
        <time>2026-05-11T18:34:14+00:00</time>
      </trkpt>
      <trkpt lat="46.87875" lon="-1.01533">
        <ele>125</ele>
        <time>2026-05-11T18:34:15+00:00</time>
      </trkpt>
      <trkpt lat="46.87872" lon="-1.01525">
        <ele>125</ele>
        <time>2026-05-11T18:34:16+00:00</time>
      </trkpt>
      <trkpt lat="46.87883" lon="-1.01499">
        <ele>125</ele>
        <time>2026-05-11T18:34:17+00:00</time>
      </trkpt>
      <trkpt lat="46.8789" lon="-1.01485">
        <ele>126</ele>
        <time>2026-05-11T18:34:18+00:00</time>
      </trkpt>
      <trkpt lat="46.87898" lon="-1.01462">
        <ele>126</ele>
        <time>2026-05-11T18:34:19+00:00</time>
      </trkpt>
      <trkpt lat="46.87901" lon="-1.01452">
        <ele>126</ele>
        <time>2026-05-11T18:34:20+00:00</time>
      </trkpt>
      <trkpt lat="46.87904" lon="-1.0144">
        <ele>126</ele>
        <time>2026-05-11T18:34:21+00:00</time>
      </trkpt>
      <trkpt lat="46.87908" lon="-1.01429">
        <ele>127</ele>
        <time>2026-05-11T18:34:22+00:00</time>
      </trkpt>
      <trkpt lat="46.87916" lon="-1.01418">
        <ele>127</ele>
        <time>2026-05-11T18:34:23+00:00</time>
      </trkpt>
      <trkpt lat="46.87919" lon="-1.01412">
        <ele>127</ele>
        <time>2026-05-11T18:34:24+00:00</time>
      </trkpt>
      <trkpt lat="46.87935" lon="-1.01396">
        <ele>129</ele>
        <time>2026-05-11T18:34:25+00:00</time>
      </trkpt>
      <trkpt lat="46.87939" lon="-1.01376">
        <ele>130</ele>
        <time>2026-05-11T18:34:26+00:00</time>
      </trkpt>
      <trkpt lat="46.87937" lon="-1.01348">
        <ele>130</ele>
        <time>2026-05-11T18:34:27+00:00</time>
      </trkpt>
      <trkpt lat="46.87937" lon="-1.01328">
        <ele>131</ele>
        <time>2026-05-11T18:34:28+00:00</time>
      </trkpt>
      <trkpt lat="46.87947" lon="-1.01321">
        <ele>131</ele>
        <time>2026-05-11T18:34:29+00:00</time>
      </trkpt>
      <trkpt lat="46.87955" lon="-1.0132">
        <ele>132</ele>
        <time>2026-05-11T18:34:30+00:00</time>
      </trkpt>
      <trkpt lat="46.87964" lon="-1.0132">
        <ele>132</ele>
        <time>2026-05-11T18:34:31+00:00</time>
      </trkpt>
      <trkpt lat="46.87975" lon="-1.01318">
        <ele>133</ele>
        <time>2026-05-11T18:34:32+00:00</time>
      </trkpt>
      <trkpt lat="46.87982" lon="-1.01318">
        <ele>133</ele>
        <time>2026-05-11T18:34:33+00:00</time>
      </trkpt>
      <trkpt lat="46.87993" lon="-1.01316">
        <ele>133</ele>
        <time>2026-05-11T18:34:34+00:00</time>
      </trkpt>
      <trkpt lat="46.88001" lon="-1.01317">
        <ele>134</ele>
        <time>2026-05-11T18:34:35+00:00</time>
      </trkpt>
      <trkpt lat="46.88009" lon="-1.01316">
        <ele>134</ele>
        <time>2026-05-11T18:34:36+00:00</time>
      </trkpt>
      <trkpt lat="46.88018" lon="-1.01316">
        <ele>135</ele>
        <time>2026-05-11T18:34:37+00:00</time>
      </trkpt>
      <trkpt lat="46.88032" lon="-1.01317">
        <ele>135</ele>
        <time>2026-05-11T18:34:38+00:00</time>
      </trkpt>
      <trkpt lat="46.88039" lon="-1.01315">
        <ele>136</ele>
        <time>2026-05-11T18:34:39+00:00</time>
      </trkpt>
      <trkpt lat="46.88057" lon="-1.01305">
        <ele>137</ele>
        <time>2026-05-11T18:34:40+00:00</time>
      </trkpt>
      <trkpt lat="46.88073" lon="-1.01293">
        <ele>138</ele>
        <time>2026-05-11T18:34:41+00:00</time>
      </trkpt>
      <trkpt lat="46.88118" lon="-1.01257">
        <ele>139</ele>
        <time>2026-05-11T18:34:42+00:00</time>
      </trkpt>
      <trkpt lat="46.88131" lon="-1.01246">
        <ele>140</ele>
        <time>2026-05-11T18:34:43+00:00</time>
      </trkpt>
      <trkpt lat="46.88142" lon="-1.01234">
        <ele>140</ele>
        <time>2026-05-11T18:34:44+00:00</time>
      </trkpt>
      <trkpt lat="46.88169" lon="-1.0122">
        <ele>141</ele>
        <time>2026-05-11T18:34:45+00:00</time>
      </trkpt>
      <trkpt lat="46.88172" lon="-1.01227">
        <ele>141</ele>
        <time>2026-05-11T18:34:46+00:00</time>
      </trkpt>
      <trkpt lat="46.88178" lon="-1.0123">
        <ele>142</ele>
        <time>2026-05-11T18:34:47+00:00</time>
      </trkpt>
      <trkpt lat="46.88177" lon="-1.0124">
        <ele>141</ele>
        <time>2026-05-11T18:34:48+00:00</time>
      </trkpt>
      <trkpt lat="46.88176" lon="-1.01245">
        <ele>141</ele>
        <time>2026-05-11T18:34:49+00:00</time>
      </trkpt>
      <trkpt lat="46.88167" lon="-1.01268">
        <ele>141</ele>
        <time>2026-05-11T18:34:50+00:00</time>
      </trkpt>
      <trkpt lat="46.88162" lon="-1.01277">
        <ele>141</ele>
        <time>2026-05-11T18:34:51+00:00</time>
      </trkpt>
      <trkpt lat="46.88147" lon="-1.01288">
        <ele>141</ele>
        <time>2026-05-11T18:34:52+00:00</time>
      </trkpt>
      <trkpt lat="46.88132" lon="-1.01303">
        <ele>140</ele>
        <time>2026-05-11T18:34:53+00:00</time>
      </trkpt>
      <trkpt lat="46.88126" lon="-1.01313">
        <ele>140</ele>
        <time>2026-05-11T18:34:54+00:00</time>
      </trkpt>
      <trkpt lat="46.88121" lon="-1.01317">
        <ele>140</ele>
        <time>2026-05-11T18:34:55+00:00</time>
      </trkpt>
      <trkpt lat="46.88128" lon="-1.01323">
        <ele>140</ele>
        <time>2026-05-11T18:34:56+00:00</time>
      </trkpt>
      <trkpt lat="46.8813" lon="-1.01329">
        <ele>140</ele>
        <time>2026-05-11T18:34:57+00:00</time>
      </trkpt>
      <trkpt lat="46.88131" lon="-1.0134">
        <ele>140</ele>
        <time>2026-05-11T18:34:58+00:00</time>
      </trkpt>
      <trkpt lat="46.88138" lon="-1.01372">
        <ele>141</ele>
        <time>2026-05-11T18:34:59+00:00</time>
      </trkpt>
      <trkpt lat="46.88155" lon="-1.01414">
        <ele>142</ele>
        <time>2026-05-11T18:35:00+00:00</time>
      </trkpt>
      <trkpt lat="46.88158" lon="-1.01431">
        <ele>143</ele>
        <time>2026-05-11T18:35:01+00:00</time>
      </trkpt>
      <trkpt lat="46.8816" lon="-1.0145">
        <ele>143</ele>
        <time>2026-05-11T18:35:02+00:00</time>
      </trkpt>
      <trkpt lat="46.88159" lon="-1.01466">
        <ele>143</ele>
        <time>2026-05-11T18:35:03+00:00</time>
      </trkpt>
      <trkpt lat="46.88158" lon="-1.01483">
        <ele>143</ele>
        <time>2026-05-11T18:35:04+00:00</time>
      </trkpt>
      <trkpt lat="46.88168" lon="-1.01514">
        <ele>144</ele>
        <time>2026-05-11T18:35:05+00:00</time>
      </trkpt>
      <trkpt lat="46.88171" lon="-1.01525">
        <ele>144</ele>
        <time>2026-05-11T18:35:06+00:00</time>
      </trkpt>
      <trkpt lat="46.88182" lon="-1.0154">
        <ele>144</ele>
        <time>2026-05-11T18:35:07+00:00</time>
      </trkpt>
      <trkpt lat="46.88193" lon="-1.01554">
        <ele>144</ele>
        <time>2026-05-11T18:35:08+00:00</time>
      </trkpt>
      <trkpt lat="46.88201" lon="-1.01571">
        <ele>144</ele>
        <time>2026-05-11T18:35:09+00:00</time>
      </trkpt>
      <trkpt lat="46.88206" lon="-1.01587">
        <ele>144</ele>
        <time>2026-05-11T18:35:10+00:00</time>
      </trkpt>
      <trkpt lat="46.8821" lon="-1.01618">
        <ele>143</ele>
        <time>2026-05-11T18:35:11+00:00</time>
      </trkpt>
      <trkpt lat="46.8821" lon="-1.01632">
        <ele>142</ele>
        <time>2026-05-11T18:35:12+00:00</time>
      </trkpt>
      <trkpt lat="46.88212" lon="-1.01644">
        <ele>142</ele>
        <time>2026-05-11T18:35:13+00:00</time>
      </trkpt>
      <trkpt lat="46.88221" lon="-1.01676">
        <ele>141</ele>
        <time>2026-05-11T18:35:14+00:00</time>
      </trkpt>
      <trkpt lat="46.88228" lon="-1.01695">
        <ele>141</ele>
        <time>2026-05-11T18:35:15+00:00</time>
      </trkpt>
      <trkpt lat="46.88241" lon="-1.0172">
        <ele>142</ele>
        <time>2026-05-11T18:35:16+00:00</time>
      </trkpt>
      <trkpt lat="46.8825" lon="-1.0173">
        <ele>142</ele>
        <time>2026-05-11T18:35:17+00:00</time>
      </trkpt>
      <trkpt lat="46.88257" lon="-1.01735">
        <ele>142</ele>
        <time>2026-05-11T18:35:18+00:00</time>
      </trkpt>
      <trkpt lat="46.88262" lon="-1.01742">
        <ele>142</ele>
        <time>2026-05-11T18:35:19+00:00</time>
      </trkpt>
      <trkpt lat="46.88267" lon="-1.01746">
        <ele>142</ele>
        <time>2026-05-11T18:35:20+00:00</time>
      </trkpt>
      <trkpt lat="46.88268" lon="-1.01749">
        <ele>142</ele>
        <time>2026-05-11T18:35:21+00:00</time>
      </trkpt>
      <trkpt lat="46.88269" lon="-1.01752">
        <ele>142</ele>
        <time>2026-05-11T18:35:22+00:00</time>
      </trkpt>
      <trkpt lat="46.88271" lon="-1.01756">
        <ele>142</ele>
        <time>2026-05-11T18:35:23+00:00</time>
      </trkpt>
      <trkpt lat="46.88268" lon="-1.01773">
        <ele>141</ele>
        <time>2026-05-11T18:35:24+00:00</time>
      </trkpt>
      <trkpt lat="46.88268" lon="-1.0178">
        <ele>141</ele>
        <time>2026-05-11T18:35:25+00:00</time>
      </trkpt>
      <trkpt lat="46.88271" lon="-1.01787">
        <ele>140</ele>
        <time>2026-05-11T18:35:26+00:00</time>
      </trkpt>
      <trkpt lat="46.88274" lon="-1.01791">
        <ele>140</ele>
        <time>2026-05-11T18:35:27+00:00</time>
      </trkpt>
      <trkpt lat="46.88278" lon="-1.01795">
        <ele>140</ele>
        <time>2026-05-11T18:35:28+00:00</time>
      </trkpt>
      <trkpt lat="46.88299" lon="-1.01768">
        <ele>142</ele>
        <time>2026-05-11T18:35:29+00:00</time>
      </trkpt>
      <trkpt lat="46.88324" lon="-1.01741">
        <ele>143</ele>
        <time>2026-05-11T18:35:30+00:00</time>
      </trkpt>
      <trkpt lat="46.88338" lon="-1.01722">
        <ele>143</ele>
        <time>2026-05-11T18:35:31+00:00</time>
      </trkpt>
      <trkpt lat="46.88374" lon="-1.01681">
        <ele>144</ele>
        <time>2026-05-11T18:35:32+00:00</time>
      </trkpt>
      <trkpt lat="46.88387" lon="-1.01671">
        <ele>145</ele>
        <time>2026-05-11T18:35:33+00:00</time>
      </trkpt>
      <trkpt lat="46.884" lon="-1.01662">
        <ele>145</ele>
        <time>2026-05-11T18:35:34+00:00</time>
      </trkpt>
      <trkpt lat="46.88421" lon="-1.01643">
        <ele>145</ele>
        <time>2026-05-11T18:35:35+00:00</time>
      </trkpt>
      <trkpt lat="46.88455" lon="-1.01621">
        <ele>147</ele>
        <time>2026-05-11T18:35:36+00:00</time>
      </trkpt>
      <trkpt lat="46.88474" lon="-1.01609">
        <ele>148</ele>
        <time>2026-05-11T18:35:37+00:00</time>
      </trkpt>
      <trkpt lat="46.885" lon="-1.01591">
        <ele>149</ele>
        <time>2026-05-11T18:35:38+00:00</time>
      </trkpt>
      <trkpt lat="46.88517" lon="-1.01581">
        <ele>150</ele>
        <time>2026-05-11T18:35:39+00:00</time>
      </trkpt>
      <trkpt lat="46.88525" lon="-1.01575">
        <ele>151</ele>
        <time>2026-05-11T18:35:40+00:00</time>
      </trkpt>
      <trkpt lat="46.8853" lon="-1.01564">
        <ele>152</ele>
        <time>2026-05-11T18:35:41+00:00</time>
      </trkpt>
      <trkpt lat="46.8853" lon="-1.01549">
        <ele>152</ele>
        <time>2026-05-11T18:35:42+00:00</time>
      </trkpt>
      <trkpt lat="46.88526" lon="-1.01535">
        <ele>153</ele>
        <time>2026-05-11T18:35:43+00:00</time>
      </trkpt>
      <trkpt lat="46.88519" lon="-1.01515">
        <ele>153</ele>
        <time>2026-05-11T18:35:44+00:00</time>
      </trkpt>
      <trkpt lat="46.88517" lon="-1.01503">
        <ele>154</ele>
        <time>2026-05-11T18:35:45+00:00</time>
      </trkpt>
      <trkpt lat="46.88519" lon="-1.01492">
        <ele>154</ele>
        <time>2026-05-11T18:35:46+00:00</time>
      </trkpt>
      <trkpt lat="46.88523" lon="-1.01487">
        <ele>155</ele>
        <time>2026-05-11T18:35:47+00:00</time>
      </trkpt>
      <trkpt lat="46.88538" lon="-1.01475">
        <ele>156</ele>
        <time>2026-05-11T18:35:48+00:00</time>
      </trkpt>
      <trkpt lat="46.88557" lon="-1.01462">
        <ele>157</ele>
        <time>2026-05-11T18:35:49+00:00</time>
      </trkpt>
      <trkpt lat="46.88563" lon="-1.0146">
        <ele>158</ele>
        <time>2026-05-11T18:35:50+00:00</time>
      </trkpt>
      <trkpt lat="46.88586" lon="-1.01446">
        <ele>160</ele>
        <time>2026-05-11T18:35:51+00:00</time>
      </trkpt>
      <trkpt lat="46.88603" lon="-1.01434">
        <ele>161</ele>
        <time>2026-05-11T18:35:52+00:00</time>
      </trkpt>
      <trkpt lat="46.88626" lon="-1.0141">
        <ele>164</ele>
        <time>2026-05-11T18:35:53+00:00</time>
      </trkpt>
      <trkpt lat="46.88639" lon="-1.014">
        <ele>165</ele>
        <time>2026-05-11T18:35:54+00:00</time>
      </trkpt>
      <trkpt lat="46.88646" lon="-1.01369">
        <ele>166</ele>
        <time>2026-05-11T18:35:55+00:00</time>
      </trkpt>
      <trkpt lat="46.88652" lon="-1.01343">
        <ele>167</ele>
        <time>2026-05-11T18:35:56+00:00</time>
      </trkpt>
      <trkpt lat="46.88652" lon="-1.01311">
        <ele>167</ele>
        <time>2026-05-11T18:35:57+00:00</time>
      </trkpt>
      <trkpt lat="46.88655" lon="-1.01292">
        <ele>168</ele>
        <time>2026-05-11T18:35:58+00:00</time>
      </trkpt>
      <trkpt lat="46.88656" lon="-1.01285">
        <ele>168</ele>
        <time>2026-05-11T18:35:59+00:00</time>
      </trkpt>
      <trkpt lat="46.88666" lon="-1.01222">
        <ele>169</ele>
        <time>2026-05-11T18:36:00+00:00</time>
      </trkpt>
      <trkpt lat="46.88672" lon="-1.01183">
        <ele>170</ele>
        <time>2026-05-11T18:36:01+00:00</time>
      </trkpt>
      <trkpt lat="46.88685" lon="-1.01157">
        <ele>172</ele>
        <time>2026-05-11T18:36:02+00:00</time>
      </trkpt>
      <trkpt lat="46.88692" lon="-1.0113">
        <ele>172</ele>
        <time>2026-05-11T18:36:03+00:00</time>
      </trkpt>
      <trkpt lat="46.88695" lon="-1.011">
        <ele>172</ele>
        <time>2026-05-11T18:36:04+00:00</time>
      </trkpt>
      <trkpt lat="46.88696" lon="-1.01088">
        <ele>172</ele>
        <time>2026-05-11T18:36:05+00:00</time>
      </trkpt>
      <trkpt lat="46.887" lon="-1.01082">
        <ele>172</ele>
        <time>2026-05-11T18:36:06+00:00</time>
      </trkpt>
      <trkpt lat="46.88703" lon="-1.01081">
        <ele>173</ele>
        <time>2026-05-11T18:36:07+00:00</time>
      </trkpt>
      <trkpt lat="46.88705" lon="-1.01083">
        <ele>173</ele>
        <time>2026-05-11T18:36:08+00:00</time>
      </trkpt>
      <trkpt lat="46.88712" lon="-1.01091">
        <ele>173</ele>
        <time>2026-05-11T18:36:09+00:00</time>
      </trkpt>
      <trkpt lat="46.88745" lon="-1.01138">
        <ele>176</ele>
        <time>2026-05-11T18:36:10+00:00</time>
      </trkpt>
      <trkpt lat="46.88755" lon="-1.01159">
        <ele>177</ele>
        <time>2026-05-11T18:36:11+00:00</time>
      </trkpt>
      <trkpt lat="46.88774" lon="-1.01178">
        <ele>179</ele>
        <time>2026-05-11T18:36:12+00:00</time>
      </trkpt>
      <trkpt lat="46.88803" lon="-1.01192">
        <ele>180</ele>
        <time>2026-05-11T18:36:13+00:00</time>
      </trkpt>
      <trkpt lat="46.88808" lon="-1.01193">
        <ele>181</ele>
        <time>2026-05-11T18:36:14+00:00</time>
      </trkpt>
      <trkpt lat="46.88813" lon="-1.01195">
        <ele>181</ele>
        <time>2026-05-11T18:36:15+00:00</time>
      </trkpt>
      <trkpt lat="46.8883" lon="-1.01206">
        <ele>182</ele>
        <time>2026-05-11T18:36:16+00:00</time>
      </trkpt>
      <trkpt lat="46.88837" lon="-1.01213">
        <ele>183</ele>
        <time>2026-05-11T18:36:17+00:00</time>
      </trkpt>
      <trkpt lat="46.88843" lon="-1.0123">
        <ele>183</ele>
        <time>2026-05-11T18:36:18+00:00</time>
      </trkpt>
      <trkpt lat="46.88847" lon="-1.01254">
        <ele>184</ele>
        <time>2026-05-11T18:36:19+00:00</time>
      </trkpt>
      <trkpt lat="46.88847" lon="-1.01276">
        <ele>184</ele>
        <time>2026-05-11T18:36:20+00:00</time>
      </trkpt>
      <trkpt lat="46.8885" lon="-1.01287">
        <ele>184</ele>
        <time>2026-05-11T18:36:21+00:00</time>
      </trkpt>
      <trkpt lat="46.88854" lon="-1.013">
        <ele>184</ele>
        <time>2026-05-11T18:36:22+00:00</time>
      </trkpt>
      <trkpt lat="46.88881" lon="-1.01286">
        <ele>185</ele>
        <time>2026-05-11T18:36:23+00:00</time>
      </trkpt>
      <trkpt lat="46.88892" lon="-1.01279">
        <ele>185</ele>
        <time>2026-05-11T18:36:24+00:00</time>
      </trkpt>
      <trkpt lat="46.88962" lon="-1.01243">
        <ele>189</ele>
        <time>2026-05-11T18:36:25+00:00</time>
      </trkpt>
      <trkpt lat="46.89" lon="-1.0122">
        <ele>190</ele>
        <time>2026-05-11T18:36:26+00:00</time>
      </trkpt>
      <trkpt lat="46.89006" lon="-1.01213">
        <ele>190</ele>
        <time>2026-05-11T18:36:27+00:00</time>
      </trkpt>
      <trkpt lat="46.8901" lon="-1.01211">
        <ele>190</ele>
        <time>2026-05-11T18:36:28+00:00</time>
      </trkpt>
      <trkpt lat="46.89019" lon="-1.01205">
        <ele>190</ele>
        <time>2026-05-11T18:36:29+00:00</time>
      </trkpt>
      <trkpt lat="46.89026" lon="-1.012">
        <ele>190</ele>
        <time>2026-05-11T18:36:30+00:00</time>
      </trkpt>
      <trkpt lat="46.89041" lon="-1.01219">
        <ele>191</ele>
        <time>2026-05-11T18:36:31+00:00</time>
      </trkpt>
      <trkpt lat="46.89057" lon="-1.01227">
        <ele>192</ele>
        <time>2026-05-11T18:36:32+00:00</time>
      </trkpt>
      <trkpt lat="46.89063" lon="-1.01226">
        <ele>192</ele>
        <time>2026-05-11T18:36:33+00:00</time>
      </trkpt>
      <trkpt lat="46.89066" lon="-1.01223">
        <ele>192</ele>
        <time>2026-05-11T18:36:34+00:00</time>
      </trkpt>
      <trkpt lat="46.89068" lon="-1.01213">
        <ele>192</ele>
        <time>2026-05-11T18:36:35+00:00</time>
      </trkpt>
      <trkpt lat="46.89071" lon="-1.0121">
        <ele>192</ele>
        <time>2026-05-11T18:36:36+00:00</time>
      </trkpt>
      <trkpt lat="46.89071" lon="-1.012">
        <ele>192</ele>
        <time>2026-05-11T18:36:37+00:00</time>
      </trkpt>
      <trkpt lat="46.8908" lon="-1.01163">
        <ele>191</ele>
        <time>2026-05-11T18:36:38+00:00</time>
      </trkpt>
      <trkpt lat="46.89083" lon="-1.01142">
        <ele>190</ele>
        <time>2026-05-11T18:36:39+00:00</time>
      </trkpt>
      <trkpt lat="46.89086" lon="-1.01135">
        <ele>190</ele>
        <time>2026-05-11T18:36:40+00:00</time>
      </trkpt>
      <trkpt lat="46.89085" lon="-1.01127">
        <ele>189</ele>
        <time>2026-05-11T18:36:41+00:00</time>
      </trkpt>
      <trkpt lat="46.89086" lon="-1.01115">
        <ele>189</ele>
        <time>2026-05-11T18:36:42+00:00</time>
      </trkpt>
      <trkpt lat="46.89082" lon="-1.01093">
        <ele>187</ele>
        <time>2026-05-11T18:36:43+00:00</time>
      </trkpt>
      <trkpt lat="46.89078" lon="-1.0107">
        <ele>187</ele>
        <time>2026-05-11T18:36:44+00:00</time>
      </trkpt>
      <trkpt lat="46.89068" lon="-1.01047">
        <ele>186</ele>
        <time>2026-05-11T18:36:45+00:00</time>
      </trkpt>
      <trkpt lat="46.89045" lon="-1.01003">
        <ele>184</ele>
        <time>2026-05-11T18:36:46+00:00</time>
      </trkpt>
      <trkpt lat="46.89031" lon="-1.00979">
        <ele>183</ele>
        <time>2026-05-11T18:36:47+00:00</time>
      </trkpt>
      <trkpt lat="46.89022" lon="-1.00966">
        <ele>182</ele>
        <time>2026-05-11T18:36:48+00:00</time>
      </trkpt>
      <trkpt lat="46.89011" lon="-1.00958">
        <ele>181</ele>
        <time>2026-05-11T18:36:49+00:00</time>
      </trkpt>
      <trkpt lat="46.89005" lon="-1.0095">
        <ele>180</ele>
        <time>2026-05-11T18:36:50+00:00</time>
      </trkpt>
      <trkpt lat="46.89002" lon="-1.00948">
        <ele>180</ele>
        <time>2026-05-11T18:36:51+00:00</time>
      </trkpt>
      <trkpt lat="46.89" lon="-1.00947">
        <ele>180</ele>
        <time>2026-05-11T18:36:52+00:00</time>
      </trkpt>
      <trkpt lat="46.88997" lon="-1.00944">
        <ele>180</ele>
        <time>2026-05-11T18:36:53+00:00</time>
      </trkpt>
      <trkpt lat="46.88985" lon="-1.00916">
        <ele>179</ele>
        <time>2026-05-11T18:36:54+00:00</time>
      </trkpt>
      <trkpt lat="46.88977" lon="-1.00897">
        <ele>178</ele>
        <time>2026-05-11T18:36:55+00:00</time>
      </trkpt>
      <trkpt lat="46.88971" lon="-1.00883">
        <ele>178</ele>
        <time>2026-05-11T18:36:56+00:00</time>
      </trkpt>
      <trkpt lat="46.88989" lon="-1.00891">
        <ele>179</ele>
        <time>2026-05-11T18:36:57+00:00</time>
      </trkpt>
      <trkpt lat="46.89008" lon="-1.00896">
        <ele>180</ele>
        <time>2026-05-11T18:36:58+00:00</time>
      </trkpt>
      <trkpt lat="46.89021" lon="-1.00898">
        <ele>181</ele>
        <time>2026-05-11T18:36:59+00:00</time>
      </trkpt>
      <trkpt lat="46.89038" lon="-1.00906">
        <ele>182</ele>
        <time>2026-05-11T18:37:00+00:00</time>
      </trkpt>
      <trkpt lat="46.89053" lon="-1.00909">
        <ele>183</ele>
        <time>2026-05-11T18:37:01+00:00</time>
      </trkpt>
      <trkpt lat="46.89059" lon="-1.00914">
        <ele>183</ele>
        <time>2026-05-11T18:37:02+00:00</time>
      </trkpt>
      <trkpt lat="46.89067" lon="-1.00915">
        <ele>184</ele>
        <time>2026-05-11T18:37:03+00:00</time>
      </trkpt>
      <trkpt lat="46.89101" lon="-1.00927">
        <ele>187</ele>
        <time>2026-05-11T18:37:04+00:00</time>
      </trkpt>
      <trkpt lat="46.89134" lon="-1.00921">
        <ele>191</ele>
        <time>2026-05-11T18:37:05+00:00</time>
      </trkpt>
      <trkpt lat="46.89144" lon="-1.00921">
        <ele>192</ele>
        <time>2026-05-11T18:37:06+00:00</time>
      </trkpt>
      <trkpt lat="46.89158" lon="-1.00916">
        <ele>194</ele>
        <time>2026-05-11T18:37:07+00:00</time>
      </trkpt>
      <trkpt lat="46.89197" lon="-1.00913">
        <ele>200</ele>
        <time>2026-05-11T18:37:08+00:00</time>
      </trkpt>
      <trkpt lat="46.89214" lon="-1.00909">
        <ele>203</ele>
        <time>2026-05-11T18:37:09+00:00</time>
      </trkpt>
      <trkpt lat="46.89223" lon="-1.00904">
        <ele>204</ele>
        <time>2026-05-11T18:37:10+00:00</time>
      </trkpt>
      <trkpt lat="46.89241" lon="-1.00893">
        <ele>208</ele>
        <time>2026-05-11T18:37:11+00:00</time>
      </trkpt>
      <trkpt lat="46.89247" lon="-1.00892">
        <ele>209</ele>
        <time>2026-05-11T18:37:12+00:00</time>
      </trkpt>
      <trkpt lat="46.89253" lon="-1.00887">
        <ele>210</ele>
        <time>2026-05-11T18:37:13+00:00</time>
      </trkpt>
      <trkpt lat="46.89254" lon="-1.00874">
        <ele>211</ele>
        <time>2026-05-11T18:37:14+00:00</time>
      </trkpt>
      <trkpt lat="46.89243" lon="-1.00848">
        <ele>210</ele>
        <time>2026-05-11T18:37:15+00:00</time>
      </trkpt>
      <trkpt lat="46.89238" lon="-1.0083">
        <ele>211</ele>
        <time>2026-05-11T18:37:16+00:00</time>
      </trkpt>
      <trkpt lat="46.89229" lon="-1.0078">
        <ele>212</ele>
        <time>2026-05-11T18:37:17+00:00</time>
      </trkpt>
      <trkpt lat="46.89225" lon="-1.00729">
        <ele>213</ele>
        <time>2026-05-11T18:37:18+00:00</time>
      </trkpt>
      <trkpt lat="46.89223" lon="-1.00712">
        <ele>212</ele>
        <time>2026-05-11T18:37:19+00:00</time>
      </trkpt>
      <trkpt lat="46.89224" lon="-1.00703">
        <ele>212</ele>
        <time>2026-05-11T18:37:20+00:00</time>
      </trkpt>
      <trkpt lat="46.89236" lon="-1.00708">
        <ele>214</ele>
        <time>2026-05-11T18:37:21+00:00</time>
      </trkpt>
      <trkpt lat="46.89247" lon="-1.00711">
        <ele>215</ele>
        <time>2026-05-11T18:37:22+00:00</time>
      </trkpt>
      <trkpt lat="46.89275" lon="-1.00722">
        <ele>218</ele>
        <time>2026-05-11T18:37:23+00:00</time>
      </trkpt>
      <trkpt lat="46.89295" lon="-1.00727">
        <ele>220</ele>
        <time>2026-05-11T18:37:24+00:00</time>
      </trkpt>
      <trkpt lat="46.89313" lon="-1.00727">
        <ele>222</ele>
        <time>2026-05-11T18:37:25+00:00</time>
      </trkpt>
      <trkpt lat="46.89346" lon="-1.00717">
        <ele>224</ele>
        <time>2026-05-11T18:37:26+00:00</time>
      </trkpt>
      <trkpt lat="46.89357" lon="-1.00713">
        <ele>225</ele>
        <time>2026-05-11T18:37:27+00:00</time>
      </trkpt>
      <trkpt lat="46.89356" lon="-1.00707">
        <ele>224</ele>
        <time>2026-05-11T18:37:28+00:00</time>
      </trkpt>
      <trkpt lat="46.89352" lon="-1.00697">
        <ele>224</ele>
        <time>2026-05-11T18:37:29+00:00</time>
      </trkpt>
      <trkpt lat="46.89344" lon="-1.00676">
        <ele>223</ele>
        <time>2026-05-11T18:37:30+00:00</time>
      </trkpt>
      <trkpt lat="46.89325" lon="-1.00642">
        <ele>219</ele>
        <time>2026-05-11T18:37:31+00:00</time>
      </trkpt>
      <trkpt lat="46.8931" lon="-1.0062">
        <ele>216</ele>
        <time>2026-05-11T18:37:32+00:00</time>
      </trkpt>
      <trkpt lat="46.89303" lon="-1.00614">
        <ele>215</ele>
        <time>2026-05-11T18:37:33+00:00</time>
      </trkpt>
      <trkpt lat="46.89295" lon="-1.00617">
        <ele>215</ele>
        <time>2026-05-11T18:37:34+00:00</time>
      </trkpt>
      <trkpt lat="46.89267" lon="-1.0059">
        <ele>211</ele>
        <time>2026-05-11T18:37:35+00:00</time>
      </trkpt>
      <trkpt lat="46.89257" lon="-1.0058">
        <ele>209</ele>
        <time>2026-05-11T18:37:36+00:00</time>
      </trkpt>
      <trkpt lat="46.89251" lon="-1.00576">
        <ele>208</ele>
        <time>2026-05-11T18:37:37+00:00</time>
      </trkpt>
      <trkpt lat="46.89244" lon="-1.00533">
        <ele>203</ele>
        <time>2026-05-11T18:37:38+00:00</time>
      </trkpt>
      <trkpt lat="46.89236" lon="-1.00508">
        <ele>200</ele>
        <time>2026-05-11T18:37:39+00:00</time>
      </trkpt>
      <trkpt lat="46.89214" lon="-1.0047">
        <ele>196</ele>
        <time>2026-05-11T18:37:40+00:00</time>
      </trkpt>
      <trkpt lat="46.89209" lon="-1.0047">
        <ele>195</ele>
        <time>2026-05-11T18:37:41+00:00</time>
      </trkpt>
      <trkpt lat="46.892" lon="-1.00476">
        <ele>195</ele>
        <time>2026-05-11T18:37:42+00:00</time>
      </trkpt>
      <trkpt lat="46.89191" lon="-1.0048">
        <ele>194</ele>
        <time>2026-05-11T18:37:43+00:00</time>
      </trkpt>
      <trkpt lat="46.89181" lon="-1.00486">
        <ele>194</ele>
        <time>2026-05-11T18:37:44+00:00</time>
      </trkpt>
      <trkpt lat="46.89164" lon="-1.005">
        <ele>193</ele>
        <time>2026-05-11T18:37:45+00:00</time>
      </trkpt>
      <trkpt lat="46.89149" lon="-1.0052">
        <ele>192</ele>
        <time>2026-05-11T18:37:46+00:00</time>
      </trkpt>
      <trkpt lat="46.89137" lon="-1.0053">
        <ele>191</ele>
        <time>2026-05-11T18:37:47+00:00</time>
      </trkpt>
      <trkpt lat="46.89119" lon="-1.0054">
        <ele>189</ele>
        <time>2026-05-11T18:37:48+00:00</time>
      </trkpt>
      <trkpt lat="46.89111" lon="-1.00545">
        <ele>188</ele>
        <time>2026-05-11T18:37:49+00:00</time>
      </trkpt>
      <trkpt lat="46.89105" lon="-1.00553">
        <ele>188</ele>
        <time>2026-05-11T18:37:50+00:00</time>
      </trkpt>
      <trkpt lat="46.89085" lon="-1.00573">
        <ele>187</ele>
        <time>2026-05-11T18:37:51+00:00</time>
      </trkpt>
      <trkpt lat="46.89071" lon="-1.00588">
        <ele>185</ele>
        <time>2026-05-11T18:37:52+00:00</time>
      </trkpt>
      <trkpt lat="46.89053" lon="-1.00614">
        <ele>184</ele>
        <time>2026-05-11T18:37:53+00:00</time>
      </trkpt>
      <trkpt lat="46.89033" lon="-1.00656">
        <ele>184</ele>
        <time>2026-05-11T18:37:54+00:00</time>
      </trkpt>
      <trkpt lat="46.89023" lon="-1.00675">
        <ele>183</ele>
        <time>2026-05-11T18:37:55+00:00</time>
      </trkpt>
      <trkpt lat="46.89015" lon="-1.00686">
        <ele>181</ele>
        <time>2026-05-11T18:37:56+00:00</time>
      </trkpt>
      <trkpt lat="46.89003" lon="-1.00696">
        <ele>179</ele>
        <time>2026-05-11T18:37:57+00:00</time>
      </trkpt>
      <trkpt lat="46.88999" lon="-1.00698">
        <ele>179</ele>
        <time>2026-05-11T18:37:58+00:00</time>
      </trkpt>
      <trkpt lat="46.88995" lon="-1.00701">
        <ele>178</ele>
        <time>2026-05-11T18:37:59+00:00</time>
      </trkpt>
      <trkpt lat="46.8899" lon="-1.00701">
        <ele>177</ele>
        <time>2026-05-11T18:38:00+00:00</time>
      </trkpt>
      <trkpt lat="46.88985" lon="-1.00704">
        <ele>177</ele>
        <time>2026-05-11T18:38:01+00:00</time>
      </trkpt>
      <trkpt lat="46.88978" lon="-1.00706">
        <ele>176</ele>
        <time>2026-05-11T18:38:02+00:00</time>
      </trkpt>
      <trkpt lat="46.88968" lon="-1.00708">
        <ele>175</ele>
        <time>2026-05-11T18:38:03+00:00</time>
      </trkpt>
      <trkpt lat="46.88956" lon="-1.00712">
        <ele>174</ele>
        <time>2026-05-11T18:38:04+00:00</time>
      </trkpt>
      <trkpt lat="46.88947" lon="-1.00718">
        <ele>173</ele>
        <time>2026-05-11T18:38:05+00:00</time>
      </trkpt>
      <trkpt lat="46.88936" lon="-1.00724">
        <ele>172</ele>
        <time>2026-05-11T18:38:06+00:00</time>
      </trkpt>
      <trkpt lat="46.88927" lon="-1.00726">
        <ele>171</ele>
        <time>2026-05-11T18:38:07+00:00</time>
      </trkpt>
      <trkpt lat="46.88921" lon="-1.00711">
        <ele>170</ele>
        <time>2026-05-11T18:38:08+00:00</time>
      </trkpt>
      <trkpt lat="46.88917" lon="-1.00699">
        <ele>169</ele>
        <time>2026-05-11T18:38:09+00:00</time>
      </trkpt>
      <trkpt lat="46.88913" lon="-1.0069">
        <ele>169</ele>
        <time>2026-05-11T18:38:10+00:00</time>
      </trkpt>
      <trkpt lat="46.88906" lon="-1.00691">
        <ele>169</ele>
        <time>2026-05-11T18:38:11+00:00</time>
      </trkpt>
      <trkpt lat="46.88901" lon="-1.00692">
        <ele>169</ele>
        <time>2026-05-11T18:38:12+00:00</time>
      </trkpt>
      <trkpt lat="46.88896" lon="-1.00693">
        <ele>169</ele>
        <time>2026-05-11T18:38:13+00:00</time>
      </trkpt>
      <trkpt lat="46.88884" lon="-1.007">
        <ele>169</ele>
        <time>2026-05-11T18:38:14+00:00</time>
      </trkpt>
      <trkpt lat="46.8887" lon="-1.00706">
        <ele>170</ele>
        <time>2026-05-11T18:38:15+00:00</time>
      </trkpt>
      <trkpt lat="46.88861" lon="-1.00711">
        <ele>170</ele>
        <time>2026-05-11T18:38:16+00:00</time>
      </trkpt>
      <trkpt lat="46.88847" lon="-1.00723">
        <ele>170</ele>
        <time>2026-05-11T18:38:17+00:00</time>
      </trkpt>
      <trkpt lat="46.88837" lon="-1.00729">
        <ele>170</ele>
        <time>2026-05-11T18:38:18+00:00</time>
      </trkpt>
      <trkpt lat="46.88833" lon="-1.00729">
        <ele>171</ele>
        <time>2026-05-11T18:38:19+00:00</time>
      </trkpt>
      <trkpt lat="46.88826" lon="-1.00727">
        <ele>171</ele>
        <time>2026-05-11T18:38:20+00:00</time>
      </trkpt>
      <trkpt lat="46.88819" lon="-1.00722">
        <ele>171</ele>
        <time>2026-05-11T18:38:21+00:00</time>
      </trkpt>
      <trkpt lat="46.88802" lon="-1.00691">
        <ele>172</ele>
        <time>2026-05-11T18:38:22+00:00</time>
      </trkpt>
      <trkpt lat="46.88796" lon="-1.00681">
        <ele>172</ele>
        <time>2026-05-11T18:38:23+00:00</time>
      </trkpt>
      <trkpt lat="46.88792" lon="-1.00676">
        <ele>172</ele>
        <time>2026-05-11T18:38:24+00:00</time>
      </trkpt>
      <trkpt lat="46.88789" lon="-1.00671">
        <ele>172</ele>
        <time>2026-05-11T18:38:25+00:00</time>
      </trkpt>
      <trkpt lat="46.88757" lon="-1.00617">
        <ele>172</ele>
        <time>2026-05-11T18:38:26+00:00</time>
      </trkpt>
      <trkpt lat="46.88731" lon="-1.0059">
        <ele>172</ele>
        <time>2026-05-11T18:38:27+00:00</time>
      </trkpt>
      <trkpt lat="46.88725" lon="-1.00584">
        <ele>172</ele>
        <time>2026-05-11T18:38:28+00:00</time>
      </trkpt>
      <trkpt lat="46.88723" lon="-1.00578">
        <ele>171</ele>
        <time>2026-05-11T18:38:29+00:00</time>
      </trkpt>
      <trkpt lat="46.88721" lon="-1.00561">
        <ele>171</ele>
        <time>2026-05-11T18:38:30+00:00</time>
      </trkpt>
      <trkpt lat="46.8872" lon="-1.00553">
        <ele>171</ele>
        <time>2026-05-11T18:38:31+00:00</time>
      </trkpt>
      <trkpt lat="46.88727" lon="-1.00531">
        <ele>170</ele>
        <time>2026-05-11T18:38:32+00:00</time>
      </trkpt>
      <trkpt lat="46.88729" lon="-1.0052">
        <ele>169</ele>
        <time>2026-05-11T18:38:33+00:00</time>
      </trkpt>
      <trkpt lat="46.8873" lon="-1.00515">
        <ele>169</ele>
        <time>2026-05-11T18:38:34+00:00</time>
      </trkpt>
      <trkpt lat="46.88728" lon="-1.00505">
        <ele>169</ele>
        <time>2026-05-11T18:38:35+00:00</time>
      </trkpt>
      <trkpt lat="46.88724" lon="-1.00489">
        <ele>168</ele>
        <time>2026-05-11T18:38:36+00:00</time>
      </trkpt>
      <trkpt lat="46.88692" lon="-1.00455">
        <ele>167</ele>
        <time>2026-05-11T18:38:37+00:00</time>
      </trkpt>
      <trkpt lat="46.88683" lon="-1.00427">
        <ele>166</ele>
        <time>2026-05-11T18:38:38+00:00</time>
      </trkpt>
      <trkpt lat="46.8868" lon="-1.00419">
        <ele>165</ele>
        <time>2026-05-11T18:38:39+00:00</time>
      </trkpt>
      <trkpt lat="46.88679" lon="-1.00413">
        <ele>165</ele>
        <time>2026-05-11T18:38:40+00:00</time>
      </trkpt>
      <trkpt lat="46.8868" lon="-1.00407">
        <ele>165</ele>
        <time>2026-05-11T18:38:41+00:00</time>
      </trkpt>
      <trkpt lat="46.88678" lon="-1.00402">
        <ele>164</ele>
        <time>2026-05-11T18:38:42+00:00</time>
      </trkpt>
      <trkpt lat="46.88679" lon="-1.00393">
        <ele>164</ele>
        <time>2026-05-11T18:38:43+00:00</time>
      </trkpt>
      <trkpt lat="46.88678" lon="-1.00385">
        <ele>163</ele>
        <time>2026-05-11T18:38:44+00:00</time>
      </trkpt>
      <trkpt lat="46.88661" lon="-1.00352">
        <ele>161</ele>
        <time>2026-05-11T18:38:45+00:00</time>
      </trkpt>
      <trkpt lat="46.88652" lon="-1.00336">
        <ele>160</ele>
        <time>2026-05-11T18:38:46+00:00</time>
      </trkpt>
      <trkpt lat="46.88643" lon="-1.00315">
        <ele>159</ele>
        <time>2026-05-11T18:38:47+00:00</time>
      </trkpt>
      <trkpt lat="46.8864" lon="-1.00305">
        <ele>158</ele>
        <time>2026-05-11T18:38:48+00:00</time>
      </trkpt>
      <trkpt lat="46.88634" lon="-1.00284">
        <ele>157</ele>
        <time>2026-05-11T18:38:49+00:00</time>
      </trkpt>
      <trkpt lat="46.88631" lon="-1.00272">
        <ele>156</ele>
        <time>2026-05-11T18:38:50+00:00</time>
      </trkpt>
      <trkpt lat="46.88632" lon="-1.0026">
        <ele>156</ele>
        <time>2026-05-11T18:38:51+00:00</time>
      </trkpt>
      <trkpt lat="46.88633" lon="-1.00247">
        <ele>155</ele>
        <time>2026-05-11T18:38:52+00:00</time>
      </trkpt>
      <trkpt lat="46.88635" lon="-1.00222">
        <ele>153</ele>
        <time>2026-05-11T18:38:53+00:00</time>
      </trkpt>
      <trkpt lat="46.88636" lon="-1.00197">
        <ele>152</ele>
        <time>2026-05-11T18:38:54+00:00</time>
      </trkpt>
      <trkpt lat="46.88637" lon="-1.00162">
        <ele>150</ele>
        <time>2026-05-11T18:38:55+00:00</time>
      </trkpt>
      <trkpt lat="46.88634" lon="-1.00105">
        <ele>147</ele>
        <time>2026-05-11T18:38:56+00:00</time>
      </trkpt>
      <trkpt lat="46.88634" lon="-1.00086">
        <ele>147</ele>
        <time>2026-05-11T18:38:57+00:00</time>
      </trkpt>
      <trkpt lat="46.88639" lon="-1.00061">
        <ele>146</ele>
        <time>2026-05-11T18:38:58+00:00</time>
      </trkpt>
      <trkpt lat="46.88644" lon="-1.00047">
        <ele>146</ele>
        <time>2026-05-11T18:38:59+00:00</time>
      </trkpt>
      <trkpt lat="46.88655" lon="-1.00033">
        <ele>145</ele>
        <time>2026-05-11T18:39:00+00:00</time>
      </trkpt>
      <trkpt lat="46.88657" lon="-1.00032">
        <ele>145</ele>
        <time>2026-05-11T18:39:01+00:00</time>
      </trkpt>
      <trkpt lat="46.88659" lon="-1.00029">
        <ele>145</ele>
        <time>2026-05-11T18:39:02+00:00</time>
      </trkpt>
      <trkpt lat="46.88663" lon="-1.00027">
        <ele>145</ele>
        <time>2026-05-11T18:39:03+00:00</time>
      </trkpt>
      <trkpt lat="46.88664" lon="-1.00021">
        <ele>145</ele>
        <time>2026-05-11T18:39:04+00:00</time>
      </trkpt>
      <trkpt lat="46.88662" lon="-1.00019">
        <ele>145</ele>
        <time>2026-05-11T18:39:05+00:00</time>
      </trkpt>
      <trkpt lat="46.8866" lon="-1.00014">
        <ele>145</ele>
        <time>2026-05-11T18:39:06+00:00</time>
      </trkpt>
      <trkpt lat="46.88658" lon="-1.00011">
        <ele>145</ele>
        <time>2026-05-11T18:39:07+00:00</time>
      </trkpt>
      <trkpt lat="46.88655" lon="-1.00005">
        <ele>145</ele>
        <time>2026-05-11T18:39:08+00:00</time>
      </trkpt>
      <trkpt lat="46.88652" lon="-1.00002">
        <ele>145</ele>
        <time>2026-05-11T18:39:09+00:00</time>
      </trkpt>
      <trkpt lat="46.88644" lon="-0.99992">
        <ele>145</ele>
        <time>2026-05-11T18:39:10+00:00</time>
      </trkpt>
      <trkpt lat="46.88632" lon="-0.99981">
        <ele>144</ele>
        <time>2026-05-11T18:39:11+00:00</time>
      </trkpt>
      <trkpt lat="46.88627" lon="-0.99977">
        <ele>144</ele>
        <time>2026-05-11T18:39:12+00:00</time>
      </trkpt>
      <trkpt lat="46.88596" lon="-0.9997">
        <ele>144</ele>
        <time>2026-05-11T18:39:13+00:00</time>
      </trkpt>
      <trkpt lat="46.88589" lon="-0.99968">
        <ele>144</ele>
        <time>2026-05-11T18:39:14+00:00</time>
      </trkpt>
      <trkpt lat="46.88581" lon="-0.99968">
        <ele>144</ele>
        <time>2026-05-11T18:39:15+00:00</time>
      </trkpt>
      <trkpt lat="46.88572" lon="-0.99969">
        <ele>143</ele>
        <time>2026-05-11T18:39:16+00:00</time>
      </trkpt>
      <trkpt lat="46.88567" lon="-0.9997">
        <ele>143</ele>
        <time>2026-05-11T18:39:17+00:00</time>
      </trkpt>
      <trkpt lat="46.88541" lon="-0.99978">
        <ele>142</ele>
        <time>2026-05-11T18:39:18+00:00</time>
      </trkpt>
      <trkpt lat="46.88521" lon="-0.99985">
        <ele>142</ele>
        <time>2026-05-11T18:39:19+00:00</time>
      </trkpt>
      <trkpt lat="46.88493" lon="-0.99997">
        <ele>141</ele>
        <time>2026-05-11T18:39:20+00:00</time>
      </trkpt>
      <trkpt lat="46.88478" lon="-1">
        <ele>141</ele>
        <time>2026-05-11T18:39:21+00:00</time>
      </trkpt>
      <trkpt lat="46.88458" lon="-0.99999">
        <ele>141</ele>
        <time>2026-05-11T18:39:22+00:00</time>
      </trkpt>
      <trkpt lat="46.88426" lon="-0.99998">
        <ele>141</ele>
        <time>2026-05-11T18:39:23+00:00</time>
      </trkpt>
      <trkpt lat="46.88408" lon="-0.99998">
        <ele>141</ele>
        <time>2026-05-11T18:39:24+00:00</time>
      </trkpt>
      <trkpt lat="46.8838" lon="-0.99998">
        <ele>141</ele>
        <time>2026-05-11T18:39:25+00:00</time>
      </trkpt>
      <trkpt lat="46.88373" lon="-1">
        <ele>142</ele>
        <time>2026-05-11T18:39:26+00:00</time>
      </trkpt>
      <trkpt lat="46.88352" lon="-1.00004">
        <ele>142</ele>
        <time>2026-05-11T18:39:27+00:00</time>
      </trkpt>
      <trkpt lat="46.88303" lon="-1.00013">
        <ele>143</ele>
        <time>2026-05-11T18:39:28+00:00</time>
      </trkpt>
      <trkpt lat="46.88293" lon="-1.00017">
        <ele>144</ele>
        <time>2026-05-11T18:39:29+00:00</time>
      </trkpt>
      <trkpt lat="46.88288" lon="-1.00019">
        <ele>144</ele>
        <time>2026-05-11T18:39:30+00:00</time>
      </trkpt>
      <trkpt lat="46.88272" lon="-1.00027">
        <ele>145</ele>
        <time>2026-05-11T18:39:31+00:00</time>
      </trkpt>
      <trkpt lat="46.88246" lon="-1.0004">
        <ele>145</ele>
        <time>2026-05-11T18:39:32+00:00</time>
      </trkpt>
      <trkpt lat="46.88237" lon="-1.00044">
        <ele>145</ele>
        <time>2026-05-11T18:39:33+00:00</time>
      </trkpt>
      <trkpt lat="46.88225" lon="-1.0005">
        <ele>145</ele>
        <time>2026-05-11T18:39:34+00:00</time>
      </trkpt>
      <trkpt lat="46.88204" lon="-1.00065">
        <ele>145</ele>
        <time>2026-05-11T18:39:35+00:00</time>
      </trkpt>
      <trkpt lat="46.88197" lon="-1.00069">
        <ele>145</ele>
        <time>2026-05-11T18:39:36+00:00</time>
      </trkpt>
      <trkpt lat="46.88192" lon="-1.00074">
        <ele>145</ele>
        <time>2026-05-11T18:39:37+00:00</time>
      </trkpt>
      <trkpt lat="46.88174" lon="-1.00087">
        <ele>145</ele>
        <time>2026-05-11T18:39:38+00:00</time>
      </trkpt>
      <trkpt lat="46.88148" lon="-1.00111">
        <ele>145</ele>
        <time>2026-05-11T18:39:39+00:00</time>
      </trkpt>
      <trkpt lat="46.88136" lon="-1.00125">
        <ele>144</ele>
        <time>2026-05-11T18:39:40+00:00</time>
      </trkpt>
      <trkpt lat="46.88125" lon="-1.00137">
        <ele>144</ele>
        <time>2026-05-11T18:39:41+00:00</time>
      </trkpt>
      <trkpt lat="46.88102" lon="-1.00167">
        <ele>143</ele>
        <time>2026-05-11T18:39:42+00:00</time>
      </trkpt>
      <trkpt lat="46.88069" lon="-1.00225">
        <ele>142</ele>
        <time>2026-05-11T18:39:43+00:00</time>
      </trkpt>
      <trkpt lat="46.88062" lon="-1.00237">
        <ele>142</ele>
        <time>2026-05-11T18:39:44+00:00</time>
      </trkpt>
      <trkpt lat="46.88049" lon="-1.00259">
        <ele>141</ele>
        <time>2026-05-11T18:39:45+00:00</time>
      </trkpt>
      <trkpt lat="46.88043" lon="-1.00269">
        <ele>141</ele>
        <time>2026-05-11T18:39:46+00:00</time>
      </trkpt>
      <trkpt lat="46.88036" lon="-1.00282">
        <ele>142</ele>
        <time>2026-05-11T18:39:47+00:00</time>
      </trkpt>
      <trkpt lat="46.8803" lon="-1.00292">
        <ele>141</ele>
        <time>2026-05-11T18:39:48+00:00</time>
      </trkpt>
      <trkpt lat="46.88022" lon="-1.00307">
        <ele>141</ele>
        <time>2026-05-11T18:39:49+00:00</time>
      </trkpt>
      <trkpt lat="46.8801" lon="-1.00324">
        <ele>141</ele>
        <time>2026-05-11T18:39:50+00:00</time>
      </trkpt>
      <trkpt lat="46.88002" lon="-1.00339">
        <ele>141</ele>
        <time>2026-05-11T18:39:51+00:00</time>
      </trkpt>
      <trkpt lat="46.87997" lon="-1.00348">
        <ele>141</ele>
        <time>2026-05-11T18:39:52+00:00</time>
      </trkpt>
      <trkpt lat="46.8799" lon="-1.00358">
        <ele>140</ele>
        <time>2026-05-11T18:39:53+00:00</time>
      </trkpt>
      <trkpt lat="46.87985" lon="-1.00367">
        <ele>140</ele>
        <time>2026-05-11T18:39:54+00:00</time>
      </trkpt>
      <trkpt lat="46.87979" lon="-1.00379">
        <ele>140</ele>
        <time>2026-05-11T18:39:55+00:00</time>
      </trkpt>
      <trkpt lat="46.87958" lon="-1.00413">
        <ele>139</ele>
        <time>2026-05-11T18:39:56+00:00</time>
      </trkpt>
      <trkpt lat="46.87937" lon="-1.0045">
        <ele>137</ele>
        <time>2026-05-11T18:39:57+00:00</time>
      </trkpt>
      <trkpt lat="46.87931" lon="-1.00459">
        <ele>137</ele>
        <time>2026-05-11T18:39:58+00:00</time>
      </trkpt>
      <trkpt lat="46.87924" lon="-1.0047">
        <ele>137</ele>
        <time>2026-05-11T18:39:59+00:00</time>
      </trkpt>
      <trkpt lat="46.87913" lon="-1.0049">
        <ele>136</ele>
        <time>2026-05-11T18:40:00+00:00</time>
      </trkpt>
      <trkpt lat="46.87895" lon="-1.00513">
        <ele>135</ele>
        <time>2026-05-11T18:40:01+00:00</time>
      </trkpt>
      <trkpt lat="46.87871" lon="-1.00546">
        <ele>133</ele>
        <time>2026-05-11T18:40:02+00:00</time>
      </trkpt>
      <trkpt lat="46.87847" lon="-1.00577">
        <ele>132</ele>
        <time>2026-05-11T18:40:03+00:00</time>
      </trkpt>
      <trkpt lat="46.87831" lon="-1.006">
        <ele>132</ele>
        <time>2026-05-11T18:40:04+00:00</time>
      </trkpt>
      <trkpt lat="46.87813" lon="-1.00623">
        <ele>132</ele>
        <time>2026-05-11T18:40:05+00:00</time>
      </trkpt>
      <trkpt lat="46.87796" lon="-1.00647">
        <ele>131</ele>
        <time>2026-05-11T18:40:06+00:00</time>
      </trkpt>
      <trkpt lat="46.87788" lon="-1.00663">
        <ele>131</ele>
        <time>2026-05-11T18:40:07+00:00</time>
      </trkpt>
      <trkpt lat="46.87783" lon="-1.0067">
        <ele>131</ele>
        <time>2026-05-11T18:40:08+00:00</time>
      </trkpt>
      <trkpt lat="46.87781" lon="-1.00676">
        <ele>131</ele>
        <time>2026-05-11T18:40:09+00:00</time>
      </trkpt>
      <trkpt lat="46.87779" lon="-1.00683">
        <ele>131</ele>
        <time>2026-05-11T18:40:10+00:00</time>
      </trkpt>
      <trkpt lat="46.87777" lon="-1.0069">
        <ele>131</ele>
        <time>2026-05-11T18:40:11+00:00</time>
      </trkpt>
      <trkpt lat="46.87767" lon="-1.00702">
        <ele>131</ele>
        <time>2026-05-11T18:40:12+00:00</time>
      </trkpt>
      <trkpt lat="46.87755" lon="-1.00716">
        <ele>130</ele>
        <time>2026-05-11T18:40:13+00:00</time>
      </trkpt>
      <trkpt lat="46.87761" lon="-1.00753">
        <ele>130</ele>
        <time>2026-05-11T18:40:14+00:00</time>
      </trkpt>
      <trkpt lat="46.87764" lon="-1.0077">
        <ele>131</ele>
        <time>2026-05-11T18:40:15+00:00</time>
      </trkpt>
      <trkpt lat="46.87756" lon="-1.00789">
        <ele>130</ele>
        <time>2026-05-11T18:40:16+00:00</time>
      </trkpt>
      <trkpt lat="46.87735" lon="-1.00797">
        <ele>131</ele>
        <time>2026-05-11T18:40:17+00:00</time>
      </trkpt>
      <trkpt lat="46.87721" lon="-1.00801">
        <ele>132</ele>
        <time>2026-05-11T18:40:18+00:00</time>
      </trkpt>
      <trkpt lat="46.87717" lon="-1.00802">
        <ele>132</ele>
        <time>2026-05-11T18:40:19+00:00</time>
      </trkpt>
      <trkpt lat="46.877" lon="-1.00801">
        <ele>133</ele>
        <time>2026-05-11T18:40:20+00:00</time>
      </trkpt>
      <trkpt lat="46.87694" lon="-1.00805">
        <ele>133</ele>
        <time>2026-05-11T18:40:21+00:00</time>
      </trkpt>
      <trkpt lat="46.87685" lon="-1.00815">
        <ele>134</ele>
        <time>2026-05-11T18:40:22+00:00</time>
      </trkpt>
      <trkpt lat="46.87672" lon="-1.00827">
        <ele>135</ele>
        <time>2026-05-11T18:40:23+00:00</time>
      </trkpt>
      <trkpt lat="46.8766" lon="-1.0083">
        <ele>137</ele>
        <time>2026-05-11T18:40:24+00:00</time>
      </trkpt>
      <trkpt lat="46.87656" lon="-1.00797">
        <ele>136</ele>
        <time>2026-05-11T18:40:25+00:00</time>
      </trkpt>
      <trkpt lat="46.87654" lon="-1.00778">
        <ele>135</ele>
        <time>2026-05-11T18:40:26+00:00</time>
      </trkpt>
      <trkpt lat="46.87654" lon="-1.00756">
        <ele>134</ele>
        <time>2026-05-11T18:40:27+00:00</time>
      </trkpt>
      <trkpt lat="46.87654" lon="-1.00737">
        <ele>134</ele>
        <time>2026-05-11T18:40:28+00:00</time>
      </trkpt>
      <trkpt lat="46.87655" lon="-1.00726">
        <ele>133</ele>
        <time>2026-05-11T18:40:29+00:00</time>
      </trkpt>
      <trkpt lat="46.87654" lon="-1.0072">
        <ele>133</ele>
        <time>2026-05-11T18:40:30+00:00</time>
      </trkpt>
      <trkpt lat="46.87649" lon="-1.00716">
        <ele>133</ele>
        <time>2026-05-11T18:40:31+00:00</time>
      </trkpt>
      <trkpt lat="46.87632" lon="-1.00724">
        <ele>135</ele>
        <time>2026-05-11T18:40:32+00:00</time>
      </trkpt>
      <trkpt lat="46.87618" lon="-1.00734">
        <ele>137</ele>
        <time>2026-05-11T18:40:33+00:00</time>
      </trkpt>
      <trkpt lat="46.87598" lon="-1.00745">
        <ele>139</ele>
        <time>2026-05-11T18:40:34+00:00</time>
      </trkpt>
      <trkpt lat="46.87589" lon="-1.00746">
        <ele>140</ele>
        <time>2026-05-11T18:40:35+00:00</time>
      </trkpt>
      <trkpt lat="46.87582" lon="-1.00748">
        <ele>141</ele>
        <time>2026-05-11T18:40:36+00:00</time>
      </trkpt>
      <trkpt lat="46.87579" lon="-1.0075">
        <ele>141</ele>
        <time>2026-05-11T18:40:37+00:00</time>
      </trkpt>
      <trkpt lat="46.87576" lon="-1.00752">
        <ele>141</ele>
        <time>2026-05-11T18:40:38+00:00</time>
      </trkpt>
      <trkpt lat="46.87574" lon="-1.00754">
        <ele>141</ele>
        <time>2026-05-11T18:40:39+00:00</time>
      </trkpt>
      <trkpt lat="46.87565" lon="-1.00762">
        <ele>141</ele>
        <time>2026-05-11T18:40:40+00:00</time>
      </trkpt>
      <trkpt lat="46.87542" lon="-1.00775">
        <ele>140</ele>
        <time>2026-05-11T18:40:41+00:00</time>
      </trkpt>
      <trkpt lat="46.87534" lon="-1.00792">
        <ele>141</ele>
        <time>2026-05-11T18:40:42+00:00</time>
      </trkpt>
      <trkpt lat="46.87527" lon="-1.00808">
        <ele>142</ele>
        <time>2026-05-11T18:40:43+00:00</time>
      </trkpt>
      <trkpt lat="46.87507" lon="-1.00838">
        <ele>142</ele>
        <time>2026-05-11T18:40:44+00:00</time>
      </trkpt>
      <trkpt lat="46.87498" lon="-1.00852">
        <ele>140</ele>
        <time>2026-05-11T18:40:45+00:00</time>
      </trkpt>
      <trkpt lat="46.87494" lon="-1.00859">
        <ele>139</ele>
        <time>2026-05-11T18:40:46+00:00</time>
      </trkpt>
      <trkpt lat="46.87491" lon="-1.00859">
        <ele>139</ele>
        <time>2026-05-11T18:40:47+00:00</time>
      </trkpt>
      <trkpt lat="46.87485" lon="-1.00859">
        <ele>139</ele>
        <time>2026-05-11T18:40:48+00:00</time>
      </trkpt>
      <trkpt lat="46.87474" lon="-1.00831">
        <ele>139</ele>
        <time>2026-05-11T18:40:49+00:00</time>
      </trkpt>
      <trkpt lat="46.87464" lon="-1.008">
        <ele>137</ele>
        <time>2026-05-11T18:40:50+00:00</time>
      </trkpt>
      <trkpt lat="46.87461" lon="-1.00772">
        <ele>135</ele>
        <time>2026-05-11T18:40:51+00:00</time>
      </trkpt>
      <trkpt lat="46.87459" lon="-1.0074">
        <ele>134</ele>
        <time>2026-05-11T18:40:52+00:00</time>
      </trkpt>
      <trkpt lat="46.87456" lon="-1.00727">
        <ele>133</ele>
        <time>2026-05-11T18:40:53+00:00</time>
      </trkpt>
      <trkpt lat="46.87451" lon="-1.00719">
        <ele>132</ele>
        <time>2026-05-11T18:40:54+00:00</time>
      </trkpt>
      <trkpt lat="46.8744" lon="-1.00735">
        <ele>132</ele>
        <time>2026-05-11T18:40:55+00:00</time>
      </trkpt>
      <trkpt lat="46.87432" lon="-1.00745">
        <ele>132</ele>
        <time>2026-05-11T18:40:56+00:00</time>
      </trkpt>
      <trkpt lat="46.87423" lon="-1.00761">
        <ele>132</ele>
        <time>2026-05-11T18:40:57+00:00</time>
      </trkpt>
      <trkpt lat="46.87379" lon="-1.0083">
        <ele>132</ele>
        <time>2026-05-11T18:40:58+00:00</time>
      </trkpt>
      <trkpt lat="46.87356" lon="-1.00866">
        <ele>129</ele>
        <time>2026-05-11T18:40:59+00:00</time>
      </trkpt>
      <trkpt lat="46.8735" lon="-1.00876">
        <ele>128</ele>
        <time>2026-05-11T18:41:00+00:00</time>
      </trkpt>
      <trkpt lat="46.87324" lon="-1.00909">
        <ele>123</ele>
        <time>2026-05-11T18:41:01+00:00</time>
      </trkpt>
      <trkpt lat="46.8732" lon="-1.00916">
        <ele>122</ele>
        <time>2026-05-11T18:41:02+00:00</time>
      </trkpt>
      <trkpt lat="46.87311" lon="-1.00941">
        <ele>119</ele>
        <time>2026-05-11T18:41:03+00:00</time>
      </trkpt>
      <trkpt lat="46.87306" lon="-1.0095">
        <ele>118</ele>
        <time>2026-05-11T18:41:04+00:00</time>
      </trkpt>
      <trkpt lat="46.87305" lon="-1.00956">
        <ele>117</ele>
        <time>2026-05-11T18:41:05+00:00</time>
      </trkpt>
      <trkpt lat="46.87303" lon="-1.00961">
        <ele>117</ele>
        <time>2026-05-11T18:41:06+00:00</time>
      </trkpt>
      <trkpt lat="46.87298" lon="-1.00968">
        <ele>116</ele>
        <time>2026-05-11T18:41:07+00:00</time>
      </trkpt>
      <trkpt lat="46.87293" lon="-1.00975">
        <ele>115</ele>
        <time>2026-05-11T18:41:08+00:00</time>
      </trkpt>
      <trkpt lat="46.87284" lon="-1.00987">
        <ele>113</ele>
        <time>2026-05-11T18:41:09+00:00</time>
      </trkpt>
      <trkpt lat="46.87279" lon="-1.00998">
        <ele>113</ele>
        <time>2026-05-11T18:41:10+00:00</time>
      </trkpt>
      <trkpt lat="46.87276" lon="-1.01006">
        <ele>112</ele>
        <time>2026-05-11T18:41:11+00:00</time>
      </trkpt>
      <trkpt lat="46.87256" lon="-1.01009">
        <ele>110</ele>
        <time>2026-05-11T18:41:12+00:00</time>
      </trkpt>
      <trkpt lat="46.87235" lon="-1.01009">
        <ele>108</ele>
        <time>2026-05-11T18:41:13+00:00</time>
      </trkpt>
      <trkpt lat="46.8723" lon="-1.01004">
        <ele>108</ele>
        <time>2026-05-11T18:41:14+00:00</time>
      </trkpt>
      <trkpt lat="46.87223" lon="-1.01004">
        <ele>107</ele>
        <time>2026-05-11T18:41:15+00:00</time>
      </trkpt>
      <trkpt lat="46.87212" lon="-1.01004">
        <ele>106</ele>
        <time>2026-05-11T18:41:16+00:00</time>
      </trkpt>
      <trkpt lat="46.87201" lon="-1.01005">
        <ele>105</ele>
        <time>2026-05-11T18:41:17+00:00</time>
      </trkpt>
      <trkpt lat="46.8718" lon="-1.01008">
        <ele>103</ele>
        <time>2026-05-11T18:41:18+00:00</time>
      </trkpt>
      <trkpt lat="46.87162" lon="-1.0101">
        <ele>102</ele>
        <time>2026-05-11T18:41:19+00:00</time>
      </trkpt>
      <trkpt lat="46.87143" lon="-1.01012">
        <ele>102</ele>
        <time>2026-05-11T18:41:20+00:00</time>
      </trkpt>
      <trkpt lat="46.87115" lon="-1.0104">
        <ele>102</ele>
        <time>2026-05-11T18:41:21+00:00</time>
      </trkpt>
      <trkpt lat="46.87088" lon="-1.0105">
        <ele>102</ele>
        <time>2026-05-11T18:41:22+00:00</time>
      </trkpt>
      <trkpt lat="46.87071" lon="-1.01053">
        <ele>102</ele>
        <time>2026-05-11T18:41:23+00:00</time>
      </trkpt>
      <trkpt lat="46.87048" lon="-1.01059">
        <ele>102</ele>
        <time>2026-05-11T18:41:24+00:00</time>
      </trkpt>
    </trkseg>
  </trk>
</gpx>
