<?xml version="1.0" encoding="UTF-8"?>
<gpx xmlns="http://www.topografix.com/GPX/1/1" xmlns:xsi="http://www.w3.org/2001/XMLSchema-instance" version="1.1" creator="phpGPX/1.3.0" xsi:schemaLocation="http://www.topografix.com/GPX/1/1 http://www.topografix.com/GPX/1/1/gpx.xsd">
  <metadata>
    <time>2026-05-14T09:51:58+00:00</time>
  </metadata>
  <trk>
    <name>Ultra Trail de Bagnoles</name>
    <trkseg>
      <trkpt lat="48.55724" lon="-0.41193">
        <ele>196</ele>
        <time>2026-05-14T09:51:59+00:00</time>
      </trkpt>
      <trkpt lat="48.55756" lon="-0.4119">
        <ele>198</ele>
        <time>2026-05-14T09:52:00+00:00</time>
      </trkpt>
      <trkpt lat="48.5578" lon="-0.41146">
        <ele>204</ele>
        <time>2026-05-14T09:52:01+00:00</time>
      </trkpt>
      <trkpt lat="48.55803" lon="-0.41151">
        <ele>207</ele>
        <time>2026-05-14T09:52:02+00:00</time>
      </trkpt>
      <trkpt lat="48.5583" lon="-0.41171">
        <ele>211</ele>
        <time>2026-05-14T09:52:03+00:00</time>
      </trkpt>
      <trkpt lat="48.55864" lon="-0.41247">
        <ele>208</ele>
        <time>2026-05-14T09:52:04+00:00</time>
      </trkpt>
      <trkpt lat="48.55883" lon="-0.41273">
        <ele>208</ele>
        <time>2026-05-14T09:52:05+00:00</time>
      </trkpt>
      <trkpt lat="48.55903" lon="-0.41281">
        <ele>209</ele>
        <time>2026-05-14T09:52:06+00:00</time>
      </trkpt>
      <trkpt lat="48.55929" lon="-0.41286">
        <ele>212</ele>
        <time>2026-05-14T09:52:07+00:00</time>
      </trkpt>
      <trkpt lat="48.55981" lon="-0.41317">
        <ele>215</ele>
        <time>2026-05-14T09:52:08+00:00</time>
      </trkpt>
      <trkpt lat="48.5603" lon="-0.41312">
        <ele>218</ele>
        <time>2026-05-14T09:52:09+00:00</time>
      </trkpt>
      <trkpt lat="48.5606" lon="-0.41317">
        <ele>218</ele>
        <time>2026-05-14T09:52:10+00:00</time>
      </trkpt>
      <trkpt lat="48.5607" lon="-0.41333">
        <ele>218</ele>
        <time>2026-05-14T09:52:11+00:00</time>
      </trkpt>
      <trkpt lat="48.5609" lon="-0.41381">
        <ele>217</ele>
        <time>2026-05-14T09:52:12+00:00</time>
      </trkpt>
      <trkpt lat="48.56089" lon="-0.41387">
        <ele>217</ele>
        <time>2026-05-14T09:52:13+00:00</time>
      </trkpt>
      <trkpt lat="48.56101" lon="-0.41395">
        <ele>217</ele>
        <time>2026-05-14T09:52:14+00:00</time>
      </trkpt>
      <trkpt lat="48.56129" lon="-0.41378">
        <ele>217</ele>
        <time>2026-05-14T09:52:15+00:00</time>
      </trkpt>
      <trkpt lat="48.56143" lon="-0.41365">
        <ele>218</ele>
        <time>2026-05-14T09:52:16+00:00</time>
      </trkpt>
      <trkpt lat="48.56154" lon="-0.41336">
        <ele>219</ele>
        <time>2026-05-14T09:52:17+00:00</time>
      </trkpt>
      <trkpt lat="48.56164" lon="-0.41326">
        <ele>219</ele>
        <time>2026-05-14T09:52:18+00:00</time>
      </trkpt>
      <trkpt lat="48.56176" lon="-0.41298">
        <ele>221</ele>
        <time>2026-05-14T09:52:19+00:00</time>
      </trkpt>
      <trkpt lat="48.56174" lon="-0.41261">
        <ele>222</ele>
        <time>2026-05-14T09:52:20+00:00</time>
      </trkpt>
      <trkpt lat="48.56187" lon="-0.41227">
        <ele>223</ele>
        <time>2026-05-14T09:52:21+00:00</time>
      </trkpt>
      <trkpt lat="48.56187" lon="-0.41206">
        <ele>224</ele>
        <time>2026-05-14T09:52:22+00:00</time>
      </trkpt>
      <trkpt lat="48.56207" lon="-0.41198">
        <ele>224</ele>
        <time>2026-05-14T09:52:23+00:00</time>
      </trkpt>
      <trkpt lat="48.56235" lon="-0.41194">
        <ele>224</ele>
        <time>2026-05-14T09:52:24+00:00</time>
      </trkpt>
      <trkpt lat="48.56292" lon="-0.412">
        <ele>223</ele>
        <time>2026-05-14T09:52:25+00:00</time>
      </trkpt>
      <trkpt lat="48.5631" lon="-0.41193">
        <ele>223</ele>
        <time>2026-05-14T09:52:26+00:00</time>
      </trkpt>
      <trkpt lat="48.56324" lon="-0.41178">
        <ele>222</ele>
        <time>2026-05-14T09:52:27+00:00</time>
      </trkpt>
      <trkpt lat="48.56382" lon="-0.41086">
        <ele>213</ele>
        <time>2026-05-14T09:52:28+00:00</time>
      </trkpt>
      <trkpt lat="48.56388" lon="-0.4115">
        <ele>213</ele>
        <time>2026-05-14T09:52:29+00:00</time>
      </trkpt>
      <trkpt lat="48.56393" lon="-0.41164">
        <ele>212</ele>
        <time>2026-05-14T09:52:30+00:00</time>
      </trkpt>
      <trkpt lat="48.56412" lon="-0.41199">
        <ele>210</ele>
        <time>2026-05-14T09:52:31+00:00</time>
      </trkpt>
      <trkpt lat="48.5644" lon="-0.41233">
        <ele>207</ele>
        <time>2026-05-14T09:52:32+00:00</time>
      </trkpt>
      <trkpt lat="48.56447" lon="-0.41247">
        <ele>205</ele>
        <time>2026-05-14T09:52:33+00:00</time>
      </trkpt>
      <trkpt lat="48.56455" lon="-0.41309">
        <ele>201</ele>
        <time>2026-05-14T09:52:34+00:00</time>
      </trkpt>
      <trkpt lat="48.5646" lon="-0.413">
        <ele>200</ele>
        <time>2026-05-14T09:52:35+00:00</time>
      </trkpt>
      <trkpt lat="48.56475" lon="-0.41249">
        <ele>199</ele>
        <time>2026-05-14T09:52:36+00:00</time>
      </trkpt>
      <trkpt lat="48.56482" lon="-0.41187">
        <ele>199</ele>
        <time>2026-05-14T09:52:37+00:00</time>
      </trkpt>
      <trkpt lat="48.5648" lon="-0.41149">
        <ele>200</ele>
        <time>2026-05-14T09:52:38+00:00</time>
      </trkpt>
      <trkpt lat="48.56474" lon="-0.41118">
        <ele>201</ele>
        <time>2026-05-14T09:52:39+00:00</time>
      </trkpt>
      <trkpt lat="48.56476" lon="-0.41111">
        <ele>201</ele>
        <time>2026-05-14T09:52:40+00:00</time>
      </trkpt>
      <trkpt lat="48.5649" lon="-0.41106">
        <ele>200</ele>
        <time>2026-05-14T09:52:41+00:00</time>
      </trkpt>
      <trkpt lat="48.56492" lon="-0.41103">
        <ele>199</ele>
        <time>2026-05-14T09:52:42+00:00</time>
      </trkpt>
      <trkpt lat="48.56466" lon="-0.4095">
        <ele>208</ele>
        <time>2026-05-14T09:52:43+00:00</time>
      </trkpt>
      <trkpt lat="48.56427" lon="-0.40886">
        <ele>214</ele>
        <time>2026-05-14T09:52:44+00:00</time>
      </trkpt>
      <trkpt lat="48.56349" lon="-0.40848">
        <ele>220</ele>
        <time>2026-05-14T09:52:45+00:00</time>
      </trkpt>
      <trkpt lat="48.56341" lon="-0.40846">
        <ele>221</ele>
        <time>2026-05-14T09:52:46+00:00</time>
      </trkpt>
      <trkpt lat="48.56306" lon="-0.40798">
        <ele>221</ele>
        <time>2026-05-14T09:52:47+00:00</time>
      </trkpt>
      <trkpt lat="48.56274" lon="-0.40763">
        <ele>220</ele>
        <time>2026-05-14T09:52:48+00:00</time>
      </trkpt>
      <trkpt lat="48.56256" lon="-0.40733">
        <ele>220</ele>
        <time>2026-05-14T09:52:49+00:00</time>
      </trkpt>
      <trkpt lat="48.56239" lon="-0.40723">
        <ele>221</ele>
        <time>2026-05-14T09:52:50+00:00</time>
      </trkpt>
      <trkpt lat="48.56394" lon="-0.40016">
        <ele>213</ele>
        <time>2026-05-14T09:52:51+00:00</time>
      </trkpt>
      <trkpt lat="48.56467" lon="-0.40148">
        <ele>212</ele>
        <time>2026-05-14T09:52:52+00:00</time>
      </trkpt>
      <trkpt lat="48.56649" lon="-0.39917">
        <ele>196</ele>
        <time>2026-05-14T09:52:53+00:00</time>
      </trkpt>
      <trkpt lat="48.56673" lon="-0.39959">
        <ele>195</ele>
        <time>2026-05-14T09:52:54+00:00</time>
      </trkpt>
      <trkpt lat="48.56649" lon="-0.39917">
        <ele>196</ele>
        <time>2026-05-14T09:52:55+00:00</time>
      </trkpt>
      <trkpt lat="48.56815" lon="-0.39708">
        <ele>198</ele>
        <time>2026-05-14T09:52:56+00:00</time>
      </trkpt>
      <trkpt lat="48.56917" lon="-0.39909">
        <ele>196</ele>
        <time>2026-05-14T09:52:57+00:00</time>
      </trkpt>
      <trkpt lat="48.56998" lon="-0.40038">
        <ele>201</ele>
        <time>2026-05-14T09:52:58+00:00</time>
      </trkpt>
      <trkpt lat="48.57022" lon="-0.39972">
        <ele>203</ele>
        <time>2026-05-14T09:52:59+00:00</time>
      </trkpt>
      <trkpt lat="48.57049" lon="-0.39933">
        <ele>204</ele>
        <time>2026-05-14T09:53:00+00:00</time>
      </trkpt>
      <trkpt lat="48.5707" lon="-0.39928">
        <ele>204</ele>
        <time>2026-05-14T09:53:01+00:00</time>
      </trkpt>
      <trkpt lat="48.57096" lon="-0.39856">
        <ele>205</ele>
        <time>2026-05-14T09:53:02+00:00</time>
      </trkpt>
      <trkpt lat="48.57114" lon="-0.39783">
        <ele>206</ele>
        <time>2026-05-14T09:53:03+00:00</time>
      </trkpt>
      <trkpt lat="48.57126" lon="-0.3967">
        <ele>205</ele>
        <time>2026-05-14T09:53:04+00:00</time>
      </trkpt>
      <trkpt lat="48.57168" lon="-0.39628">
        <ele>203</ele>
        <time>2026-05-14T09:53:05+00:00</time>
      </trkpt>
      <trkpt lat="48.57219" lon="-0.39598">
        <ele>201</ele>
        <time>2026-05-14T09:53:06+00:00</time>
      </trkpt>
      <trkpt lat="48.57218" lon="-0.39595">
        <ele>201</ele>
        <time>2026-05-14T09:53:07+00:00</time>
      </trkpt>
      <trkpt lat="48.57219" lon="-0.39598">
        <ele>201</ele>
        <time>2026-05-14T09:53:08+00:00</time>
      </trkpt>
      <trkpt lat="48.57223" lon="-0.39596">
        <ele>201</ele>
        <time>2026-05-14T09:53:09+00:00</time>
      </trkpt>
      <trkpt lat="48.57253" lon="-0.39541">
        <ele>201</ele>
        <time>2026-05-14T09:53:10+00:00</time>
      </trkpt>
      <trkpt lat="48.57323" lon="-0.39442">
        <ele>207</ele>
        <time>2026-05-14T09:53:11+00:00</time>
      </trkpt>
      <trkpt lat="48.5733" lon="-0.39433">
        <ele>207</ele>
        <time>2026-05-14T09:53:12+00:00</time>
      </trkpt>
      <trkpt lat="48.57368" lon="-0.39398">
        <ele>209</ele>
        <time>2026-05-14T09:53:13+00:00</time>
      </trkpt>
      <trkpt lat="48.57376" lon="-0.39381">
        <ele>209</ele>
        <time>2026-05-14T09:53:14+00:00</time>
      </trkpt>
      <trkpt lat="48.57383" lon="-0.39373">
        <ele>209</ele>
        <time>2026-05-14T09:53:15+00:00</time>
      </trkpt>
      <trkpt lat="48.57403" lon="-0.39358">
        <ele>211</ele>
        <time>2026-05-14T09:53:16+00:00</time>
      </trkpt>
      <trkpt lat="48.57464" lon="-0.39348">
        <ele>217</ele>
        <time>2026-05-14T09:53:17+00:00</time>
      </trkpt>
      <trkpt lat="48.57523" lon="-0.3936">
        <ele>221</ele>
        <time>2026-05-14T09:53:18+00:00</time>
      </trkpt>
      <trkpt lat="48.57534" lon="-0.39344">
        <ele>222</ele>
        <time>2026-05-14T09:53:19+00:00</time>
      </trkpt>
      <trkpt lat="48.57553" lon="-0.39329">
        <ele>222</ele>
        <time>2026-05-14T09:53:20+00:00</time>
      </trkpt>
      <trkpt lat="48.57593" lon="-0.3932">
        <ele>223</ele>
        <time>2026-05-14T09:53:21+00:00</time>
      </trkpt>
      <trkpt lat="48.57606" lon="-0.39328">
        <ele>225</ele>
        <time>2026-05-14T09:53:22+00:00</time>
      </trkpt>
      <trkpt lat="48.57629" lon="-0.39306">
        <ele>227</ele>
        <time>2026-05-14T09:53:23+00:00</time>
      </trkpt>
      <trkpt lat="48.57653" lon="-0.3929">
        <ele>230</ele>
        <time>2026-05-14T09:53:24+00:00</time>
      </trkpt>
      <trkpt lat="48.57653" lon="-0.39293">
        <ele>230</ele>
        <time>2026-05-14T09:53:25+00:00</time>
      </trkpt>
      <trkpt lat="48.57656" lon="-0.39292">
        <ele>231</ele>
        <time>2026-05-14T09:53:26+00:00</time>
      </trkpt>
      <trkpt lat="48.57663" lon="-0.3921">
        <ele>229</ele>
        <time>2026-05-14T09:53:27+00:00</time>
      </trkpt>
      <trkpt lat="48.57682" lon="-0.39243">
        <ele>233</ele>
        <time>2026-05-14T09:53:28+00:00</time>
      </trkpt>
      <trkpt lat="48.57696" lon="-0.39281">
        <ele>235</ele>
        <time>2026-05-14T09:53:29+00:00</time>
      </trkpt>
      <trkpt lat="48.57697" lon="-0.39296">
        <ele>235</ele>
        <time>2026-05-14T09:53:30+00:00</time>
      </trkpt>
      <trkpt lat="48.57709" lon="-0.39315">
        <ele>237</ele>
        <time>2026-05-14T09:53:31+00:00</time>
      </trkpt>
      <trkpt lat="48.5771" lon="-0.39336">
        <ele>236</ele>
        <time>2026-05-14T09:53:32+00:00</time>
      </trkpt>
      <trkpt lat="48.57729" lon="-0.39385">
        <ele>235</ele>
        <time>2026-05-14T09:53:33+00:00</time>
      </trkpt>
      <trkpt lat="48.57735" lon="-0.39421">
        <ele>234</ele>
        <time>2026-05-14T09:53:34+00:00</time>
      </trkpt>
      <trkpt lat="48.57748" lon="-0.3947">
        <ele>230</ele>
        <time>2026-05-14T09:53:35+00:00</time>
      </trkpt>
      <trkpt lat="48.57763" lon="-0.39497">
        <ele>229</ele>
        <time>2026-05-14T09:53:36+00:00</time>
      </trkpt>
      <trkpt lat="48.5781" lon="-0.39536">
        <ele>230</ele>
        <time>2026-05-14T09:53:37+00:00</time>
      </trkpt>
      <trkpt lat="48.57825" lon="-0.39565">
        <ele>231</ele>
        <time>2026-05-14T09:53:38+00:00</time>
      </trkpt>
      <trkpt lat="48.57832" lon="-0.39589">
        <ele>232</ele>
        <time>2026-05-14T09:53:39+00:00</time>
      </trkpt>
      <trkpt lat="48.57834" lon="-0.39661">
        <ele>234</ele>
        <time>2026-05-14T09:53:40+00:00</time>
      </trkpt>
      <trkpt lat="48.57846" lon="-0.39686">
        <ele>233</ele>
        <time>2026-05-14T09:53:41+00:00</time>
      </trkpt>
      <trkpt lat="48.57874" lon="-0.39726">
        <ele>231</ele>
        <time>2026-05-14T09:53:42+00:00</time>
      </trkpt>
      <trkpt lat="48.57879" lon="-0.39748">
        <ele>230</ele>
        <time>2026-05-14T09:53:43+00:00</time>
      </trkpt>
      <trkpt lat="48.57905" lon="-0.39796">
        <ele>230</ele>
        <time>2026-05-14T09:53:44+00:00</time>
      </trkpt>
      <trkpt lat="48.57905" lon="-0.39818">
        <ele>230</ele>
        <time>2026-05-14T09:53:45+00:00</time>
      </trkpt>
      <trkpt lat="48.57907" lon="-0.39822">
        <ele>231</ele>
        <time>2026-05-14T09:53:46+00:00</time>
      </trkpt>
      <trkpt lat="48.57905" lon="-0.39818">
        <ele>230</ele>
        <time>2026-05-14T09:53:47+00:00</time>
      </trkpt>
      <trkpt lat="48.57736" lon="-0.40018">
        <ele>222</ele>
        <time>2026-05-14T09:53:48+00:00</time>
      </trkpt>
      <trkpt lat="48.57562" lon="-0.40238">
        <ele>208</ele>
        <time>2026-05-14T09:53:49+00:00</time>
      </trkpt>
      <trkpt lat="48.57509" lon="-0.40157">
        <ele>207</ele>
        <time>2026-05-14T09:53:50+00:00</time>
      </trkpt>
      <trkpt lat="48.57511" lon="-0.40159">
        <ele>207</ele>
        <time>2026-05-14T09:53:51+00:00</time>
      </trkpt>
      <trkpt lat="48.57402" lon="-0.40301">
        <ele>210</ele>
        <time>2026-05-14T09:53:52+00:00</time>
      </trkpt>
      <trkpt lat="48.57381" lon="-0.40308">
        <ele>210</ele>
        <time>2026-05-14T09:53:53+00:00</time>
      </trkpt>
      <trkpt lat="48.57272" lon="-0.40454">
        <ele>205</ele>
        <time>2026-05-14T09:53:54+00:00</time>
      </trkpt>
      <trkpt lat="48.57237" lon="-0.40484">
        <ele>202</ele>
        <time>2026-05-14T09:53:55+00:00</time>
      </trkpt>
      <trkpt lat="48.57335" lon="-0.40661">
        <ele>201</ele>
        <time>2026-05-14T09:53:56+00:00</time>
      </trkpt>
      <trkpt lat="48.56986" lon="-0.41094">
        <ele>203</ele>
        <time>2026-05-14T09:53:57+00:00</time>
      </trkpt>
      <trkpt lat="48.57027" lon="-0.41171">
        <ele>201</ele>
        <time>2026-05-14T09:53:58+00:00</time>
      </trkpt>
      <trkpt lat="48.5712" lon="-0.41334">
        <ele>199</ele>
        <time>2026-05-14T09:53:59+00:00</time>
      </trkpt>
      <trkpt lat="48.57154" lon="-0.41406">
        <ele>194</ele>
        <time>2026-05-14T09:54:00+00:00</time>
      </trkpt>
      <trkpt lat="48.57164" lon="-0.4142">
        <ele>193</ele>
        <time>2026-05-14T09:54:01+00:00</time>
      </trkpt>
      <trkpt lat="48.5719" lon="-0.41484">
        <ele>189</ele>
        <time>2026-05-14T09:54:02+00:00</time>
      </trkpt>
      <trkpt lat="48.5719" lon="-0.41501">
        <ele>188</ele>
        <time>2026-05-14T09:54:03+00:00</time>
      </trkpt>
      <trkpt lat="48.57152" lon="-0.41597">
        <ele>188</ele>
        <time>2026-05-14T09:54:04+00:00</time>
      </trkpt>
      <trkpt lat="48.5711" lon="-0.41791">
        <ele>190</ele>
        <time>2026-05-14T09:54:05+00:00</time>
      </trkpt>
      <trkpt lat="48.57075" lon="-0.41847">
        <ele>192</ele>
        <time>2026-05-14T09:54:06+00:00</time>
      </trkpt>
      <trkpt lat="48.56995" lon="-0.42381">
        <ele>209</ele>
        <time>2026-05-14T09:54:07+00:00</time>
      </trkpt>
      <trkpt lat="48.56968" lon="-0.42571">
        <ele>214</ele>
        <time>2026-05-14T09:54:08+00:00</time>
      </trkpt>
      <trkpt lat="48.56969" lon="-0.4259">
        <ele>215</ele>
        <time>2026-05-14T09:54:09+00:00</time>
      </trkpt>
      <trkpt lat="48.57068" lon="-0.42768">
        <ele>217</ele>
        <time>2026-05-14T09:54:10+00:00</time>
      </trkpt>
      <trkpt lat="48.57068" lon="-0.42773">
        <ele>217</ele>
        <time>2026-05-14T09:54:11+00:00</time>
      </trkpt>
      <trkpt lat="48.57153" lon="-0.42793">
        <ele>216</ele>
        <time>2026-05-14T09:54:12+00:00</time>
      </trkpt>
      <trkpt lat="48.57225" lon="-0.42805">
        <ele>216</ele>
        <time>2026-05-14T09:54:13+00:00</time>
      </trkpt>
      <trkpt lat="48.5726" lon="-0.42844">
        <ele>216</ele>
        <time>2026-05-14T09:54:14+00:00</time>
      </trkpt>
      <trkpt lat="48.57291" lon="-0.42887">
        <ele>216</ele>
        <time>2026-05-14T09:54:15+00:00</time>
      </trkpt>
      <trkpt lat="48.57443" lon="-0.43116">
        <ele>220</ele>
        <time>2026-05-14T09:54:16+00:00</time>
      </trkpt>
      <trkpt lat="48.58162" lon="-0.44224">
        <ele>240</ele>
        <time>2026-05-14T09:54:17+00:00</time>
      </trkpt>
      <trkpt lat="48.58321" lon="-0.44079">
        <ele>227</ele>
        <time>2026-05-14T09:54:18+00:00</time>
      </trkpt>
      <trkpt lat="48.58325" lon="-0.44108">
        <ele>229</ele>
        <time>2026-05-14T09:54:19+00:00</time>
      </trkpt>
      <trkpt lat="48.58533" lon="-0.44092">
        <ele>225</ele>
        <time>2026-05-14T09:54:20+00:00</time>
      </trkpt>
      <trkpt lat="48.58562" lon="-0.44653">
        <ele>255</ele>
        <time>2026-05-14T09:54:21+00:00</time>
      </trkpt>
      <trkpt lat="48.58573" lon="-0.4465">
        <ele>255</ele>
        <time>2026-05-14T09:54:22+00:00</time>
      </trkpt>
      <trkpt lat="48.5858" lon="-0.44637">
        <ele>255</ele>
        <time>2026-05-14T09:54:23+00:00</time>
      </trkpt>
      <trkpt lat="48.58586" lon="-0.44544">
        <ele>250</ele>
        <time>2026-05-14T09:54:24+00:00</time>
      </trkpt>
      <trkpt lat="48.58584" lon="-0.44464">
        <ele>246</ele>
        <time>2026-05-14T09:54:25+00:00</time>
      </trkpt>
      <trkpt lat="48.5859" lon="-0.44403">
        <ele>241</ele>
        <time>2026-05-14T09:54:26+00:00</time>
      </trkpt>
      <trkpt lat="48.5861" lon="-0.44388">
        <ele>237</ele>
        <time>2026-05-14T09:54:27+00:00</time>
      </trkpt>
      <trkpt lat="48.58629" lon="-0.44398">
        <ele>238</ele>
        <time>2026-05-14T09:54:28+00:00</time>
      </trkpt>
      <trkpt lat="48.58679" lon="-0.44406">
        <ele>235</ele>
        <time>2026-05-14T09:54:29+00:00</time>
      </trkpt>
      <trkpt lat="48.58696" lon="-0.44425">
        <ele>234</ele>
        <time>2026-05-14T09:54:30+00:00</time>
      </trkpt>
      <trkpt lat="48.58708" lon="-0.44448">
        <ele>234</ele>
        <time>2026-05-14T09:54:31+00:00</time>
      </trkpt>
      <trkpt lat="48.58731" lon="-0.44524">
        <ele>237</ele>
        <time>2026-05-14T09:54:32+00:00</time>
      </trkpt>
      <trkpt lat="48.58749" lon="-0.44564">
        <ele>238</ele>
        <time>2026-05-14T09:54:33+00:00</time>
      </trkpt>
      <trkpt lat="48.58791" lon="-0.44729">
        <ele>237</ele>
        <time>2026-05-14T09:54:34+00:00</time>
      </trkpt>
      <trkpt lat="48.58776" lon="-0.44777">
        <ele>239</ele>
        <time>2026-05-14T09:54:35+00:00</time>
      </trkpt>
      <trkpt lat="48.58772" lon="-0.44799">
        <ele>240</ele>
        <time>2026-05-14T09:54:36+00:00</time>
      </trkpt>
      <trkpt lat="48.58777" lon="-0.44816">
        <ele>239</ele>
        <time>2026-05-14T09:54:37+00:00</time>
      </trkpt>
      <trkpt lat="48.58779" lon="-0.44965">
        <ele>239</ele>
        <time>2026-05-14T09:54:38+00:00</time>
      </trkpt>
      <trkpt lat="48.58768" lon="-0.45011">
        <ele>239</ele>
        <time>2026-05-14T09:54:39+00:00</time>
      </trkpt>
      <trkpt lat="48.58755" lon="-0.45025">
        <ele>239</ele>
        <time>2026-05-14T09:54:40+00:00</time>
      </trkpt>
      <trkpt lat="48.58934" lon="-0.45167">
        <ele>244</ele>
        <time>2026-05-14T09:54:41+00:00</time>
      </trkpt>
      <trkpt lat="48.58973" lon="-0.4592">
        <ele>255</ele>
        <time>2026-05-14T09:54:42+00:00</time>
      </trkpt>
      <trkpt lat="48.59406" lon="-0.45883">
        <ele>280</ele>
        <time>2026-05-14T09:54:43+00:00</time>
      </trkpt>
      <trkpt lat="48.5934" lon="-0.46218">
        <ele>269</ele>
        <time>2026-05-14T09:54:44+00:00</time>
      </trkpt>
      <trkpt lat="48.59414" lon="-0.46448">
        <ele>273</ele>
        <time>2026-05-14T09:54:45+00:00</time>
      </trkpt>
      <trkpt lat="48.59404" lon="-0.46494">
        <ele>271</ele>
        <time>2026-05-14T09:54:46+00:00</time>
      </trkpt>
      <trkpt lat="48.59266" lon="-0.46645">
        <ele>269</ele>
        <time>2026-05-14T09:54:47+00:00</time>
      </trkpt>
      <trkpt lat="48.59243" lon="-0.46705">
        <ele>270</ele>
        <time>2026-05-14T09:54:48+00:00</time>
      </trkpt>
      <trkpt lat="48.59317" lon="-0.46729">
        <ele>272</ele>
        <time>2026-05-14T09:54:49+00:00</time>
      </trkpt>
      <trkpt lat="48.5936" lon="-0.46763">
        <ele>272</ele>
        <time>2026-05-14T09:54:50+00:00</time>
      </trkpt>
      <trkpt lat="48.59396" lon="-0.46779">
        <ele>271</ele>
        <time>2026-05-14T09:54:51+00:00</time>
      </trkpt>
      <trkpt lat="48.59418" lon="-0.46793">
        <ele>270</ele>
        <time>2026-05-14T09:54:52+00:00</time>
      </trkpt>
      <trkpt lat="48.5946" lon="-0.46801">
        <ele>269</ele>
        <time>2026-05-14T09:54:53+00:00</time>
      </trkpt>
      <trkpt lat="48.59479" lon="-0.46826">
        <ele>269</ele>
        <time>2026-05-14T09:54:54+00:00</time>
      </trkpt>
      <trkpt lat="48.59487" lon="-0.46867">
        <ele>268</ele>
        <time>2026-05-14T09:54:55+00:00</time>
      </trkpt>
      <trkpt lat="48.59498" lon="-0.46901">
        <ele>269</ele>
        <time>2026-05-14T09:54:56+00:00</time>
      </trkpt>
      <trkpt lat="48.59527" lon="-0.46933">
        <ele>269</ele>
        <time>2026-05-14T09:54:57+00:00</time>
      </trkpt>
      <trkpt lat="48.59558" lon="-0.47003">
        <ele>270</ele>
        <time>2026-05-14T09:54:58+00:00</time>
      </trkpt>
      <trkpt lat="48.59561" lon="-0.47044">
        <ele>270</ele>
        <time>2026-05-14T09:54:59+00:00</time>
      </trkpt>
      <trkpt lat="48.59569" lon="-0.47066">
        <ele>271</ele>
        <time>2026-05-14T09:55:00+00:00</time>
      </trkpt>
      <trkpt lat="48.59587" lon="-0.47089">
        <ele>271</ele>
        <time>2026-05-14T09:55:01+00:00</time>
      </trkpt>
      <trkpt lat="48.59629" lon="-0.47165">
        <ele>268</ele>
        <time>2026-05-14T09:55:02+00:00</time>
      </trkpt>
      <trkpt lat="48.59639" lon="-0.47199">
        <ele>267</ele>
        <time>2026-05-14T09:55:03+00:00</time>
      </trkpt>
      <trkpt lat="48.59682" lon="-0.47272">
        <ele>264</ele>
        <time>2026-05-14T09:55:04+00:00</time>
      </trkpt>
      <trkpt lat="48.59712" lon="-0.47302">
        <ele>261</ele>
        <time>2026-05-14T09:55:05+00:00</time>
      </trkpt>
      <trkpt lat="48.59728" lon="-0.47337">
        <ele>260</ele>
        <time>2026-05-14T09:55:06+00:00</time>
      </trkpt>
      <trkpt lat="48.59777" lon="-0.47415">
        <ele>257</ele>
        <time>2026-05-14T09:55:07+00:00</time>
      </trkpt>
      <trkpt lat="48.5978" lon="-0.47435">
        <ele>257</ele>
        <time>2026-05-14T09:55:08+00:00</time>
      </trkpt>
      <trkpt lat="48.59823" lon="-0.475">
        <ele>258</ele>
        <time>2026-05-14T09:55:09+00:00</time>
      </trkpt>
      <trkpt lat="48.59951" lon="-0.47718">
        <ele>252</ele>
        <time>2026-05-14T09:55:10+00:00</time>
      </trkpt>
      <trkpt lat="48.60017" lon="-0.47775">
        <ele>249</ele>
        <time>2026-05-14T09:55:11+00:00</time>
      </trkpt>
      <trkpt lat="48.6005" lon="-0.47837">
        <ele>250</ele>
        <time>2026-05-14T09:55:12+00:00</time>
      </trkpt>
      <trkpt lat="48.60051" lon="-0.47854">
        <ele>250</ele>
        <time>2026-05-14T09:55:13+00:00</time>
      </trkpt>
      <trkpt lat="48.60078" lon="-0.47959">
        <ele>251</ele>
        <time>2026-05-14T09:55:14+00:00</time>
      </trkpt>
      <trkpt lat="48.60048" lon="-0.48082">
        <ele>248</ele>
        <time>2026-05-14T09:55:15+00:00</time>
      </trkpt>
      <trkpt lat="48.60049" lon="-0.48147">
        <ele>249</ele>
        <time>2026-05-14T09:55:16+00:00</time>
      </trkpt>
      <trkpt lat="48.60459" lon="-0.48137">
        <ele>271</ele>
        <time>2026-05-14T09:55:17+00:00</time>
      </trkpt>
      <trkpt lat="48.60556" lon="-0.47974">
        <ele>278</ele>
        <time>2026-05-14T09:55:18+00:00</time>
      </trkpt>
      <trkpt lat="48.60605" lon="-0.47951">
        <ele>280</ele>
        <time>2026-05-14T09:55:19+00:00</time>
      </trkpt>
      <trkpt lat="48.60666" lon="-0.48039">
        <ele>277</ele>
        <time>2026-05-14T09:55:20+00:00</time>
      </trkpt>
      <trkpt lat="48.60711" lon="-0.48044">
        <ele>274</ele>
        <time>2026-05-14T09:55:21+00:00</time>
      </trkpt>
      <trkpt lat="48.60777" lon="-0.47982">
        <ele>274</ele>
        <time>2026-05-14T09:55:22+00:00</time>
      </trkpt>
      <trkpt lat="48.60941" lon="-0.477">
        <ele>291</ele>
        <time>2026-05-14T09:55:23+00:00</time>
      </trkpt>
      <trkpt lat="48.60973" lon="-0.47722">
        <ele>291</ele>
        <time>2026-05-14T09:55:24+00:00</time>
      </trkpt>
      <trkpt lat="48.61008" lon="-0.47722">
        <ele>291</ele>
        <time>2026-05-14T09:55:25+00:00</time>
      </trkpt>
      <trkpt lat="48.61021" lon="-0.47706">
        <ele>293</ele>
        <time>2026-05-14T09:55:26+00:00</time>
      </trkpt>
      <trkpt lat="48.61035" lon="-0.47696">
        <ele>294</ele>
        <time>2026-05-14T09:55:27+00:00</time>
      </trkpt>
      <trkpt lat="48.61119" lon="-0.47693">
        <ele>298</ele>
        <time>2026-05-14T09:55:28+00:00</time>
      </trkpt>
      <trkpt lat="48.61134" lon="-0.47687">
        <ele>299</ele>
        <time>2026-05-14T09:55:29+00:00</time>
      </trkpt>
      <trkpt lat="48.61211" lon="-0.47619">
        <ele>300</ele>
        <time>2026-05-14T09:55:30+00:00</time>
      </trkpt>
      <trkpt lat="48.61238" lon="-0.47652">
        <ele>299</ele>
        <time>2026-05-14T09:55:31+00:00</time>
      </trkpt>
      <trkpt lat="48.60878" lon="-0.48299">
        <ele>267</ele>
        <time>2026-05-14T09:55:32+00:00</time>
      </trkpt>
      <trkpt lat="48.60881" lon="-0.48303">
        <ele>267</ele>
        <time>2026-05-14T09:55:33+00:00</time>
      </trkpt>
      <trkpt lat="48.60464" lon="-0.49032">
        <ele>249</ele>
        <time>2026-05-14T09:55:34+00:00</time>
      </trkpt>
      <trkpt lat="48.60373" lon="-0.48907">
        <ele>240</ele>
        <time>2026-05-14T09:55:35+00:00</time>
      </trkpt>
      <trkpt lat="48.60374" lon="-0.48909">
        <ele>240</ele>
        <time>2026-05-14T09:55:36+00:00</time>
      </trkpt>
      <trkpt lat="48.60355" lon="-0.4894">
        <ele>238</ele>
        <time>2026-05-14T09:55:37+00:00</time>
      </trkpt>
      <trkpt lat="48.60319" lon="-0.48987">
        <ele>235</ele>
        <time>2026-05-14T09:55:38+00:00</time>
      </trkpt>
      <trkpt lat="48.60306" lon="-0.49009">
        <ele>235</ele>
        <time>2026-05-14T09:55:39+00:00</time>
      </trkpt>
      <trkpt lat="48.60282" lon="-0.49091">
        <ele>235</ele>
        <time>2026-05-14T09:55:40+00:00</time>
      </trkpt>
      <trkpt lat="48.60275" lon="-0.49136">
        <ele>233</ele>
        <time>2026-05-14T09:55:41+00:00</time>
      </trkpt>
      <trkpt lat="48.60275" lon="-0.49158">
        <ele>232</ele>
        <time>2026-05-14T09:55:42+00:00</time>
      </trkpt>
      <trkpt lat="48.60291" lon="-0.49238">
        <ele>234</ele>
        <time>2026-05-14T09:55:43+00:00</time>
      </trkpt>
      <trkpt lat="48.60311" lon="-0.49291">
        <ele>235</ele>
        <time>2026-05-14T09:55:44+00:00</time>
      </trkpt>
      <trkpt lat="48.60315" lon="-0.49311">
        <ele>235</ele>
        <time>2026-05-14T09:55:45+00:00</time>
      </trkpt>
      <trkpt lat="48.60311" lon="-0.49391">
        <ele>237</ele>
        <time>2026-05-14T09:55:46+00:00</time>
      </trkpt>
      <trkpt lat="48.60304" lon="-0.49405">
        <ele>237</ele>
        <time>2026-05-14T09:55:47+00:00</time>
      </trkpt>
      <trkpt lat="48.60267" lon="-0.49453">
        <ele>238</ele>
        <time>2026-05-14T09:55:48+00:00</time>
      </trkpt>
      <trkpt lat="48.60255" lon="-0.49484">
        <ele>240</ele>
        <time>2026-05-14T09:55:49+00:00</time>
      </trkpt>
      <trkpt lat="48.60241" lon="-0.49481">
        <ele>239</ele>
        <time>2026-05-14T09:55:50+00:00</time>
      </trkpt>
      <trkpt lat="48.60235" lon="-0.49496">
        <ele>240</ele>
        <time>2026-05-14T09:55:51+00:00</time>
      </trkpt>
      <trkpt lat="48.60226" lon="-0.49505">
        <ele>241</ele>
        <time>2026-05-14T09:55:52+00:00</time>
      </trkpt>
      <trkpt lat="48.60221" lon="-0.49504">
        <ele>240</ele>
        <time>2026-05-14T09:55:53+00:00</time>
      </trkpt>
      <trkpt lat="48.60214" lon="-0.49507">
        <ele>240</ele>
        <time>2026-05-14T09:55:54+00:00</time>
      </trkpt>
      <trkpt lat="48.60204" lon="-0.49519">
        <ele>241</ele>
        <time>2026-05-14T09:55:55+00:00</time>
      </trkpt>
      <trkpt lat="48.60184" lon="-0.49532">
        <ele>240</ele>
        <time>2026-05-14T09:55:56+00:00</time>
      </trkpt>
      <trkpt lat="48.60175" lon="-0.49542">
        <ele>240</ele>
        <time>2026-05-14T09:55:57+00:00</time>
      </trkpt>
      <trkpt lat="48.60167" lon="-0.49557">
        <ele>239</ele>
        <time>2026-05-14T09:55:58+00:00</time>
      </trkpt>
      <trkpt lat="48.60164" lon="-0.49578">
        <ele>239</ele>
        <time>2026-05-14T09:55:59+00:00</time>
      </trkpt>
      <trkpt lat="48.60172" lon="-0.49658">
        <ele>240</ele>
        <time>2026-05-14T09:56:00+00:00</time>
      </trkpt>
      <trkpt lat="48.60173" lon="-0.49837">
        <ele>240</ele>
        <time>2026-05-14T09:56:01+00:00</time>
      </trkpt>
      <trkpt lat="48.60169" lon="-0.49882">
        <ele>238</ele>
        <time>2026-05-14T09:56:02+00:00</time>
      </trkpt>
      <trkpt lat="48.60158" lon="-0.49932">
        <ele>236</ele>
        <time>2026-05-14T09:56:03+00:00</time>
      </trkpt>
      <trkpt lat="48.60184" lon="-0.50126">
        <ele>234</ele>
        <time>2026-05-14T09:56:04+00:00</time>
      </trkpt>
      <trkpt lat="48.60195" lon="-0.5018">
        <ele>235</ele>
        <time>2026-05-14T09:56:05+00:00</time>
      </trkpt>
      <trkpt lat="48.60203" lon="-0.50238">
        <ele>235</ele>
        <time>2026-05-14T09:56:06+00:00</time>
      </trkpt>
      <trkpt lat="48.60235" lon="-0.50398">
        <ele>234</ele>
        <time>2026-05-14T09:56:07+00:00</time>
      </trkpt>
      <trkpt lat="48.60252" lon="-0.50516">
        <ele>235</ele>
        <time>2026-05-14T09:56:08+00:00</time>
      </trkpt>
      <trkpt lat="48.60219" lon="-0.50763">
        <ele>245</ele>
        <time>2026-05-14T09:56:09+00:00</time>
      </trkpt>
      <trkpt lat="48.60227" lon="-0.51314">
        <ele>259</ele>
        <time>2026-05-14T09:56:10+00:00</time>
      </trkpt>
      <trkpt lat="48.60232" lon="-0.51453">
        <ele>257</ele>
        <time>2026-05-14T09:56:11+00:00</time>
      </trkpt>
      <trkpt lat="48.60032" lon="-0.51789">
        <ele>254</ele>
        <time>2026-05-14T09:56:12+00:00</time>
      </trkpt>
      <trkpt lat="48.59995" lon="-0.51844">
        <ele>253</ele>
        <time>2026-05-14T09:56:13+00:00</time>
      </trkpt>
      <trkpt lat="48.59978" lon="-0.51862">
        <ele>252</ele>
        <time>2026-05-14T09:56:14+00:00</time>
      </trkpt>
      <trkpt lat="48.59947" lon="-0.51889">
        <ele>251</ele>
        <time>2026-05-14T09:56:15+00:00</time>
      </trkpt>
      <trkpt lat="48.59943" lon="-0.51902">
        <ele>251</ele>
        <time>2026-05-14T09:56:16+00:00</time>
      </trkpt>
      <trkpt lat="48.59932" lon="-0.51913">
        <ele>251</ele>
        <time>2026-05-14T09:56:17+00:00</time>
      </trkpt>
      <trkpt lat="48.59893" lon="-0.52007">
        <ele>251</ele>
        <time>2026-05-14T09:56:18+00:00</time>
      </trkpt>
      <trkpt lat="48.59881" lon="-0.52061">
        <ele>252</ele>
        <time>2026-05-14T09:56:19+00:00</time>
      </trkpt>
      <trkpt lat="48.59854" lon="-0.52091">
        <ele>252</ele>
        <time>2026-05-14T09:56:20+00:00</time>
      </trkpt>
      <trkpt lat="48.59834" lon="-0.52126">
        <ele>252</ele>
        <time>2026-05-14T09:56:21+00:00</time>
      </trkpt>
      <trkpt lat="48.59814" lon="-0.52178">
        <ele>250</ele>
        <time>2026-05-14T09:56:22+00:00</time>
      </trkpt>
      <trkpt lat="48.59831" lon="-0.53284">
        <ele>192</ele>
        <time>2026-05-14T09:56:23+00:00</time>
      </trkpt>
      <trkpt lat="48.59825" lon="-0.53291">
        <ele>192</ele>
        <time>2026-05-14T09:56:24+00:00</time>
      </trkpt>
      <trkpt lat="48.59799" lon="-0.53296">
        <ele>195</ele>
        <time>2026-05-14T09:56:25+00:00</time>
      </trkpt>
      <trkpt lat="48.59769" lon="-0.53291">
        <ele>198</ele>
        <time>2026-05-14T09:56:26+00:00</time>
      </trkpt>
      <trkpt lat="48.59749" lon="-0.53303">
        <ele>201</ele>
        <time>2026-05-14T09:56:27+00:00</time>
      </trkpt>
      <trkpt lat="48.59697" lon="-0.53312">
        <ele>208</ele>
        <time>2026-05-14T09:56:28+00:00</time>
      </trkpt>
      <trkpt lat="48.59697" lon="-0.53274">
        <ele>206</ele>
        <time>2026-05-14T09:56:29+00:00</time>
      </trkpt>
      <trkpt lat="48.59703" lon="-0.53214">
        <ele>205</ele>
        <time>2026-05-14T09:56:30+00:00</time>
      </trkpt>
      <trkpt lat="48.59709" lon="-0.53184">
        <ele>205</ele>
        <time>2026-05-14T09:56:31+00:00</time>
      </trkpt>
      <trkpt lat="48.59709" lon="-0.53161">
        <ele>206</ele>
        <time>2026-05-14T09:56:32+00:00</time>
      </trkpt>
      <trkpt lat="48.59703" lon="-0.53125">
        <ele>210</ele>
        <time>2026-05-14T09:56:33+00:00</time>
      </trkpt>
      <trkpt lat="48.59691" lon="-0.53096">
        <ele>214</ele>
        <time>2026-05-14T09:56:34+00:00</time>
      </trkpt>
      <trkpt lat="48.59665" lon="-0.53001">
        <ele>220</ele>
        <time>2026-05-14T09:56:35+00:00</time>
      </trkpt>
      <trkpt lat="48.5965" lon="-0.52894">
        <ele>223</ele>
        <time>2026-05-14T09:56:36+00:00</time>
      </trkpt>
      <trkpt lat="48.5965" lon="-0.52846">
        <ele>225</ele>
        <time>2026-05-14T09:56:37+00:00</time>
      </trkpt>
      <trkpt lat="48.59653" lon="-0.52827">
        <ele>226</ele>
        <time>2026-05-14T09:56:38+00:00</time>
      </trkpt>
      <trkpt lat="48.59652" lon="-0.5283">
        <ele>226</ele>
        <time>2026-05-14T09:56:39+00:00</time>
      </trkpt>
      <trkpt lat="48.59445" lon="-0.52846">
        <ele>227</ele>
        <time>2026-05-14T09:56:40+00:00</time>
      </trkpt>
      <trkpt lat="48.59443" lon="-0.52859">
        <ele>226</ele>
        <time>2026-05-14T09:56:41+00:00</time>
      </trkpt>
      <trkpt lat="48.59445" lon="-0.52881">
        <ele>225</ele>
        <time>2026-05-14T09:56:42+00:00</time>
      </trkpt>
      <trkpt lat="48.59447" lon="-0.52895">
        <ele>224</ele>
        <time>2026-05-14T09:56:43+00:00</time>
      </trkpt>
      <trkpt lat="48.59455" lon="-0.5292">
        <ele>223</ele>
        <time>2026-05-14T09:56:44+00:00</time>
      </trkpt>
      <trkpt lat="48.5945" lon="-0.52942">
        <ele>221</ele>
        <time>2026-05-14T09:56:45+00:00</time>
      </trkpt>
      <trkpt lat="48.59399" lon="-0.52999">
        <ele>210</ele>
        <time>2026-05-14T09:56:46+00:00</time>
      </trkpt>
      <trkpt lat="48.59382" lon="-0.53011">
        <ele>209</ele>
        <time>2026-05-14T09:56:47+00:00</time>
      </trkpt>
      <trkpt lat="48.59327" lon="-0.53012">
        <ele>208</ele>
        <time>2026-05-14T09:56:48+00:00</time>
      </trkpt>
      <trkpt lat="48.5931" lon="-0.52406">
        <ele>222</ele>
        <time>2026-05-14T09:56:49+00:00</time>
      </trkpt>
      <trkpt lat="48.59326" lon="-0.52337">
        <ele>218</ele>
        <time>2026-05-14T09:56:50+00:00</time>
      </trkpt>
      <trkpt lat="48.59357" lon="-0.52265">
        <ele>220</ele>
        <time>2026-05-14T09:56:51+00:00</time>
      </trkpt>
      <trkpt lat="48.59345" lon="-0.52214">
        <ele>222</ele>
        <time>2026-05-14T09:56:52+00:00</time>
      </trkpt>
      <trkpt lat="48.59336" lon="-0.52194">
        <ele>224</ele>
        <time>2026-05-14T09:56:53+00:00</time>
      </trkpt>
      <trkpt lat="48.59326" lon="-0.52193">
        <ele>224</ele>
        <time>2026-05-14T09:56:54+00:00</time>
      </trkpt>
      <trkpt lat="48.59323" lon="-0.52179">
        <ele>225</ele>
        <time>2026-05-14T09:56:55+00:00</time>
      </trkpt>
      <trkpt lat="48.59313" lon="-0.52167">
        <ele>226</ele>
        <time>2026-05-14T09:56:56+00:00</time>
      </trkpt>
      <trkpt lat="48.59308" lon="-0.52142">
        <ele>227</ele>
        <time>2026-05-14T09:56:57+00:00</time>
      </trkpt>
      <trkpt lat="48.59301" lon="-0.5196">
        <ele>235</ele>
        <time>2026-05-14T09:56:58+00:00</time>
      </trkpt>
      <trkpt lat="48.59306" lon="-0.519">
        <ele>239</ele>
        <time>2026-05-14T09:56:59+00:00</time>
      </trkpt>
      <trkpt lat="48.59303" lon="-0.51892">
        <ele>240</ele>
        <time>2026-05-14T09:57:00+00:00</time>
      </trkpt>
      <trkpt lat="48.59299" lon="-0.51835">
        <ele>245</ele>
        <time>2026-05-14T09:57:01+00:00</time>
      </trkpt>
      <trkpt lat="48.59176" lon="-0.52041">
        <ele>230</ele>
        <time>2026-05-14T09:57:02+00:00</time>
      </trkpt>
      <trkpt lat="48.59124" lon="-0.52114">
        <ele>223</ele>
        <time>2026-05-14T09:57:03+00:00</time>
      </trkpt>
      <trkpt lat="48.58911" lon="-0.52468">
        <ele>237</ele>
        <time>2026-05-14T09:57:04+00:00</time>
      </trkpt>
      <trkpt lat="48.58425" lon="-0.53261">
        <ele>238</ele>
        <time>2026-05-14T09:57:05+00:00</time>
      </trkpt>
      <trkpt lat="48.5776" lon="-0.54354">
        <ele>273</ele>
        <time>2026-05-14T09:57:06+00:00</time>
      </trkpt>
      <trkpt lat="48.5775" lon="-0.54339">
        <ele>274</ele>
        <time>2026-05-14T09:57:07+00:00</time>
      </trkpt>
      <trkpt lat="48.5772" lon="-0.54313">
        <ele>272</ele>
        <time>2026-05-14T09:57:08+00:00</time>
      </trkpt>
      <trkpt lat="48.57675" lon="-0.54286">
        <ele>270</ele>
        <time>2026-05-14T09:57:09+00:00</time>
      </trkpt>
      <trkpt lat="48.57488" lon="-0.52825">
        <ele>259</ele>
        <time>2026-05-14T09:57:10+00:00</time>
      </trkpt>
      <trkpt lat="48.57277" lon="-0.51145">
        <ele>273</ele>
        <time>2026-05-14T09:57:11+00:00</time>
      </trkpt>
      <trkpt lat="48.57274" lon="-0.51149">
        <ele>273</ele>
        <time>2026-05-14T09:57:12+00:00</time>
      </trkpt>
      <trkpt lat="48.56977" lon="-0.48406">
        <ele>258</ele>
        <time>2026-05-14T09:57:13+00:00</time>
      </trkpt>
      <trkpt lat="48.56658" lon="-0.48295">
        <ele>236</ele>
        <time>2026-05-14T09:57:14+00:00</time>
      </trkpt>
      <trkpt lat="48.56717" lon="-0.48198">
        <ele>240</ele>
        <time>2026-05-14T09:57:15+00:00</time>
      </trkpt>
      <trkpt lat="48.56917" lon="-0.47829">
        <ele>261</ele>
        <time>2026-05-14T09:57:16+00:00</time>
      </trkpt>
      <trkpt lat="48.56641" lon="-0.469">
        <ele>262</ele>
        <time>2026-05-14T09:57:17+00:00</time>
      </trkpt>
      <trkpt lat="48.56416" lon="-0.45934">
        <ele>249</ele>
        <time>2026-05-14T09:57:18+00:00</time>
      </trkpt>
      <trkpt lat="48.56124" lon="-0.44613">
        <ele>240</ele>
        <time>2026-05-14T09:57:19+00:00</time>
      </trkpt>
      <trkpt lat="48.56105" lon="-0.44614">
        <ele>240</ele>
        <time>2026-05-14T09:57:20+00:00</time>
      </trkpt>
      <trkpt lat="48.56053" lon="-0.44654">
        <ele>239</ele>
        <time>2026-05-14T09:57:21+00:00</time>
      </trkpt>
      <trkpt lat="48.56017" lon="-0.4469">
        <ele>236</ele>
        <time>2026-05-14T09:57:22+00:00</time>
      </trkpt>
      <trkpt lat="48.55982" lon="-0.4472">
        <ele>231</ele>
        <time>2026-05-14T09:57:23+00:00</time>
      </trkpt>
      <trkpt lat="48.55831" lon="-0.44813">
        <ele>214</ele>
        <time>2026-05-14T09:57:24+00:00</time>
      </trkpt>
      <trkpt lat="48.55848" lon="-0.44735">
        <ele>219</ele>
        <time>2026-05-14T09:57:25+00:00</time>
      </trkpt>
      <trkpt lat="48.55836" lon="-0.44647">
        <ele>219</ele>
        <time>2026-05-14T09:57:26+00:00</time>
      </trkpt>
      <trkpt lat="48.55835" lon="-0.4461">
        <ele>219</ele>
        <time>2026-05-14T09:57:27+00:00</time>
      </trkpt>
      <trkpt lat="48.55847" lon="-0.44505">
        <ele>220</ele>
        <time>2026-05-14T09:57:28+00:00</time>
      </trkpt>
      <trkpt lat="48.55841" lon="-0.44359">
        <ele>221</ele>
        <time>2026-05-14T09:57:29+00:00</time>
      </trkpt>
      <trkpt lat="48.55843" lon="-0.44178">
        <ele>227</ele>
        <time>2026-05-14T09:57:30+00:00</time>
      </trkpt>
      <trkpt lat="48.55825" lon="-0.44087">
        <ele>227</ele>
        <time>2026-05-14T09:57:31+00:00</time>
      </trkpt>
      <trkpt lat="48.55799" lon="-0.44">
        <ele>229</ele>
        <time>2026-05-14T09:57:32+00:00</time>
      </trkpt>
      <trkpt lat="48.55705" lon="-0.43618">
        <ele>234</ele>
        <time>2026-05-14T09:57:33+00:00</time>
      </trkpt>
      <trkpt lat="48.55742" lon="-0.43391">
        <ele>237</ele>
        <time>2026-05-14T09:57:34+00:00</time>
      </trkpt>
      <trkpt lat="48.5575" lon="-0.43282">
        <ele>236</ele>
        <time>2026-05-14T09:57:35+00:00</time>
      </trkpt>
      <trkpt lat="48.55699" lon="-0.42986">
        <ele>236</ele>
        <time>2026-05-14T09:57:36+00:00</time>
      </trkpt>
      <trkpt lat="48.55693" lon="-0.42943">
        <ele>236</ele>
        <time>2026-05-14T09:57:37+00:00</time>
      </trkpt>
      <trkpt lat="48.55692" lon="-0.42914">
        <ele>235</ele>
        <time>2026-05-14T09:57:38+00:00</time>
      </trkpt>
      <trkpt lat="48.55684" lon="-0.4287">
        <ele>235</ele>
        <time>2026-05-14T09:57:39+00:00</time>
      </trkpt>
      <trkpt lat="48.55598" lon="-0.42482">
        <ele>229</ele>
        <time>2026-05-14T09:57:40+00:00</time>
      </trkpt>
      <trkpt lat="48.55549" lon="-0.42452">
        <ele>225</ele>
        <time>2026-05-14T09:57:41+00:00</time>
      </trkpt>
      <trkpt lat="48.55506" lon="-0.42429">
        <ele>222</ele>
        <time>2026-05-14T09:57:42+00:00</time>
      </trkpt>
      <trkpt lat="48.55488" lon="-0.42417">
        <ele>221</ele>
        <time>2026-05-14T09:57:43+00:00</time>
      </trkpt>
      <trkpt lat="48.55481" lon="-0.42409">
        <ele>221</ele>
        <time>2026-05-14T09:57:44+00:00</time>
      </trkpt>
      <trkpt lat="48.55456" lon="-0.42402">
        <ele>219</ele>
        <time>2026-05-14T09:57:45+00:00</time>
      </trkpt>
      <trkpt lat="48.55445" lon="-0.42401">
        <ele>218</ele>
        <time>2026-05-14T09:57:46+00:00</time>
      </trkpt>
      <trkpt lat="48.55383" lon="-0.42424">
        <ele>212</ele>
        <time>2026-05-14T09:57:47+00:00</time>
      </trkpt>
      <trkpt lat="48.55362" lon="-0.42428">
        <ele>211</ele>
        <time>2026-05-14T09:57:48+00:00</time>
      </trkpt>
      <trkpt lat="48.55373" lon="-0.42375">
        <ele>213</ele>
        <time>2026-05-14T09:57:49+00:00</time>
      </trkpt>
      <trkpt lat="48.55373" lon="-0.42358">
        <ele>213</ele>
        <time>2026-05-14T09:57:50+00:00</time>
      </trkpt>
      <trkpt lat="48.55321" lon="-0.42164">
        <ele>214</ele>
        <time>2026-05-14T09:57:51+00:00</time>
      </trkpt>
      <trkpt lat="48.5531" lon="-0.4216">
        <ele>213</ele>
        <time>2026-05-14T09:57:52+00:00</time>
      </trkpt>
      <trkpt lat="48.55286" lon="-0.42167">
        <ele>210</ele>
        <time>2026-05-14T09:57:53+00:00</time>
      </trkpt>
      <trkpt lat="48.55287" lon="-0.4209">
        <ele>210</ele>
        <time>2026-05-14T09:57:54+00:00</time>
      </trkpt>
      <trkpt lat="48.55315" lon="-0.42107">
        <ele>214</ele>
        <time>2026-05-14T09:57:55+00:00</time>
      </trkpt>
      <trkpt lat="48.55324" lon="-0.42104">
        <ele>215</ele>
        <time>2026-05-14T09:57:56+00:00</time>
      </trkpt>
      <trkpt lat="48.55333" lon="-0.42026">
        <ele>219</ele>
        <time>2026-05-14T09:57:57+00:00</time>
      </trkpt>
      <trkpt lat="48.55326" lon="-0.42021">
        <ele>218</ele>
        <time>2026-05-14T09:57:58+00:00</time>
      </trkpt>
      <trkpt lat="48.55327" lon="-0.42006">
        <ele>219</ele>
        <time>2026-05-14T09:57:59+00:00</time>
      </trkpt>
      <trkpt lat="48.55335" lon="-0.41974">
        <ele>220</ele>
        <time>2026-05-14T09:58:00+00:00</time>
      </trkpt>
      <trkpt lat="48.55333" lon="-0.41944">
        <ele>219</ele>
        <time>2026-05-14T09:58:01+00:00</time>
      </trkpt>
      <trkpt lat="48.5534" lon="-0.41932">
        <ele>219</ele>
        <time>2026-05-14T09:58:02+00:00</time>
      </trkpt>
      <trkpt lat="48.55346" lon="-0.41942">
        <ele>220</ele>
        <time>2026-05-14T09:58:03+00:00</time>
      </trkpt>
      <trkpt lat="48.55372" lon="-0.41968">
        <ele>222</ele>
        <time>2026-05-14T09:58:04+00:00</time>
      </trkpt>
      <trkpt lat="48.55384" lon="-0.41997">
        <ele>224</ele>
        <time>2026-05-14T09:58:05+00:00</time>
      </trkpt>
      <trkpt lat="48.55387" lon="-0.42032">
        <ele>224</ele>
        <time>2026-05-14T09:58:06+00:00</time>
      </trkpt>
      <trkpt lat="48.55402" lon="-0.42058">
        <ele>224</ele>
        <time>2026-05-14T09:58:07+00:00</time>
      </trkpt>
      <trkpt lat="48.55409" lon="-0.42051">
        <ele>225</ele>
        <time>2026-05-14T09:58:08+00:00</time>
      </trkpt>
      <trkpt lat="48.55434" lon="-0.42073">
        <ele>226</ele>
        <time>2026-05-14T09:58:09+00:00</time>
      </trkpt>
      <trkpt lat="48.55437" lon="-0.42054">
        <ele>226</ele>
        <time>2026-05-14T09:58:10+00:00</time>
      </trkpt>
      <trkpt lat="48.55446" lon="-0.42023">
        <ele>226</ele>
        <time>2026-05-14T09:58:11+00:00</time>
      </trkpt>
      <trkpt lat="48.55479" lon="-0.41996">
        <ele>226</ele>
        <time>2026-05-14T09:58:12+00:00</time>
      </trkpt>
      <trkpt lat="48.55476" lon="-0.41984">
        <ele>225</ele>
        <time>2026-05-14T09:58:13+00:00</time>
      </trkpt>
      <trkpt lat="48.55455" lon="-0.41946">
        <ele>223</ele>
        <time>2026-05-14T09:58:14+00:00</time>
      </trkpt>
      <trkpt lat="48.55451" lon="-0.41919">
        <ele>222</ele>
        <time>2026-05-14T09:58:15+00:00</time>
      </trkpt>
      <trkpt lat="48.55457" lon="-0.41894">
        <ele>217</ele>
        <time>2026-05-14T09:58:16+00:00</time>
      </trkpt>
      <trkpt lat="48.55456" lon="-0.41875">
        <ele>213</ele>
        <time>2026-05-14T09:58:17+00:00</time>
      </trkpt>
      <trkpt lat="48.55425" lon="-0.41853">
        <ele>214</ele>
        <time>2026-05-14T09:58:18+00:00</time>
      </trkpt>
      <trkpt lat="48.55417" lon="-0.41838">
        <ele>213</ele>
        <time>2026-05-14T09:58:19+00:00</time>
      </trkpt>
      <trkpt lat="48.55429" lon="-0.41844">
        <ele>211</ele>
        <time>2026-05-14T09:58:20+00:00</time>
      </trkpt>
      <trkpt lat="48.55436" lon="-0.41839">
        <ele>209</ele>
        <time>2026-05-14T09:58:21+00:00</time>
      </trkpt>
      <trkpt lat="48.55438" lon="-0.41833">
        <ele>208</ele>
        <time>2026-05-14T09:58:22+00:00</time>
      </trkpt>
      <trkpt lat="48.55434" lon="-0.41815">
        <ele>205</ele>
        <time>2026-05-14T09:58:23+00:00</time>
      </trkpt>
      <trkpt lat="48.55418" lon="-0.41785">
        <ele>201</ele>
        <time>2026-05-14T09:58:24+00:00</time>
      </trkpt>
      <trkpt lat="48.55408" lon="-0.41754">
        <ele>196</ele>
        <time>2026-05-14T09:58:25+00:00</time>
      </trkpt>
      <trkpt lat="48.55399" lon="-0.41735">
        <ele>194</ele>
        <time>2026-05-14T09:58:26+00:00</time>
      </trkpt>
      <trkpt lat="48.55393" lon="-0.41728">
        <ele>194</ele>
        <time>2026-05-14T09:58:27+00:00</time>
      </trkpt>
      <trkpt lat="48.554" lon="-0.41724">
        <ele>193</ele>
        <time>2026-05-14T09:58:28+00:00</time>
      </trkpt>
      <trkpt lat="48.554" lon="-0.41719">
        <ele>192</ele>
        <time>2026-05-14T09:58:29+00:00</time>
      </trkpt>
      <trkpt lat="48.55391" lon="-0.41698">
        <ele>191</ele>
        <time>2026-05-14T09:58:30+00:00</time>
      </trkpt>
      <trkpt lat="48.5547" lon="-0.41785">
        <ele>193</ele>
        <time>2026-05-14T09:58:31+00:00</time>
      </trkpt>
      <trkpt lat="48.55502" lon="-0.41826">
        <ele>195</ele>
        <time>2026-05-14T09:58:32+00:00</time>
      </trkpt>
      <trkpt lat="48.55517" lon="-0.41839">
        <ele>196</ele>
        <time>2026-05-14T09:58:33+00:00</time>
      </trkpt>
      <trkpt lat="48.55523" lon="-0.41841">
        <ele>196</ele>
        <time>2026-05-14T09:58:34+00:00</time>
      </trkpt>
      <trkpt lat="48.55524" lon="-0.41829">
        <ele>194</ele>
        <time>2026-05-14T09:58:35+00:00</time>
      </trkpt>
      <trkpt lat="48.55517" lon="-0.41827">
        <ele>194</ele>
        <time>2026-05-14T09:58:36+00:00</time>
      </trkpt>
      <trkpt lat="48.55503" lon="-0.41815">
        <ele>193</ele>
        <time>2026-05-14T09:58:37+00:00</time>
      </trkpt>
      <trkpt lat="48.55477" lon="-0.41786">
        <ele>192</ele>
        <time>2026-05-14T09:58:38+00:00</time>
      </trkpt>
      <trkpt lat="48.55489" lon="-0.41756">
        <ele>185</ele>
        <time>2026-05-14T09:58:39+00:00</time>
      </trkpt>
      <trkpt lat="48.55508" lon="-0.41749">
        <ele>184</ele>
        <time>2026-05-14T09:58:40+00:00</time>
      </trkpt>
      <trkpt lat="48.55517" lon="-0.41761">
        <ele>186</ele>
        <time>2026-05-14T09:58:41+00:00</time>
      </trkpt>
      <trkpt lat="48.55536" lon="-0.41765">
        <ele>187</ele>
        <time>2026-05-14T09:58:42+00:00</time>
      </trkpt>
      <trkpt lat="48.55581" lon="-0.41755">
        <ele>190</ele>
        <time>2026-05-14T09:58:43+00:00</time>
      </trkpt>
      <trkpt lat="48.55609" lon="-0.4176">
        <ele>188</ele>
        <time>2026-05-14T09:58:44+00:00</time>
      </trkpt>
      <trkpt lat="48.55623" lon="-0.4175">
        <ele>187</ele>
        <time>2026-05-14T09:58:45+00:00</time>
      </trkpt>
      <trkpt lat="48.55665" lon="-0.41703">
        <ele>186</ele>
        <time>2026-05-14T09:58:46+00:00</time>
      </trkpt>
      <trkpt lat="48.55687" lon="-0.41686">
        <ele>186</ele>
        <time>2026-05-14T09:58:47+00:00</time>
      </trkpt>
      <trkpt lat="48.55685" lon="-0.41673">
        <ele>186</ele>
        <time>2026-05-14T09:58:48+00:00</time>
      </trkpt>
      <trkpt lat="48.55687" lon="-0.41686">
        <ele>186</ele>
        <time>2026-05-14T09:58:49+00:00</time>
      </trkpt>
      <trkpt lat="48.55682" lon="-0.4169">
        <ele>186</ele>
        <time>2026-05-14T09:58:50+00:00</time>
      </trkpt>
      <trkpt lat="48.55664" lon="-0.41679">
        <ele>188</ele>
        <time>2026-05-14T09:58:51+00:00</time>
      </trkpt>
      <trkpt lat="48.55644" lon="-0.41672">
        <ele>191</ele>
        <time>2026-05-14T09:58:52+00:00</time>
      </trkpt>
      <trkpt lat="48.55631" lon="-0.41664">
        <ele>194</ele>
        <time>2026-05-14T09:58:53+00:00</time>
      </trkpt>
      <trkpt lat="48.55617" lon="-0.41664">
        <ele>196</ele>
        <time>2026-05-14T09:58:54+00:00</time>
      </trkpt>
      <trkpt lat="48.55585" lon="-0.41673">
        <ele>200</ele>
        <time>2026-05-14T09:58:55+00:00</time>
      </trkpt>
      <trkpt lat="48.55569" lon="-0.41634">
        <ele>202</ele>
        <time>2026-05-14T09:58:56+00:00</time>
      </trkpt>
      <trkpt lat="48.55505" lon="-0.41555">
        <ele>204</ele>
        <time>2026-05-14T09:58:57+00:00</time>
      </trkpt>
      <trkpt lat="48.55508" lon="-0.41609">
        <ele>199</ele>
        <time>2026-05-14T09:58:58+00:00</time>
      </trkpt>
      <trkpt lat="48.55445" lon="-0.41525">
        <ele>197</ele>
        <time>2026-05-14T09:58:59+00:00</time>
      </trkpt>
      <trkpt lat="48.55413" lon="-0.41465">
        <ele>202</ele>
        <time>2026-05-14T09:59:00+00:00</time>
      </trkpt>
      <trkpt lat="48.55371" lon="-0.41447">
        <ele>202</ele>
        <time>2026-05-14T09:59:01+00:00</time>
      </trkpt>
      <trkpt lat="48.55349" lon="-0.41408">
        <ele>209</ele>
        <time>2026-05-14T09:59:02+00:00</time>
      </trkpt>
      <trkpt lat="48.5531" lon="-0.41385">
        <ele>211</ele>
        <time>2026-05-14T09:59:03+00:00</time>
      </trkpt>
      <trkpt lat="48.55302" lon="-0.41395">
        <ele>210</ele>
        <time>2026-05-14T09:59:04+00:00</time>
      </trkpt>
      <trkpt lat="48.55301" lon="-0.41405">
        <ele>208</ele>
        <time>2026-05-14T09:59:05+00:00</time>
      </trkpt>
      <trkpt lat="48.55306" lon="-0.4143">
        <ele>203</ele>
        <time>2026-05-14T09:59:06+00:00</time>
      </trkpt>
      <trkpt lat="48.553" lon="-0.41459">
        <ele>197</ele>
        <time>2026-05-14T09:59:07+00:00</time>
      </trkpt>
      <trkpt lat="48.55306" lon="-0.41467">
        <ele>194</ele>
        <time>2026-05-14T09:59:08+00:00</time>
      </trkpt>
      <trkpt lat="48.55305" lon="-0.41473">
        <ele>193</ele>
        <time>2026-05-14T09:59:09+00:00</time>
      </trkpt>
      <trkpt lat="48.55289" lon="-0.41488">
        <ele>190</ele>
        <time>2026-05-14T09:59:10+00:00</time>
      </trkpt>
      <trkpt lat="48.55292" lon="-0.41495">
        <ele>188</ele>
        <time>2026-05-14T09:59:11+00:00</time>
      </trkpt>
      <trkpt lat="48.55288" lon="-0.41499">
        <ele>187</ele>
        <time>2026-05-14T09:59:12+00:00</time>
      </trkpt>
      <trkpt lat="48.5529" lon="-0.41508">
        <ele>186</ele>
        <time>2026-05-14T09:59:13+00:00</time>
      </trkpt>
      <trkpt lat="48.55275" lon="-0.4151">
        <ele>187</ele>
        <time>2026-05-14T09:59:14+00:00</time>
      </trkpt>
      <trkpt lat="48.55242" lon="-0.41477">
        <ele>195</ele>
        <time>2026-05-14T09:59:15+00:00</time>
      </trkpt>
      <trkpt lat="48.55237" lon="-0.4147">
        <ele>197</ele>
        <time>2026-05-14T09:59:16+00:00</time>
      </trkpt>
      <trkpt lat="48.5523" lon="-0.41445">
        <ele>203</ele>
        <time>2026-05-14T09:59:17+00:00</time>
      </trkpt>
      <trkpt lat="48.55218" lon="-0.41422">
        <ele>209</ele>
        <time>2026-05-14T09:59:18+00:00</time>
      </trkpt>
      <trkpt lat="48.55196" lon="-0.41426">
        <ele>209</ele>
        <time>2026-05-14T09:59:19+00:00</time>
      </trkpt>
      <trkpt lat="48.55166" lon="-0.41464">
        <ele>205</ele>
        <time>2026-05-14T09:59:20+00:00</time>
      </trkpt>
      <trkpt lat="48.55142" lon="-0.41458">
        <ele>205</ele>
        <time>2026-05-14T09:59:21+00:00</time>
      </trkpt>
      <trkpt lat="48.55118" lon="-0.41436">
        <ele>208</ele>
        <time>2026-05-14T09:59:22+00:00</time>
      </trkpt>
      <trkpt lat="48.55132" lon="-0.41391">
        <ele>212</ele>
        <time>2026-05-14T09:59:23+00:00</time>
      </trkpt>
      <trkpt lat="48.55152" lon="-0.41345">
        <ele>214</ele>
        <time>2026-05-14T09:59:24+00:00</time>
      </trkpt>
      <trkpt lat="48.55171" lon="-0.41308">
        <ele>216</ele>
        <time>2026-05-14T09:59:25+00:00</time>
      </trkpt>
      <trkpt lat="48.55192" lon="-0.4128">
        <ele>218</ele>
        <time>2026-05-14T09:59:26+00:00</time>
      </trkpt>
      <trkpt lat="48.5518" lon="-0.41161">
        <ele>219</ele>
        <time>2026-05-14T09:59:27+00:00</time>
      </trkpt>
      <trkpt lat="48.5516" lon="-0.41132">
        <ele>219</ele>
        <time>2026-05-14T09:59:28+00:00</time>
      </trkpt>
      <trkpt lat="48.55143" lon="-0.41126">
        <ele>219</ele>
        <time>2026-05-14T09:59:29+00:00</time>
      </trkpt>
      <trkpt lat="48.5513" lon="-0.41108">
        <ele>218</ele>
        <time>2026-05-14T09:59:30+00:00</time>
      </trkpt>
      <trkpt lat="48.5506" lon="-0.41079">
        <ele>215</ele>
        <time>2026-05-14T09:59:31+00:00</time>
      </trkpt>
      <trkpt lat="48.55032" lon="-0.41041">
        <ele>213</ele>
        <time>2026-05-14T09:59:32+00:00</time>
      </trkpt>
      <trkpt lat="48.55021" lon="-0.41019">
        <ele>212</ele>
        <time>2026-05-14T09:59:33+00:00</time>
      </trkpt>
      <trkpt lat="48.55012" lon="-0.40986">
        <ele>211</ele>
        <time>2026-05-14T09:59:34+00:00</time>
      </trkpt>
      <trkpt lat="48.55" lon="-0.40962">
        <ele>210</ele>
        <time>2026-05-14T09:59:35+00:00</time>
      </trkpt>
      <trkpt lat="48.54964" lon="-0.40925">
        <ele>204</ele>
        <time>2026-05-14T09:59:36+00:00</time>
      </trkpt>
      <trkpt lat="48.54922" lon="-0.40903">
        <ele>196</ele>
        <time>2026-05-14T09:59:37+00:00</time>
      </trkpt>
      <trkpt lat="48.54865" lon="-0.40882">
        <ele>188</ele>
        <time>2026-05-14T09:59:38+00:00</time>
      </trkpt>
      <trkpt lat="48.5485" lon="-0.40882">
        <ele>186</ele>
        <time>2026-05-14T09:59:39+00:00</time>
      </trkpt>
      <trkpt lat="48.54818" lon="-0.40896">
        <ele>183</ele>
        <time>2026-05-14T09:59:40+00:00</time>
      </trkpt>
      <trkpt lat="48.54797" lon="-0.40897">
        <ele>181</ele>
        <time>2026-05-14T09:59:41+00:00</time>
      </trkpt>
      <trkpt lat="48.54699" lon="-0.40876">
        <ele>172</ele>
        <time>2026-05-14T09:59:42+00:00</time>
      </trkpt>
      <trkpt lat="48.5469" lon="-0.40872">
        <ele>171</ele>
        <time>2026-05-14T09:59:43+00:00</time>
      </trkpt>
      <trkpt lat="48.54675" lon="-0.40859">
        <ele>169</ele>
        <time>2026-05-14T09:59:44+00:00</time>
      </trkpt>
      <trkpt lat="48.54672" lon="-0.40846">
        <ele>169</ele>
        <time>2026-05-14T09:59:45+00:00</time>
      </trkpt>
      <trkpt lat="48.54664" lon="-0.40831">
        <ele>168</ele>
        <time>2026-05-14T09:59:46+00:00</time>
      </trkpt>
      <trkpt lat="48.54616" lon="-0.40793">
        <ele>169</ele>
        <time>2026-05-14T09:59:47+00:00</time>
      </trkpt>
      <trkpt lat="48.54608" lon="-0.40793">
        <ele>169</ele>
        <time>2026-05-14T09:59:48+00:00</time>
      </trkpt>
      <trkpt lat="48.54585" lon="-0.40809">
        <ele>168</ele>
        <time>2026-05-14T09:59:49+00:00</time>
      </trkpt>
      <trkpt lat="48.54579" lon="-0.4081">
        <ele>168</ele>
        <time>2026-05-14T09:59:50+00:00</time>
      </trkpt>
      <trkpt lat="48.54555" lon="-0.40789">
        <ele>169</ele>
        <time>2026-05-14T09:59:51+00:00</time>
      </trkpt>
      <trkpt lat="48.54533" lon="-0.40765">
        <ele>170</ele>
        <time>2026-05-14T09:59:52+00:00</time>
      </trkpt>
      <trkpt lat="48.54528" lon="-0.40755">
        <ele>171</ele>
        <time>2026-05-14T09:59:53+00:00</time>
      </trkpt>
      <trkpt lat="48.54502" lon="-0.40635">
        <ele>173</ele>
        <time>2026-05-14T09:59:54+00:00</time>
      </trkpt>
      <trkpt lat="48.54574" lon="-0.40596">
        <ele>183</ele>
        <time>2026-05-14T09:59:55+00:00</time>
      </trkpt>
      <trkpt lat="48.54602" lon="-0.40549">
        <ele>182</ele>
        <time>2026-05-14T09:59:56+00:00</time>
      </trkpt>
      <trkpt lat="48.54606" lon="-0.40537">
        <ele>181</ele>
        <time>2026-05-14T09:59:57+00:00</time>
      </trkpt>
      <trkpt lat="48.54621" lon="-0.40514">
        <ele>180</ele>
        <time>2026-05-14T09:59:58+00:00</time>
      </trkpt>
      <trkpt lat="48.54628" lon="-0.4051">
        <ele>179</ele>
        <time>2026-05-14T09:59:59+00:00</time>
      </trkpt>
      <trkpt lat="48.54648" lon="-0.40488">
        <ele>179</ele>
        <time>2026-05-14T10:00:00+00:00</time>
      </trkpt>
      <trkpt lat="48.54708" lon="-0.40409">
        <ele>181</ele>
        <time>2026-05-14T10:00:01+00:00</time>
      </trkpt>
      <trkpt lat="48.54753" lon="-0.40318">
        <ele>182</ele>
        <time>2026-05-14T10:00:02+00:00</time>
      </trkpt>
      <trkpt lat="48.54771" lon="-0.40289">
        <ele>183</ele>
        <time>2026-05-14T10:00:03+00:00</time>
      </trkpt>
      <trkpt lat="48.54784" lon="-0.4026">
        <ele>185</ele>
        <time>2026-05-14T10:00:04+00:00</time>
      </trkpt>
      <trkpt lat="48.54783" lon="-0.40252">
        <ele>185</ele>
        <time>2026-05-14T10:00:05+00:00</time>
      </trkpt>
      <trkpt lat="48.54786" lon="-0.40252">
        <ele>186</ele>
        <time>2026-05-14T10:00:06+00:00</time>
      </trkpt>
      <trkpt lat="48.54791" lon="-0.40247">
        <ele>186</ele>
        <time>2026-05-14T10:00:07+00:00</time>
      </trkpt>
      <trkpt lat="48.54812" lon="-0.40203">
        <ele>188</ele>
        <time>2026-05-14T10:00:08+00:00</time>
      </trkpt>
      <trkpt lat="48.54879" lon="-0.40097">
        <ele>195</ele>
        <time>2026-05-14T10:00:09+00:00</time>
      </trkpt>
      <trkpt lat="48.54925" lon="-0.39958">
        <ele>205</ele>
        <time>2026-05-14T10:00:10+00:00</time>
      </trkpt>
      <trkpt lat="48.54951" lon="-0.39921">
        <ele>209</ele>
        <time>2026-05-14T10:00:11+00:00</time>
      </trkpt>
      <trkpt lat="48.54923" lon="-0.39868">
        <ele>209</ele>
        <time>2026-05-14T10:00:12+00:00</time>
      </trkpt>
      <trkpt lat="48.5491" lon="-0.39831">
        <ele>209</ele>
        <time>2026-05-14T10:00:13+00:00</time>
      </trkpt>
      <trkpt lat="48.5491" lon="-0.39801">
        <ele>209</ele>
        <time>2026-05-14T10:00:14+00:00</time>
      </trkpt>
      <trkpt lat="48.54973" lon="-0.39774">
        <ele>213</ele>
        <time>2026-05-14T10:00:15+00:00</time>
      </trkpt>
      <trkpt lat="48.54991" lon="-0.39745">
        <ele>214</ele>
        <time>2026-05-14T10:00:16+00:00</time>
      </trkpt>
      <trkpt lat="48.54923" lon="-0.39572">
        <ele>212</ele>
        <time>2026-05-14T10:00:17+00:00</time>
      </trkpt>
      <trkpt lat="48.54986" lon="-0.39502">
        <ele>215</ele>
        <time>2026-05-14T10:00:18+00:00</time>
      </trkpt>
      <trkpt lat="48.54953" lon="-0.39365">
        <ele>216</ele>
        <time>2026-05-14T10:00:19+00:00</time>
      </trkpt>
      <trkpt lat="48.54948" lon="-0.3937">
        <ele>215</ele>
        <time>2026-05-14T10:00:20+00:00</time>
      </trkpt>
      <trkpt lat="48.5488" lon="-0.39176">
        <ele>214</ele>
        <time>2026-05-14T10:00:21+00:00</time>
      </trkpt>
      <trkpt lat="48.54791" lon="-0.3894">
        <ele>216</ele>
        <time>2026-05-14T10:00:22+00:00</time>
      </trkpt>
      <trkpt lat="48.54676" lon="-0.3862">
        <ele>214</ele>
        <time>2026-05-14T10:00:23+00:00</time>
      </trkpt>
      <trkpt lat="48.54566" lon="-0.3835">
        <ele>213</ele>
        <time>2026-05-14T10:00:24+00:00</time>
      </trkpt>
      <trkpt lat="48.54387" lon="-0.37958">
        <ele>213</ele>
        <time>2026-05-14T10:00:25+00:00</time>
      </trkpt>
      <trkpt lat="48.54639" lon="-0.37707">
        <ele>199</ele>
        <time>2026-05-14T10:00:26+00:00</time>
      </trkpt>
      <trkpt lat="48.5464" lon="-0.3771">
        <ele>199</ele>
        <time>2026-05-14T10:00:27+00:00</time>
      </trkpt>
      <trkpt lat="48.54532" lon="-0.37465">
        <ele>200</ele>
        <time>2026-05-14T10:00:28+00:00</time>
      </trkpt>
      <trkpt lat="48.54416" lon="-0.37215">
        <ele>195</ele>
        <time>2026-05-14T10:00:29+00:00</time>
      </trkpt>
      <trkpt lat="48.54352" lon="-0.37272">
        <ele>201</ele>
        <time>2026-05-14T10:00:30+00:00</time>
      </trkpt>
      <trkpt lat="48.54319" lon="-0.37315">
        <ele>205</ele>
        <time>2026-05-14T10:00:31+00:00</time>
      </trkpt>
      <trkpt lat="48.54303" lon="-0.37329">
        <ele>208</ele>
        <time>2026-05-14T10:00:32+00:00</time>
      </trkpt>
      <trkpt lat="48.54269" lon="-0.37366">
        <ele>213</ele>
        <time>2026-05-14T10:00:33+00:00</time>
      </trkpt>
      <trkpt lat="48.54248" lon="-0.37382">
        <ele>215</ele>
        <time>2026-05-14T10:00:34+00:00</time>
      </trkpt>
      <trkpt lat="48.5421" lon="-0.37423">
        <ele>216</ele>
        <time>2026-05-14T10:00:35+00:00</time>
      </trkpt>
      <trkpt lat="48.5419" lon="-0.37437">
        <ele>216</ele>
        <time>2026-05-14T10:00:36+00:00</time>
      </trkpt>
      <trkpt lat="48.54162" lon="-0.37468">
        <ele>215</ele>
        <time>2026-05-14T10:00:37+00:00</time>
      </trkpt>
      <trkpt lat="48.54154" lon="-0.37469">
        <ele>215</ele>
        <time>2026-05-14T10:00:38+00:00</time>
      </trkpt>
      <trkpt lat="48.54149" lon="-0.37464">
        <ele>215</ele>
        <time>2026-05-14T10:00:39+00:00</time>
      </trkpt>
      <trkpt lat="48.54128" lon="-0.37423">
        <ele>215</ele>
        <time>2026-05-14T10:00:40+00:00</time>
      </trkpt>
      <trkpt lat="48.54113" lon="-0.37384">
        <ele>216</ele>
        <time>2026-05-14T10:00:41+00:00</time>
      </trkpt>
      <trkpt lat="48.54099" lon="-0.3732">
        <ele>217</ele>
        <time>2026-05-14T10:00:42+00:00</time>
      </trkpt>
      <trkpt lat="48.54079" lon="-0.37272">
        <ele>217</ele>
        <time>2026-05-14T10:00:43+00:00</time>
      </trkpt>
      <trkpt lat="48.54064" lon="-0.37224">
        <ele>218</ele>
        <time>2026-05-14T10:00:44+00:00</time>
      </trkpt>
      <trkpt lat="48.54002" lon="-0.37122">
        <ele>218</ele>
        <time>2026-05-14T10:00:45+00:00</time>
      </trkpt>
      <trkpt lat="48.53998" lon="-0.37117">
        <ele>218</ele>
        <time>2026-05-14T10:00:46+00:00</time>
      </trkpt>
      <trkpt lat="48.53986" lon="-0.37114">
        <ele>218</ele>
        <time>2026-05-14T10:00:47+00:00</time>
      </trkpt>
      <trkpt lat="48.53928" lon="-0.37152">
        <ele>216</ele>
        <time>2026-05-14T10:00:48+00:00</time>
      </trkpt>
      <trkpt lat="48.53913" lon="-0.37156">
        <ele>215</ele>
        <time>2026-05-14T10:00:49+00:00</time>
      </trkpt>
      <trkpt lat="48.53877" lon="-0.37048">
        <ele>215</ele>
        <time>2026-05-14T10:00:50+00:00</time>
      </trkpt>
      <trkpt lat="48.53856" lon="-0.36945">
        <ele>215</ele>
        <time>2026-05-14T10:00:51+00:00</time>
      </trkpt>
      <trkpt lat="48.53847" lon="-0.36947">
        <ele>214</ele>
        <time>2026-05-14T10:00:52+00:00</time>
      </trkpt>
      <trkpt lat="48.53856" lon="-0.36945">
        <ele>215</ele>
        <time>2026-05-14T10:00:53+00:00</time>
      </trkpt>
      <trkpt lat="48.53835" lon="-0.36816">
        <ele>217</ele>
        <time>2026-05-14T10:00:54+00:00</time>
      </trkpt>
      <trkpt lat="48.53825" lon="-0.36738">
        <ele>215</ele>
        <time>2026-05-14T10:00:55+00:00</time>
      </trkpt>
      <trkpt lat="48.53838" lon="-0.36538">
        <ele>209</ele>
        <time>2026-05-14T10:00:56+00:00</time>
      </trkpt>
      <trkpt lat="48.53861" lon="-0.36398">
        <ele>204</ele>
        <time>2026-05-14T10:00:57+00:00</time>
      </trkpt>
      <trkpt lat="48.53911" lon="-0.36248">
        <ele>192</ele>
        <time>2026-05-14T10:00:58+00:00</time>
      </trkpt>
      <trkpt lat="48.53942" lon="-0.36205">
        <ele>185</ele>
        <time>2026-05-14T10:00:59+00:00</time>
      </trkpt>
      <trkpt lat="48.53948" lon="-0.36172">
        <ele>181</ele>
        <time>2026-05-14T10:01:00+00:00</time>
      </trkpt>
      <trkpt lat="48.53945" lon="-0.36151">
        <ele>179</ele>
        <time>2026-05-14T10:01:01+00:00</time>
      </trkpt>
      <trkpt lat="48.53924" lon="-0.36132">
        <ele>178</ele>
        <time>2026-05-14T10:01:02+00:00</time>
      </trkpt>
      <trkpt lat="48.53916" lon="-0.3611">
        <ele>175</ele>
        <time>2026-05-14T10:01:03+00:00</time>
      </trkpt>
      <trkpt lat="48.53892" lon="-0.35886">
        <ele>186</ele>
        <time>2026-05-14T10:01:04+00:00</time>
      </trkpt>
      <trkpt lat="48.53892" lon="-0.35824">
        <ele>192</ele>
        <time>2026-05-14T10:01:05+00:00</time>
      </trkpt>
      <trkpt lat="48.53873" lon="-0.35693">
        <ele>199</ele>
        <time>2026-05-14T10:01:06+00:00</time>
      </trkpt>
      <trkpt lat="48.53862" lon="-0.35648">
        <ele>202</ele>
        <time>2026-05-14T10:01:07+00:00</time>
      </trkpt>
      <trkpt lat="48.53839" lon="-0.35594">
        <ele>206</ele>
        <time>2026-05-14T10:01:08+00:00</time>
      </trkpt>
      <trkpt lat="48.53826" lon="-0.35578">
        <ele>206</ele>
        <time>2026-05-14T10:01:09+00:00</time>
      </trkpt>
      <trkpt lat="48.53744" lon="-0.35436">
        <ele>213</ele>
        <time>2026-05-14T10:01:10+00:00</time>
      </trkpt>
      <trkpt lat="48.53639" lon="-0.35235">
        <ele>213</ele>
        <time>2026-05-14T10:01:11+00:00</time>
      </trkpt>
      <trkpt lat="48.53524" lon="-0.35045">
        <ele>220</ele>
        <time>2026-05-14T10:01:12+00:00</time>
      </trkpt>
      <trkpt lat="48.53474" lon="-0.34916">
        <ele>226</ele>
        <time>2026-05-14T10:01:13+00:00</time>
      </trkpt>
      <trkpt lat="48.53382" lon="-0.34606">
        <ele>227</ele>
        <time>2026-05-14T10:01:14+00:00</time>
      </trkpt>
      <trkpt lat="48.5335" lon="-0.34514">
        <ele>225</ele>
        <time>2026-05-14T10:01:15+00:00</time>
      </trkpt>
      <trkpt lat="48.5344" lon="-0.33853">
        <ele>191</ele>
        <time>2026-05-14T10:01:16+00:00</time>
      </trkpt>
      <trkpt lat="48.53523" lon="-0.33197">
        <ele>217</ele>
        <time>2026-05-14T10:01:17+00:00</time>
      </trkpt>
      <trkpt lat="48.53498" lon="-0.33145">
        <ele>215</ele>
        <time>2026-05-14T10:01:18+00:00</time>
      </trkpt>
      <trkpt lat="48.53482" lon="-0.33096">
        <ele>215</ele>
        <time>2026-05-14T10:01:19+00:00</time>
      </trkpt>
      <trkpt lat="48.53439" lon="-0.33035">
        <ele>214</ele>
        <time>2026-05-14T10:01:20+00:00</time>
      </trkpt>
      <trkpt lat="48.53424" lon="-0.33007">
        <ele>213</ele>
        <time>2026-05-14T10:01:21+00:00</time>
      </trkpt>
      <trkpt lat="48.53346" lon="-0.32926">
        <ele>207</ele>
        <time>2026-05-14T10:01:22+00:00</time>
      </trkpt>
      <trkpt lat="48.53315" lon="-0.32902">
        <ele>204</ele>
        <time>2026-05-14T10:01:23+00:00</time>
      </trkpt>
      <trkpt lat="48.53252" lon="-0.32881">
        <ele>196</ele>
        <time>2026-05-14T10:01:24+00:00</time>
      </trkpt>
      <trkpt lat="48.53241" lon="-0.32876">
        <ele>195</ele>
        <time>2026-05-14T10:01:25+00:00</time>
      </trkpt>
      <trkpt lat="48.53236" lon="-0.3287">
        <ele>195</ele>
        <time>2026-05-14T10:01:26+00:00</time>
      </trkpt>
      <trkpt lat="48.53176" lon="-0.32876">
        <ele>191</ele>
        <time>2026-05-14T10:01:27+00:00</time>
      </trkpt>
      <trkpt lat="48.53168" lon="-0.32912">
        <ele>190</ele>
        <time>2026-05-14T10:01:28+00:00</time>
      </trkpt>
      <trkpt lat="48.53159" lon="-0.32982">
        <ele>187</ele>
        <time>2026-05-14T10:01:29+00:00</time>
      </trkpt>
      <trkpt lat="48.53134" lon="-0.33045">
        <ele>185</ele>
        <time>2026-05-14T10:01:30+00:00</time>
      </trkpt>
      <trkpt lat="48.53142" lon="-0.33087">
        <ele>184</ele>
        <time>2026-05-14T10:01:31+00:00</time>
      </trkpt>
      <trkpt lat="48.53164" lon="-0.33088">
        <ele>185</ele>
        <time>2026-05-14T10:01:32+00:00</time>
      </trkpt>
      <trkpt lat="48.53176" lon="-0.33096">
        <ele>186</ele>
        <time>2026-05-14T10:01:33+00:00</time>
      </trkpt>
      <trkpt lat="48.53182" lon="-0.33118">
        <ele>187</ele>
        <time>2026-05-14T10:01:34+00:00</time>
      </trkpt>
      <trkpt lat="48.53184" lon="-0.33141">
        <ele>188</ele>
        <time>2026-05-14T10:01:35+00:00</time>
      </trkpt>
      <trkpt lat="48.53191" lon="-0.33172">
        <ele>189</ele>
        <time>2026-05-14T10:01:36+00:00</time>
      </trkpt>
      <trkpt lat="48.53204" lon="-0.33197">
        <ele>188</ele>
        <time>2026-05-14T10:01:37+00:00</time>
      </trkpt>
      <trkpt lat="48.53232" lon="-0.33204">
        <ele>188</ele>
        <time>2026-05-14T10:01:38+00:00</time>
      </trkpt>
      <trkpt lat="48.53239" lon="-0.33281">
        <ele>186</ele>
        <time>2026-05-14T10:01:39+00:00</time>
      </trkpt>
      <trkpt lat="48.53238" lon="-0.33327">
        <ele>184</ele>
        <time>2026-05-14T10:01:40+00:00</time>
      </trkpt>
      <trkpt lat="48.53232" lon="-0.33349">
        <ele>184</ele>
        <time>2026-05-14T10:01:41+00:00</time>
      </trkpt>
      <trkpt lat="48.53201" lon="-0.3337">
        <ele>185</ele>
        <time>2026-05-14T10:01:42+00:00</time>
      </trkpt>
      <trkpt lat="48.53181" lon="-0.33398">
        <ele>185</ele>
        <time>2026-05-14T10:01:43+00:00</time>
      </trkpt>
      <trkpt lat="48.5318" lon="-0.33419">
        <ele>185</ele>
        <time>2026-05-14T10:01:44+00:00</time>
      </trkpt>
      <trkpt lat="48.53186" lon="-0.33444">
        <ele>184</ele>
        <time>2026-05-14T10:01:45+00:00</time>
      </trkpt>
      <trkpt lat="48.53184" lon="-0.33472">
        <ele>183</ele>
        <time>2026-05-14T10:01:46+00:00</time>
      </trkpt>
      <trkpt lat="48.53177" lon="-0.33494">
        <ele>183</ele>
        <time>2026-05-14T10:01:47+00:00</time>
      </trkpt>
      <trkpt lat="48.53173" lon="-0.33501">
        <ele>182</ele>
        <time>2026-05-14T10:01:48+00:00</time>
      </trkpt>
      <trkpt lat="48.53162" lon="-0.335">
        <ele>182</ele>
        <time>2026-05-14T10:01:49+00:00</time>
      </trkpt>
      <trkpt lat="48.53149" lon="-0.33515">
        <ele>182</ele>
        <time>2026-05-14T10:01:50+00:00</time>
      </trkpt>
      <trkpt lat="48.53147" lon="-0.33542">
        <ele>182</ele>
        <time>2026-05-14T10:01:51+00:00</time>
      </trkpt>
      <trkpt lat="48.53172" lon="-0.33587">
        <ele>181</ele>
        <time>2026-05-14T10:01:52+00:00</time>
      </trkpt>
      <trkpt lat="48.53177" lon="-0.33609">
        <ele>182</ele>
        <time>2026-05-14T10:01:53+00:00</time>
      </trkpt>
      <trkpt lat="48.53174" lon="-0.33626">
        <ele>183</ele>
        <time>2026-05-14T10:01:54+00:00</time>
      </trkpt>
      <trkpt lat="48.53168" lon="-0.33628">
        <ele>183</ele>
        <time>2026-05-14T10:01:55+00:00</time>
      </trkpt>
      <trkpt lat="48.53155" lon="-0.33623">
        <ele>183</ele>
        <time>2026-05-14T10:01:56+00:00</time>
      </trkpt>
      <trkpt lat="48.53133" lon="-0.33627">
        <ele>183</ele>
        <time>2026-05-14T10:01:57+00:00</time>
      </trkpt>
      <trkpt lat="48.53075" lon="-0.33673">
        <ele>184</ele>
        <time>2026-05-14T10:01:58+00:00</time>
      </trkpt>
      <trkpt lat="48.53061" lon="-0.3367">
        <ele>183</ele>
        <time>2026-05-14T10:01:59+00:00</time>
      </trkpt>
      <trkpt lat="48.53027" lon="-0.33691">
        <ele>183</ele>
        <time>2026-05-14T10:02:00+00:00</time>
      </trkpt>
      <trkpt lat="48.53018" lon="-0.33702">
        <ele>184</ele>
        <time>2026-05-14T10:02:01+00:00</time>
      </trkpt>
      <trkpt lat="48.53014" lon="-0.337">
        <ele>183</ele>
        <time>2026-05-14T10:02:02+00:00</time>
      </trkpt>
      <trkpt lat="48.53007" lon="-0.33706">
        <ele>183</ele>
        <time>2026-05-14T10:02:03+00:00</time>
      </trkpt>
      <trkpt lat="48.53008" lon="-0.33711">
        <ele>183</ele>
        <time>2026-05-14T10:02:04+00:00</time>
      </trkpt>
      <trkpt lat="48.53004" lon="-0.33724">
        <ele>183</ele>
        <time>2026-05-14T10:02:05+00:00</time>
      </trkpt>
      <trkpt lat="48.53013" lon="-0.33759">
        <ele>188</ele>
        <time>2026-05-14T10:02:06+00:00</time>
      </trkpt>
      <trkpt lat="48.52969" lon="-0.33835">
        <ele>196</ele>
        <time>2026-05-14T10:02:07+00:00</time>
      </trkpt>
      <trkpt lat="48.52938" lon="-0.33871">
        <ele>192</ele>
        <time>2026-05-14T10:02:08+00:00</time>
      </trkpt>
      <trkpt lat="48.52934" lon="-0.33886">
        <ele>192</ele>
        <time>2026-05-14T10:02:09+00:00</time>
      </trkpt>
      <trkpt lat="48.52973" lon="-0.33883">
        <ele>200</ele>
        <time>2026-05-14T10:02:10+00:00</time>
      </trkpt>
      <trkpt lat="48.52998" lon="-0.33872">
        <ele>204</ele>
        <time>2026-05-14T10:02:11+00:00</time>
      </trkpt>
      <trkpt lat="48.5303" lon="-0.33923">
        <ele>212</ele>
        <time>2026-05-14T10:02:12+00:00</time>
      </trkpt>
      <trkpt lat="48.53041" lon="-0.33912">
        <ele>213</ele>
        <time>2026-05-14T10:02:13+00:00</time>
      </trkpt>
      <trkpt lat="48.53042" lon="-0.33926">
        <ele>213</ele>
        <time>2026-05-14T10:02:14+00:00</time>
      </trkpt>
      <trkpt lat="48.53059" lon="-0.3398">
        <ele>215</ele>
        <time>2026-05-14T10:02:15+00:00</time>
      </trkpt>
      <trkpt lat="48.53078" lon="-0.34012">
        <ele>218</ele>
        <time>2026-05-14T10:02:16+00:00</time>
      </trkpt>
      <trkpt lat="48.53084" lon="-0.34043">
        <ele>218</ele>
        <time>2026-05-14T10:02:17+00:00</time>
      </trkpt>
      <trkpt lat="48.53101" lon="-0.34086">
        <ele>218</ele>
        <time>2026-05-14T10:02:18+00:00</time>
      </trkpt>
      <trkpt lat="48.5316" lon="-0.34197">
        <ele>220</ele>
        <time>2026-05-14T10:02:19+00:00</time>
      </trkpt>
      <trkpt lat="48.53178" lon="-0.34221">
        <ele>220</ele>
        <time>2026-05-14T10:02:20+00:00</time>
      </trkpt>
      <trkpt lat="48.53187" lon="-0.34248">
        <ele>220</ele>
        <time>2026-05-14T10:02:21+00:00</time>
      </trkpt>
      <trkpt lat="48.53201" lon="-0.34269">
        <ele>220</ele>
        <time>2026-05-14T10:02:22+00:00</time>
      </trkpt>
      <trkpt lat="48.53212" lon="-0.34292">
        <ele>219</ele>
        <time>2026-05-14T10:02:23+00:00</time>
      </trkpt>
      <trkpt lat="48.53259" lon="-0.34361">
        <ele>219</ele>
        <time>2026-05-14T10:02:24+00:00</time>
      </trkpt>
      <trkpt lat="48.53276" lon="-0.34396">
        <ele>219</ele>
        <time>2026-05-14T10:02:25+00:00</time>
      </trkpt>
      <trkpt lat="48.5332" lon="-0.34458">
        <ele>223</ele>
        <time>2026-05-14T10:02:26+00:00</time>
      </trkpt>
      <trkpt lat="48.53352" lon="-0.34495">
        <ele>225</ele>
        <time>2026-05-14T10:02:27+00:00</time>
      </trkpt>
      <trkpt lat="48.5335" lon="-0.34514">
        <ele>225</ele>
        <time>2026-05-14T10:02:28+00:00</time>
      </trkpt>
      <trkpt lat="48.53382" lon="-0.34606">
        <ele>227</ele>
        <time>2026-05-14T10:02:29+00:00</time>
      </trkpt>
      <trkpt lat="48.53386" lon="-0.34626">
        <ele>227</ele>
        <time>2026-05-14T10:02:30+00:00</time>
      </trkpt>
      <trkpt lat="48.53474" lon="-0.34916">
        <ele>226</ele>
        <time>2026-05-14T10:02:31+00:00</time>
      </trkpt>
      <trkpt lat="48.53524" lon="-0.35045">
        <ele>220</ele>
        <time>2026-05-14T10:02:32+00:00</time>
      </trkpt>
      <trkpt lat="48.53633" lon="-0.35224">
        <ele>213</ele>
        <time>2026-05-14T10:02:33+00:00</time>
      </trkpt>
      <trkpt lat="48.53738" lon="-0.35425">
        <ele>214</ele>
        <time>2026-05-14T10:02:34+00:00</time>
      </trkpt>
      <trkpt lat="48.53826" lon="-0.35578">
        <ele>206</ele>
        <time>2026-05-14T10:02:35+00:00</time>
      </trkpt>
      <trkpt lat="48.53839" lon="-0.35594">
        <ele>206</ele>
        <time>2026-05-14T10:02:36+00:00</time>
      </trkpt>
      <trkpt lat="48.53862" lon="-0.35648">
        <ele>202</ele>
        <time>2026-05-14T10:02:37+00:00</time>
      </trkpt>
      <trkpt lat="48.53873" lon="-0.35693">
        <ele>199</ele>
        <time>2026-05-14T10:02:38+00:00</time>
      </trkpt>
      <trkpt lat="48.53892" lon="-0.35824">
        <ele>192</ele>
        <time>2026-05-14T10:02:39+00:00</time>
      </trkpt>
      <trkpt lat="48.53892" lon="-0.35886">
        <ele>186</ele>
        <time>2026-05-14T10:02:40+00:00</time>
      </trkpt>
      <trkpt lat="48.53914" lon="-0.36096">
        <ele>173</ele>
        <time>2026-05-14T10:02:41+00:00</time>
      </trkpt>
      <trkpt lat="48.53916" lon="-0.3611">
        <ele>175</ele>
        <time>2026-05-14T10:02:42+00:00</time>
      </trkpt>
      <trkpt lat="48.53924" lon="-0.36132">
        <ele>178</ele>
        <time>2026-05-14T10:02:43+00:00</time>
      </trkpt>
      <trkpt lat="48.53945" lon="-0.36151">
        <ele>179</ele>
        <time>2026-05-14T10:02:44+00:00</time>
      </trkpt>
      <trkpt lat="48.54038" lon="-0.3621">
        <ele>181</ele>
        <time>2026-05-14T10:02:45+00:00</time>
      </trkpt>
      <trkpt lat="48.54039" lon="-0.36199">
        <ele>180</ele>
        <time>2026-05-14T10:02:46+00:00</time>
      </trkpt>
      <trkpt lat="48.54044" lon="-0.36187">
        <ele>179</ele>
        <time>2026-05-14T10:02:47+00:00</time>
      </trkpt>
      <trkpt lat="48.54074" lon="-0.36176">
        <ele>179</ele>
        <time>2026-05-14T10:02:48+00:00</time>
      </trkpt>
      <trkpt lat="48.54097" lon="-0.36174">
        <ele>179</ele>
        <time>2026-05-14T10:02:49+00:00</time>
      </trkpt>
      <trkpt lat="48.54108" lon="-0.36179">
        <ele>180</ele>
        <time>2026-05-14T10:02:50+00:00</time>
      </trkpt>
      <trkpt lat="48.54119" lon="-0.36189">
        <ele>181</ele>
        <time>2026-05-14T10:02:51+00:00</time>
      </trkpt>
      <trkpt lat="48.5414" lon="-0.3621">
        <ele>183</ele>
        <time>2026-05-14T10:02:52+00:00</time>
      </trkpt>
      <trkpt lat="48.54157" lon="-0.36233">
        <ele>185</ele>
        <time>2026-05-14T10:02:53+00:00</time>
      </trkpt>
      <trkpt lat="48.54165" lon="-0.3624">
        <ele>186</ele>
        <time>2026-05-14T10:02:54+00:00</time>
      </trkpt>
      <trkpt lat="48.54176" lon="-0.36244">
        <ele>187</ele>
        <time>2026-05-14T10:02:55+00:00</time>
      </trkpt>
      <trkpt lat="48.54183" lon="-0.36244">
        <ele>187</ele>
        <time>2026-05-14T10:02:56+00:00</time>
      </trkpt>
      <trkpt lat="48.54191" lon="-0.36239">
        <ele>187</ele>
        <time>2026-05-14T10:02:57+00:00</time>
      </trkpt>
      <trkpt lat="48.54197" lon="-0.36219">
        <ele>186</ele>
        <time>2026-05-14T10:02:58+00:00</time>
      </trkpt>
      <trkpt lat="48.54189" lon="-0.3612">
        <ele>180</ele>
        <time>2026-05-14T10:02:59+00:00</time>
      </trkpt>
      <trkpt lat="48.54202" lon="-0.36078">
        <ele>179</ele>
        <time>2026-05-14T10:03:00+00:00</time>
      </trkpt>
      <trkpt lat="48.5422" lon="-0.36058">
        <ele>179</ele>
        <time>2026-05-14T10:03:01+00:00</time>
      </trkpt>
      <trkpt lat="48.54245" lon="-0.36054">
        <ele>182</ele>
        <time>2026-05-14T10:03:02+00:00</time>
      </trkpt>
      <trkpt lat="48.54266" lon="-0.36041">
        <ele>183</ele>
        <time>2026-05-14T10:03:03+00:00</time>
      </trkpt>
      <trkpt lat="48.54337" lon="-0.35944">
        <ele>187</ele>
        <time>2026-05-14T10:03:04+00:00</time>
      </trkpt>
      <trkpt lat="48.54374" lon="-0.35904">
        <ele>187</ele>
        <time>2026-05-14T10:03:05+00:00</time>
      </trkpt>
      <trkpt lat="48.54435" lon="-0.35849">
        <ele>184</ele>
        <time>2026-05-14T10:03:06+00:00</time>
      </trkpt>
      <trkpt lat="48.54491" lon="-0.35805">
        <ele>183</ele>
        <time>2026-05-14T10:03:07+00:00</time>
      </trkpt>
      <trkpt lat="48.54531" lon="-0.35784">
        <ele>182</ele>
        <time>2026-05-14T10:03:08+00:00</time>
      </trkpt>
      <trkpt lat="48.54553" lon="-0.35778">
        <ele>182</ele>
        <time>2026-05-14T10:03:09+00:00</time>
      </trkpt>
      <trkpt lat="48.54574" lon="-0.35777">
        <ele>182</ele>
        <time>2026-05-14T10:03:10+00:00</time>
      </trkpt>
      <trkpt lat="48.54587" lon="-0.35787">
        <ele>182</ele>
        <time>2026-05-14T10:03:11+00:00</time>
      </trkpt>
      <trkpt lat="48.54599" lon="-0.35784">
        <ele>181</ele>
        <time>2026-05-14T10:03:12+00:00</time>
      </trkpt>
      <trkpt lat="48.54621" lon="-0.3576">
        <ele>178</ele>
        <time>2026-05-14T10:03:13+00:00</time>
      </trkpt>
      <trkpt lat="48.5464" lon="-0.35748">
        <ele>177</ele>
        <time>2026-05-14T10:03:14+00:00</time>
      </trkpt>
      <trkpt lat="48.54662" lon="-0.35729">
        <ele>176</ele>
        <time>2026-05-14T10:03:15+00:00</time>
      </trkpt>
      <trkpt lat="48.54728" lon="-0.35699">
        <ele>176</ele>
        <time>2026-05-14T10:03:16+00:00</time>
      </trkpt>
      <trkpt lat="48.54746" lon="-0.35667">
        <ele>176</ele>
        <time>2026-05-14T10:03:17+00:00</time>
      </trkpt>
      <trkpt lat="48.5477" lon="-0.35641">
        <ele>177</ele>
        <time>2026-05-14T10:03:18+00:00</time>
      </trkpt>
      <trkpt lat="48.54804" lon="-0.35631">
        <ele>177</ele>
        <time>2026-05-14T10:03:19+00:00</time>
      </trkpt>
      <trkpt lat="48.54833" lon="-0.35639">
        <ele>176</ele>
        <time>2026-05-14T10:03:20+00:00</time>
      </trkpt>
      <trkpt lat="48.54938" lon="-0.35863">
        <ele>180</ele>
        <time>2026-05-14T10:03:21+00:00</time>
      </trkpt>
      <trkpt lat="48.5495" lon="-0.35918">
        <ele>182</ele>
        <time>2026-05-14T10:03:22+00:00</time>
      </trkpt>
      <trkpt lat="48.54975" lon="-0.36227">
        <ele>197</ele>
        <time>2026-05-14T10:03:23+00:00</time>
      </trkpt>
      <trkpt lat="48.54996" lon="-0.36448">
        <ele>197</ele>
        <time>2026-05-14T10:03:24+00:00</time>
      </trkpt>
      <trkpt lat="48.55049" lon="-0.36557">
        <ele>197</ele>
        <time>2026-05-14T10:03:25+00:00</time>
      </trkpt>
      <trkpt lat="48.55074" lon="-0.36597">
        <ele>197</ele>
        <time>2026-05-14T10:03:26+00:00</time>
      </trkpt>
      <trkpt lat="48.55095" lon="-0.36642">
        <ele>196</ele>
        <time>2026-05-14T10:03:27+00:00</time>
      </trkpt>
      <trkpt lat="48.55105" lon="-0.36691">
        <ele>196</ele>
        <time>2026-05-14T10:03:28+00:00</time>
      </trkpt>
      <trkpt lat="48.5511" lon="-0.36703">
        <ele>196</ele>
        <time>2026-05-14T10:03:29+00:00</time>
      </trkpt>
      <trkpt lat="48.55248" lon="-0.36953">
        <ele>193</ele>
        <time>2026-05-14T10:03:30+00:00</time>
      </trkpt>
      <trkpt lat="48.55986" lon="-0.3827">
        <ele>202</ele>
        <time>2026-05-14T10:03:31+00:00</time>
      </trkpt>
      <trkpt lat="48.56159" lon="-0.38599">
        <ele>206</ele>
        <time>2026-05-14T10:03:32+00:00</time>
      </trkpt>
      <trkpt lat="48.55945" lon="-0.3877">
        <ele>213</ele>
        <time>2026-05-14T10:03:33+00:00</time>
      </trkpt>
      <trkpt lat="48.55775" lon="-0.38883">
        <ele>220</ele>
        <time>2026-05-14T10:03:34+00:00</time>
      </trkpt>
      <trkpt lat="48.55638" lon="-0.38989">
        <ele>218</ele>
        <time>2026-05-14T10:03:35+00:00</time>
      </trkpt>
      <trkpt lat="48.55558" lon="-0.39086">
        <ele>214</ele>
        <time>2026-05-14T10:03:36+00:00</time>
      </trkpt>
      <trkpt lat="48.55443" lon="-0.39215">
        <ele>218</ele>
        <time>2026-05-14T10:03:37+00:00</time>
      </trkpt>
      <trkpt lat="48.55391" lon="-0.39261">
        <ele>218</ele>
        <time>2026-05-14T10:03:38+00:00</time>
      </trkpt>
      <trkpt lat="48.55382" lon="-0.39268">
        <ele>218</ele>
        <time>2026-05-14T10:03:39+00:00</time>
      </trkpt>
      <trkpt lat="48.55319" lon="-0.39283">
        <ele>218</ele>
        <time>2026-05-14T10:03:40+00:00</time>
      </trkpt>
      <trkpt lat="48.55319" lon="-0.39285">
        <ele>218</ele>
        <time>2026-05-14T10:03:41+00:00</time>
      </trkpt>
      <trkpt lat="48.55319" lon="-0.39283">
        <ele>218</ele>
        <time>2026-05-14T10:03:42+00:00</time>
      </trkpt>
      <trkpt lat="48.55298" lon="-0.39288">
        <ele>218</ele>
        <time>2026-05-14T10:03:43+00:00</time>
      </trkpt>
      <trkpt lat="48.55156" lon="-0.39906">
        <ele>218</ele>
        <time>2026-05-14T10:03:44+00:00</time>
      </trkpt>
      <trkpt lat="48.55276" lon="-0.39965">
        <ele>218</ele>
        <time>2026-05-14T10:03:45+00:00</time>
      </trkpt>
      <trkpt lat="48.55558" lon="-0.40112">
        <ele>201</ele>
        <time>2026-05-14T10:03:46+00:00</time>
      </trkpt>
      <trkpt lat="48.5556" lon="-0.40138">
        <ele>200</ele>
        <time>2026-05-14T10:03:47+00:00</time>
      </trkpt>
      <trkpt lat="48.55503" lon="-0.40388">
        <ele>201</ele>
        <time>2026-05-14T10:03:48+00:00</time>
      </trkpt>
      <trkpt lat="48.55659" lon="-0.40468">
        <ele>207</ele>
        <time>2026-05-14T10:03:49+00:00</time>
      </trkpt>
      <trkpt lat="48.55696" lon="-0.40481">
        <ele>209</ele>
        <time>2026-05-14T10:03:50+00:00</time>
      </trkpt>
      <trkpt lat="48.55757" lon="-0.40515">
        <ele>212</ele>
        <time>2026-05-14T10:03:51+00:00</time>
      </trkpt>
      <trkpt lat="48.5592" lon="-0.40596">
        <ele>222</ele>
        <time>2026-05-14T10:03:52+00:00</time>
      </trkpt>
      <trkpt lat="48.55798" lon="-0.41146">
        <ele>207</ele>
        <time>2026-05-14T10:03:53+00:00</time>
      </trkpt>
      <trkpt lat="48.55778" lon="-0.4115">
        <ele>204</ele>
        <time>2026-05-14T10:03:54+00:00</time>
      </trkpt>
      <trkpt lat="48.55761" lon="-0.41185">
        <ele>200</ele>
        <time>2026-05-14T10:03:55+00:00</time>
      </trkpt>
    </trkseg>
  </trk>
</gpx>
