<?xml version="1.0" encoding="UTF-8" ?>
<gpx version="1.1" xmlns:xsi="http://www.w3.org/2001/XMLSchema-instance"
    xmlns="http://www.topografix.com/GPX/1/1"
    xsi:schemaLocation="http://www.topografix.com/GPX/1/1 http://www.topografix.com/GPX/1/1/gpx.xsd"
    creator="Openrunner - https://www.openrunner.com" >	<trk>
	                   <name>Villeneuvette La Faience CS-14013740</name>
						<trkseg>
					<trkpt lat="43.610640" lon="3.402360">
						<ele>136</ele>
						<time>2026-04-30T17:32:50Z</time>
					</trkpt>
					<trkpt lat="43.610500" lon="3.402000">
						<ele>137</ele>
						<time>2026-04-30T17:33:29Z</time>
					</trkpt>
					<trkpt lat="43.610430" lon="3.401590">
						<ele>138</ele>
						<time>2026-04-30T17:34:10Z</time>
					</trkpt>
					<trkpt lat="43.610380" lon="3.401270">
						<ele>139</ele>
						<time>2026-04-30T17:34:42Z</time>
					</trkpt>
					<trkpt lat="43.610340" lon="3.401110">
						<ele>140</ele>
						<time>2026-04-30T17:34:58Z</time>
					</trkpt>
					<trkpt lat="43.610250" lon="3.400880">
						<ele>140</ele>
						<time>2026-04-30T17:35:23Z</time>
					</trkpt>
					<trkpt lat="43.610190" lon="3.400660">
						<ele>140</ele>
						<time>2026-04-30T17:35:46Z</time>
					</trkpt>
					<trkpt lat="43.610050" lon="3.400400">
						<ele>140</ele>
						<time>2026-04-30T17:36:17Z</time>
					</trkpt>
					<trkpt lat="43.609990" lon="3.400170">
						<ele>139</ele>
						<time>2026-04-30T17:36:41Z</time>
					</trkpt>
					<trkpt lat="43.609910" lon="3.399890">
						<ele>139</ele>
						<time>2026-04-30T17:37:10Z</time>
					</trkpt>
					<trkpt lat="43.609890" lon="3.399660">
						<ele>140</ele>
						<time>2026-04-30T17:37:33Z</time>
					</trkpt>
					<trkpt lat="43.609900" lon="3.399510">
						<ele>140</ele>
						<time>2026-04-30T17:37:47Z</time>
					</trkpt>
					<trkpt lat="43.609940" lon="3.399210">
						<ele>141</ele>
						<time>2026-04-30T17:38:17Z</time>
					</trkpt>
					<trkpt lat="43.609940" lon="3.399190">
						<ele>142</ele>
						<time>2026-04-30T17:38:19Z</time>
					</trkpt>
					<trkpt lat="43.609970" lon="3.398810">
						<ele>144</ele>
						<time>2026-04-30T17:38:55Z</time>
					</trkpt>
					<trkpt lat="43.609990" lon="3.398570">
						<ele>145</ele>
						<time>2026-04-30T17:39:19Z</time>
					</trkpt>
					<trkpt lat="43.610060" lon="3.398260">
						<ele>147</ele>
						<time>2026-04-30T17:39:50Z</time>
					</trkpt>
					<trkpt lat="43.610120" lon="3.397910">
						<ele>145</ele>
						<time>2026-04-30T17:40:25Z</time>
					</trkpt>
					<trkpt lat="43.610250" lon="3.397570">
						<ele>145</ele>
						<time>2026-04-30T17:41:02Z</time>
					</trkpt>
					<trkpt lat="43.610420" lon="3.397260">
						<ele>146</ele>
						<time>2026-04-30T17:41:40Z</time>
					</trkpt>
					<trkpt lat="43.610530" lon="3.397070">
						<ele>146</ele>
						<time>2026-04-30T17:42:03Z</time>
					</trkpt>
					<trkpt lat="43.610530" lon="3.396870">
						<ele>145</ele>
						<time>2026-04-30T17:42:22Z</time>
					</trkpt>
					<trkpt lat="43.610660" lon="3.396640">
						<ele>144</ele>
						<time>2026-04-30T17:42:51Z</time>
					</trkpt>
					<trkpt lat="43.610690" lon="3.396620">
						<ele>144</ele>
						<time>2026-04-30T17:42:55Z</time>
					</trkpt>
					<trkpt lat="43.610770" lon="3.396490">
						<ele>144</ele>
						<time>2026-04-30T17:43:12Z</time>
					</trkpt>
					<trkpt lat="43.610930" lon="3.396420">
						<ele>146</ele>
						<time>2026-04-30T17:43:34Z</time>
					</trkpt>
					<trkpt lat="43.611010" lon="3.396320">
						<ele>147</ele>
						<time>2026-04-30T17:43:48Z</time>
					</trkpt>
					<trkpt lat="43.611200" lon="3.396170">
						<ele>148</ele>
						<time>2026-04-30T17:44:18Z</time>
					</trkpt>
					<trkpt lat="43.611330" lon="3.396050">
						<ele>149</ele>
						<time>2026-04-30T17:44:38Z</time>
					</trkpt>
					<trkpt lat="43.611440" lon="3.395880">
						<ele>149</ele>
						<time>2026-04-30T17:45:00Z</time>
					</trkpt>
					<trkpt lat="43.611580" lon="3.395760">
						<ele>150</ele>
						<time>2026-04-30T17:45:22Z</time>
					</trkpt>
					<trkpt lat="43.611580" lon="3.395700">
						<ele>150</ele>
						<time>2026-04-30T17:45:28Z</time>
					</trkpt>
					<trkpt lat="43.611600" lon="3.395630">
						<ele>150</ele>
						<time>2026-04-30T17:45:36Z</time>
					</trkpt>
					<trkpt lat="43.611690" lon="3.395400">
						<ele>149</ele>
						<time>2026-04-30T17:46:01Z</time>
					</trkpt>
					<trkpt lat="43.611710" lon="3.395340">
						<ele>149</ele>
						<time>2026-04-30T17:46:07Z</time>
					</trkpt>
					<trkpt lat="43.611810" lon="3.395190">
						<ele>150</ele>
						<time>2026-04-30T17:46:27Z</time>
					</trkpt>
					<trkpt lat="43.611870" lon="3.394950">
						<ele>150</ele>
						<time>2026-04-30T17:46:51Z</time>
					</trkpt>
					<trkpt lat="43.611880" lon="3.394730">
						<ele>151</ele>
						<time>2026-04-30T17:47:13Z</time>
					</trkpt>
					<trkpt lat="43.611860" lon="3.394650">
						<ele>151</ele>
						<time>2026-04-30T17:47:21Z</time>
					</trkpt>
					<trkpt lat="43.611790" lon="3.394400">
						<ele>150</ele>
						<time>2026-04-30T17:47:47Z</time>
					</trkpt>
					<trkpt lat="43.611760" lon="3.394100">
						<ele>150</ele>
						<time>2026-04-30T17:48:16Z</time>
					</trkpt>
					<trkpt lat="43.611670" lon="3.393880">
						<ele>149</ele>
						<time>2026-04-30T17:48:40Z</time>
					</trkpt>
					<trkpt lat="43.611630" lon="3.393640">
						<ele>151</ele>
						<time>2026-04-30T17:49:04Z</time>
					</trkpt>
					<trkpt lat="43.611610" lon="3.393380">
						<ele>154</ele>
						<time>2026-04-30T17:49:30Z</time>
					</trkpt>
					<trkpt lat="43.611580" lon="3.393100">
						<ele>155</ele>
						<time>2026-04-30T17:49:57Z</time>
					</trkpt>
					<trkpt lat="43.611510" lon="3.392780">
						<ele>157</ele>
						<time>2026-04-30T17:50:29Z</time>
					</trkpt>
					<trkpt lat="43.611490" lon="3.392530">
						<ele>158</ele>
						<time>2026-04-30T17:50:53Z</time>
					</trkpt>
					<trkpt lat="43.611440" lon="3.392290">
						<ele>159</ele>
						<time>2026-04-30T17:51:18Z</time>
					</trkpt>
					<trkpt lat="43.611490" lon="3.391920">
						<ele>158</ele>
						<time>2026-04-30T17:51:54Z</time>
					</trkpt>
					<trkpt lat="43.611530" lon="3.391670">
						<ele>158</ele>
						<time>2026-04-30T17:52:19Z</time>
					</trkpt>
					<trkpt lat="43.611550" lon="3.391590">
						<ele>157</ele>
						<time>2026-04-30T17:52:27Z</time>
					</trkpt>
					<trkpt lat="43.611600" lon="3.391370">
						<ele>155</ele>
						<time>2026-04-30T17:52:49Z</time>
					</trkpt>
					<trkpt lat="43.611660" lon="3.391100">
						<ele>152</ele>
						<time>2026-04-30T17:53:16Z</time>
					</trkpt>
					<trkpt lat="43.611720" lon="3.390890">
						<ele>152</ele>
						<time>2026-04-30T17:53:38Z</time>
					</trkpt>
					<trkpt lat="43.611830" lon="3.390720">
						<ele>154</ele>
						<time>2026-04-30T17:54:00Z</time>
					</trkpt>
					<trkpt lat="43.611850" lon="3.390690">
						<ele>155</ele>
						<time>2026-04-30T17:54:04Z</time>
					</trkpt>
					<trkpt lat="43.611970" lon="3.390600">
						<ele>157</ele>
						<time>2026-04-30T17:54:22Z</time>
					</trkpt>
					<trkpt lat="43.612030" lon="3.390490">
						<ele>158</ele>
						<time>2026-04-30T17:54:36Z</time>
					</trkpt>
					<trkpt lat="43.612100" lon="3.390400">
						<ele>159</ele>
						<time>2026-04-30T17:54:49Z</time>
					</trkpt>
					<trkpt lat="43.612250" lon="3.390240">
						<ele>160</ele>
						<time>2026-04-30T17:55:14Z</time>
					</trkpt>
					<trkpt lat="43.612270" lon="3.390220">
						<ele>160</ele>
						<time>2026-04-30T17:55:17Z</time>
					</trkpt>
					<trkpt lat="43.612320" lon="3.390180">
						<ele>160</ele>
						<time>2026-04-30T17:55:25Z</time>
					</trkpt>
					<trkpt lat="43.612390" lon="3.390130">
						<ele>161</ele>
						<time>2026-04-30T17:55:35Z</time>
					</trkpt>
					<trkpt lat="43.612410" lon="3.390090">
						<ele>160</ele>
						<time>2026-04-30T17:55:40Z</time>
					</trkpt>
					<trkpt lat="43.612420" lon="3.390070">
						<ele>160</ele>
						<time>2026-04-30T17:55:42Z</time>
					</trkpt>
					<trkpt lat="43.612430" lon="3.390020">
						<ele>160</ele>
						<time>2026-04-30T17:55:47Z</time>
					</trkpt>
					<trkpt lat="43.612620" lon="3.389660">
						<ele>162</ele>
						<time>2026-04-30T17:56:30Z</time>
					</trkpt>
					<trkpt lat="43.612880" lon="3.389450">
						<ele>163</ele>
						<time>2026-04-30T17:57:11Z</time>
					</trkpt>
					<trkpt lat="43.613040" lon="3.389240">
						<ele>162</ele>
						<time>2026-04-30T17:57:40Z</time>
					</trkpt>
					<trkpt lat="43.613270" lon="3.389130">
						<ele>161</ele>
						<time>2026-04-30T17:58:13Z</time>
					</trkpt>
					<trkpt lat="43.613600" lon="3.388960">
						<ele>162</ele>
						<time>2026-04-30T17:59:00Z</time>
					</trkpt>
					<trkpt lat="43.613890" lon="3.388920">
						<ele>162</ele>
						<time>2026-04-30T17:59:38Z</time>
					</trkpt>
					<trkpt lat="43.614170" lon="3.389040">
						<ele>162</ele>
						<time>2026-04-30T18:00:18Z</time>
					</trkpt>
					<trkpt lat="43.614270" lon="3.389380">
						<ele>165</ele>
						<time>2026-04-30T18:00:53Z</time>
					</trkpt>
					<trkpt lat="43.614320" lon="3.389670">
						<ele>169</ele>
						<time>2026-04-30T18:01:22Z</time>
					</trkpt>
					<trkpt lat="43.614410" lon="3.390000">
						<ele>174</ele>
						<time>2026-04-30T18:01:56Z</time>
					</trkpt>
					<trkpt lat="43.614310" lon="3.390460">
						<ele>179</ele>
						<time>2026-04-30T18:02:42Z</time>
					</trkpt>
					<trkpt lat="43.613980" lon="3.390680">
						<ele>179</ele>
						<time>2026-04-30T18:03:31Z</time>
					</trkpt>
					<trkpt lat="43.613700" lon="3.390850">
						<ele>180</ele>
						<time>2026-04-30T18:04:12Z</time>
					</trkpt>
					<trkpt lat="43.613560" lon="3.391100">
						<ele>182</ele>
						<time>2026-04-30T18:04:43Z</time>
					</trkpt>
					<trkpt lat="43.613280" lon="3.391250">
						<ele>182</ele>
						<time>2026-04-30T18:05:23Z</time>
					</trkpt>
					<trkpt lat="43.613110" lon="3.391640">
						<ele>184</ele>
						<time>2026-04-30T18:06:07Z</time>
					</trkpt>
					<trkpt lat="43.613040" lon="3.392060">
						<ele>186</ele>
						<time>2026-04-30T18:06:48Z</time>
					</trkpt>
					<trkpt lat="43.612860" lon="3.392420">
						<ele>186</ele>
						<time>2026-04-30T18:07:31Z</time>
					</trkpt>
					<trkpt lat="43.612670" lon="3.392820">
						<ele>182</ele>
						<time>2026-04-30T18:08:17Z</time>
					</trkpt>
					<trkpt lat="43.612550" lon="3.393350">
						<ele>176</ele>
						<time>2026-04-30T18:09:10Z</time>
					</trkpt>
					<trkpt lat="43.612600" lon="3.393440">
						<ele>177</ele>
						<time>2026-04-30T18:09:21Z</time>
					</trkpt>
					<trkpt lat="43.612650" lon="3.393640">
						<ele>178</ele>
						<time>2026-04-30T18:09:42Z</time>
					</trkpt>
					<trkpt lat="43.612710" lon="3.393890">
						<ele>178</ele>
						<time>2026-04-30T18:10:07Z</time>
					</trkpt>
					<trkpt lat="43.612730" lon="3.394100">
						<ele>178</ele>
						<time>2026-04-30T18:10:28Z</time>
					</trkpt>
					<trkpt lat="43.612770" lon="3.394300">
						<ele>178</ele>
						<time>2026-04-30T18:10:48Z</time>
					</trkpt>
					<trkpt lat="43.612780" lon="3.394400">
						<ele>177</ele>
						<time>2026-04-30T18:10:58Z</time>
					</trkpt>
					<trkpt lat="43.612810" lon="3.394650">
						<ele>176</ele>
						<time>2026-04-30T18:11:22Z</time>
					</trkpt>
					<trkpt lat="43.612830" lon="3.394920">
						<ele>175</ele>
						<time>2026-04-30T18:11:48Z</time>
					</trkpt>
					<trkpt lat="43.612810" lon="3.395200">
						<ele>174</ele>
						<time>2026-04-30T18:12:15Z</time>
					</trkpt>
					<trkpt lat="43.612820" lon="3.395450">
						<ele>173</ele>
						<time>2026-04-30T18:12:40Z</time>
					</trkpt>
					<trkpt lat="43.612750" lon="3.395620">
						<ele>172</ele>
						<time>2026-04-30T18:12:59Z</time>
					</trkpt>
					<trkpt lat="43.612600" lon="3.395640">
						<ele>170</ele>
						<time>2026-04-30T18:13:19Z</time>
					</trkpt>
					<trkpt lat="43.612550" lon="3.395710">
						<ele>170</ele>
						<time>2026-04-30T18:13:28Z</time>
					</trkpt>
					<trkpt lat="43.612480" lon="3.395890">
						<ele>169</ele>
						<time>2026-04-30T18:13:48Z</time>
					</trkpt>
					<trkpt lat="43.612400" lon="3.396060">
						<ele>167</ele>
						<time>2026-04-30T18:14:07Z</time>
					</trkpt>
					<trkpt lat="43.612540" lon="3.396110">
						<ele>168</ele>
						<time>2026-04-30T18:14:27Z</time>
					</trkpt>
					<trkpt lat="43.612780" lon="3.396150">
						<ele>168</ele>
						<time>2026-04-30T18:14:59Z</time>
					</trkpt>
					<trkpt lat="43.612970" lon="3.396150">
						<ele>169</ele>
						<time>2026-04-30T18:15:24Z</time>
					</trkpt>
					<trkpt lat="43.613140" lon="3.395960">
						<ele>172</ele>
						<time>2026-04-30T18:15:54Z</time>
					</trkpt>
					<trkpt lat="43.613250" lon="3.395660">
						<ele>177</ele>
						<time>2026-04-30T18:16:26Z</time>
					</trkpt>
					<trkpt lat="43.613300" lon="3.395390">
						<ele>181</ele>
						<time>2026-04-30T18:16:53Z</time>
					</trkpt>
					<trkpt lat="43.613350" lon="3.394970">
						<ele>188</ele>
						<time>2026-04-30T18:17:34Z</time>
					</trkpt>
					<trkpt lat="43.613420" lon="3.394350">
						<ele>193</ele>
						<time>2026-04-30T18:18:35Z</time>
					</trkpt>
					<trkpt lat="43.613450" lon="3.393800">
						<ele>197</ele>
						<time>2026-04-30T18:19:28Z</time>
					</trkpt>
					<trkpt lat="43.613380" lon="3.393510">
						<ele>197</ele>
						<time>2026-04-30T18:19:58Z</time>
					</trkpt>
					<trkpt lat="43.613500" lon="3.393050">
						<ele>198</ele>
						<time>2026-04-30T18:20:45Z</time>
					</trkpt>
					<trkpt lat="43.613640" lon="3.392810">
						<ele>199</ele>
						<time>2026-04-30T18:21:15Z</time>
					</trkpt>
					<trkpt lat="43.613910" lon="3.392720">
						<ele>204</ele>
						<time>2026-04-30T18:21:52Z</time>
					</trkpt>
					<trkpt lat="43.614340" lon="3.392520">
						<ele>209</ele>
						<time>2026-04-30T18:22:52Z</time>
					</trkpt>
					<trkpt lat="43.614660" lon="3.392450">
						<ele>209</ele>
						<time>2026-04-30T18:23:35Z</time>
					</trkpt>
					<trkpt lat="43.614980" lon="3.392470">
						<ele>211</ele>
						<time>2026-04-30T18:24:18Z</time>
					</trkpt>
					<trkpt lat="43.615560" lon="3.391990">
						<ele>210</ele>
						<time>2026-04-30T18:25:48Z</time>
					</trkpt>
					<trkpt lat="43.615920" lon="3.391750">
						<ele>212</ele>
						<time>2026-04-30T18:26:42Z</time>
					</trkpt>
					<trkpt lat="43.616430" lon="3.391230">
						<ele>213</ele>
						<time>2026-04-30T18:28:06Z</time>
					</trkpt>
					<trkpt lat="43.616720" lon="3.391050">
						<ele>214</ele>
						<time>2026-04-30T18:28:49Z</time>
					</trkpt>
					<trkpt lat="43.617080" lon="3.390850">
						<ele>214</ele>
						<time>2026-04-30T18:29:41Z</time>
					</trkpt>
					<trkpt lat="43.617430" lon="3.390530">
						<ele>212</ele>
						<time>2026-04-30T18:30:37Z</time>
					</trkpt>
					<trkpt lat="43.617670" lon="3.390220">
						<ele>211</ele>
						<time>2026-04-30T18:31:20Z</time>
					</trkpt>
					<trkpt lat="43.617890" lon="3.390100">
						<ele>212</ele>
						<time>2026-04-30T18:31:52Z</time>
					</trkpt>
					<trkpt lat="43.618290" lon="3.389780">
						<ele>213</ele>
						<time>2026-04-30T18:32:54Z</time>
					</trkpt>
					<trkpt lat="43.618570" lon="3.389750">
						<ele>211</ele>
						<time>2026-04-30T18:33:31Z</time>
					</trkpt>
					<trkpt lat="43.618810" lon="3.389340">
						<ele>209</ele>
						<time>2026-04-30T18:34:22Z</time>
					</trkpt>
					<trkpt lat="43.619190" lon="3.389110">
						<ele>209</ele>
						<time>2026-04-30T18:35:17Z</time>
					</trkpt>
					<trkpt lat="43.619480" lon="3.388940">
						<ele>209</ele>
						<time>2026-04-30T18:35:59Z</time>
					</trkpt>
					<trkpt lat="43.619740" lon="3.388590">
						<ele>210</ele>
						<time>2026-04-30T18:36:48Z</time>
					</trkpt>
					<trkpt lat="43.620110" lon="3.388470">
						<ele>212</ele>
						<time>2026-04-30T18:37:39Z</time>
					</trkpt>
					<trkpt lat="43.620300" lon="3.388490">
						<ele>213</ele>
						<time>2026-04-30T18:38:04Z</time>
					</trkpt>
					<trkpt lat="43.620430" lon="3.388690">
						<ele>213</ele>
						<time>2026-04-30T18:38:30Z</time>
					</trkpt>
					<trkpt lat="43.620730" lon="3.388980">
						<ele>212</ele>
						<time>2026-04-30T18:39:19Z</time>
					</trkpt>
					<trkpt lat="43.620790" lon="3.389200">
						<ele>211</ele>
						<time>2026-04-30T18:39:42Z</time>
					</trkpt>
					<trkpt lat="43.620830" lon="3.389400">
						<ele>209</ele>
						<time>2026-04-30T18:40:02Z</time>
					</trkpt>
					<trkpt lat="43.621140" lon="3.390020">
						<ele>212</ele>
						<time>2026-04-30T18:41:14Z</time>
					</trkpt>
					<trkpt lat="43.621220" lon="3.390380">
						<ele>210</ele>
						<time>2026-04-30T18:41:51Z</time>
					</trkpt>
					<trkpt lat="43.621250" lon="3.390740">
						<ele>207</ele>
						<time>2026-04-30T18:42:26Z</time>
					</trkpt>
					<trkpt lat="43.621300" lon="3.391170">
						<ele>205</ele>
						<time>2026-04-30T18:43:08Z</time>
					</trkpt>
					<trkpt lat="43.621330" lon="3.391750">
						<ele>200</ele>
						<time>2026-04-30T18:44:04Z</time>
					</trkpt>
					<trkpt lat="43.621370" lon="3.392080">
						<ele>199</ele>
						<time>2026-04-30T18:44:36Z</time>
					</trkpt>
					<trkpt lat="43.621380" lon="3.392440">
						<ele>196</ele>
						<time>2026-04-30T18:45:11Z</time>
					</trkpt>
					<trkpt lat="43.621410" lon="3.392710">
						<ele>195</ele>
						<time>2026-04-30T18:45:38Z</time>
					</trkpt>
					<trkpt lat="43.621450" lon="3.392870">
						<ele>195</ele>
						<time>2026-04-30T18:45:54Z</time>
					</trkpt>
					<trkpt lat="43.621500" lon="3.393130">
						<ele>194</ele>
						<time>2026-04-30T18:46:20Z</time>
					</trkpt>
					<trkpt lat="43.621460" lon="3.393450">
						<ele>191</ele>
						<time>2026-04-30T18:46:51Z</time>
					</trkpt>
					<trkpt lat="43.621460" lon="3.393960">
						<ele>187</ele>
						<time>2026-04-30T18:47:41Z</time>
					</trkpt>
					<trkpt lat="43.621450" lon="3.394150">
						<ele>186</ele>
						<time>2026-04-30T18:47:59Z</time>
					</trkpt>
					<trkpt lat="43.621510" lon="3.394580">
						<ele>184</ele>
						<time>2026-04-30T18:48:41Z</time>
					</trkpt>
					<trkpt lat="43.621640" lon="3.395000">
						<ele>183</ele>
						<time>2026-04-30T18:49:25Z</time>
					</trkpt>
					<trkpt lat="43.621780" lon="3.395330">
						<ele>185</ele>
						<time>2026-04-30T18:50:02Z</time>
					</trkpt>
					<trkpt lat="43.621930" lon="3.395800">
						<ele>186</ele>
						<time>2026-04-30T18:50:52Z</time>
					</trkpt>
					<trkpt lat="43.621980" lon="3.396140">
						<ele>187</ele>
						<time>2026-04-30T18:51:25Z</time>
					</trkpt>
					<trkpt lat="43.621730" lon="3.395700">
						<ele>183</ele>
						<time>2026-04-30T18:52:19Z</time>
					</trkpt>
					<trkpt lat="43.621530" lon="3.395890">
						<ele>178</ele>
						<time>2026-04-30T18:52:52Z</time>
					</trkpt>
					<trkpt lat="43.621560" lon="3.396280">
						<ele>178</ele>
						<time>2026-04-30T18:53:30Z</time>
					</trkpt>
					<trkpt lat="43.621450" lon="3.396660">
						<ele>175</ele>
						<time>2026-04-30T18:54:09Z</time>
					</trkpt>
					<trkpt lat="43.621390" lon="3.397050">
						<ele>172</ele>
						<time>2026-04-30T18:54:48Z</time>
					</trkpt>
					<trkpt lat="43.621370" lon="3.397320">
						<ele>171</ele>
						<time>2026-04-30T18:55:14Z</time>
					</trkpt>
					<trkpt lat="43.621370" lon="3.397560">
						<ele>170</ele>
						<time>2026-04-30T18:55:37Z</time>
					</trkpt>
					<trkpt lat="43.621310" lon="3.397770">
						<ele>168</ele>
						<time>2026-04-30T18:55:59Z</time>
					</trkpt>
					<trkpt lat="43.621170" lon="3.397610">
						<ele>167</ele>
						<time>2026-04-30T18:56:23Z</time>
					</trkpt>
					<trkpt lat="43.621030" lon="3.397380">
						<ele>165</ele>
						<time>2026-04-30T18:56:52Z</time>
					</trkpt>
					<trkpt lat="43.620820" lon="3.397340">
						<ele>162</ele>
						<time>2026-04-30T18:57:21Z</time>
					</trkpt>
					<trkpt lat="43.620630" lon="3.397420">
						<ele>160</ele>
						<time>2026-04-30T18:57:47Z</time>
					</trkpt>
					<trkpt lat="43.620240" lon="3.397410">
						<ele>156</ele>
						<time>2026-04-30T18:58:39Z</time>
					</trkpt>
					<trkpt lat="43.620240" lon="3.397420">
						<ele>156</ele>
						<time>2026-04-30T18:58:40Z</time>
					</trkpt>
					<trkpt lat="43.620010" lon="3.397480">
						<ele>154</ele>
						<time>2026-04-30T18:59:11Z</time>
					</trkpt>
					<trkpt lat="43.619720" lon="3.397510">
						<ele>153</ele>
						<time>2026-04-30T18:59:50Z</time>
					</trkpt>
					<trkpt lat="43.619460" lon="3.397400">
						<ele>153</ele>
						<time>2026-04-30T19:00:26Z</time>
					</trkpt>
					<trkpt lat="43.619380" lon="3.397390">
						<ele>153</ele>
						<time>2026-04-30T19:00:37Z</time>
					</trkpt>
					<trkpt lat="43.619330" lon="3.397630">
						<ele>152</ele>
						<time>2026-04-30T19:01:01Z</time>
					</trkpt>
					<trkpt lat="43.619220" lon="3.397860">
						<ele>150</ele>
						<time>2026-04-30T19:01:28Z</time>
					</trkpt>
					<trkpt lat="43.619170" lon="3.397920">
						<ele>149</ele>
						<time>2026-04-30T19:01:37Z</time>
					</trkpt>
					<trkpt lat="43.618930" lon="3.397880">
						<ele>150</ele>
						<time>2026-04-30T19:02:09Z</time>
					</trkpt>
					<trkpt lat="43.618660" lon="3.397760">
						<ele>150</ele>
						<time>2026-04-30T19:02:47Z</time>
					</trkpt>
					<trkpt lat="43.618430" lon="3.397540">
						<ele>151</ele>
						<time>2026-04-30T19:03:24Z</time>
					</trkpt>
					<trkpt lat="43.618160" lon="3.397400">
						<ele>150</ele>
						<time>2026-04-30T19:04:03Z</time>
					</trkpt>
					<trkpt lat="43.617950" lon="3.397300">
						<ele>148</ele>
						<time>2026-04-30T19:04:32Z</time>
					</trkpt>
					<trkpt lat="43.617950" lon="3.397280">
						<ele>148</ele>
						<time>2026-04-30T19:04:34Z</time>
					</trkpt>
					<trkpt lat="43.617320" lon="3.396920">
						<ele>146</ele>
						<time>2026-04-30T19:06:05Z</time>
					</trkpt>
					<trkpt lat="43.617050" lon="3.396770">
						<ele>147</ele>
						<time>2026-04-30T19:06:44Z</time>
					</trkpt>
					<trkpt lat="43.616930" lon="3.396640">
						<ele>148</ele>
						<time>2026-04-30T19:07:04Z</time>
					</trkpt>
					<trkpt lat="43.616920" lon="3.396540">
						<ele>149</ele>
						<time>2026-04-30T19:07:14Z</time>
					</trkpt>
					<trkpt lat="43.616890" lon="3.396490">
						<ele>149</ele>
						<time>2026-04-30T19:07:20Z</time>
					</trkpt>
					<trkpt lat="43.616830" lon="3.396530">
						<ele>149</ele>
						<time>2026-04-30T19:07:29Z</time>
					</trkpt>
					<trkpt lat="43.616660" lon="3.396740">
						<ele>149</ele>
						<time>2026-04-30T19:08:00Z</time>
					</trkpt>
					<trkpt lat="43.616560" lon="3.396930">
						<ele>148</ele>
						<time>2026-04-30T19:08:22Z</time>
					</trkpt>
					<trkpt lat="43.616380" lon="3.397040">
						<ele>147</ele>
						<time>2026-04-30T19:08:49Z</time>
					</trkpt>
					<trkpt lat="43.616290" lon="3.397310">
						<ele>146</ele>
						<time>2026-04-30T19:09:17Z</time>
					</trkpt>
					<trkpt lat="43.616210" lon="3.397600">
						<ele>144</ele>
						<time>2026-04-30T19:09:47Z</time>
					</trkpt>
					<trkpt lat="43.616150" lon="3.398020">
						<ele>143</ele>
						<time>2026-04-30T19:10:29Z</time>
					</trkpt>
					<trkpt lat="43.616000" lon="3.398300">
						<ele>142</ele>
						<time>2026-04-30T19:11:02Z</time>
					</trkpt>
					<trkpt lat="43.615600" lon="3.398910">
						<ele>139</ele>
						<time>2026-04-30T19:12:22Z</time>
					</trkpt>
					<trkpt lat="43.615500" lon="3.399080">
						<ele>138</ele>
						<time>2026-04-30T19:12:43Z</time>
					</trkpt>
					<trkpt lat="43.615410" lon="3.399070">
						<ele>138</ele>
						<time>2026-04-30T19:12:55Z</time>
					</trkpt>
					<trkpt lat="43.615040" lon="3.398350">
						<ele>143</ele>
						<time>2026-04-30T19:14:21Z</time>
					</trkpt>
					<trkpt lat="43.614600" lon="3.397920">
						<ele>145</ele>
						<time>2026-04-30T19:15:32Z</time>
					</trkpt>
					<trkpt lat="43.614470" lon="3.397980">
						<ele>145</ele>
						<time>2026-04-30T19:15:51Z</time>
					</trkpt>
					<trkpt lat="43.614210" lon="3.398140">
						<ele>144</ele>
						<time>2026-04-30T19:16:29Z</time>
					</trkpt>
					<trkpt lat="43.613960" lon="3.398290">
						<ele>143</ele>
						<time>2026-04-30T19:17:05Z</time>
					</trkpt>
					<trkpt lat="43.613600" lon="3.398490">
						<ele>142</ele>
						<time>2026-04-30T19:17:57Z</time>
					</trkpt>
					<trkpt lat="43.613320" lon="3.398750">
						<ele>142</ele>
						<time>2026-04-30T19:18:42Z</time>
					</trkpt>
					<trkpt lat="43.612870" lon="3.398930">
						<ele>142</ele>
						<time>2026-04-30T19:19:44Z</time>
					</trkpt>
					<trkpt lat="43.612620" lon="3.399110">
						<ele>141</ele>
						<time>2026-04-30T19:20:22Z</time>
					</trkpt>
					<trkpt lat="43.612300" lon="3.399450">
						<ele>140</ele>
						<time>2026-04-30T19:21:16Z</time>
					</trkpt>
					<trkpt lat="43.612430" lon="3.399890">
						<ele>138</ele>
						<time>2026-04-30T19:22:02Z</time>
					</trkpt>
					<trkpt lat="43.611480" lon="3.400520">
						<ele>138</ele>
						<time>2026-04-30T19:24:22Z</time>
					</trkpt>
					<trkpt lat="43.610720" lon="3.401000">
						<ele>140</ele>
						<time>2026-04-30T19:26:14Z</time>
					</trkpt>
					<trkpt lat="43.610490" lon="3.401570">
						<ele>138</ele>
						<time>2026-04-30T19:27:17Z</time>
					</trkpt>
					<trkpt lat="43.610560" lon="3.401940">
						<ele>137</ele>
						<time>2026-04-30T19:27:54Z</time>
					</trkpt>
					<trkpt lat="43.610740" lon="3.402370">
						<ele>136</ele>
						<time>2026-04-30T19:28:42Z</time>
					</trkpt>
					</trkseg>
				</trk>
			</gpx>